"First Name";"Email Address";Url;Telephone;Address
"FLORISTERÍA LATIR";ventas@floristerialatir.com;www.floristerialatir.com;"(57) (2) 5561586";"Cr66 # 12-45 Limonar Colombia, Cali"
"FLORISTERÍA BELLAS FLORES";info@floristeriabellasflores.com;www.floristeriabellasflores.com;"(57) (2) 3713854";"Cl 9 55-13 Esq Camino Real Colombia, Cali"
"ELOISE'S GARDEN";andrearojas@eloisegarden.co;www.floristeriasadomiciliobogota.com;"(57) (1) 2571682";"Cl 98 18-19 Colombia, Bogotá"
"LIMOSINAS ACUARIUS";limosinasacuarius@hotmail.com;www.limosinasacuarius.com;"(57) (1) 6163307";"Cr10 96-29 Of. 320 Colombia, Bogotá"
"COMPRA FLORES";floristeriacompraflores@gmail.com;www.floristeriacompraflores.com;"(57) (2) 3879356";"Cl 9 38-06 Colombia, Cali"
"FLORES Y FIESTAS Y CIA LTDA";info@floresyfiestas.co;www.floresyfiestas.co;"(57) (2) 5140300";"Cl 8 23 A-37 Colombia, Cali"
"FLORISTERÍA ALAGO'S";floristeriaalagos@hotmail.com;www.floristeriaalagos.mex.tl;"(57) (5) 6625785";"España Av Pedro de Heredia 44-20 Colombia, Cartagena"
"RACHA S.A.S.";info@floristeriaracha.com;www.floristeriaracha.com;"(57) (4) 4487182";"Cr45 7-138 Colombia, Medellín"
"ARANGO FLOWERS S.A.S.";arangoflowers@une.net.co;www.arangoflowers.com;"(57) (4) 4480248";"Cl 11 43 C-39 Colombia, Medellín"
FERNÁNDEZ;info@floresdemarca.com;www.floresdemarca.com;"(57) (4) 4443335";"Cl 50 73-54 Colombia, Medellín"
"ARREGLOS FLORALES RUBIELA ANDRADE";contacto@floresya.co;www.floresya.co;"(57) (1) 3231832";"Cl 33 A 15-27 Colombia, Bogotá"
"COLORS FLOWERS.CO";info@colorsflowers.co;www.colorsflowers.co;"(57) (1) 6166529";"Tr17 A 99-82 Colombia, Bogotá"
PICARDÍA;picardia@une.net.co;www.picardiaeventos.com;"(57) (4) 4481123";"Cl 10 A 41-18 Colombia, Medellín"
"JARDINES ROMERAL LTDA.";floresromeral@une.net.co;;"(57) (4) 3215344";"Cr25 12   S-59 Int 116 Colombia, Medellín"
"FLORISTERÍA HOJAS BLANCAS";info@hojasblancas.com;www.hojasblancas.com;"(57) (4) 4114117";"Cl 44 71-31 Colombia, Medellín"
"FLORISTERIA ESTADIO";floristeriaestadio@une.net.co;www.floristeriaestadio.com;"Telefax: (57) (4) 2600800";"Cl 50 73-52 Colombia, Medellín"
ASISTIR;;www.asistenciatotal.com.co;"(57) (1) 2452718";"Cl 136 17 A-85 Colombia, Bogotá"
"A. ANCHETAS FRUTAS DE OCCIDENTE";contactenos@frutasdeoccidente.com;www.frutasdeoccidente.com;"(57) (2) 8895752";"Cr5 8-06 Colombia, Cali"
"FLORISTERIA LA ROSA ROJA";adornosfloraleslarosa1@hotmail.com;floristerialarosaroja.com;"(57) (4) 4442112";"Cl 44 79-141 Colombia, Medellín"
"AGROGREEN S.A.";agrogreendiana@une.net.co;www.ciagrogreen.com;"(57) (4) 4487412";"Cl 6 43 C-08 Of 301 Colombia, Medellín"
"FLORISTERÍA SURAMÉRICA ENVIGADO";floristeriasuramerica@hotmail.com;www.floristeriasuramerica.com;"(57) (4) 2765957";"Dg40 34 Sur-19 Colombia, Medellín"
"SAN ANGEL FLORISTERÍA";info@sanangel.com.co;www.sanangel.com.co;"(57) (4) 3221212";"Tr29   S 32 B-114 Envigado Colombia, Medellín"
GRAJALES;floristeriaflorency@une.net.c;www.floristeriaflorency.co;"(57) (4) 3726088";"Cl 43 50-19 Itagüí Colombia, Medellín"
"FLORISTERÍA NEW YORK";info@floristerianewyork.com;www.floristerianewyork.com;"(57) (1) 2878709";"Dg42 Bis 14 A-33 Colombia, Bogotá"
"ARMONÍA FLORA VALLADARES";claudiamilenacorteslozano@gmail.com;www.floravalladares.com;"(57) (2) 3784344";"Atiende Domicilios Colombia, Cali"
DISTRICOPOR;districopor@yahoo.es;www.districopor.com;"(57) (1) 4205520";"Cr59 4 B-69 Colombia, Bogotá"
"FLORA VALLADARES";claudiamilenacorteslozano@gmail.com;www.floravalladares.com;"(57) (2) 3784344";"Atiende Domicilios Colombia, Cali"
"FLORERÍA REGALO FLORES";floreriaregaloflores@gmail.com;www.regaloflores.co;"(57) (8) 6626670";"Cl 40 30 A-02 Centro Colombia, Villavicencio"
"FLORISTERÍA MOMENTO FLORAL";floreriaregaloflores@gmail.com;momentofloral.blogspot.com;"(57) (8) 6626670";"Cl 40 30 A-02 Centro Colombia, Villavicencio"
FLORALCOSTA;info@floralcosta.com;www.floralcosta.com;"(57) (5) 3682684";"Cr43 79-136 Colombia, Barranquilla"
"FLORISTERIA VENUS";floristeriavenus@hotmail.com;;"Telefax: (57) (6) 8812163";"Cr23 47-22 Colombia, Manizales"
"BANQUETES NUEVA ERA Y NUEVA LUNA";banquetesnuevaluna@gmail.com;www.banquetesnuevaluna.com;"(57) (4) 4136919";"Cr79 A 39-31 Colombia, Medellín"
"AZAHARES FLORISTERÍA";audreype1@gmail.com;www.azaharesfloristeria.com;"(57) (7) 6340815";"Cl 42 27 A-04 Sotomayor Colombia, Bucaramanga"
"FLORISTERÍA MULTIFLORES";floristeriamultiflores2013@ho;www.floristeriamultiflores.com.co;"(57) (6) 3262897";"Cr6 30-20 Colombia, Pereira"
"SAUZ JARDINERÍA";info@sauzjardineria.com;www.sauzjardineria.com;"(57) (1) 5260860";"Cl 155 B 7 H-34 Colombia, Bogotá"
"FLORISTERIA LA FLORIDA";carmenelenacabrales@floristerialaflorida.com;www.floristerialaflorida.com;"(57) (1) 6054274";"Cl 54 9-30 Colombia, Bogotá"
"FLORES ANA MARÍA";ventas@floresanamaria.com.co;www.floresanamaria.com.co;"(57) (2) 5566962";"Cl 10 32-21 Brr. Colseguros Colombia, Cali"
"ARTE Y FLORES FLORISTERÍA";arteyflores13@hotmail.com;www.arteyfloresfloristeria.com;"(57) (8) 2631790";"Cl 19 6-122 Interlaken Colombia, Ibagué"
DIMAR;dimarfloresydetalles@hotmail.com;www.dimarfloresydetalles.com;"(57) (8) 2647367";"Cl 32 3-05 Colombia, Ibagué"
"FLORISTERÍA CANAAN";luz_marina_garcia@yahoo.com;www.floristeriacanaan.com;"(57) (7) 6434863";"Cr27 A 44-33 Colombia, Bucaramanga"
"First Name";"Email Address";Url;Telephone;Address
"NOVIAS CON CLASE";lualinares34@hotmail.com;www.noviasconclase.com;"(57) (2) 8902085";"Cl 23 Dn 5 An-75 Colombia, Cali"
"SPEAKING ROSES";;www.speakingroses-colombia.com;"(57) (7) 3015511198";"AUMENTE EN SUS CLIENTES EL IMPACTO EMOCIONAL Colombia, Bucaramanga"
"ARREGLOS FLORALES ARMONÍA DALIA";daliahoyosguzman@hotmail.com;;"(57) (4) 4564178";"Cl 52 A 62-48 Bello Colombia, Medellín"
"FLORES KENNEDY S.A.S.";ventas@floristeriajardinkennedy.com;www.floristeriajardinkennedy.com;"(57) (4) 2111212";"Cr51 67-88 Colombia, Medellín"
"FLORISTERÍA ACUARIUS";floristeriacuarius@gmail.com;;"(57) (4) 2123924";"Cr45 79-49 Colombia, Medellín"
"ARREGLOS FUNEBRES DISEÑART";ad.bodasyeventos@gmail.com;;"(57) (1) 8129116";"Cr117 76-18 Colombia, Bogotá"
"COMERCIALIZADORA CEMECE S.A.S.";sembramos@laofrendasa.com;;"(57) (6) 3350386";"Cl 21 6-42 Colombia, Pereira"
"FLORISTERÍA JARDÍN MUNDIAL";floresmundial@une.net.co;www.floristeriajardinmundial.com;"(57) (4) 4441437";"Cl 68 51-67 Colombia, Medellín"
"LILIANA PALACIO";liliana.palacio@hotmail.com;;"(57) (2) 5552512";"Cl 36 Cr141 -Esq Colombia, Cali"
"CYMBIDIUM FLORISTERÍA";natyalvarez7@hotmail.com;;"(57) (4) 2880043";"Cr43 B 70   S-07 Sabaneta Colombia, Medellín"
"FLORISTERIA ALEJANDRA";floristeriaybanquetes@hotmail;www.floristeriaalejandra.amawebs.com;"(57) (5) 3702420";"Cl 45 29-103 Colombia, Barranquilla"
"FLORISTERÍA LA PERLA";laperlafloristeria@hotmail.com;floristerialaperla.com;"(57) (6) 8846362";"Cr22 27-62 Centro Colombia, Manizales"
"FLORISTERÍA LA FLORERÍA";mariaeugenia.lafloreria@yahoo.es;www.lafloreria.com.co;"(57) (4) 2666983";"Cl 10 A 40-22 Colombia, Medellín"
"FUNERARIA OCHOA";funochoa.remanso@gmail.com;www.funerariaochoa.com;"(57) (4) 3312228";"Cr40 38   S-33 Envigado Colombia, Medellín"
"FLORISTERÍA ROSAS Y DETALLES";rosasydetallesfloristeria@hotmail.com;;"(57) (7) 5742146";"Av0 3-16 L-2 Lleras Colombia, Cúcuta"
"CASA DE MODAS MAZÉ";shirmar06@hotmail.com;;"(57) (5) 4354587";"Cl 22 Cr. 5 L 207/208 P-02 Ed. Galaxia Colombia, Santa Marta"
"BOUTIQUE FIORE";boutiquefiore@hotmail.com;;"(57) (7) 6531907";"Cr26 33-38 Girón Colombia, Bucaramanga"
"FLORISTERÍA EL CLAVEL ROJO S.A.S";clavelrojo@une.net.co;www.floristeriaelclavelrojo.com;"Nal: (57) (4) 3229961";"Cl 43 50-57 Itagüí Colombia, Medellín"
"BANQUETES WILBE";banqueteswilbe@hotmail.com;www.banqueteswilbe.com;"(57) (4) 3113008983";"Cl 55 52-31 Bello Colombia, Medellín"
"FLORISTERÍA NATURALIA";;www.floristerianaturalia.com;"(57) (4) 2500359";"Cl 44 A 79-189 Colombia, Medellín"
"FLORISTERÍA ROSITA";linaarboleda@live.com;www.floristeriarosita.co;"(57) (4) 2722690";"Cl 49 48-59 Bello Colombia, Medellín"
"JARDÍN Y FLORISTERIA EXPRESIONES";jardinyfloristeriaexpresiones@gmail.com;www.jardinyfloristeriaexpresiones.com;"(57) (5) 3641866";"Cl 45 8 A-39 Alboraya Colombia, Barranquilla"
"CENTRAL DE FLORES LTDA.";centraldefloresltda@hotmail.com;www.centraldeflores.com.co;"(57) (5) 3475147";"Cl 45 14-47 Colombia, Barranquilla"
"FLORISTERÍA NENUFAR";florartewb@hotmail.com;www.floristerianenufar.com.co;"(57) (2) 3128552838";"Cl 5 10-158 Colombia, Popayán"
"FLORISTERIA LA ESMERALDA";nanis-tobi@hotmail.com;www.floristerialaesmeralda.com.co;"(57) (4) 4130335";"Cr80 45 F-17 Colombia, Medellín"
"EVENTOS Y DECORACION DECOREMOS";eventosdecoremos@yahoo.com;www.eventosdecoremos.com;"(57) (2) 3702307";"Cl 15 35-66 Colombia, Cali"
"FLORISTERIA DISEÑO FLORAL";;www.disenofloral.com.co;"(57) (7) 3167738219";"Cl 11 26-22 Brr. La Universidad Colombia, Bucaramanga"
"FLORES OLGUITA";flores_olguita@hotmail.com;www.floresolguita.com;"(57) (6) 8859730";"Cr23 45-26 L-1 Colombia, Manizales"
"FLORISTERÍA DECORAFLOR";fdecoraflor@gmail.com;www.floristeriadecoraflorpasto.com;"(57) (2) 7232202";"Cr26 18-10 Colombia, Pasto"
"JARDÍN FLORES Y DETALLES";vilmagilh@hotmail.com;www.floristeriafloresydetalles.co;"(57) (5) 3660227";"Cl 47 14-09 B Colombia, Barranquilla"
"JARDÍN Y FLORISTERÍA LUZ DORAL";vilmagilh@hotmail.com;www.floristerialuzdoral.com;"(57) (5) 3659316";"Cl 47 14-09 Br Cevillar Colombia, Barranquilla"
"DISTRIFLORES LA CUARTA";distrifloreslacuarta@hotmail.com;www.distrifloreslacuarta.com;"(57) (2) 8353523";"Cr9 21-32 Colombia, Popayán"
"DISTRIBUIDORA FLORISTERÍA PALMIFLOR";palmiflor2002@hotmail.com;www.floristeriapalmiflor.com;"(57) (2) 2747908";"Cr25 33-47 Colombia, Palmira"
"FLORISTERÍA TENTACIONES";tentaciones@hotmail.com;www.floristeriatexpresate.com;"(57) (8) 2619801";"Cr6 15-44 Colombia, Ibagué"
"FLORES Y DECORACIONES LOS ANGELES";decoraciones_los_angeles@hotmail.com;www.floresydecoracioneslosangeles.com;"(57) (2) 7317300";"Cr30 19 A-21 Las Cuadras Colombia, Pasto"
"CASA DE EVENTOS G&M";casa-eventos@hotmail.com;www.casadeeventosgym.com;"(57) (6) 8810446";"Cr23 51-139 Colombia, Manizales"
"FLORISTERÍA EL TEJAR";emiliadea@hotmail.com;www.eltejarfloristeria.com;"(57) (7) 6311054";"Cr34 A 93-38 Portón del Tejar Portería 3 Casa 45 Colombia, Bucaramanga"
"D'FLORES SU FLORISTERÍA";florieteriadflores@hotmail.co;www.floristeriadflores.com;"(57) (5) 3607732";"Cr41 68-47 Colombia, Barranquilla"
"FLORISTERÍA MOTIVOS";hectorgarcia_motivos@hotmail.com;www.floristeriamotivos.com;"(57) (7) 5714476";"Cl 11 1-36 Centro Colombia, Cúcuta"
"GARDENIAS BOUTIQUE FLORAL";"info z@gardeniasboutiquefloral.com";www.gardeniasboutiquefloral.com;"(57) (5) 3737645";"Cr53 79-301 L-4 Colombia, Barranquilla"
"First Name";"Email Address";Url;Telephone;Address
"FLORES D'CACHÉ";;www.floresdecache.com;"(57) (5) 3795655";"Cl 66 41-83 Colombia, Barranquilla"
"FLORISTERÍA MAHE";floristeriamahepereira@hotmail.com;www.mahefloristeria.com;"(57) (6) 3316054";"Av Circunvalar 4 B-50 Colombia, Pereira"
"SURTIFLORES DEL VALLE";surtifloresdelvalle@hotmail.com;www.surtifloresdelvalle.com;"(57) (2) 5142089";"Cl 9 39-24 L 101 Colombia, Cali"
"FLORISTERIA EL EDEN";floristeria_eleden@hotmail.com;;"(57) (5) 6600895";"CENTRO Av VENEZUELA PARQUE de LAS FLORES L-8 Colombia, Cartagena"
"FLORISTERÍA JACQUELINE";info@floristeriajacqueline.com;www.floristeriajacqueline.com;"(57) (4) 4486666";"Cl 44 71-61 Colombia, Medellín"
"FLORISTERIA GARDENIAS DE PIEDECUESTA";wilsonjavier0198@gmail.com;;"(57) (7) 6556196";"San Telmo I Manz B Casa 4 Colombia, Piedecuesta"
"FLORISTERIA DECOR FLOWER";;;"(57) (5) 3606294";"Cr38 74-162 Colombia, Barranquilla"
"ALEGRÍA BANQUETES Y RECEPCIONES";eventos_alegría@hotmail.com;;"(57) 3143000922";"Cl 16 5-47 C.C Sta Catalina Salón Social Colombia, Pereira"
"FLORISTERÍA CRISTIFLOR";fcristiflor@hotmail.com;;"(57) (4) 2161794";"Cl 50 38-61 Colombia, Medellín"
"FLORISTERÍA LA CASA DEL ANTURIO";leo_anturio@hotmail.com;www.lacasadelanturio.com;"(57) (2) 5147009";"Cl 9 24-24 Colombia, Cali"
"FLORES YAPEL";;www.floresyapelfloristeria.com.co;"(57) (1) 6916350";"Cl 47 13-39 Colombia, Bogotá"
"CATTLEYA FLORISTERIA";cattleyafloristeria@hotmail.com;www.cattleyafloristeria.com;"(57) (1) 4040779";"Cr99 18-65 Colombia, Bogotá"
"DISFRACES MERLINA";merilna2@hotmail.com;;"(57) (2) 4388093";"Cl 41 8 A-03 Colombia, Cali"
"FLORISTERÍA MARTHICA";flormarthica@hotmail.com;;"(57) (1) 2854350";"Cr13 A 35-74 Colombia, Bogotá"
"FLORISTERIA ESPLENDOR & ESTILO";;;"(57) (7) 5777801";"Av0 3-10 Lleras Restrepo Colombia, Cúcuta"
"FLORISTERIA PETALOS Y REGALOS";petalosyregalos@hotmail.com;;"(57) (1) 2580661";"Cl 136 18-45 Colombia, Bogotá"
"FLORISTERIA NACHO""S";carlosfloristeria@hotmail.com;floristerianachos.com;"(57) (4) 2548294";"Cl 66 39 A-43 Parque Villa Hermosa Colombia, Medellín"
"FLORISTERÍA ALEJANDRA";info@floresbogota.com;www.floresbogota.com;"(57) (1) 2855090";"Cr13 Bis 43-09 Colombia, Bogotá"
"FLORISTERIA IKEBANA";cesarmod75@hotmail.com;;"(57) 3007365642";"CALI Colombia, Cali"
"FLORISTERIA DISTRIFLOR";distriflor02@hotmail.com;www.distriflor.co;"(57) (4) 7812220";"Cl 24 3-18 Colombia, Montería"
"FLORES DANIEL'S";floresdaniels@hotmail.com;floresdaniels.com;"(57) (2) 5582410";"Cl 5 19-66 P-1 Colombia, Cali"
"FLORISTERÍA PINARES";floristeriapinarespereira@gmail.com;;"(57) (6) 3335515";"Cr15 13-60 L-4 Colombia, Pereira"
"FLORISTERÍA SARITA DECORACIONES & DETALLES";cesar.dussan@publicar.com;;"(57) (8) 8736248";"Cr3 15-22 L-1 Colombia, Neiva"
"FLORISTERIA CREATIVOS";creativosf@gmail.com;;"(57) (4) 4445742";"Cr80 A 35-19 Colombia, Medellín"
"FLORISTERÍA EL LAGO";jenny.floristeria@hotmail.com;;"(57) (7) 6222010";"Cl 50 20-47 Colombia, Barrancabermeja"
"FLORISTERÍA LOS FRUTALES";frutalesmary@hotmail.com;www.floristerialosfrutales.jimdo.com;"(57) (7) 6456587";"Bucaramanga Colombia, Bucaramanga"
"FLORISTERIA MONTREAL";;;"(57) (4) 2552337";"Cr65 1   S-119 Colombia, Medellín"
"GLOBOS FLORES Y FIESTTAS";gerencia@globosfloresyfiestas.com;www.globosfloresyfiestas.com;"(57) (2) 5249092";"Cl 9 27-47 Colombia, Cali"
"FLORISTERÍA DETALLES";candem98@hotmail.com;;"(57) 3118791949";"Cl 6 5-87 Espinal Colombia, Espinal"
"FLORISTERÍA PRADO COLONIAL";floristeriapradocolonial@hotmail.com;;"(57) (4) 5272936";"Cr51 67-106 Colombia, Medellín"
"FLORISTERÍA SANDRA";floristeriasandra1234@live.com;;"(57) (1) 5430566";"Cr13 68-0 L 37 Colombia, Bogotá"
"FLORISTERIA DE LOS ANGELES CALIFORNIA";floristeriadelosangeles@hotmail.com;www.floristerialosangelescalifornia.com;"(57) (1) 2179914";"Cr17 60-20 Colombia, Bogotá"
"EL PARAISO DE LAS FLORES";elparaisodelasflores@hotmail.com;paraisodelasflores.wix.com/paraiso;"(57) (2) 7239648";"Cl 20 25-53 Colombia, Pasto"
"FLORISTERÍA SONIA";floressonia_08@hotmail.com;;"(57) (7) 5714129";"Av2 14-51 La Playa Colombia, Cúcuta"
"FLORES Y DETALLES";floresydetalles@casmasoft.com;floresydetalles.casmasoft.com;"(57) (1) 8012108";"Cr49 B 170-38 Colombia, Bogotá"
"A DOMICILIO ARREGLOS FLORISTERIA ITAGUI";;;"(57) (4) 2811107";"Cr50 50-66 L-116 Itagüí Colombia, Medellín"
"FLORISTERIA LYLY";floriosterialyly@hotmail.com;;"(57) (8) 5121672";"Loma Perry Hill 12-7 Colombia, San Andrés"
"DISTRIBUIDORA Y FLORISTERIA MAGDA FLOR";;;"(57) (5) 3760090";"Cl 8 12-03 Centro Malambo Colombia, Barranquilla"
"FLORISTERIA DISEÑOS";luzhelena.floristeria@gmail.com;;"(57) (4) 4129581";"Cr82 A 33 B-53 Colombia, Medellín"
"ALTERNATIVAS Y COLOR S.A.S";alternativasycolor@gmail.com;;"(57) (4) 5122989";"Cl 49 54-45 L-107 Colombia, Medellín"
"First Name";"Email Address";Url;Telephone;Address
"TODAMIBODA - TODA MI BODA";info@todamiboda.com;www.todamiboda.com;"(57) (4) 4449884";"Cr43 A 9   S-91 C.E. Las Villas Trr Norte Colombia, Medellín"
"AZALÍA FLORES Y EVENTOS";azaliafloresyeventos@gmail.com;;"(57) (1) 4671430";"Cr23 72 A-37 San Felipe Colombia, Bogotá"
"FLORISTERÍA MEGAFLOR";fanybohorquez@hotmail.com;;"(57) (7) 5777853";"Av0 3-28 Lleras Restrepo Colombia, Cúcuta"
"FLORISTERÍA PINARES";floristeriapinarespereira@gmail.com;;"(57) (6) 3335515";"Cr15 13-60 L-4 Colombia, Pereira"
"FLORISTERIA ARTISTICA";floristeriaartistica@hotmail.com;;"(57) (7) 5714648";"Cl 15 5-37 Centro Colombia, Cúcuta"
"FLORISTERIA MONTREAL";;;"(57) (4) 2552337";"Cr65 1   S-119 Colombia, Medellín"
"FLORES Y FOLLAJES";floresyfollajes@hotmail.com;www.floresyfollajes.co;"(57) (2) 5569416";"Av2 E   N 50   N-15 Colombia, Cali"
"FLORISTERÍA D' CACHE";floristeriajardindcache@hotmail.com;;"(57) (5) 6627454";"La Villa Cl 1 50-50 Colombia, Cartagena"
"FLORISTERÍA LUPE";florislupe04@hotmail.com;;"(57) (6) 3361522";"Cl 27 6-42 Colombia, Pereira"
"A DOMICILIO ARREGLOS FLORISTERIA ITAGUI";;;"(57) (4) 2811107";"Cr50 50-66 L-116 Itagüí Colombia, Medellín"
"FLORISTERIA PILAR AUXILIADORA";info@floristeriapilarauxiliadora.com;floristeriapilarauxiliadora.com;"(57) (8) 3188781062";"C.C. Tropicana L-115 Y 116 Av Costa Rica Colombia, San Andrés"
"REGALOS Y FIESTAS";regalosyfiestas@gmail.com;WWW.facebook.com/pages/regalos-y-fiestas/113598045910?;"(57) (2) 5143047";"Cr27 8-95 Colombia, Cali"
"FLORISTERÍA DETALLES";candem98@hotmail.com;;"(57) 3118791949";"Cl 6 5-87 Espinal Colombia, Espinal"
"FLOREZ CAMY";florescamy@hotmail.com;www.florescamy.amawebs.com;"(57) (4) 2170616";"Cr39 49-53 Plaza de Florez Centro Colombia, Medellín"
"ARREGLOS FLORALES SAN GABRIEL";lianpol@yahoo.es;;"(57) (8) 8686226";"Cl 7 14-34 Colombia, Neiva"
FLORENTINA;"mensajeflorentina@outlook.com           smarcazzo@outlook.com";;"(57) (2) 3798493";"Cl 47 A   N 6   N-43 Colombia, Cali"
"JUDITH FLORISTERÍA";yadym0909@hotmail.com;www.floristeriajudith.com;"(57) (7) 6435306";"Cl 45 27-63 Colombia, Bucaramanga"
"FLORISTERÍA POMPON";floristeriapompon@gmail.com;www.pompon.co;"(57) (1) 2710637";"Av Suba 106 A-21 Colombia, Bogotá"
"DISFRACES MERLINA";merilna2@hotmail.com;;"(57) (2) 4388093";"Cl 41 8 A-03 Colombia, Cali"
"MARGARITA®S BOUQUET";lila_pe_pe@yahoo.es;;"(57) (5) 6910076";"Cr80 15-256 Portales de San Fernándo Colombia, Cartagena"
"FLORISTERÍA SONIA";floressonia_08@hotmail.com;;"(57) (7) 5714129";"Av2 14-51 La Playa Colombia, Cúcuta"
"FLORISTERÍA JACQUELINE";info@floristeriajacqueline.com;www.floristeriajacqueline.com;"(57) (4) 4486666";"Cl 44 71-61 Colombia, Medellín"
"FLORISTERIA NACHO""S";carlosfloristeria@hotmail.com;floristerianachos.com;"(57) (4) 2548294";"Cl 66 39 A-43 Parque Villa Hermosa Colombia, Medellín"
"FLORISTERIA VIRE";;;"(57) (4) 7822364";"Cl 29 Cr9 Esq Colombia, Montería"
"FLORISTERÍA LA ORQUÍDEA";;;"(57) (8) 5127556";"C.C. Unisanandrés L-112 Centro Colombia, San Andrés"
"FLORISTERIA LYLY";floriosterialyly@hotmail.com;;"(57) (8) 5121672";"Loma Perry Hill 12-7 Colombia, San Andrés"
"D&E EVENTOS";;;"(57) (7) 5832137";"Cl 11 1-30 Centro Colombia, Cúcuta"
"FLORISTERIA IKEBANA";cesarmod75@hotmail.com;;"(57) 3007365642";"CALI Colombia, Cali"
"FUNERALES HORIZONTES DE PAZ";f_horizontesdepaz@hotmail.com;;"(57) (2) 3843469";"Cl 5 24 A-200 Colombia, Cali"
"FLORISTERÍA CRISTIFLOR";fcristiflor@hotmail.com;;"(57) (4) 2161794";"Cl 50 38-61 Colombia, Medellín"
"FLORISTERÍA LA CASA DEL ANTURIO";leo_anturio@hotmail.com;www.lacasadelanturio.com;"(57) (2) 5147009";"Cl 9 24-24 Colombia, Cali"
"FLORES & REGALOS";floresyregalos-pereira@hotmail.com;www.facebook.com/floresy.regalos.9?fref=ts;"(57) (6) 3355044";"Cr18 14-04 Esq Valher Dosq Colombia, Pereira"
"FLORISTERÍA EL LAGO";jenny.floristeria@hotmail.com;;"(57) (7) 6222010";"Cl 50 20-47 Colombia, Barrancabermeja"
DECORFLORES;paola@decorflores.com;www.decorflores.com;"(57) (2) 5578686";"Cl 9 20-02 Colombia, Cali"
"EL PARAISO DE LAS FLORES";elparaisodelasflores@hotmail.com;paraisodelasflores.wix.com/paraiso;"(57) (2) 7239648";"Cl 20 25-53 Colombia, Pasto"
"FLORISTERIA PETALOS Y REGALOS";petalosyregalos@hotmail.com;;"(57) (1) 2580661";"Cl 136 18-45 Colombia, Bogotá"
"FLORISTERÍA MARTHA LUZ";floristeriamarthaluz@yahoo.com;marthaluz.com;"(57) (5) 6659192";"Bgde Cr4 7-170 Colombia, Cartagena"
"FLORISTERÍA ACUARIO";floristeriacuario@hotmail.com;;"(57) (1) 4247473";"Av (Cl) 8 76-24 Colombia, Bogotá"
"FLOR ANDINA HUYKE DE RUIZ";florade703@hotmail.com;;"(57) (5) 3588386";"Cr54 75-110 Ap 6 Colombia, Barranquilla"
"DECORACIONES ESCENOGRAFIAS Y FLORÍSTERIA MARLENE";;;"(57) (7) 3154994654";"Cl 44 12-77 Parque Romero L 3 Colombia, Bucaramanga"
"First Name";"Email Address";Url;Telephone;Address
"D'ANGELO FLORISTERÍA";floristeriadangelo@hotmail.com;;"(57) (6) 3148613427";"Cl 45 Frente a Cristo Rey L-05 Colombia, Manizales"
"EL CIPRÉS FLORISTERIA";florcipres@hotmail.com;;"(57) (6) 8854208";"Cr23 46-48 Colombia, Manizales"
"BODEGÓN DE LAS FLORES";elbodegondelasflores@hotmail.com;www.elbodegondelasflores.com;"(57) (5) 4232981";"Cl 28 B 6 B-53 Taminaca Colombia, Santa Marta"
"FLORES Y FOLLAJES";floresyfollajes@hotmail.com;www.floresyfollajes.co;"(57) (2) 5569416";"Av2 E   N 50   N-15 Colombia, Cali"
"FLORISTERÍA EL ROSAL";yudygrajales@hotmail.com;;"(57) (4) 2788158";"Cr50 126 A S-09 Caldas Colombia, Caldas"
"FLORISTERIA CECY";lucesjose28@hotmail.com;www.floristeriacecv.jimdo.com;"(57) (4) 2721313";"Cl 56 50-19 Bello Colombia, Medellín"
"EVENTOS FLORISTERÍA SAUDADE";bettyclar@hotmail.com;www.floristeriasaudade.amawebs.com;"(57) (2) 3367157";"Cl 10 32-29 Colombia, Cali"
"FLORISTERÍA PAOLA";floresparaocasion_1998@hotmail.com;www.floristeriaspaola.com;"(57) (2) 8959904";"Cr10 18-16 Colombia, Cali"
"FLORES & REGALOS";floresyregalos-pereira@hotmail.com;www.facebook.com/floresy.regalos.9?fref=ts;"(57) (6) 3355044";"Cr18 14-04 Esq Valher Dosq Colombia, Pereira"
"FLORISTERIA DE LOS ANGELES CALIFORNIA";floristeriadelosangeles@hotmail.com;www.floristerialosangelescalifornia.com;"(57) (1) 2179914";"Cr17 60-20 Colombia, Bogotá"
"EXÓTICAS Y FOLLAJES";exoticasyfollajes@gmail.com;www.colombiaflower.com;"(57) (4) 2172145";"Cr38 49-24 Colombia, Medellín"
"FLORISTERIA TODO EN FLOR";todoenflor@hotmail.com;;"(57) (4) 5481500";"Cl 30 28-45 Marinilla Colombia, Marinilla"
"JARDIN Y FLORISTERIA CECY";jardincecy.colombia@hotmail.com;www.jardincecy.com;"(57) (5) 3532267";"Cr66 75-85 Colombia, Barranquilla"
"FLOR ANDINA HUYKE DE RUIZ";florade703@hotmail.com;;"(57) (5) 3588386";"Cr54 75-110 Ap 6 Colombia, Barranquilla"
"FLORISTERÍA SANDRA";floristeriasandra1234@live.com;;"(57) (1) 5430566";"Cr13 68-0 L 37 Colombia, Bogotá"
"ALEGRÍA BANQUETES Y RECEPCIONES";eventos_alegría@hotmail.com;;"(57) 3143000922";"Cl 16 5-47 C.C Sta Catalina Salón Social Colombia, Pereira"
"FLORISTERÍA MEGAFLOR";fanybohorquez@hotmail.com;;"(57) (7) 5777853";"Av0 3-28 Lleras Restrepo Colombia, Cúcuta"
"FLORISTERIA DISTRIFLOR";distriflor02@hotmail.com;www.distriflor.co;"(57) (4) 7812220";"Cl 24 3-18 Colombia, Montería"
"CAJAS DECORATIVAS";cajasdecorativas@hotmail.com;www.cajas-decorativas.com;"(57) (4) 3310461";"Cr43 A 27 A S-86 L-153 Envigado Colombia, Medellín"
"FLORISTERIA Y VARIEDADES LA 50";floristeriala50@gmail.com;;"(57) (4) 2786312";"Cr50 127 S-27 Caldas Colombia, Caldas"
"FLORISTERIA CREATIVOS";creativosf@gmail.com;;"(57) (4) 4445742";"Cr80 A 35-19 Colombia, Medellín"
"FLORISTERÍA TANIA";floristeriataniamonteria@hotmail.com;;"(57) (4) 7891271";"Cr7 22-94 Ap 101 Centro Colombia, Montería"
"FLORISTERÍA PÉTALOS DE COLORES";contactenos@petalosdecolores.co;www.petalosdecolores.co;"(57) (4) 7840145";"Cr3 W 21-109 Colombia, Montería"
"FLORISTERÍA SONIA";floressonia_08@hotmail.com;;"(57) (7) 5714129";"Av2 14-51 La Playa Colombia, Cúcuta"
"FLORES Y DETALLES";floresydetalles@casmasoft.com;floresydetalles.casmasoft.com;"(57) (1) 8012108";"Cr49 B 170-38 Colombia, Bogotá"
"FLORISTERÍA CRISTIFLOR";fcristiflor@hotmail.com;;"(57) (4) 2161794";"Cl 50 38-61 Colombia, Medellín"
"FLORISTERÍA EL ROSAL";yudygrajales@hotmail.com;;"(57) (4) 5530318";"Cl 19 21-43 La Ceja Colombia, Medellín"
"FLORISTERIA ANDES";floristeria.andes@hotmail.com;facebook.com/floristeria.andes;"(57) (2) 8959326";"Cr10 7-02 Colombia, Cali"
"FUNERARIA ANGELES DE PAZ";angelesdepaz2011@hotmail.com;;"(57) (4) 4441912";"Cr51 129   S-16 Caldas Antioquia Colombia, Medellín"
"FLORISTERÍA CRISTHIAN DIOR";info@floristeriacristhiandior.net;www.floristeriacristhiandior.net;"(57) (2) 7231099";"Cl 18 A 25-76 Pasaje Corazón de Jesús Colombia, Pasto"
"EL PALACIO DE LAS FLORES";palaciodeluz_05@hotmail.com;;"(57) (7) 5712681";"Cl 11 1-03 Centro Colombia, Cúcuta"
"FLORISTERÍA TÚ";tufloristeriapereira@hotmail.com;www.tufloristeria.blogspot.com;"(57) (6) 3358372";"Cr5 15-02 Colombia, Pereira"
"FLORES LA CEIBA";;;"(57) (7) 5750202";"Av 0 4-56 Lleras Colombia, Cúcuta"
"GLOBOS FLORES Y FIESTTAS";gerencia@globosfloresyfiestas.com;www.globosfloresyfiestas.com;"(57) (2) 5249092";"Cl 9 27-47 Colombia, Cali"
"FLORES LINA MARÍA";floreslinamaria@hotmail.com;;"(57) (5) 6662572";"Pie del Cerro Cr14-31 A-31 Calle Real del Espinal Colombia, Cartagena"
"CARISMA FLORAL";carismafloral@hotmail.com;www.facebook.com/carisma.floral;"(57) (5) 3721180";"Cr53 53-50 Colombia, Barranquilla"
"FUNERALES HORIZONTES DE PAZ";f_horizontesdepaz@hotmail.com;;"(57) (2) 3843469";"Cl 5 24 A-200 Colombia, Cali"
"GERALDINE FLORISTERÍA";geraldinefloristeria@hotmail.;www.geraldinefloristeria.com;"(57) (7) 5740774";"Av0 3-52 Lleras Colombia, Cúcuta"
"SAN AGUSTÍN EVENTOS Y TURISMO";pradocentro@tusanagustin.com;www.tusanagustin.com;"(57) (4) 4444494";"Cl 60 45 D-71 Colombia, Medellín"
"LA TIENDA DE LAS ROSAS";;;"(57) (1) 6011723";"Cr62 98 B-22 L-3 Colombia, Bogotá"
"First Name";"Email Address";Url;Telephone;Address
"LA TIENDA DE LAS ROSAS";;;"(57) (1) 6011723";"Cr62 98 B-22 L-3 Colombia, Bogotá"
"A.AACUARIUS FLORISTERIA";comercial@acuariusfloristeria.com;;"(57) (2) 5248960";"Cr10 10-76 L-1 Colombia, Cali"
"BOGOTA FLORAL";;;"(57) (1) 7955500";"Bogotá Colombia, Bogotá"
"FLORISTERIA TROPICAL GARDEN";pedidos@floristeriatropicalgarden.com.co;;"(57) (1) 6232783";"Cl 100 17-61 Int 105/106 Colombia, Bogotá"
"EQUILIBRIO FLORAL";;;"(57) (4) 3771857";"Cr48 45-13 Colombia, Medellín"
"FLORISTERIA HELICONIA";;;"(57) 3166137402";"Parque Romero Pto 15 Colombia, Bucaramanga"
"GUERRA VIRGUEZ CLAUDIA PATRICIA";;;"(57) (1) 4052392";"Tr93 22 D-10 Et 2 Int 9 Ap 104 Colombia, Bogotá"
"C.I. TUCAN FLOWERS";;;"(57) (1) 2573725";"Tr10 101-17 Of 302 Colombia, Bogotá"
"RUMBAS Y FESTEJOS";;;"(57) (5) 6714448";"C.C. Los Ejecutivos Av Pedro de Heredia L-D 1-D 2 Colombia, Cartagena"
"FLORISTERÍA MONTE AZUL";;;"(57) (2) 8315943";"Cl 4 20-38 Colombia, Popayán"
"JARDÍN Y FLORISTERÍA ROCÍO";;;"(57) 3743720";"Cr27 21-86 Soledad Colombia, Soledad"
"FLORES & FESTEJOS";;;"(57) (8) 6580677";"Cr13 12-31 Colombia, Granada"
"ASALEM FLORISTERÍA";;;"(57) (1) 2046703";"Av 1 de Mayo 52 C-27 Colombia, Bogotá"
"FLORISTERÍA LOS JAZMINES";;;"(57) (2) 7212211";"Cr22 20-28 Colombia, Pasto"
"EL PALACIO DE LAS HIERBAS Y LA FLORES";;;"(57) (4) 2500344";"Cr79 A 45 A-100 Pto 8-A Colombia, Medellín"
"FLORISTERIA ARCA FLORAL";;;"(57) 3116633881";"Cl 45 1 Sur-31 Colombia, Barranquilla"
"LA FRUTTA";;;"(57) (4) 3136497";"Cl 22 S 40-74 Envigado Colombia, Envigado"
"FLORES SAN JORGE DEL LLANO";;;"(57) (8) 6871061";"Cl 10 18-55 Simon Bolívar Colombia, Cumaral"
"FLORISTERIA FLORES SILVESTRES";;;"(57) (7) 6217210";"Cr39 59-36 Alcázar Colombia, Barrancabermeja"
"FLORISTERÍA JARDÍN PASIONES FLORALES";;;"(57) (5) 6698301";"Almirante Colón Manz V' Lt 20 Colombia, Cartagena"
"FLORISTERÍA EL CARMELO";;;"(57) (5) 6608006";"Cl 26 23-65 Urb Colonial Casa 9 Av Alfonso Araújo Colombia, Cartagena"
"AMERICAN FLOWERS";;;"(57) (5) 3565688";"Cl 76 43 B-34 Colombia, Barranquilla"
"MARTHA LUZ FLORISTERÍA";;;"(57) (5) 2763932";"Cl 20 25-41 Centro Colombia, Sincelejo"
"FLORISTERIA AGAPANTO";;;"(57) (5) 4315320";"Cr12 22-95 Los Alcázares Colombia, Santa Marta"
"FLORISTERÍA JARDÍN BABILONIA";;;"(57) (52) 6860404";"Cl 24 Cr53 Colombia, El Carmen de Bolívar"
"JARDIN Y FLORISTERIA LA IBERIA";;;"(57) (1) 6250761";"Av(Cl) 134 19 A-12 Colombia, Bogotá"
"DÍGALO CON FLORES SU FLORISTERÍA";;;"(57) (8) 5125943";"Av Las Américas 5 A-6 Colombia, San Andrés"
"ARTE PRIMAVERAL Y.B.";;;"(57) (1) 4944038";"Av (Cl) 26 S 71 D-55 L-1 Colombia, Bogotá"
"MISTURA COLOMBIA BONSAI";;;"(57) (1) 4629365";"Cl 7 B 69 D-10 Colombia, Bogotá"
"FLORES Y AROMAS FLORISTERIA";;;"(57) (4) 8290083";"Cl 98 102- 12 Colombia, Apartadó"
REFLORECER;;;"(57) (1) 2527488";"Cl 70 A 89 A 23 Colombia, Bogotá"
"DISTRIFLORES NORTE";;;"(57) (2) 8232060";"Cr9 18 N-55 Colombia, Popayán"
"FLORISTERÍA POLIFLORES";;;"(57) (2) 8307778";"Cr10 5-15 Colombia, Popayán"
"FLORISTERÍA KATHY'S";;;"(57) (4) 8392589";"Cl 21 5-21 Colombia, Caucasia"
"FLORISTERÍA ASTER";;;"(57) (5) 8780806";"Cl 22 17-69 L-1 Sabanalarga Colombia, Sabanalarga"
"EL JARDÍN FLORISTERÍA";;;"(57) (76) 5653913";"Cl 1 15-36 Br La Primavera Colombia, Aguachica"
"ANA FLORISTERÍA";;;"(57) (5) 4312671";"Cl 21 Cr7 Esq Colombia, Santa Marta"
"FLORISTERÍA PALO DE ROSA";;;"(57) (6) 3336418";"Cl 21 6-24 Colombia, Pereira"
"CENTRO DE SERVICIOS JUDICIALES DE LOS JUZGADOS PENALES MUNICIPALES DE VILLAVICENCIO";;;"(57) (8) 6719492";"Cr29 33 B-79 T-A Of 108 Colombia, Villavicencio"
"FLORISTERÍA CASA FLORAL JARDÍN HOLANDÉS";;;"(57) (8) 7423103";"Cl 23 9-01 Colombia, Tunja"
"First Name";"Email Address";Url;Telephone;Address
"FLORISTERÍA Y VARIEDADES KENDRY";;;"(57) (5) 7270849";"Cl 7 10-12 Colombia, Riohacha"
"FLORISTERÍA SAN FRANCISCO";;;"(57) (8) 7422234";"Cr10 22-52 Colombia, Tunja"
"FLORISTERÍA Y FLORES ELIZABETH";;;"(57) (2) 8938639";"Cl 4 12-63 Colombia, Cali"
"FLORISTERÍA EL JARDÍN DE CELIA";;;"(57) (5) 4241241";"Cl 10 14-11 Colombia, Ciénaga"
"FLORISTERÍA MARY CRIST";;;"(57) (8) 6622310";"Cr33 35-54 Barzal Bajo Colombia, Villavicencio"
"FLORISTERÍA SAN CARLOS ZIPAQUIRA";;;"(57) 3202652629";"Cl 12 18-10 Colombia, Bogotá"
"FLORISTERÍA NOMEOLVIDES LTDA.";;;"(57) (2) 8930033";"Cr1 Oe 1-09 Colombia, Cali"
"FLORISTERÍA KAIROS";;;"(57) (1) 6309850";"Cl 68 30-82 Colombia, Bogotá"
"CESAR DELGADO/ RINCÓN DE LAS FLORES";;;"(57) (2) 6588546";"Cl 9 5-53 P-1 Yumbo Colombia, Yumbo"
"FLORISTERIA EL BOSQUE ENCANTADO";;;"(57) (2) 5245400";"Cl 9 38 - 60 Colombia, Cali"
"FLORISTERÍA PATRICK";;;"(57) (2) 8961003";"Cr10 12-62 Colombia, Cali"
"DECORACIONES FANTASIA E.U.";;;"(57) (2) 6643893";"Cl 50 N 2 C N-37 Colombia, Cali"
"CASA DE NAVIDAD CINTAS Y COLORES";;;"(57) (4) 2344342";"Cl 50 79-21 Colombia, Medellín"
"COMERCIALIZADORA ALAMEDA S.A.S.";;;"(57) (2) 6832395";"Cr26 8-66 Colombia, Cali"
"FLORISTERÍA ANDREA FLOR";;;"(57) (4) 2385628";"Cl 30 74-82 Colombia, Medellín"
"FLORISTERÍA Y REPOSTERÍA TRES ASES";;;"(57) (2) 5543725";"Cl 10 29 B-61 Colombia, Cali"
"FLORISTERÍA BELLO JARDÍN";;;"(57) (4) 2737773";"Cr55 23 A-37 Bello Colombia, Medellín"
"FLORISTERÍA NATALIA";;;"(57) (2) 2712637";"Cr30 32-133 Colombia, Palmira"
"AGUILAR ESPERANZA";;;"(57) (2) 3728079";"Cl 15 B 106-16 Colombia, Cali"
"FLORISTERIA EL LIRIO";;;"(57) 7255520";"Cl 9 con Cr12 Edif Majupay L-8 Colombia, Maicao"
"DECORACIONES Y FLORISTERÍA TROPICALES";;;"(57) (2) 3965207";"Cl 9 30-60 Colombia, Cali"
"A. ARREGLOS FLORES DEL JARDÍN";;;"(57) (2) 3351016";"Cr25 29 B-47 Colombia, Cali"
"FLORISTERÍA LOTOS";;;"(57) (2) 4485674";"Cl 33 C 19-11 Colombia, Cali"
"VARIEDADES ROSA LINDA";;;"(57) (2) 2429846";"Cl 7 31-24 Cementerio Central Colombia, Buenaventura"
"FLORISTERÍA ALHELÍ";;;"(57) (2) 2279995";"Cl 20 15-67 Colombia, Buga"
"ALQUILERES Y BANQUETES LAS MIL MARAVILLAS";;;"(57) (7) 6594382";"Cl 24 A 17 A-03 Quintas de San Isidro Girón Colombia, Girón"
"FLORISTERÌA Y DISTRIBUIDORA FLORES PARA TI";;;"(57) (6) 3297554";"Sector A Manz 2 Casa 22 Ciudadela Del Café Colombia, Pereira"
"FLORISTERÍA ARTE FLORAL";;;"(57) (6) 3292828";"Cr7 27-62 Colombia, Pereira"
"FLORISTERÍA DEL MAR";;;"(57) (7) 6572019";"Cr46 # 64-16 La Florida Colombia, Bucaramanga"
"FLORISTERÍA TULIPÁN";;;"(57) (8) 2637036";"Cr6 19-68 Interlaken Colombia, Ibagué"
"FLORES Y DECORACIONES ANISSA";;;"(57) (4) 4517212";"Cr 56A 59-43 Bello Colombia, Medellín"
"FLORISTERÍA PILIFAN";;;"(57) (1) 8331993";"Cl 20 12-35 Colombia, Girardot"
"FLORISTERÍA Y MARMOLERÍA DON CARLOS";;;"(57) (8) 2643107";"Cl 32 1-37 Colombia, Ibagué"
"FESTIVAL FLOWERS";;;"(57) (6) 3267398";"Cr4 27-67 Colombia, Pereira"
"FLORISTERÍA DETALLES";;;"(57) (6) 8808875";"Cr20 23-53 Colombia, Manizales"
"FLORISTERÌA JARDÌN DE LA ENEA";;;"(57) (6) 8749184";"Cr35 100-28 La Enea Colombia, Manizales"
"GÓMEZ WILMER";;;"(57) (1) 6176158";"Cr52 130-82 Colombia, Bogotá"
"FLORES DEL JARDÍN";;;"(57) (1) 2145698";"Cr8 C 106-14 Colombia, Bogotá"
"VFC S.A.S";;;"(57) (1) 3137920";"Floristerias Colombia, Bogotá"
"DÍAZ HENAO HEBERT";;;"(57) (1) 4944181";"Av1 de Mayo-71 D-77 L-2 Colombia, Bogotá"
"First Name";"Email Address";Url;Telephone;Address
"FLORISTERÍA LA REAL";;;"(57) (8) 7438603";"Cl 21 11-35 Centro Colombia, Tunja"
"FLORISTERÍA AMAPOLA";;;"(57) (2) 2257274";"Cr23 27-25 Colombia, Tuluá"
"FLORISTERÍA EXPRESSIONES";;;"(57) (2) 2160625";"Cr11 6-42 Colombia, Caicedonia"
"FLORISTERIA MATICAS Y FLORES";;;"(57) (7) 6190466";"Cr10 3-15 Centro Floridablanca Colombia, Floridablanca"
"ALMACÉN FLORISTERÍA JULIAN'S";;;"(57) (8) 2662305";"Cr5 39-76 Colombia, Ibagué"
"FLORISTERÍA EL INVERNADERO";;;"(57) (6) 8812467";"Cl 46 23-25 Colombia, Manizales"
"ARTES PLÁSTICAS Y FLORISTERÍA LAS VIOLETAS";;;"(57) (8) 2652248";"Av Ambalá 29-31 Colombia, Ibagué"
"FLORES LA ESPERANZA";;;"(57) (2) 5567935";"Cl 9 B 24-07 Colombia, Cali"
"FLORISTERÍA KELA";;;"(57) 3155193444";"Cl 13 D 65-20 Colombia, Cali"
"FLORISTERÍA JARDÍN DE ARTE";;;"(57) (2) 5244485";"Cl 18 # 36 B-26 Colombia, Cali"
"FLORISTERIA EL GRAN JORDAN";;;"(57) (1) 6199848";"Cl 116 19 A-30 Colombia, Bogotá"
"EL GRAN PASAJE DE LAS FLORES";;;"(57) (2) 6803130";"Cr10 12-68 Colombia, Cali"
"ARACELLY EVENTOS";;;"(57) (2) 3808342";"Cr96 45-90 Valle del Lili Colombia, Cali"
"FLORISTERÍA LA ULTIMA LÁGRIMA";;;"(57) (7) 5703158";"Cr8 0 N-02 Santander Villa del Rosario Colombia, Cúcuta"
"FLORISTERA HIOUSTON";;;"(57) (1) 2364994";"Cl97 61 A 18 Colombia, Bogotá"
"FLORISTERÍA MELBIS";;;"(57) (75) 5622635";"Cl 10 13-59 Centro Colombia, Ocaña"
"DECOR SHOP FLORES Y REGALOS";;;"(57) (6) 8856348";"Cr23 46-82 Colombia, Manizales"
"FLORISTERÍA JORGE ARTURO SÁNCHEZ DUQUE";;;"(57) (6) 8860783";"Cl 45 24 B-18 Vélez Colombia, Manizales"
"CREACIONES FLORALES EL DORADO";;;"(57) (1) 3410092";"Cl 18 9-79 Of 610 Colombia, Bogotá"
"EL CASTILLO DE LAS FLORES";;;"(57) (8) 7629005";"Cr16 14-58 Centro Colombia, Duitama"
"FLORISTERÍA LAS MARGARITAS";;;"(57) (1) 6740548";"Cl 167 50-13 Colombia, Bogotá"
"FLORISTERÍA DAYAN";;;"Telefax: (57) (1) 5458801";"Cr13 68-42 Colombia, Bogotá"
"ORTIZ R. JOHN JAIRO";;;"(57) (1) 6744565";"Carrera 55 # 171-28 Colombia, Bogotá"
"ELEITER HENRÍQUEZ FLORISTERÍA";;;"(57) (5) 8781514";"Cl 20 19-06 Colombia, Sabanalarga"
"CANUA FLORISTERÍA";;;"(57) (1) 6930156";"Cr128 145-70 Int 8 Ap 132 Colombia, Bogotá"
"FLORISTERÍA SANTA MARTA";;;"(57) (5) 4317080";"Cr7 20-14 Colombia, Santa Marta"
"ANA ANGEL";;;"(57) (1) 6099612";"Av (Cr) 14 25 A-10 L-13 Colombia, Bogotá"
"FLORISTERÍA DECODAL";;;"(57) (5) 5742477";"Cr9 Cl 15 A Esq frente Cementerio Central Colombia, Valledupar"
"FLORISTERÍA RAMOS Y DECORACIONES DEL VALLE";;;"(57) (2) 7225685";"Cr27 A 20-11 Las Cuadras Colombia, Pasto"
"FLORISTERÍA INNOVAFLOR";;;"(57) (8) 8722730";"Cl 16 2-48 Los Potros Colombia, Neiva"
"FLORES FANTASÍA";;;"(57) (1) 2360532";"Av100 14-63 P-3 Colombia, Bogotá"
"FLORISTERÍA FLORA DEL HUILA";;;"(57) (8) 8715389";"Cl 8 12-55 Colombia, Neiva"
"ESTRADA CLARA";;;"(57) (1) 6170854";"Cr48 91-67 Colombia, Bogotá"
"FLORISTERIA AMARILIS";;;"(57) (2) 7214587";"Cr22 20-47 Colombia, Pasto"
"FLORISTERIA Y DECORACIONES MARLY";;;"(57) (75) 5686144";"Cl 7 7-60 Centro Colombia, Pamplona"
"A DOMICILIO CENTRO FLORAL SANTA ELENA";;;"(57) (4) 4440152";"Cr78 45 A-46 Colombia, Medellín"
"AMOR Y FRUTAS.COM";;;"(57) (4) 3381047";"Itagüí Colombia, Itagüí"
"FLORISTERÍA PETALOS DE AMOR";;;"(57) (4) 2390587";"Cl 50 39-52 Pto 2220 Colombia, Medellín"
"ACOSTA HERNÁNDEZ LUZ ANGELA";;;"(57) (1) 6602158";"Cl74 46-04 Colombia, Bogotá"
"FLORISTERÍA MARANATHA";;;"(57) (2) 2817102";"Cl 36 40-75 Colombia, Palmira"
"First Name";"Email Address";Url;Telephone;Address
"FLORISTERÍA ROSSY";;;"(57) (2) 3350321";"Cr29 A# 18-35 P-2 Colombia, Cali"
"FLORISTERÍA OASIS";;;"(57) (2) 3348384";"Cl 26 B 27-26 Colombia, Cali"
"FLORISTERÍA LAURITA";;;"(57) (4) 3011135";"Cl 75 S# 46 B-52 Sabaneta Colombia, Sabaneta"
"FLORISTERÍA LOS NARDOS";;;"(57) (1) 2024669";"Av6 40 A-13 Colombia, Bogotá"
"FLORES GLAR NAVIDEÑOS";;;"(57) (1) 6297447";"Cl 119 12-36 L-2 Colombia, Bogotá"
"FLORISTERÌA JARDÌN DE LA ENEA";;;"(57) (6) 8749184";"Cr35 100-28 La Enea Colombia, Manizales"
"FLORISTERÍA SURTIFLORES JG";;;"(57) (7) 5746698";"Av0 3-68 LLeras Colombia, Cúcuta"
"AMOR Y FLORES FLORISTERÍA";;;"(57) (8) 2640729";"Cr4 D 39-109 Macarena Colombia, Ibagué"
"LA MAGIA DE LAS FLORES";;;"(57) (2) 2247206";"Cl 32 22-36 Sajonia Colombia, Tuluá"
"FLORISTERÚA EXµTICA";;;"(57) (2) 2278600";"Cl 9 17-50 Colombia, Buga"
"FLORES Y TERRARIOS";;;"(57) (1) 2181030";"Cl 99 47 A 09 Of 203 Colombia, Bogotá"
"FLORISTERÍA EL PASAJE DE LAS FLORES";;;"(57) (75) 5682042";"Cl 7 4-39 Centro Colombia, Pamplona"
"FLORISTERIA IBIZA";;;"(57) (4) 5319511";"Cl 47 49-51 Rionegro Colombia, Medellín"
"FLORISTERÍA SANTA GEMA";;;"(57) (4) 4140873";"Cr81 # 32 F-03 Colombia, Medellín"
"LA CASA DEL NARDO DISTRIBUIDORA";;;"(57) (2) 7238744";"Cl 21 22-21 L-2 Colombia, Pasto"
"ARIZONA FLORISTERÍA";;;"(57) (7) 5779001";"Av Gran Colombia 4E-57 Popular Colombia, Cúcuta"
"FLORISTERÍA LAURA";;;"(57) (28) 8292969";"Cr12 6-34 Colombia, Santander de Quilichao"
"INSTITUTO DE TRÁNSITO Y TRANSPORTE DEL META";;;"Nal: (57) (8) 6550305";"Cl 8 3-31 Colombia, Villavicencio"
"FLORISTERÍA EL JARDÍN DE CELIA";;;"(57) (5) 4241241";"Cl 10 14-11 Colombia, Ciénaga"
"PLIEGUE NATURAL";;;"(57) (2) 8937411";"Cr3 1-68 P-1 Colombia, Cali"
"ANGELITOS FLORISTERÍA";;;"(57) (7) 6428227";"Cl 45 Cr12 Parque Romero L-28 Colombia, Bucaramanga"
"FLORISTERÍA SANTA MÓNICA";;;"(57) (2) 2734700";"Cr33 31-36 Colombia, Palmira"
"FLORISTERÍA MI ROSITA";;;"(57) 3106922387";"Centro Parque de Las Flores L-4 Colombia, Cartagena"
"FLORISTERÍA EL IMPERIO DE LAS FLORES";;;"(57) (7) 6385516";"Cl 21 # 29-28 Molinos Bajos Colombia, Bucaramanga"
"FLORISTERIA EL GRAN JORDAN";;;"(57) (1) 6199848";"Cl 116 19 A-30 Colombia, Bogotá"
"FLOR EXÓTICA";;;"(57) (5) 8783358";"Cl 21 17-59 L-1 Colombia, Sabanalarga"
"FLORISTERÍA SANTA EDUVIJES";;;"(57) (7) 5753948";"Av 0 3-86 Lleras Colombia, Cúcuta"
"FLORISTERÍA LIRIOS DEL VALLE";;;"(57) (2) 2242570";"Cl 26C3 14-72 Colombia, Tuluá"
"FLORISTERIA ARCA FLORAL";;;"(57) 3116633881";"Cl 45 1 Sur-31 Colombia, Barranquilla"
"FLORISTERÍA ALEJÁNDRA";;;"(57) (8) 1000001";"Cl 21 11-50 Colombia, Tunja"
"INVIAS - INSTITUTO NACIONAL DE VÍAS";;;"(57) (8) 6646492";"Tr28 41-91 P-2-3 Colombia, Villavicencio"
"FLORISTERÍA CAROLITA";;;"(57) (2) 6842766";"Cl 9 A 42-55 Colombia, Cali"
"CESAR DELGADO/ RINCÓN DE LAS FLORES";;;"(57) (2) 6588546";"Cl 9 5-53 P-1 Yumbo Colombia, Yumbo"
"FLORISTERÍA ROSYMAR";;;"(57) (7) 6481528";"Cl 4 8-42 Floridablanca Colombia, Floridablanca"
"BOGOTÁ FLORAL";;;"Nal: (57) (1) 6139791";"Cr46 134 A-15 Colombia, Bogotá"
"FLÓRES Y FIESTAS DECORACIONES";;;"(57) (4) 8390779";"Cl 20 Cr7 6-30 Colombia, Caucasia"
"FLORISTERÍA SOKOLFLOR";;;"(57) (7) 7272460";"Cl 10 12-22 Chiquinquirá Colombia, Socorro"
"FLORES DANNA";;;"(57) (1) 2954915";"Cl 39 79-42 Int 1 Colombia, Bogotá"
"FLORISTERIA FANNY DECORACION";;;"(57) (1) 4295686";"Av (Cl) 24 80 B-48 Colombia, Bogotá"
"FLORISTERÍA TULIPAN";;;"(57) (8) 7720366";"Cr10 9-21 Centro Colombia, Sogamoso"
"First Name";"Email Address";Url;Telephone;Address
"EVENTOS ALQUILERES Y FLORISTERIA MIS PETALOS";;;"(57) (7) 6427391";"Cr18 Occ 36-35 Colombia, Bucaramanga"
"FLORISTERÍA Y FOTOGRAFÍA VILLA GERSO";;;"(57) (6) 8774301";"Cr5 9-40 V/maría Colombia, Manizales"
"ORQUIDEAS ROYAL";;;"(57) (1) 2560514";"Cr7 85-47 L-101 Colombia, Bogotá"
"FLORISTERÍA LA ORQUIDEA";;;"(57) (8) 8712434";"Cl 9 1 G-06 Colombia, Neiva"
"FLORISTERÍA EL PASAJE DE LAS FLORES";;;"(57) (75) 5682042";"Cl 7 4-39 Centro Colombia, Pamplona"
"FLORISTERÍA SANTA GEMA";;;"(57) (4) 4140873";"Cr81 # 32 F-03 Colombia, Medellín"
"FLORISTERÍA MI JARDÍN";;;"(57) (4) 2174866";"Cl 50 39-52 Colombia, Medellín"
"FLORISTERÍA LOS GIRASOLES";;;"(57) (2) 3311190";"Cr86 6-50 Colombia, Cali"
"BELLEZA JARDÍN DE AMOR";;;"(57) (2) 6800665";"Cr10 9-60 Colombia, Cali"
"LA CASA DEL NARDO DISTRIBUIDORA";;;"(57) (2) 7238744";"Cl 21 22-21 L-2 Colombia, Pasto"
"FLORISTERÍA Y EVENTOS LAS VEGAS";;;"(57) (5) 2741229";"Cl 20 25 A-21 Centro Colombia, Sincelejo"
"FLORISTERÍA MONTE AZUL";;;"(57) (2) 8315943";"Cl 4 20-38 Colombia, Popayán"
"FLORISTERÍA SAN VICENTE";;;"(57) (6) 3646520";"Cr15 15-23 Colombia, Santa Rosa de Cabal"
"VARGAS OLGA ROCÍO";;;"(57) (1) 6609544";"Cl 78 61-61 Colombia, Bogotá"
"FLORISTERÍA NUEVA SANTA CRUZ";;;"(57) (4) 8281810";"Cl 99 97-02 Colombia, Apartadó"
"A DOMICILIO FLORISTERIA ARREGLOS FRUTALES";;;"(57) (4) 2179148";"Cl 49 37-54 Colombia, Medellín"
"MARTÍNEZ ALFREDO - FLORISTERÍA";;;"(57) (1) 6875356";"Cr111 B# 138-51 Colombia, Bogotá"
"MERCEDES FORERO";;;"(57) (1) 2263676";"Cl 97 61 A-12 Colombia, Bogotá"
"FLORISTERÍA FRECIA";;;"(57) (8) 8720166";"Cl 8 7-61 Colombia, Neiva"
"FLORISTERÍA VANESSA";;;"(57) (8) 8722181";"Cr3 15-60 Colombia, Neiva"
"FERNANDO CAMARGO EVENTOS";;;"(57) (5) 5700415";"Cr9 13-58 Colombia, Valledupar"
"FLORISTERÍA LIRIO ROJO";;;"(57) (5) 5853383";"Cl 14 11 A-89 Colombia, Valledupar"
"FLORISTERÍA JARDÍN KARLA";;;"(57) (4) 4060232";"Cl 13 18-18 Colombia, Medellín"
"HAROLD WILMER AGUDELO VALLADARES/FLORISTERIA EL BOSQUE ENCANTADO";;;"(57) (2) 5571403";"Cl 9 38-60 Colombia, Cali"
"ALMACÉN GENTILEZAS FLORES Y REGALOS";;;"(57) (4) 3134802";"Cr43 D 10-07 Colombia, Medellín"
"YOLI'S FLORISTERIA";;;"(57) (2) 8807839";"Cr10 11-29 Colombia, Cali"
"FLORISTERÍA KAUNAS";;;"(57) (4) 4341596";"Cl 45 84-16 Ap 300 Colombia, Medellín"
"FLORISTERÍA FLOR DE AZALEA";;;"(57) (6) 3434457";"Cr16 77-114 La Romelia Colombia, Pereira"
"FLORISTERÍA DETALLES";;;"(57) (6) 8808875";"Cr20 23-53 Colombia, Manizales"
"AKALIA FLORISTERÍA";;;"(57) (1) 3402711";"Av42 15-66 Colombia, Bogotá"
"DECORACIONES FLORISTERÍA";;;"(57) (2) 7226451";"Cl 20 22-72 Colombia, Pasto"
"FLORÍSTERIA VALVANERA DEL RESTREPO";;;"(57) (1) 2391807";"Cr21 17-25 S Colombia, Bogotá"
"FLORISTERÍA LA CERO";;;"(57) (7) 5893077";"Av 0 3-48 L-1 Lleras Colombia, Cúcuta"
"DECORFIESTAS Y FLORISTERIA KAREN";;;"(57) (2) 3266723";"Cr42 Bis 12 B-15 Colombia, Cali"
"FLORISTERIA CRISTY";;;"(57) (1) 2884461";"Dg 42 Bis 14 32 Colombia, Bogotá"
"FLORISTERÍA UNCARIÑO";;;"(57) (2) 5565308";"Cl 8 31 A-34 Colombia, Cali"
"FLORES DE PARÍS";;;"(57) (1) 2878774";"Dg42 Bis 14 A-04 Colombia, Bogotá"
"FLORES Y DETALLES VICKY";;;"(57) (4) 5412519";"Cl 19 22-45 Colombia, Medellín"
"FLORISTERÍA ISABELLA";;;"(57) (2) 2274343";"Cl 6 8-12 Colombia, Buga"
"LOS NOGALES FLORISTERÍA";;;"(57) (7) 6437455";"Cr 28 # 51-47 Colombia, Bucaramanga"
"First Name";"Email Address";Url;Telephone;Address
"TAMAYO AEDO DE ELISA";;;"(57) (2) 5534040";"Cr47 5 E-07 Ap 301-A Colombia, Cali"
SEKA;;;"(57) (1) 6829828";"Cr100 A 141-24 Colombia, Bogotá"
"FLORISTERÍA SIMBIDIUM";;;"(57) (6) 8881446";"Cr25 47-15 Colombia, Manizales"
"FLORISTERÍA JARDÍN DE LA FLORIDA";;;"(57) (6) 8811287";"Cl 51 22 A-13 La Argentina Colombia, Manizales"
"FLORISTERÍA YURLEY";;;"(57) (7) 6708586";"Parque Romero Caseta 45 Colombia, Bucaramanga"
"FLORISTERÍA LA ITALIANITA";;;"(57) (7) 5710449";"Cl 14 0-68 Colombia, Cúcuta"
"DECOR SHOP FLORES Y REGALOS";;;"(57) (6) 8856348";"Cr23 46-82 Colombia, Manizales"
"FLORISTERÍA MOTIVOS";;;"(57) (6) 3344093";"Av Circunvalar 12-18 Colombia, Pereira"
"DISTRIBUIDORA EL IMPERIO DE LA FLOR";;;"(57) (7) 6700448";"Parque Romero L-31 Colombia, Bucaramanga"
"FLORISTERÍA Y DISTRIBUIDORA LIZ";;;"(57) (2) 2132161";"Cl 13 2-13 Colombia, Cartago"
"ALHELÍ DISEÑO FLORAL";;;"(57) (5) 6700231";"Cr23 25-195 Cj Olaya Colombia, Cartagena"
"FLORISTERÍA TRIVANA";;;"(57) (6) 8868306";"Av Santander 68-15 Colombia, Manizales"
"FLORISTERÍA CRISTY";;;"(57) (8) 6580798";"Cr13 16-17 Centro Colombia, Granada"
"FLORISTERÍA LAS MARGARITAS";;;"(57) (1) 6740548";"Cl 167 50-13 Colombia, Bogotá"
"COLOMBIA FLOW-ART";;;"(57) (1) 2746828";"Cl 136 18-19 Colombia, Bogotá"
"ANA ANGEL";;;"(57) (1) 6099612";"Av (Cr) 14 25 A-10 L-13 Colombia, Bogotá"
"FLORISTERIA CECI";;;"(57) (1) 4360827";"Cr73 90-77 Colombia, Bogotá"
"FINCA PONTEVEDRA";;;"(57) (7) 1000000";"Via Principal mesa de los Santos Colombia, Bucaramanga"
"FLORISTERÍA JACARANDA";;;"(57) (7) 5710228";"Cl 9 2-25 Colombia, Cúcuta"
"FLORISTERÍA SHIRLEY";;;"(57) (7) 5714451";"Cl 9 3-63 Int 103 Frente al Palacio Nacional Colombia, Cúcuta"
"GÓMEZ MARÍA ELENA";;;"(57) (1) 5336615";"Cr30 95-37 Colombia, Bogotá"
"ARTE CACTUS FLOWERS";;;"(57) (1) 5203212";"Tr 17A 98 35 Colombia, Bogotá"
"FLORISTERIA IBIZA";;;"(57) (4) 5319511";"Cl 47 49-51 Rionegro Colombia, Medellín"
"CINTAS Y ACCESORIOS FLORALES";;;"(57) (4) 3426785";"Dg75 B 2 A-120 L-210 Colombia, Medellín"
"FLORISTERIA ARTE FLOR";;;"(57) (7) 6452858";"Cl 40 27-18 Colombia, Bucaramanga"
"FLORISTERIA MARVIC";;;"(57) (2) 5569359";"Cr16 13-02 Colombia, Cali"
"DECORACIONES REGINA VÉLEZ DE S. Y MARTHA C. VAS";;;"(57) (4) 3210724";"Cl 10 S 44-61 Colombia, Medellín"
"PUNTO CARDINAL DE ORIENTE";;;"(57) (4) 5317176";"Cr54 A 25-60 Colombia, Rionegro"
"DIGALO CON FLORES";;;"(57) (1) 6062131";"Cr13 68-92 Colombia, Bogotá"
"FLORISTERÍA DISEÑOS'S";;;"(57) (4) 5613338";"Cr55 A 38 C-43 Rionegro Colombia, Rionegro"
"HAPPY DECORACIONES";;;"(57) (5) 2809001";"Cr17 15-144 Calle Chacurí Colombia, Sincelejo"
"EQUILIBRIO FLORAL";;;"(57) (4) 3771857";"Cr48 45-13 Colombia, Medellín"
"FLORISTERÍA Y VIVERO EL KIOSQUITO";;;"(57) (5) 2820183";"Cl 20 24-95 Esq Las Peñitas Colombia, Sincelejo"
"FLORES SARAHLÚ";;;"(57) (1) 4527429";"Av1 de Mayo 66-31 Colombia, Bogotá"
"FORERO MARTHA";;;"(57) (1) 6197482";"Cr8 D 106-05 Colombia, Bogotá"
"FLORISTERÍA SAN ANGEL";;;"(57) (4) 3221212";"Tr29   S 32 B-114 Envigado Colombia, Medellín"
"FLORES PRIMAVERA";;;"(57) (2) 8315776";"Cl 4 21-26 Colombia, Popayán"
"FLORES DEL NORTE";;;"(57) (2) 8231653";"Cr10 18 N-150 Colombia, Popayán"
"FLORISTERÍA MIS MARGARITAS";;;"(57) (1) 4340778";"Av (Cl) 72 77 A-69 Colombia, Bogotá"
"BEATRIZ BUSTAMANTE TALLER FLORAL";;;"(57) (4) 2663164";"Cl 1 S# 43 C-281 Ap 414 Colombia, Medellín"
"First Name";"Email Address";Url;Telephone;Address
SERVIFLOR;;;"(57) (4) 2182292";"Cr39 49 A-16 Colombia, Medellín"
"FLORISTERÍA DEMOSTRACIONES";;;"(57) (7) 5832137";"Cl 11 1-30 Centro Colombia, Cúcuta"
"FLORISTERÍA CORAL";;;"(57) (6) 8867027";"Cl 47 23-20 Colombia, Manizales"
"FLORISTERIA Y VARIEDADES GIRARDOTA";;;"(57) (4) 2800564";"Cl 7 17-48 Girardota Colombia, Medellín"
"FLORISTERÍA LOS ALPES";;;"(57) (1) 2356842";"Cl 72 22-34 Colombia, Bogotá"
"FLORISTERÍA VICTORIA REGIA";;;"(57) (8) 4355150";"Cl 13 12-32 Centro Colombia, Florencia"
"FLORISTERÍA Y NOVEDADES ZOMBYE";;;"(57) (4) 7822096";"Cr5 34-34 Colombia, Montería"
"FLORISTERÍA VANESSA";;;"(57) (8) 8722181";"Cr3 15-60 Colombia, Neiva"
"FLORISTERÍA AGAPANTO";;;"(57) (5) 3721421";"Cr38 No. 58-28 Colombia, Barranquilla"
"FLORISTERÍA MARYFEI";;;"(57) (2) 3952421";"Cl 9 40-59 Colombia, Cali"
"FLORISTERÍA Y JARDINES PÉTALO";;;"(57) (4) 5610040";"Cl 54 # 48-43 Colombia, Medellín"
"CANASTOS J.G.A";;;"(57) (4) 2117914";"Cr58 DD 83 E-25 Ap 106 Colombia, Medellín"
"FLORES DEL SOL";;;"(57) (4) 3416421";"Cr11 29-21 Colombia, Medellín"
"FLORISTERIA LINDA FLOR";;;"(57) (7) 6213694";"Cl 49 22-45 Colombia, Barrancabermeja"
"FLORISTERIA MIRIAN Y MARLON";;;"(57) (5) 4233616";"Miguelcon Cra 7 Esquina Parque de Las Flores San Colombia, Santa Marta"
"FLORES ROSALINDA";;;"(57) (4) 2393822";"Cr39 50 B-30 Colombia, Medellín"
"FLORESA LTDA. C.I.";;;"(57) (1) 2111239";"Cl 53 21-84 Of 404 Colombia, Bogotá"
"INDIANA FLOWERS";;;"(57) (4) 2170600";"Cr39 # 50-15 L-225 Colombia, Medellín"
"FLORISTERÍA LOS PINOS";;;"(57) (2) 7214745";"Cr22 20-59 Colombia, Pasto"
"FLORISTERÍA JARDÍN DE FLORES";;;"(57) (8) 5120489";"Cr4 16-99 Brr. Obrero Colombia, San Andrés"
"ARTE PRIMAVERAL Y.B.";;;"(57) (1) 4944038";"Av (Cl) 26 S 71 D-55 L-1 Colombia, Bogotá"
"FLORES Y AROMAS FLORISTERIA";;;"(57) (4) 8290083";"Cl 98 102- 12 Colombia, Apartadó"
"EVENTOS NUBY";;;"(57) (1) 2382930";"Dg50 A S 33-01 Colombia, Bogotá"
"DOLCE FRUTTA FLORISTERÍA";;;"(57) (4) 4444736";"Cl 13 43 D-102 P-2 Colombia, Medellín"
"FLORISTERÍA LIRIO ROJO";;;"(57) (5) 5853383";"Cl 14 11 A-89 Colombia, Valledupar"
"FLORISTERÍA DECORACIÓN Y DETALLES GIRASOLES DEL SEÑOR";;;"(57) (5) 5853628";"Cl 16 C 19 A-35 Los Músicos Colombia, Valledupar"
"FLORISTERÍA RUBY FLOWER";;;"(57) (5) 4314556";"Cl 20 6-48 Colombia, Santa Marta"
"HAROLD WILMER AGUDELO VALLADARES/FLORISTERIA EL BOSQUE ENCANTADO";;;"(57) (2) 5571403";"Cl 9 38-60 Colombia, Cali"
"BOLAÑOS MUÑOZ MERY";;;"(57) (2) 6812993";"Cl 3 42-22 Colombia, Cali"
"CUPIDO FLORISTERÍA";;;"(57) (2) 3156856";"Cr66 A 11-170 Colombia, Cali"
"TALLER CENTRO FLORAL LOS ALPES";;;"(57) (2) 8857835";"Cr9 11-50 P-2 L-17 Colombia, Cali"
"FLORISTERÍA MABEL";;;"(57) (4) 4131650";"Cr73 # 40-36 Colombia, Medellín"
"FLORISTERIA ROSA DE SARÓN NO1";;;"(57) (5) 3310000";"Cl 47 20-54 Colombia, Barranquilla"
"FLORISTERÍA ANDREA FLOR";;;"(57) (4) 2385628";"Cl 30 74-82 Colombia, Medellín"
"FLORISTERÍA Y REPOSTERÍA TRES ASES";;;"(57) (2) 5543725";"Cl 10 29 B-61 Colombia, Cali"
"FLORISTERÍA NATASHA";;;"(57) (2) 5133990";"Cr53 A 5 B-76 Colombia, Cali"
"PLIEGUE NATURAL";;;"(57) (2) 8937411";"Cr3 1-68 P-1 Colombia, Cali"
"FLORISTERÍA BAMBOO";;;"(57) (2) 2739749";"Cr37 32 A-07 Colombia, Palmira"
"FLORISTERÍA KAROL";;;"(57) 3113865020";"Cr104 96-10 Colombia, Chigorodó"
"FLORISTERÍA LINDA FLOR";;;"(57) (7) 7276380";"Cl 9 9-18 Colombia, Socorro"
"First Name";"Email Address";Url;Telephone;Address
"FLORISTERÍA FLORES ALEJANDRA";;;"(57) 3132576378";"Cr33 35-73 Barzal Alto Colombia, Villavicencio"
"FLORES Y SIMILARES";;;"(57) (2) 6830495";"Cr10 18-27 Colombia, Cali"
"FLORISTERÍA JORGE ARTURO SÁNCHEZ DUQUE";;;"(57) (6) 8860783";"Cl 45 24 B-18 Vélez Colombia, Manizales"
"FONKA FLORERIA";;;"(57) (1) 4008424";"Cr53 103 B-29 Colombia, Bogotá"
"CANUA FLORISTERÍA";;;"(57) (1) 6930156";"Cr128 145-70 Int 8 Ap 132 Colombia, Bogotá"
"FLORISTERIA DECORACIONES & DETALLES SARITA";;;"(57) 3184600992";"cra 3 15-22 Colombia, Neiva"
"INSTITUCIÓN EDUCATIVA COLEGIO SANTA INÉS";;;"(57) (8) 6628788";"Cl 37 A 24-04 Colombia, Villavicencio"
"FLORES PARA TÍ";;;"(57) (2) 8959791";"Cr10 19-50 Colombia, Cali"
"FLORISTERÍA LIGIA";;;"(57) (1) 2042576";"Dg46 A Sur #-50 -24 P-1 Colombia, Bogotá"
RUMBITAS;;;"(57) (7) 6571492";"Cr45 55-43 Terrazas Colombia, Bucaramanga"
"FLORISTERÍA VILLERO";;;"(57) (5) 7283307";"Cl 10 9-108 Colombia, Riohacha"
"FLORISTERIA DURLEY";;;"(57) (7) 6022871";"Cl 50 20-30 Colombia Colombia, Barrancabermeja"
"FLORISTERÍA SAN ANGELLO";;;"(57) (2) 7314166";"Cl 19 31-18 Las Cuadras Colombia, Pasto"
"FLORISTERÍA EURO FLOR";;;"(57) (2) 7314720";"Cl 19 30-16 Las Cuadras Colombia, Pasto"
"FLORISTERÍA AKADEMO";;;"(57) (75) 5681812";"Cr7 2-38 Humilladero Pamplona Colombia, Pamplona"
"FLORISTERÍA Y ARTESANÍAS ANAÍS 24 HORAS";;;"(57) (5) 4356204";"Cl 28 30 A-62 Colombia, Santa Marta"
"ALQUILER DE VESTIDOS DE NOVIA ANGELICA MARIA";;;"(57) (7) 6393096";"Cr12 14-34 Ciudad Valencia Colombia, Bucaramanga"
"FLORISTERÍA JARDINES DEL PRADO";;;"(57) (4) 2318677";"Cl 61 # 51 D-23 Colombia, Medellín"
"FLORISTERIA LA JARDINERA";;;"(57) (2) 6649651";"Cl 39 N 2 E N-44 Colombia, Cali"
"FLORES ROSALINDA";;;"(57) (4) 2393822";"Cr39 50 B-30 Colombia, Medellín"
"FLORES & COSITAS MARGARITA";;;"(57) (4) 8399193";"Cl 20 7-30 Colombia, Caucasia"
"FLORISTERIA LUZ DE LIZ";;;"(57) (5) 8781116";"Cr 10 21-46 Sabanalarga Colombia, Sabanalarga"
"INSTITUTO DE TRÁNSITO Y TRANSPORTE DEL META";;;"Nal: (57) (8) 6550305";"Cl 8 3-31 Colombia, Villavicencio"
"INSTITUCIÓN EDUCATIVA GERMÁN ARCINIEGAS";;;"(57) (8) 6677590";"Cr47 B 7 B-20 Colombia, Villavicencio"
"FLORISTERÍA HOLANDESA";;;"(57) 3123277453";"Cl 18 10-101 Colombia, Tunja"
"FLORISTERÍA IGOR";;;"(57) (7) 6525739";"Cl 45 12 Pto-03 García Rovira Colombia, Bucaramanga"
"INSTITUTO COLOMBIANO AGROPECUARIO I.C.A.";;;"(57) (8) 6727783";"Tr23 19-02 Colombia, Villavicencio"
"INSTITUCIÓN EDUCATIVA SIMÓN BOLIVAR";;;"(57) (8) 6659615";"Cl 8 Vía La Cumbre Colombia, Villavicencio"
"EL CASTILLO DE LAS FLORES";;;"(57) (1) 3689712";"Cr33 25 D-20 L-103 Colombia, Bogotá"
"FLORISTERIA MARVIC";;;"(57) (2) 5569359";"Cr16 13-02 Colombia, Cali"
"FLORISTERÍA Y DISTRIBUIDORA OTI";;;"(57) (8) 4348072";"Cl 13 12-43 Colombia, Florencia"
"FLORISTERÍA LA FLORA";;;"(57) (5) 4213002";"Cl 15 7-01 Colombia, Santa Marta"
"DISTRIFLORES LEÓN";;;"(57) (2) 8211868";"Cl 3 11-43 Colombia, Popayán"
"FLORISTERÍA Y DECORACIÓN GIRASOLES";;;"(57) (5) 5705726";"Cr9 14-29 Colombia, Valledupar"
"INVIAS - INSTITUTO NACIONAL DE VÍAS";;;"(57) (8) 6646492";"Tr28 41-91 P-2-3 Colombia, Villavicencio"
"FLORISTERÍA ESPLENDOR";;;"(57) (1) 5222877";"Cl 127 D 51 A-10 Colombia, Bogotá"
"DISEÑO FLORAL";;;"(57) (2) 6813940";"Cr25 B 23-39 P-3 Colombia, Cali"
"FLORISTERÍA CARRUSEL";;;"(57) (1) 5400184";"Cr15 64-19 Colombia, Bogotá"
"VIVERO Y FLORISTERIA LAS PALMAS";;;"(57) (7) 6223693";"Cl 50 27-59 Colombia Colombia, Barrancabermeja"
"FLORISTERÍA MYRIAN";;;"(57) (7) 6474611";"Cr55 50-49 Colombia, Bucaramanga"
"First Name";"Email Address";Url;Telephone;Address
"FLORISTERÍA BELLO JARDÍN";;;"(57) (4) 2737773";"Cr55 23 A-37 Bello Colombia, Medellín"
"FLORISTERÍA LINDAS FLORES Y ROSAS";;;"(57) (2) 8842564";"Cr10 # 20-23 Colombia, Cali"
"LIGHT CHIC";;;"(57) (2) 5131496";"Cl 6 52 A-27 Of 104 Colombia, Cali"
"FLORISTERÍA ASTOR GARDENS";;;"(57) (6) 3339524";"Cr6 14-18 Colombia, Pereira"
"FLORISTERIA LOS ACUARIOS";;;"(57) (7) 6224225";"Cl 50 20-33 Colombia Colombia, Barrancabermeja"
"SISTEMA FLORAL";;;"(57) (6) 3367383";"Cr6 32-37 Colombia, Pereira"
"FLORISTERIA GOLDEN KING";;;"(57) (7) 6336284";"Cl 50 A 21-76 Colombia, Bucaramanga"
"FLORISTERÍA LOS GERANIOS";;;"(57) (7) 6325466";"Av Quebrada Seca 33-130 L-2 Colombia, Bucaramanga"
"FESTIVAL FLOWERS";;;"(57) (6) 3267398";"Cr4 27-67 Colombia, Pereira"
"DETALLE FLORAL";;;"(57) (2) 3740943";"Cr1 N. 70-180 Colombia, Cali"
"FLORISTERÍA SOKOLFLOR";;;"(57) (7) 7272460";"Cl 10 12-22 Chiquinquirá Colombia, Socorro"
"FLORISTERÍA NUEVA GRANADA";;;"(57) (1) 2693649";"Cr20 25 A-03 Colombia, Bogotá"
"FLORISTERÍA NATURALES FLORES Y DECORACIÓN";;;"(57) (8) 8332906";"Cl 7 9-19 Colombia, Garzón"
"FLORISTERÍA COSMOS";;;"(57) (1) 2251243";"Cl 71 68 F-06 Colombia, Bogotá"
"FLORISTERIA D'ALIX";;;"(57) (7) 6707491";"Malecón de Las Flores L-5 Colombia, Bucaramanga"
"NAYIBE PELUQUERIA";;;"(57) (7) 6390490";"Cl 32 26-40 Cañaveral Colombia, Bucaramanga"
"FLORISTERÍA EKOS";;;"(57) (1) 8328583";"Cr9 18-01 Centro Colombia, Girardot"
"FLORISTERÍA EL IMPERIO DE LAS FLORES";;;"(57) (7) 6385516";"Cl 21 # 29-28 Molinos Bajos Colombia, Bucaramanga"
"LA MAGIA DE LAS FLORES";;;"(57) (2) 2247206";"Cl 32 22-36 Sajonia Colombia, Tuluá"
"FLORES LA ESPERANZA";;;"(57) (2) 5567935";"Cl 9 B 24-07 Colombia, Cali"
"FLORISTERÍA TENTACIÓN";;;"(57) (2) 3361313";"Cl 27 32-28 Colombia, Cali"
"FLORISTERÍA MON AMOUR";;;"(57) 2620075";"Cl 23 12-60 Colombia, Villagorgona"
"FLORISTERIA AVES DEL PARAISO";;;"(57) (4) 3162508";"Cl 42 A 63 C-176 Colombia, Medellín"
"FLORISTERÍA Y EVENTOS PALACIO REAL";;;"(57) (7) 6456446";"Cr33 36-17 Colombia, Bucaramanga"
"FLORISTERÍA MOTIVOS";;;"(57) (6) 3344093";"Av Circunvalar 12-18 Colombia, Pereira"
"ABC ABRAZA A FLORARTE COLOMBIA INTERNACIONAL";;;"(57) (1) 4922199";"Cl 140 12 B-61 Colombia, Bogotá"
"ANA ANGEL";;;"(57) (1) 6099612";"Av (Cr) 14 25 A-10 L-13 Colombia, Bogotá"
"RESTREPO ROSARIO";;;"(57) (2) 8213416";"Cl 7 8-52 Colombia, Popayán"
"ASTER JARDÍN FLORISTERÍA";;;"(57) (5) 8780806";"Cl 22 17-69 L-1 Colombia, Sabanalarga"
"FLORISTERÍA INNOVAFLOR";;;"(57) (8) 8722730";"Cl 16 2-48 Los Potros Colombia, Neiva"
"UNICALLAS DE COLOMBIA LTDA.";;;"(57) (4) 5560489";"Vereda La Concha La unión Colombia, Medellín"
"FLORISTERÍA EL PALACIO DE LAS FLORES";;;"(57) (2) 8216626";"Cl 4 20-20 Colombia, Popayán"
"LIRIOS DEL VALLE";;;"Telefax: (57) (4) 2857764";"Cr50 C 10 S-146 Colombia, Medellín"
"FLORISTERIA JARDÍN PINARES";;;"(57) (4) 2283666";"Cl 50 A# 39-44 Int 101 Colombia, Medellín"
"FLORISTERÍA SANTA GEMA";;;"(57) (4) 4140873";"Cr81 # 32 F-03 Colombia, Medellín"
"FLORISTERÍA J.C.";;;"(57) (4) 5311328";"Cl 48 # 51-30 Rionegro Colombia, Medellín"
"FLORISTERÍA SAN RAFAEL";;;"(57) (2) 3129465";"Cr 101 12 39 Colombia, Cali"
"FLORISTERIA TROPICAL";;;"(57) (8) 7434394";"Cl 21 12-16 Centro Colombia, Tunja"
"ACOSTA HERNÁNDEZ LUZ ANGELA";;;"(57) (1) 6602158";"Cl74 46-04 Colombia, Bogotá"
"FLORES Y FLORES";;;"(57) (1) 5304130";"Cl 90 9-06 (B. Chicó) Colombia, Bogotá"
"First Name";"Email Address";Url;Telephone;Address
"FLORISTERIA WILMER";;;"(57) (7) 6427733";"Malecón de Las Flores Parque Romero Pto 11 Colombia, Bucaramanga"
"FLORISTERÍA MIS PETALOS";;;"(57) (7) 6427391";"Bucaramanga Colombia, Bucaramanga"
"EVENTOS ALQUILERES Y FLORISTERIA MIS PETALOS";;;"(57) (7) 6427391";"Cr18 Occ 36-35 Colombia, Bucaramanga"
"FLORES Y FOLLAJES";;;"(57) (5) 4211217";"Cr12 22-125 Funeraria Americana Esq Colombia, Santa Marta"
"FLORISTERÍA OLGUITA";;;"(57) (5) 4213347";"Cl 14 7-23 Colombia, Santa Marta"
"FLORISTERIA SOCORRO TROPICAL";;;"(57) 3156274557";"Cr14 11-62 Colombia, Socorro"
"FLORISTERIA ANTURIOS";;;"(57) 3045727029";"Cl 10 15-68 Colombia, Socorro"
"FLORES TATTY";;;"(57) (27) 7264159";"Cl 9 S 1-16 Sucre Colombia, La Unión"
"UNICALLAS DE COLOMBIA LTDA.";;;"(57) (4) 5560489";"Vereda La Concha La unión Colombia, Medellín"
"FLORISTERÍA JACARANDA";;;"(57) (7) 5710228";"Cl 9 2-25 Colombia, Cúcuta"
"FLORISTERÍA SHIRLEY";;;"(57) (7) 5714451";"Cl 9 3-63 Int 103 Frente al Palacio Nacional Colombia, Cúcuta"
"FLORISTERÍA EL PASAJE DE LAS FLORES";;;"(57) (75) 5682042";"Cl 7 4-39 Centro Colombia, Pamplona"
"FLORISTERÍA POM-POM";;;"(57) (8) 8711123";"Cl 9 3-64 Colombia, Neiva"
"ARTE DISEÑO FLORAL D'JOSÉ";;;"(57) (1) 3117970";"Cl 70 64 C-16 Colombia, Bogotá"
"FLORISTERIA AMARILIS";;;"(57) (2) 7214587";"Cr22 20-47 Colombia, Pasto"
"FLORES GLAR NAVIDEÑOS";;;"(57) (1) 6297447";"Cl 119 12-36 L-2 Colombia, Bogotá"
"FLORISTERÌA AMBIENTE FLORAL";;;"(57) (4) 3457795";"Cl 30 A 77-84 Colombia, Medellín"
"EMPAQUES Y FLORES";;;"(57) (4) 2764398";"Cr27 D 34 DD S-83 Colombia, Medellín"
"FLORISTERÍA EL CAPRICHO";;;"(57) (4) 2181777";"Cr39 # 50-25 L-2038 Colombia, Medellín"
"FLORISTERÍA LA MARMAJA";;;"(57) (4) 2508844";"Cr79 A 45-45 Colombia, Medellín"
"MANOJO DE FLORES";;;"(57) (4) 2768790";"Cl 39 B S 33-04 Colombia, Envigado"
"FLORES Y JARRONES";;;"(57) (4) 3024671";"Cl 33 B S 43 A-33 Envigado Colombia, Envigado"
"FLORISTERÍA LAS ACACIAS";;;"(57) (4) 2853442";"Cr52 # 1 S-38 Colombia, Medellín"
"ARTESANIAS ADELA";;;"(57) (4) 2500254";"Cr79 A 45-45 OF 115 Colombia, Medellín"
"FLORISTERIA VIDA NUEVA";;;"(57) (4) 5719020";"Cr51 D 61-48 Colombia, Medellín"
"FLORISTERÍA CULMA Y CAROLINA";;;"(57) (8) 8716991";"Cr3 15-50 Colombia, Neiva"
"FLORES EN MEDELLÍN";;;"(57) (4) 4920644";"Medellin Colombia, Medellín"
"TAWI FLOWERS S.A.S.";;;"Telefax: (57) (1) 7511230";"Cr57 A Bis 128-78 Colombia, Bogotá"
"EL PORTAL DE LAS FLORES";;;"(57) (8) 6625761";"Cr33 41-11 Colombia, Villavicencio"
"FLORISTERIA NANCY";;;"(57) (5) 3749650";"Cr31 No. 24-21 Colombia, Barranquilla"
"FLORA POR SIEMPRE";;;"(57) (1) 5446003";"Cr13 68-40 Of 201 Colombia, Bogotá"
"OPCIÓN HINCAPIE";;;"(57) (4) 5380434";"Sta Elena Colombia, Medellín"
"FLORISTERÍA CAPULLO'S";;;"(57) (5) 2815814";"Cr14 15-144 La Pajuela Colombia, Sincelejo"
"FLORISTERÍA Y DISTRIBUIDORA LAS GARDENIAS";;;"(57) (2) 2143297";"Cr5 6-77 Colombia, Cartago"
"FLORISTERÍA Y EVENTOS LAS VEGAS";;;"(57) (5) 2741229";"Cl 20 25 A-21 Centro Colombia, Sincelejo"
"RUMBAS Y FESTEJOS";;;"(57) (5) 6714448";"C.C. Los Ejecutivos Av Pedro de Heredia L-D 1-D 2 Colombia, Cartagena"
"FLORISTERIA Y DISTRIBUIDORA ATAHUALPA";;;"(57) (5) 6561416";"Cr 14 31 A 56 Calle Real Colombia, Cartagena"
"FLORISTERÍA FLOWERS SHOP";;;"(57) (1) 3494869";"Cr11 69-37 Colombia, Bogotá"
"ORLANDO RIVERA / ACACIAS FLORISTERÍA";;;"(57) (2) 8208843";"Cl 7 9-69 Colombia, Popayán"
"CASA DE FLORES Y EVENTOS MONTECARMELO";;;"(57) (7) 5728740";"Cl 18 0-28 Brr. Blanco Colombia, Cúcuta"
"First Name";"Email Address";Url;Telephone;Address
"ROSAS LA HACIENDA";;;"Domic.: (57) (1) 6968456";"Cl 120 7-73 Colombia, Bogotá"
"OPCIÓN HINCAPIE";;;"(57) (4) 5380434";"Sta Elena Colombia, Medellín"
"FLORISTERÍA FLORECER DEL CARIBE";;;"(57) (5) 6735031";"Av Pedro de Heredia Cl 32 18 C-15 L-102 Colombia, Cartagena"
"FLORISTERÍA LAS VEGAS";;;"(57) (1) 2214779";"Cr57 44-35 Colombia, Bogotá"
"ENTIDAD PROMOTORA DE EVENTOS LA ROCA";;;"(57) (1) 4909004";"Cl 140 No 12 B-61 Colombia, Bogotá"
"FLORISTERÍA PRADOS";;;"(57) (1) 2369428";"Cr41 96-12 Colombia, Bogotá"
"KOEN PACK COLOMBIA";;;"(57) (4) 3346111";"Cr46 48 C   S-40 Int 110 Envigado Colombia, Envigado"
"FLORISTERIA Y VARIEDADES GIRARDOTA";;;"(57) (4) 2800564";"Cl 7 17-48 Girardota Colombia, Medellín"
"FLORISTERÍA PARAISO FLORAL";;;"(57) (7) 6541881";"Cl 7 11-80 San Rafael Colombia, Piedecuesta"
"FLORISTERÍA VIVAFLOR LTDA.";;;"(57) (5) 6647079";"Get C.C. Getsemaní L-2-A-8 y 9 Colombia, Cartagena"
"FLORISTERÍA VENUS GALATAS";;;"(57) (8) 8710667";"Cr6 9-70 Colombia, Neiva"
"EUROFLOR FLORISTAS E.U.";;;"(57) (1) 2141033";"Cl 127 7 - 77 Colombia, Bogotá"
"HANAYA FLORISTERIA";;;"(57) (8) 2633339";"Cra 6 15-50 Centro Colombia, Ibagué"
"FLORISTERÍA Y DETALLES OLMA®RS";;;"(57) (4) 8394291";"Cl 20 6-14 Colombia, Caucasia"
"FLOWERS TO GO";;;"(57) (4) 3322783";"Cl 37 B S 27 D-112 Int 117 Colombia, Medellín"
"FLORISTERÍA SAN FRANCISCO";;;"(57) (8) 7422234";"Cr10 22-52 Colombia, Tunja"
"PILY'S REPOSTERIA";;;"(57) (5) 6816729";"La Plazuela Manz B Lt 9 Colombia, Cartagena"
CONALFLORES;;;"(57) (8) 6623937";"Cr33 36-43 Barzal Bajo Colombia, Villavicencio"
"ESENCIA FLORAL STORE";;;"(57) (1) 6127153";"Cl 119 13-26 Colombia, Bogotá"
"FLORISTERÍA KAIROS";;;"(57) (1) 6309850";"Cl 68 30-82 Colombia, Bogotá"
"AFRODITA FLORISTERÍA";;;"(57) (2) 6804476";"Cr59 10-33 Colombia, Cali"
"FLORES Y FOLLAJES FRANCY";;;"(57) (2) 5539363";"Cr11 11-61 Jamundí Colombia, Jamundí"
"FLORISTERIA LINDAS FLORES";;;"(57) (7) 7242088";"Cr8 14-60 Colombia, San Gil"
"FLORISTERÍA FLORES Y JARDINES";;;"(57) (7) 6475187";"Cl 68 # 17-27 Colombia, Bucaramanga"
"FLORISTERÍA ROLIA";;;"(57) (8) 7424135";"Cl 21 A 10-90 Int 218 Colombia, Tunja"
"FLORISTERIA ANGELA";;;"(57) (7) 7242933";"Cl 19 7-45 Colombia, San Gil"
"FLORISTERÍA ASTRID";;;"(57) (1) 4370025";"Cr70 D 72-29 Colombia, Bogotá"
"PERFETTI FLOWERS";;;"(57) 3105389718";"Cl 18 AA S 29 -C-311 Colombia, Medellín"
"FLORISTEÍA MARANATA";;;"(57) 3173526867";"Cr16 15-05 Colombia, Armenia"
"FLORISTERÍA ALEGRÍA FIESTAS Y EVENTOS";;;"(57) (2) 2702909";"Cl 32 B 3 E-08 Colombia, Palmira"
"FLORISTERÍA YUDY";;;"(57) (6) 7414932";"Cr18 17-01 Colombia, Armenia"
"FLORISTERÍA LA ESPERANZA";;;"(57) 3124149866";"Av10 39-130 El Recreo km 5 Los Patios Colombia, Cúcuta"
"FLORISTERÍA CLASICA";;;"(57) (6) 3333377";"Cl 13 4-70 Colombia, Pereira"
"FLORISTERÍA LIZ";;;"(57) (6) 8854883";"Cr23 46-74 Colombia, Manizales"
"COLOMBIA FLOW-ART";;;"(57) (1) 2746828";"Cl 136 18-19 Colombia, Bogotá"
"VIVERO FLORISTERÍA LA CAROLINA";;;"(57) (1) 6271805";"Cl 128 53 A-50 Colombia, Bogotá"
"FLORISTERÍA VALERIA";;;"(57) (4) 2168172";"Cr40 50-16 L-2217 Colombia, Medellín"
"FLORISTERÍA TERNURA";;;"(57) (6) 3642765";"Cr15 15-87 Colombia, Santa Rosa de Cabal"
"FLORES YAYO S.A.S.";;;"(57) (1) 7623003";"Cr49 134 A-41 Colombia, Bogotá"
"FLORISTERÍA VALENTINA";;;"(57) (2) 8315828";"Cl 4 20-28 Colombia, Popayán"
"First Name";"Email Address";Url;Telephone;Address
"AVIVA FLORES & EMOCIONES";;;"(57) (8) 2654460";"Cr5 39-76 Colombia, Ibagué"
"FLORISTERÍA LIBELULA";;;"(57) (6) 3454526";"Cr6 27-60 Colombia, Pereira"
"FLORISTERÍA Y TARJETERÍA FOR YOU";;;"(57) (2) 2247086";"Cl 25 15-12 Colombia, Tuluá"
"FLORISTERÍA SUEÑO DE AMOR";;;"(57) (2) 8821126";"Cr10 7-02 Colombia, Cali"
"FLORES LA 14";;;"(57) (6) 3350863";"Cl 13 13-20 Colombia, Pereira"
"ASTRO FLORISTERIA";;;"(57) (1) 2368859";"Cr 11 82-71 L-176 Colombia, Bogotá"
"FLORISTERÍA SHALOM";;;"(57) (6) 8858036";"Cr24 55 A-48 Belén Colombia, Manizales"
"FLORISTERÍA LAS MARGARITAS";;;"(57) (1) 6740548";"Cl 167 50-13 Colombia, Bogotá"
"FLORES CARMENZA";;;"(57) (1) 2684806";"Cr20 25-69 Colombia, Bogotá"
"FLORISTERÍA LA FLORA";;;"(57) (5) 4213002";"Cl 15 7-01 Colombia, Santa Marta"
"FLORES Y DETALLES";;;"(57) (2) 6807481";"Cr66 3 D-06 Colombia, Cali"
"FLORISTERÍA KMACHOS";;;"Telefax: (57) (1) 2554678";"Av Caracas Cl 68 L-26 Colombia, Bogotá"
"FLORITERÍA PENSAMIENTOS";;;"(57) (6) 8857608";"Cr16 B 52 A-37 Colombia, Manizales"
"FLORISTERÍA LA ORQUIDEA";;;"(57) (8) 8712434";"Cl 9 1 G-06 Colombia, Neiva"
"GONZÁLEZ MARÍA DEL CARMEN - FLORISTERÍA";;;"(57) (1) 2994902";"Cr78 # 41 G-51 Sur Colombia, Bogotá"
"ARTE CACTUS FLOWERS";;;"(57) (1) 5203212";"Tr 17A 98 35 Colombia, Bogotá"
"COLOMBIAN FLOWER'S";;;"(57) (7) 5776632";"Av 0 4-38 Lleras Colombia, Cúcuta"
"LIRIOS DEL VALLE";;;"Telefax: (57) (4) 2857764";"Cr50 C 10 S-146 Colombia, Medellín"
"FLORISTERÍA VALERIA";;;"(57) (6) 7486715";"Mercar Pabellón 2 L-11 Colombia, Armenia"
"FLORES Y VARIEDADES NOHEMÍ";;;"(57) (4) 4141048";"Cl 45 # 79 A-100 L-73 Colombia, Medellín"
"FERRETERÍA FERRESCO LTDA.";;;"(57) (4) 3811662";"Cr53 # 34-24 Colombia, Medellín"
"FLORISTERÍA Y EVENTOS ANELIZ";;;"(57) (4) 4960638";"Medellin Colombia, Medellín"
"FLORES MACONDO";;;"(57) (1) 6124571";"Cr14 B 106-78 Colombia, Bogotá"
"EQUILIBRIO FLORAL";;;"(57) (4) 3771857";"Cr48 45-13 Colombia, Medellín"
"FLORISTERÍA Y EVENTOS BYLA VILLAREAL";;;"(57) (5) 6645846";"Cr10 39-190 Ap C-1-10 Conj.R Las Bóvedas Colombia, Cartagena"
"FLORISTERÍA SENSACIONES";;;"(57) (5) 6609990";"Manga Cr22 29-14 Av de la Asamblea Colombia, Cartagena"
"LA CASA DEL NARDO DISTRIBUIDORA";;;"(57) (2) 7238744";"Cl 21 22-21 L-2 Colombia, Pasto"
"FLORISTERÍA LOS ALMENDROS";;;"(57) (1) 6713587";"Cl 161 A 20-06 Colombia, Bogotá"
DISTRIFLOR;;;"(57) (4) 7825725";"Cl 24 3-20 Centro Colombia, Montería"
"FLORISTERÍA ILUSIONES";;;"(57) (5) 6742192";"Cr22 C 29 B-104 Conj.R Portal de la Popa Casa 23 Colombia, Cartagena"
"FLORISTERÍA PRADOS";;;"(57) (1) 2369428";"Cr41 96-12 Colombia, Bogotá"
"ADONAY FLORISTERÍA";;;"(57) (1) 6717859";"Cl 161 39-99 Colombia, Bogotá"
"FLORISTERÍA MIL DETALLES";;;"(57) (2) 2298492";"Cl 9 5-42 Colombia, Roldanillo"
"FLORISTERÍA ABC FLOR";;;"(57) (6) 7442567";"Cr15 18-35 Colombia, Armenia"
"BEATRIZ BUSTAMANTE TALLER FLORAL";;;"(57) (4) 2663164";"Cl 1 S# 43 C-281 Ap 414 Colombia, Medellín"
"FLORISTERÍA LOS POMPONES";;;"(57) (6) 7466673";"Cl 5 N 17-09 Colombia, Armenia"
"LA PERLA DE LAS FLORES";;;"(57) (1) 6351859";"Cr22 86-21 Colombia, Bogotá"
"FLORISTERÍA ARTE EN FLORES";;;"(57) (6) 7369414";"Cr15 12-30 Colombia, Armenia"
"FLORISTERÍA LOS JAZMINES";;;"(57) (2) 7212211";"Cr22 20-28 Colombia, Pasto"
"FLORES Y EVENTOS";;;"(57) (6) 3256088";"Cl 25 5-37 Colombia, Pereira"
"First Name";"Email Address";Url;Telephone;Address
"HAROLD WILMER AGUDELO VALLADARES/FLORISTERIA EL BOSQUE ENCANTADO";;;"(57) (2) 5571403";"Cl 9 38-60 Colombia, Cali"
"FLORISTERÍA LUNA VERDE";;;"(57) (4) 2308435";"Cl 50 # 74-61 Colombia, Medellín"
"A DOMICILIO ARREGLOS FLORALES LAS VEGAS";;;"Conm.: (57) (4) 3439898";"Cl 30 71-19 Colombia, Medellín"
"ARREGLOS FLORALES LAS VEGAS";;;"(57) (4) 3439898";"Cl 30 71-19 Colombia, Medellín"
"FLORISTERÍA Y EVENTOS EL CASTILLO";;;"(57) (2) 8892349";"Cr12 6-20 Colombia, Cali"
"DECORACIONES Y FLORISTERÍA TROPICALES";;;"(57) (2) 3965207";"Cl 9 30-60 Colombia, Cali"
"FLORISTERÍA ANALUC";;;"(57) (7) 6832033";"Cl 19 45 Ap-201 Colombia, Bucaramanga"
"FERCHO Y DECORACIONES FLORISTERÍA";;;"(57) (2) 6809562";"Cr10 9-64 Colombia, Cali"
"EXCLUSIVIDADES YIVANZA ARTE Y MODA";;;"(57) (2) 6630928";"Cr7 PBis 63-09 Colombia, Cali"
"FLORISTERÍA ZABRISKY";;;"(57) (6) 3352421";"Cl 21 Cr9 Esq Colombia, Pereira"
"FLORISTERÍA YESENIA";;;"(57) (7) 6464706";"Cl 43 A# 21-04 El Poblado Girón Colombia, Girón"
TICA;;;"(57) (7) 6475126";"Cr36 51-85 Colombia, Bucaramanga"
"AVIVA FLORES & EMOCIONES";;;"(57) (8) 2633587";"Cr2 11-59 Colombia, Ibagué"
"ANDRE'C FLORISTERIA";;;"(57) (7) 6750993";"Cl 8 6-01 Floridablanca Colombia, Bucaramanga"
"FLORISTERÍA BRISAS DEL ROSAL";;;"(57) (8) 2662729";"Cr1 31-76 América Colombia, Ibagué"
"ARREGLOS FLORES SOFITEL";;;"(57) (8) 2659131";"Cl 40 8 B-37 Colombia, Ibagué"
"FLORISTERÍA EXÓTICA";;;"(57) (6) 3333777";"Cl 21 6-33 Colombia, Pereira"
"DISTRIBUIDORA EL GIRASOL";;;"(57) (2) 7207681";"Cl 20 21-11 Colombia, Pasto"
"ARREGLOS FLORISTERÍA MULTIFLOWERS";;;"(57) (8) 8718423";"Cl 16 3-15 Colombia, Neiva"
"ILUSIONES FLORISTERÍA";;;"(57) (2) 7736408";"Cr7 10-40 Colombia, Ipiales"
"FLORISTERÍA LA CERO";;;"(57) (7) 5893077";"Av 0 3-48 L-1 Lleras Colombia, Cúcuta"
"FLORISTERÍA LAUREN'S";;;"(57) (2) 2565268";"Cl 10 11-57 Colombia, El Cerrito"
"FLORISTERIA DURLEY";;;"(57) (7) 6022871";"Cl 50 20-30 Colombia Colombia, Barrancabermeja"
"FLORES Y ARTE MAGALY";;;"(57) 3186919753";"Cl 12 11-10 Lebrija Centro Colombia, Bucaramanga"
"POM POM FLORISTERÍA";;;"(57) (8) 2746340";"Manz A Casa 7 Parrales Colombia, Ibagué"
"FLORISTERÍA AZUCENA";;;"(57) (4) 2708508";"Cr41 37 S-59 Envigado Colombia, Medellín"
"DEPOSITO Y FLORERÍA D'ANGELI'S";;;"(57) (2) 5561246";"Cr30 8 A-03 Colombia, Cali"
"FLORISTERÍA Y DISTRIBUIDORA FLORARTE";;;"(57) (2) 2128442";"Cr5 7-90 Colombia, Cartago"
"FLORISTERÍA ROMANCE";;;"(57) (6) 3347277";"Cr4 17-56 Colombia, Pereira"
"ALMACÉN Y FLORISTERÍA DETALLES";;;"(57) (6) 3301612";"Cl 10 23-07 Brr El Japón Dosq Colombia, Pereira"
"ORQUIDEAS ROYAL";;;"(57) (1) 2560514";"Cr7 85-47 L-101 Colombia, Bogotá"
"FLORISTERÍA FLORA DEL HUILA";;;"(57) (8) 8715389";"Cl 8 12-55 Colombia, Neiva"
"AROMAS FLORISTERÍA";;;"(57) (7) 5779513";"Av0 3-16 L-01 Lleras Colombia, Cúcuta"
"FLORISTERÍA YOLY";;;"(57) (8) 4204896";"Cr8 15-49 Ciudad Jardín Colombia, Mocoa"
"LAS ROSAS DE LUZ";;;"(57) (1) 7505820";"Cl 110 15-72 Of 405 Colombia, Bogotá"
"FLORERÍA MARY";;;"(57) (1) 7670764";"Av Usme 76 C-17 S Colombia, Bogotá"
"DISTRIBUIDORA DE FLORES MARGUI";;;"(57) (5) 6580310";"Cr14 31 A-27 Calle Real Colombia, Cartagena"
"EL PORTAL DE LAS FLORES";;;"(57) (8) 6625761";"Cr33 41-11 Colombia, Villavicencio"
"FLORISTERÍA MONTE AZUL";;;"(57) (2) 8315943";"Cl 4 20-38 Colombia, Popayán"
"FLORISTERÍA LOS JAZMINES";;;"(57) (2) 7212211";"Cr22 20-28 Colombia, Pasto"
"First Name";"Email Address";Url;Telephone;Address
"FLORISTERÍA MIL DETALLES";;;"(57) (2) 2298492";"Cl 9 5-42 Colombia, Roldanillo"
"EL ARTE DE LAS FLORES";;;"(57) (8) 8717006";"Cl 16 3-11 Colombia, Neiva"
"FLORISTERÍA PARAÍSO FLORAL";;;"(57) (7) 6541881";"Cl 7 11-80 San Rafael Colombia, Bucaramanga"
"FLORISTERÍA ISABELLA";;;"(57) (2) 2274343";"Cl 6 8-12 Colombia, Buga"
"FLORISTERÍA Y EVENTOS LAS VEGAS";;;"(57) (5) 2741229";"Cl 20 25 A-21 Centro Colombia, Sincelejo"
"ENTIDAD PROMOTORA DE EVENTOS LA ROCA";;;"(57) (1) 4909004";"Cl 140 No 12 B-61 Colombia, Bogotá"
"FLORISTERÍA SAN ANGEL";;;"(57) (4) 3221212";"Tr29   S 32 B-114 Envigado Colombia, Medellín"
"FLORISTERIA BEGOÑA";;;"(57) (2) 5578573";"Cl 6 28-28 Colombia, Cali"
"ARTE Y DISEÑO FLORAL FLORISTERÍA";;;"(57) (4) 4484030";"Cr35 7-118 Colombia, Medellín"
"FLORISTERÍA MENSAJES FLORALES";;;"(57) (4) 4120500";"Medellín Colombia, Medellín"
"FLORES Y EVENTOS";;;"(57) (6) 3256088";"Cl 25 5-37 Colombia, Pereira"
"FLORISTERIA ARCO IRIS";;;"(57) 3172599195";"Cl 6 15-102 Colombia, Socorro"
"FLORISTERIA Y VARIEDADES GIRARDOTA";;;"(57) (4) 2800564";"Cl 7 17-48 Girardota Colombia, Medellín"
"FLORISTERIA ANA ISABEL";;;"(57) (1) 6303904";"Cr69 P 73-46 Colombia, Bogotá"
"FLORISTERÍA CARIÑO";;;"(57) (5) 4231579";"Cr7 entre Cl 20 y 21 L-3 Colombia, Santa Marta"
"FLORISTERÍA JARDÍN DE SUEÑOS";;;"(57) (5) 3412074";"Cl 58 43-156 Colombia, Barranquilla"
LETORNASOL;;;"(57) (1) 2229970";"Dg42 48-52 Colombia, Bogotá"
"FLORES Y MOTIVOS";;;"(57) (1) 6047808";"C.C. Colina Campestre-Mall 138 Colombia, Bogotá"
"FLORISTERÍA MAYLAND";;;"(57) (1) 5282034";"Cl 147 7 G-81 Colombia, Bogotá"
"FLORISTERÍA ARTE Y COLOR";;;"(57) (1) 7210155";"Cl 12 6-11 Soacha Colombia, Soacha"
"FLORISTERÍA ALEJÁNDRA";;;"(57) (8) 1000001";"Cl 21 11-50 Colombia, Tunja"
"FLORISTERÍA Y VARIEDADES ANGÉLICA";;;"(57) (5) 7275337";"Cr10 12 A-18 Colombia, Riohacha"
"FLORISTERÍA Y VARIEDADES KENDRY";;;"(57) (5) 7270849";"Cl 7 10-12 Colombia, Riohacha"
"JARDIN CECY";;;"(57) (5) 3532267";"Cr 66 75 - 85 Colombia, Barranquilla"
"FLORISTERÍA LIRIO DE PLATA";;;"(57) (4) 2861625";"Cr6 Este 10-61 Colombia, Medellín"
"FLORISTERIA LADY FLOR";;;"(57) (1) 7412795";"Cl 38 S 52 C-05 Colombia, Bogotá"
"FLORISTERÍA KELLY";;;"(57) (2) 8962397";"Cr10 19-31 Colombia, Cali"
"FLORISTEROA Y VARIEDADES FRANCIA";;;"(57) (2) 3715541";"Av6 N 48 N-38 Colombia, Cali"
"CHARLOT FLORISTERÍA";;;"(57) (2) 5246004";"Cl 9 38-62 Colombia, Cali"
"DON ELOY";;;"(57) (4) 3115734";"Cr37 8 A-51 Colombia, Medellín"
"FLORISTERIA YAYI";;;"(57) (2) 5520000";"Cr 52 A 5 B - 10 Colombia, Cali"
"FLORISTERÍA ROSYMAR";;;"(57) (7) 6481528";"Cl 4 8-42 Floridablanca Colombia, Floridablanca"
"FLORISTERÍA MARÍA ISABEL";;;"(57) (2) 2726906";"Cl 33 30-03 Colombia, Palmira"
"FLORISTERÍA KIUTT";;;"(57) (2) 3353444";"Cr37 10-15 Colombia, Cali"
"FLORISTERÍA AROMA";;;"(57) (6) 3347504";"Cr9 24-34 Colombia, Pereira"
"MARTINEZ NELLY FLORISTERIA";;;"(57) (7) 6426108";"Cl 45 Cr13 Pto 40 Colombia, Bucaramanga"
"FLORISTERÍA JARDINES DE AMOR";;;"(57) (6) 3375646";"Cr26 68-05 Colombia, Pereira"
"FLORISTERIA GOLDEN KING";;;"(57) (7) 6336284";"Cl 50 A 21-76 Colombia, Bucaramanga"
"FLORISTERÍA ARTE FLORAL";;;"(57) (6) 3292828";"Cr7 27-62 Colombia, Pereira"
"FLORISTERÍA LA ORQUÍDEA";;;"(57) (8) 2620549";"Cr4 Estadio 21-64 Colombia, Ibagué"
"First Name";"Email Address";Url;Telephone;Address
"YOTU FLOWERS";;;"(57) (4) 3124052";"Cl 1 S 35-60 Colombia, Medellín"
"FLORISTERÍA LESLY ANDREA";;;"(57) (2) 8855678";"Cr10 # 10-24 Colombia, Cali"
"SURTIFLORES-PARAÌSO FLORAL";;;"(57) (2) 8960167";"Cr 10 12 - 14 Colombia, Cali"
"FLORISTERÍA FLORES DE LA 30";;;"(57) (4) 2563866";"Cl 30 # 75-17 Belén Colombia, Medellín"
"ROSAS DON ELOY LTDA.";;;"Nal: (57) (1) 2826564";"Tr6 Cl 27 B Colombia, Bogotá"
"FLORISTERÍA MABEL";;;"(57) (4) 4131650";"Cr73 # 40-36 Colombia, Medellín"
"FLORISTERÍA NATASHA";;;"(57) (2) 5133990";"Cr53 A 5 B-76 Colombia, Cali"
"AFRODITA FLORISTERÍA";;;"(57) (2) 6804476";"Cr59 10-33 Colombia, Cali"
"FLORERÍA BACHUE";;;"(57) (2) 5578212";"Cr23 A 9 C-41 Colombia, Cali"
"FLORISTERÍA Y MANUALIDADES DETALLES URDINOLA";;;"(57) (2) 2122165";"Cl 14 16-65 Colombia, Cartago"
"EL OASIS FLORISTERÍA";;;"(57) (8) 2659291";"Cl 45 10 A-16 Calarcá Colombia, Ibagué"
"FLORISTERÍA LLUVIA DE GIRASOLES";;;"(57) (2) 8960505";"Cr10 # 10-84 Colombia, Cali"
"FERCHO Y DECORACIONES FLORISTERÍA";;;"(57) (2) 6809562";"Cr10 9-64 Colombia, Cali"
"FLORISTERÍA LA ROSA DORADA";;;"(57) (2) 5562500";"Cr37 A 5 F-14 Ap 402 Colombia, Cali"
"GOTITA DE AMOR";;;"(57) (6) 3227631";"Cr16 48-03 Los Naranjos Dosq Colombia, Pereira"
"ABACO FLORISTERÍA";;;"(57) (5) 6560419";"Crespo Av6 67-92 Int 1 Colombia, Cartagena"
"MARMOLERÍA Y FLORISTERÍA REAL";;;"(57) (6) 8856471";"Cr25 44-21 Colombia, Manizales"
"FLORISTERÍA JAEL";;;"(57) (7) 7245896";"Cr10 10-39 Colombia, San Gil"
"LA PETITE FLEUR";;;"(57) (8) 2454003";"Av Cafam 16-61 Colombia, Melgar"
"FLORISTERIA LOS ACUARIOS";;;"(57) (7) 6224225";"Cl 50 20-33 Colombia Colombia, Barrancabermeja"
"FLORISTERÍA FLORIDETALLES";;;"(57) (8) 2686332";"Manz U Casa 11 Urb Tolima Grande Colombia, Ibagué"
"MACHADO MESA MARTHA LÑA";;;"(57) (6) 3348030";"Cr10 21-08 Colombia, Pereira"
"LA CASITA DE LAS ROSAS E.U.";;;"(57) (1) 6105351";"Cr 14 # 87-68 Colombia, Bogotá"
"CASA FLORAL";;;"(57) (7) 6433260";"Cr39 42-34 Colombia, Bucaramanga"
"DIANNY'S FLORISTERÍA";;;"(57) (7) 6465904";"Cr22 Cl 43 Esq Colombia, Bucaramanga"
"CALAÍS EVENTOS Y FLORISTERÍA";;;"(57) (8) 2614905";"Cr3 8-65 La Pola Colombia, Ibagué"
"FLORISTERÍA LA ORQUÍDEA";;;"(57) (8) 2620549";"Cr4 Estadio 21-64 Colombia, Ibagué"
"FLORISTERÍA MILFOR";;;"(57) (1) 8311134";"Cr14 17-57 Colombia, Girardot"
"FLORISTERÍA Y MARMOLERÍA DON CARLOS";;;"(57) (8) 2643107";"Cl 32 1-37 Colombia, Ibagué"
"LEONEL TERIANA HOUSE EVENTS";;;"(57) (8) 2730324";"Cr7 10 A-01 Colombia, Ibagué"
"FLORISTERIA LA FIESTA";;;"(57) (7) 6435196";"Cl 45 27A-09 Colombia, Bucaramanga"
"FLORISTERÍA CHAVELA";;;"(57) (7) 6382401";"Cl 17 # 11 B-13 Colombia, Bucaramanga"
"FESTIVAL FLOWERS";;;"(57) (6) 3267398";"Cr4 27-67 Colombia, Pereira"
"FLORISTERÍA VIVEROS";;;"(57) (6) 3278190";"Manz 21 Casa 6 Corales Colombia, Pereira"
"MARY FLORISTERÍA";;;"(57) (2) 7250132";"Cl 11 7-99 Colombia, Ipiales"
"FLORISTERÍA VERSALLES";;;"(57) (7) 5771896";"Av9 E 6 N-95 Ceiba II Colombia, Cúcuta"
"FLORAL AND FRUIT PARADISE";;;"(57) (2) 3806710";"Av 4 N 4 N-61 Colombia, Cali"
"JARDÍN Y FLORISTERÍA CATLEYA";;;"(57) (5) 3687562";"Cl 72 39-222 Colombia, Barranquilla"
"FLORISTERÍA XIOMY";;;"(57) (2) 7271664";"Cl Márquez Colombia, Tumaco"
"FLORISTERÍA EL JARDÍN";;;"(57) (7) 6474121";"Cr31 52 A-47 L-101 Colombia, Bucaramanga"
"First Name";"Email Address";Url;Telephone;Address
"FLORISTERÍA EXÓTICAS VILLA MYRIAM";;;"(57) (5) 4231251";"Cl 18 5-19 Colombia, Santa Marta"
"FLORISTERIA LA PETITE POUPEP";;;"(57) (1) 5423675";"Av(Cr)14 68-00 L-15 Colombia, Bogotá"
"RESTREPO ROSARIO";;;"(57) (2) 8213416";"Cl 7 8-52 Colombia, Popayán"
"FLORISTERÍA PETALOS";;;"(57) (4) 2538841";"Cl 43 86 A-48 Colombia, Medellín"
DECORCINTAS;;;"(57) (1) 3332498";"Cr7 9-41 S Colombia, Bogotá"
"FLORISTERÍA LOS GERANIOS";;;"(57) (7) 5741376";"Cl 1 0-130 Lleras Colombia, Cúcuta"
"BETTY FLOR";;;"(57) (1) 3110965";"Cl 67 B 65 A-55 Colombia, Bogotá"
"FLORES WILLY";;;"(57) (4) 3543517";"Cl 28 77-00 Int 7000 Colombia, Medellín"
"FLORISTERÍA CHARLY";;;"(57) (4) 5485321";"Cl 30 # 31-70 Marinilla Colombia, Medellín"
"FLORISTERÍA LAS PALMERAS";;;"(57) (1) 2478249";"Cr27 2 B-60 Colombia, Bogotá"
"AMPARO'S FLORISTERÍA";;;"(57) (6) 7451208";"Cr14 3 N-18 Colombia, Armenia"
"FLORISTERÍA MARGARETH";;;"(57) (6) 7422552";"Cr24 37-52 Colombia, Calarcá"
"ALIRIO FLORISTERÍA";;;"(57) (6) 7440443";"Manz 18 Casa 9 La Unión Colombia, Armenia"
"ARREGLOS Y DECORACIONES MAXIFLORES";;;"(57) (7) 6302819";"Cr19 39-05 Colombia, Bucaramanga"
"FLORISTERÍA MENSAJES FLORALES";;;"(57) (4) 4120500";"Medellín Colombia, Medellín"
"NEVADA FLORA S.A.S.";;;"(57) (4) 5681463";"La Ceja Vda Las Lomitas Colombia, Medellín"
"FLORISTERÍA JARDÍN AMERICANO";;;"(57) (5) 5707301";"Cl 15 A 8 A-21 Colombia, Valledupar"
"FLORISTERÍA HALAGOS";;;"(57) (4) 2654051";"Cr63 B 36-07 Ap 501 Colombia, Medellín"
"FLORISTERÍA JARDÍN DE FLORES";;;"(57) (8) 5120489";"Cr4 16-99 Brr. Obrero Colombia, San Andrés"
"FLORISTERÍA MARGARITA";;;"(57) (4) 8395486";"Cr6 18-25 Colombia, Caucasia"
"FLORES Y MOTIVOS";;;"(57) (1) 6047808";"C.C. Colina Campestre-Mall 138 Colombia, Bogotá"
"DISTRIFLORES NORTE";;;"(57) (2) 8232060";"Cr9 18 N-55 Colombia, Popayán"
"FLORISTERÍA SENTIMIENTOS FLORALES";;;"(57) (4) 8663826";"Cr27 27-39 Colombia, Don Matías"
"FLORISTERIA VANESSA";;;"(57) 3175121324";"cr1 6-15 Colombia, Pitalito"
"FERNANDO CAMARGO EVENTOS";;;"(57) (5) 5700415";"Cr9 13-58 Colombia, Valledupar"
"AN FLORES VARIEDADES Y FLORISTERÍA";;;"(57) (5) 7270975";"Cl 13 10-109 Colombia, Riohacha"
"FLORISTERÍA Y EVENTOS MARILYM";;;"(57) (8) 5927004";"Cl 8 8-11 Colombia, Leticia"
"FLORISTERÍA JHOBESAN";;;"(57) (4) 2743154";"Cr50 48-39 Copacabana Colombia, Medellín"
HIPER-KASA;;;"(57) (7) 6424224";"Cl 45 14-24 Colombia, Bucaramanga"
"ABACO FLORISTERÍA";;;"(57) (5) 6560419";"Crespo Av6 67-92 Int 1 Colombia, Cartagena"
"FLORISTERÍA BACCARA";;;"(57) (1) 2831575";"Cr10 15-78 L-227 Colombia, Bogotá"
"FLORISTERÍA PATRICIA";;;"(57) (2) 5535329";"Cl 9 C 40 A-72 Colombia, Cali"
"GALERÍA FLORES Y DETALLES";;;"(57) (5) 4320431";"Cr6 17-19 Colombia, Santa Marta"
"PRADO FLORISTERÍA BANQUETES";;;"(57) 3122083066";"Cl 15 14-38 Colombia, Armenia"
"ARREGLOS FLORALES ORGASMIC";;;"(57) (2) 6805434";"Cl 5 24 A-44 Colombia, Cali"
"FLORISTERÍA LAS PALMAS";;;"(57) (2) 2293647";"Cr15 19-142 Colombia, La Unión"
"FLORISTERÍA EL TEMPLETE";;;"(57) (2) 4042654";"Cr36 7-29 Colombia, Cali"
"FLORISTERÍA OLGUITA";;;"(57) (5) 4213347";"Cl 14 7-23 Colombia, Santa Marta"
"FLORISTERÍA PARAÍSO FLORAL";;;"(57) (7) 6541881";"Cl 7 11-80 San Rafael Colombia, Bucaramanga"
"FLORISTERÍA ARTE Y DISEÑO AMERICANO";;;"(57) (5) 4210574";"Cl 15 7-04 Colombia, Santa Marta"
"First Name";"Email Address";Url;Telephone;Address
DECORCINTAS;;;"(57) (2) 5567077";"Cl 8 37-47 Colombia, Cali"
"DETALLES DE CHOCOLATE";;;"(57) (2) 5216480";"La Buitrera Km 5 Colombia, Cali"
"FLORISTERIA YELALIZ";;;"(57) (7) 6489436";"Cr7 7-64 Floridablanca Colombia, Floridablanca"
"EL FOLLAJE FLORISTERIA";;;"(57) (2) 5532399";"Cl 9 40-98 Colombia, Cali"
"FLORISTERÍA ASTOR GARDENS";;;"(57) (6) 3339524";"Cr6 14-18 Colombia, Pereira"
"FLORES & FLORES CÚCUTA";;;"(57) (7) 5743497";"Av 0 3-60 Lleras Restrepo Colombia, Cúcuta"
"HERMES FLORISTERÍA";;;"(57) (7) 5846423";"Urb Santillana Int 212 Vía Boconó Colombia, Cúcuta"
"FLORISTERIA KENYA";;;"(57) (1) 2495029";"Cl 78 16 A - 40 Colombia, Bogotá"
SURTIFLOR;;;"(57) (2) 2127766";"Cr3 10-43 Colombia, Cartago"
"FLORISTERÍA Y DECORACIONES REINAS DEL VALLE";;;"(57) (2) 2726881";"Cr41 37-35 Colombia, Palmira"
"FLORISTERIA DURLEY";;;"(57) (7) 6022871";"Cl 50 20-30 Colombia Colombia, Barrancabermeja"
"FLORISTERÍA MOTIVOS";;;"(57) (8) 2664192";"Av37 10-30 Gaitán Colombia, Ibagué"
"EL DETALLE FLORISTERÍA";;;"(57) (1) 8351061";"Cr9 18-45 Colombia, Girardot"
"ALMACÉN FLORISTERÍA JULIAN'S";;;"(57) (8) 2662305";"Cr5 39-76 Colombia, Ibagué"
"MIRANDA FLORISTERÍA";;;"(57) (1) 5430903";"Cr13 68-14 L-102 Colombia, Bogotá"
"ARREGLOS Y FLORISTERIA KATANITA";;;"(57) (7) 6496940";"Cr6 7-71 Floridablanca Colombia, Floridablanca"
"ARTE Y FLORES FLORISTERÍA";;;"(57) (2) 5249596";"Cl 9 37 A-54 Colombia, Cali"
"ARREGLOS FLORALES YIREH A DOMICILIO";;;"(57) (2) 6649464";"Cl 52 N Av8-1-48 Alto Menga Colombia, Cali"
"FUNERALES LA MARIA S.A.S.";;;"(57) (2) 2750866";"Cr33 A 24-06 Colombia, Palmira"
"FLORISTERÍA Y DISTRIBUIDORA DETALLES CON AMOR";;;"(57) (2) 2103105";"Cr5 17-90 Colombia, Cartago"
"FLORISTERIA VENECIA";;;"(57) (1) 2697530";"Cr 20 No 25-31 Colombia, Bogotá"
"FLOR DE LIZ";;;"(57) (5) 3308585";"Cr43 79-72 Colombia, Barranquilla"
"FLORISTERÍA MIS PETALOS";;;"(57) (7) 6427391";"Bucaramanga Colombia, Bucaramanga"
"EVENTOS ALQUILERES Y FLORISTERIA MIS PETALOS";;;"(57) (7) 6427391";"Cr18 Occ 36-35 Colombia, Bucaramanga"
"NARANJO ORTEGA Y CIA";;;"(57) (1) 6271470";"Tr14 128-75 Ap 301 Colombia, Bogotá"
"FLORISTERÍA ROLEY'S";;;"(57) (2) 8216646";"Cl 4 20-88 Colombia, Popayán"
"ORQUIDEAS ROYAL";;;"(57) (1) 2560514";"Cr7 85-47 L-101 Colombia, Bogotá"
"LLUVIA FLORAL";;;"(57) (1) 3484802";"Cr20 72-13 P-2 Colombia, Bogotá"
"FLORISTERÍA CLARA INÉS";;;"(57) (1) 2612093";"Cr60 5 B-11 Colombia, Bogotá"
"FLORISTERÍA KARISMA TROPICAL";;;"(57) (1) 6916531";"Tr17 A 97-64 Colombia, Bogotá"
"FLORISTERÍA LOS ANGELES";;;"(57) (1) 2833608";"Cl 18 12-07 Colombia, Bogotá"
"FLORISTERÍA PISTILOS";;;"(57) (7) 5713591";"Av2 11-25 Centro Colombia, Cúcuta"
"EUROFLOR FLORISTERIA";;;"(57) (1) 6231501";"Tr24 83-20 Colombia, Bogotá"
"MOTIVOS Y DETALLES VERACRUZ";;;"(57) (4) 2174348";"Cr39 50-25 Colombia, Medellín"
"FLORISTERÍA ENCANTOS Y SENTIMIENTOS";;;"(57) (4) 2182083";"Cr39 # 49-45 Colombia, Medellín"
"FLORISTERÍA Y DECORACIONES SANTA ANA";;;"(57) (4) 2399403";"Cl 50 # 38-07 Colombia, Medellín"
"FLORISTERÍA ARTÍSTICA ESNEDA GRAJALES";;;"(57) (2) 8937946";"Cr13 # 1 A-35 Colombia, Cali"
"FLORISTERÍA IDEAR";;;"(57) (2) 4011118";"Cr46 # 43-42 Colombia, Cali"
"FLORISTERÍA GANESHA";;;"(57) (5) 6630470";"Tr71 E 31 A-60 Colombia, Cartagena"
"ASALEM FLORISTERÍA";;;"(57) (1) 2046703";"Av 1 de Mayo 52 C-27 Colombia, Bogotá"
"First Name";"Email Address";Url;Telephone;Address
"FLOWER SHOP";;;"(57) (75) 5624680";"Cr12 7-02 L-3 Pasos Arriba Cementerio Central Colombia, Ocaña"
"FLORISTERÍA ABC DE LAS FLORES";;;"(57) (8) 8360138";"Cl 6 4-60 Colombia, Pitalito"
"FLORISTERIA LOREN'S";;;"(57) (2) 6802443";"Cl 9 24-24 L-204 Colombia, Cali"
"FLORISTERÍA VILLAMARÍA";;;"(57) (2) 4482429";"Cl 30 1-54 Colombia, Cali"
"FLORISTERÍA Y DECORACIONES REINAS DEL VALLE";;;"(57) (2) 2726881";"Cr41 37-35 Colombia, Palmira"
"FLORES MARCELITAS";;;"(57) (1) 2644413";"Av1 de Mayo 75-58 S Colombia, Bogotá"
"FLORISTERIA ADRIANA";;;"(57) (7) 6701909";"Cl 36 28-43 Colombia, Bucaramanga"
"FLORISTERÍA TOQUE DE DISTINCIÓN";;;"(57) (1) 8327332";"Cl 16 8-26 Centro Colombia, Girardot"
"ANDRY CAMILA FLORISTERÍA";;;"(57) (7) 6347100";"Cl 14 A 32 B-71 Ap 303 Colombia, Bucaramanga"
"DISTRIBUIDORA MULTIFLOR";;;"(57) (7) 6358379";"Cr34 # 37-19 Colombia, Bucaramanga"
"ARREGLOS FLORALES YIREH A DOMICILIO";;;"(57) (2) 6649464";"Cl 52 N Av8-1-48 Alto Menga Colombia, Cali"
"FLORISTERÍA IMPERIO FLORAL";;;"(57) (2) 5243484";"Cr50 14-15 Colombia, Cali"
"DECORACION FARITZA";;;"Nal: (57) (4) 2813955";"Cl 43 50 - 57 Colombia, Medellín"
"ESENCIA CONCEPTOS FLORALES";;;"(57) (2) 6618802";"Av8N 22-28 Colombia, Cali"
"GUERRERO RAFAEL";;;"(57) (1) 2684958";"Av (Cl) 26 18-71 Colombia, Bogotá"
"FLORISTERÍA LA ULTIMA LÁGRIMA";;;"(57) (7) 5703158";"Cr8 0 N-02 Santander Villa del Rosario Colombia, Cúcuta"
"FLORCENTER LTDA";;;"(57) (1) 2561156";"Cll 85 18-11 P-1 Colombia, Bogotá"
"FLORISTERÍA SIMBIDIUM";;;"(57) (6) 8881446";"Cr25 47-15 Colombia, Manizales"
"FLORISTERÍA GUILLE";;;"Domic.: (57) (6) 3310227";"Cr10 5-39 Colombia, Pereira"
"FLORISTERÍA LA ITALIANITA";;;"(57) (7) 5710449";"Cl 14 0-68 Colombia, Cúcuta"
"FLORISTERÍA LAS MARGARITAS";;;"(57) (1) 6740548";"Cl 167 50-13 Colombia, Bogotá"
"FLORÍSTERÍA SARÓN";;;"(57) (1) 2136657";"Cl 119 14-30 Colombia, Bogotá"
"FLORISTERÍA EXÓTICAS VILLA MYRIAM";;;"(57) (5) 4231251";"Cl 18 5-19 Colombia, Santa Marta"
"FLORISTERÍA MIRIAM & MARLON";;;"(57) (5) 4233616";"Cl 20 6-18 Colombia, Santa Marta"
"FLORISTERÍA ABDA";;;"(57) (1) 6300297";"Cl 78 61-61 Colombia, Bogotá"
"BALLESTEROS ANDREA";;;"(57) (1) 6060712";"Cr11 69-10 Colombia, Bogotá"
"DARLY FLORISTERÍA";;;"(57) (2) 7251781";"Cr7 10-25 Colombia, Ipiales"
"CUPIDO FLORES & BONSAI";;;"(57) (1) 2865668";"Av Jmz 4-96 Colombia, Bogotá"
"ARTE FLOR";;;"(57) (7) 5717153";"Cl 11 1-19 Centro Colombia, Cúcuta"
"FLORES PALOVERDE BLIS";;;"(57) (7) 5772706";"Av0 1 A-14 Colombia, Cúcuta"
"EL JARDÍN DE LUCÍA";;;"(57) (7) 5731510";"Av2 11-62 Centro Colombia, Cúcuta"
"FLORISTERÍA EL JARDÍN DE COLOMBIA";;;"(57) (7) 5740703";"Cl 1 7 E-135 Colombia, Cúcuta"
"FLORISTERÍA LA ROSSERIA";;;"(57) (4) 4128997";"Cr82 # 44-37 Colombia, Medellín"
DECORCAJAS;;;"(57) (4) 2280093";"Cl 40 42-56 Colombia, Medellín"
"FLORISTERÍA VALERIA";;;"(57) (6) 7486715";"Mercar Pabellón 2 L-11 Colombia, Armenia"
"FLORISTERÍA VICTORIA E.";;;"(57) (4) 3812234";"Cl 31 # 42 A-25 Ap 102 Colombia, Medellín"
"TAWI FLOWERS S.A.S.";;;"Telefax: (57) (1) 7511230";"Cr57 A Bis 128-78 Colombia, Bogotá"
"FLORISTERÍA LOS DETALLES QUE ENAMORAN";;;"(57) (1) 7136250";"Cr32 B 10-23 S Colombia, Bogotá"
"FLORISTERIA KAREN";;;"(57) (5) 6626707";"Cl 30 48 B-115 Colombia, Cartagena"
"EQUILIBRIO FLORAL";;;"(57) (4) 3771857";"Cr48 45-13 Colombia, Medellín"
"First Name";"Email Address";Url;Telephone;Address
"VARGAS NOHEMÍ - FLORISTERÍA";;;"(57) (1) 3477852";"Dg54 14-68 Colombia, Bogotá"
"FLORISTERÍA GOOD NESS";;;"(57) (4) 4064412";"Cr13 15-40 Colombia, Medellín"
"FLORISTERÍA PIPI";;;"(57) (5) 7273659";"Cr6 3-42 Colombia, Riohacha"
"GARDEN FLORES Y DETALLES";;;"(57) (6) 7325696";"Cl 2 N 18-36 Colombia, Armenia"
"FLORISTERÍA DEMOSTRACIONES";;;"(57) (7) 5832137";"Cl 11 1-30 Centro Colombia, Cúcuta"
"FLORISTERÍA OFRENDAS FLORALES";;;"(57) (5) 3568810";"Cr49 C 79-72 Colombia, Barranquilla"
"POBLADO DE LAS FLORES";;;"(57) (6) 3381202";"Et II Manz 41 Casa 3 Poblado Colombia, Pereira"
"FLORES DEL NORTE";;;"(57) (5) 3781787";"Cl 96 A# 49 C-96 Colombia, Barranquilla"
"FLORISTERÍA INESITA";;;"(57) (6) 8533090";"Cr 4 14-26 Colombia, Anserma"
"FLORISTERÍA AL ALÁ";;;"(57) (5) 6654051";"Cr4 7-97 Colombia, Cartagena"
"FLORISTERÍA JARDÍN BOGOTÁ";;;"(57) (1) 2693020";"Cr20 25-36 Colombia, Bogotá"
"FLORISTERÍA VENUS GALATAS";;;"(57) (8) 8710667";"Cr6 9-70 Colombia, Neiva"
"BELLEZA Y FLORES";;;"(57) (4) 8665847";"Cr29 30-29 Colombia, Don Matías"
"FLORISTERÍA DIEGO";;;"(57) (1) 7607979";"Cr19 A 55-22 S Colombia, Bogotá"
"SUÁREZ YUDY";;;"(57) (1) 2281374";"Cr94 P 88 A-08 Casa 105 Colombia, Bogotá"
"FLORISTERÍA DINALQUI";;;"(57) (2) 5567844";"Tr9 B 28-21 Colombia, Cali"
"ALMACÉN LINDAS FIESTAS - FLORES Y EVENTOS";;;"(57) (5) 6604505";"Cl 26 18 B-64 Av Jiménez Colombia, Cartagena"
"FLORES MAJHU";;;"(57) (1) 5333165";"Cl 101 70 G-98 L-3 Colombia, Bogotá"
"FLORISTERÍA Y MANUALIDADES LOS ANGELES";;;"(57) (2) 8220527";"Cr11 A 12 B-17 Colombia, Popayán"
"FLORISTERÍA EL PALACIO DE LAS FLORES";;;"(57) (7) 6454600";"Cr30 # 20-63 L-2 Colombia, Bucaramanga"
"FLORISTERÍA JARDÍN DE FLORES";;;"(57) (8) 5120489";"Cr4 16-99 Brr. Obrero Colombia, San Andrés"
"LEÓN BELTRÁN GRACIELA";;;"(57) (1) 2315364";"Cr34 67-77 Colombia, Bogotá"
"FLORISTERÍA Y DETALLES OLMA®RS";;;"(57) (4) 8394291";"Cl 20 6-14 Colombia, Caucasia"
"MAYORGA ALBA LIA";;;"(57) (1) 3100693";"Cr13 (Cl) 68 L-25 Colombia, Bogotá"
"FLORISTERÍA LA VIOLETA";;;"(57) (6) 7454888";"Cr 15 16-62 Colombia, Armenia"
"FLORISTERIA DOLLY";;;"(57) (1) 5423731";"Cr13 (Cl) 68 L-25 Colombia, Bogotá"
"FLORISTERÍA ALEJÁNDRA";;;"(57) (8) 1000001";"Cl 21 11-50 Colombia, Tunja"
"AN FLORES VARIEDADES Y FLORISTERÍA";;;"(57) (5) 7270975";"Cl 13 10-109 Colombia, Riohacha"
"DISTRIBUIDORA EL MUNDO DE LAS FLORES";;;"(57) (8) 6349013";"Cl 9 24-45 Yopal Colombia, Yopal"
"FLORISTERÍA LUCÍA";;;"(57) (1) 6020598";"Cl 129 51 A-17 Colombia, Bogotá"
"FLORISTERÍA TERNURA";;;"(57) (6) 3642765";"Cr15 15-87 Colombia, Santa Rosa de Cabal"
"INVIAS - INSTITUTO NACIONAL DE VÍAS";;;"(57) (8) 6646492";"Tr28 41-91 P-2-3 Colombia, Villavicencio"
"FLORISTERÍA SAN FRANCISCO";;;"(57) (8) 7422234";"Cr10 22-52 Colombia, Tunja"
ROMÁNTICAS;;;"(57) 3012008237";"Cr5 17-82 Colombia, Ibagué"
"DEPOSITO Y FLORISTERÍA GHERALDIN";;;"(57) (2) 8962698";"Cr10 12-62 Colombia, Cali"
"FLORISTERÍA LOLÓ";;;"(57) (2) 4462931";"Cr7 44 Bis-05 Colombia, Cali"
"BOLAÑOS MUÑOZ MERY";;;"(57) (2) 6812993";"Cl 3 42-22 Colombia, Cali"
"FLORISTERÍA LESLY ANDREA";;;"(57) (2) 8855678";"Cr10 # 10-24 Colombia, Cali"
"CESAR DELGADO/ RINCÓN DE LAS FLORES";;;"(57) (2) 6588546";"Cl 9 5-53 P-1 Yumbo Colombia, Yumbo"
DECORCINTAS;;;"(57) (2) 5567077";"Cl 8 37-47 Colombia, Cali"
"First Name";"Email Address";Url;Telephone;Address
"FLORISTERÍA CECY";;;"(57) (1) 6876413";"Cr 107 140-33 Colombia, Bogotá"
"FLORISTERÍA CARIÑO";;;"(57) (5) 4231579";"Cr7 entre Cl 20 y 21 L-3 Colombia, Santa Marta"
"SUÁREZ YUDY";;;"(57) (1) 2281374";"Cr94 P 88 A-08 Casa 105 Colombia, Bogotá"
"FLOWERS AND SERVICES";;;"(57) (1) 2126181";"Cl 69 11 A-92 P-2 Colombia, Bogotá"
"AMERICAN FLOWERS";;;"(57) (5) 3565688";"Cl 76 43 B-34 Colombia, Barranquilla"
"FLORISTERÍA LE BOUQUET";;;"(57) (5) 3563313";"Cr51 B No. 82-187 Colombia, Barranquilla"
"FLORISTERÍA AGAPANTO";;;"(57) (5) 3721421";"Cr38 No. 58-28 Colombia, Barranquilla"
"ELIZABETH SILVA EVENTOS & DECORACIONES";;;"(57) (5) 5844559";"Cr19A1 8-45 Colombia, Valledupar"
"FLORES SANTA SOFÍA";;;"(57) 3184780013";"Cr10 5-30 Centro Colombia, Popayán"
"CANASTOS J.G.A";;;"(57) (4) 2117914";"Cr58 DD 83 E-25 Ap 106 Colombia, Medellín"
"FLORISTERÍA JARDÍN BABILONIA";;;"(57) (52) 6860404";"Cl 24 Cr53 Colombia, El Carmen de Bolívar"
"FLORISTERÍA SAN PABLO";;;"(57) (4) 5865646";"Cr65 19-36 Colombia, Medellín"
"ADORNOS FLORALES FLORISTERA LAS AMERICAS";;;"(57) (4) 2173488";"Cl 46 37-45 Colombia, Medellín"
"FLORISTERÍA JARDIN ENVIGADO";;;"(57) (4) 3332970";"Cl 34 S 43 A-41 Colombia, Envigado"
"FIESTAS Y BANQUETES FERCHI FLORES";;;"(57) (4) 5621374";"Cr56 # 40-33 Colombia, Medellín"
"FLORES Y AROMAS FLORISTERIA";;;"(57) (4) 8290083";"Cl 98 102- 12 Colombia, Apartadó"
"FLORISTERÍA LAURA";;;"(57) (28) 8292969";"Cr12 6-34 Colombia, Santander de Quilichao"
"FLORES DE COLOMBIA FLORISTERÍA";;;"(57) (1) 4517288";"Av1 de Mayo-71 D-45 Colombia, Bogotá"
"FLORISTERÍA PICAFLOR";;;"(57) (4) 8272653";"Cr14 107-23 Colombia, Turbo"
"FLORISTERÍA ALEJÁNDRA";;;"(57) (8) 1000001";"Cl 21 11-50 Colombia, Tunja"
"EL JARDÍN FLORISTERÍA";;;"(57) (76) 5653913";"Cl 1 15-36 Br La Primavera Colombia, Aguachica"
"FLORISTERÍA BOTANICA";;;"(57) (5) 3735910";"Cr50 84-146 Colombia, Barranquilla"
"FLORISTERÍA LAS ORQUIDEAS";;;"(57) (8) 6703489";"Cl 42 33-36 El Triunfo Colombia, Villavicencio"
"FLORISTERÍA LA MANSIÓN DE LA FLOR";;;"(57) 3206472013";"Cl 4 19-62 Colombia, Popayán"
"I.E. COLEGIO JORGE ELIÉCER GAITÁN AYALA";;;"(57) (8) 6717640";"Cl 36 A 17-00 Colombia, Villavicencio"
"FLORISTERÍA HOLANDESA";;;"(57) 3123277453";"Cl 18 10-101 Colombia, Tunja"
"FLORISTERÍA LIRIO DE PLATA";;;"(57) (4) 2861625";"Cr6 Este 10-61 Colombia, Medellín"
"COTELCO ASOCIACIÓN HOTELERA Y TURÍSTICA DE COLOMBIA CAPITULO META Y LLANOS ORIENTALES";;;"(57) (8) 6686737";"Av 40 24 A-71 P-2 C.C. Villavicencio Colombia, Villavicencio"
"FLÓREZ AMAYA MARÍA ELENA";;;"(57) (1) 6409178";"Av (Cr) 15 77-5 L-228 Colombia, Bogotá"
"FLORES CARISMA";;;"(57) (8) 6729881";"Av40 20-05 L-3 Colombia, Villavicencio"
"HAWAY FLORISTERÍA";;;"(57) (1) 6601647";"Cr62 77-30 Colombia, Bogotá"
"FLORISTERÍA SAN CARLOS ZIPAQUIRA";;;"(57) 3202652629";"Cl 12 18-10 Colombia, Bogotá"
"FLORES MUNDO FLOR";;;"(57) (4) 4113777";"Cr76 32 C-31 Colombia, Medellín"
"FLORISTERÍA CAROLITA";;;"(57) (2) 6842766";"Cl 9 A 42-55 Colombia, Cali"
"FLORISTERÍA ANGYE";;;"(57) (2) 6695594";"Cl 3 4-71 Yumbo Colombia, Yumbo"
"FLORISTERÍA LA HOJARASCA";;;"(57) (4) 2569330";"Cl 15 # 80-105 Colombia, Medellín"
"DON ELOY";;;"(57) (4) 3115734";"Cr37 8 A-51 Colombia, Medellín"
"FLORISTERÍA MABEL";;;"(57) (4) 4131650";"Cr73 # 40-36 Colombia, Medellín"
"YOLI'S FLORISTERIA";;;"(57) (2) 8807839";"Cr10 11-29 Colombia, Cali"
"FLORISTERÍA LAURITA";;;"(57) (4) 3011135";"Cl 75 S# 46 B-52 Sabaneta Colombia, Sabaneta"
"First Name";"Email Address";Url;Telephone;Address
"FLORARTE - WILLIAM BAENA";;;"(57) (5) 6653989";"Bgde Cr1 2-87 L-8 Hotel Caribe Colombia, Cartagena"
"FLORES PRIMAVERA";;;"(57) (2) 8315776";"Cl 4 21-26 Colombia, Popayán"
"ASALEM FLORISTERÍA";;;"(57) (1) 2046703";"Av 1 de Mayo 52 C-27 Colombia, Bogotá"
"FLORISTERÍA STELLA";;;"(57) (6) 7440777";"Cr18 Cl 17 L-III-IV C.C. Armenia Colombia, Armenia"
"FLORISTERÍA LA UNICA";;;"(57) (4) 3037381";"Cl 136 S 49-58 Caldas Colombia, Medellín"
"FLORISTERIA DECORACIONES & DETALLES SARITA";;;"(57) 3184600992";"cra 3 15-22 Colombia, Neiva"
"FLORISTERÍA AL ALÁ";;;"(57) (5) 6654051";"Cr4 7-97 Colombia, Cartagena"
"FLORISTERIA ANA ISABEL";;;"(57) (1) 6303904";"Cr69 P 73-46 Colombia, Bogotá"
"FLORISTERÍA FRECIA";;;"(57) (8) 8720166";"Cl 8 7-61 Colombia, Neiva"
"FLORES YINE";;;"(57) (1) 4519095";"Cl 42 A S 86 G-18 Colombia, Bogotá"
"FLORISTERÍA JARDÍN AMERICANO";;;"(57) (5) 5707301";"Cl 15 A 8 A-21 Colombia, Valledupar"
"FLORISTERIA NANCY";;;"(57) (5) 3749650";"Cr31 No. 24-21 Colombia, Barranquilla"
"LA FLORERÍA DE ARACELLY";;;"(57) (4) 2560701";"Cl 30 # 74-14 Colombia, Medellín"
"CANO AVENDAÑO CARMEN JULIO";;;"(57) (1) 7112750";"Diagonal 47 a Sur # 52-08 Colombia, Bogotá"
"FLOWERS TO GO";;;"(57) (4) 3322783";"Cl 37 B S 27 D-112 Int 117 Colombia, Medellín"
"FERNANDO CAMARGO EVENTOS";;;"(57) (5) 5700415";"Cr9 13-58 Colombia, Valledupar"
"AGENCIA FLORISTERÍA Y DISTRIBUIDORA ROSA DE SARÓN";;;"(57) (5) 3657777";"Cr20 B 64 C-41 Colombia, Barranquilla"
MARIPOSAS;;;"(57) (6) 3306859";"Cr20 D 21-03 La Pradera Dosquebradas Colombia, Pereira"
"MONTEMADERO FLORES Y DETALLES";;;"(57) (1) 6682071";"Cl 161 19 A-55 Colombia, Bogotá"
"SUÁREZ PINZÓN GILBERTO";;;"(57) (1) 5406206";"Av (Cr) 13 68-48 Colombia, Bogotá"
"I.E. COLEGIO JORGE ELIÉCER GAITÁN AYALA";;;"(57) (8) 6717640";"Cl 36 A 17-00 Colombia, Villavicencio"
"FLORISTERÍA IGOR";;;"(57) (7) 6525739";"Cl 45 12 Pto-03 García Rovira Colombia, Bucaramanga"
"COTELCO ASOCIACIÓN HOTELERA Y TURÍSTICA DE COLOMBIA CAPITULO META Y LLANOS ORIENTALES";;;"(57) (8) 6686737";"Av 40 24 A-71 P-2 C.C. Villavicencio Colombia, Villavicencio"
"ACELA LUZ FLORISTERÍA";;;"(57) (5) 4230739";"Cr15 25-03 Colombia, Santa Marta"
"FLORISTERÍA JARDÍN KARLA";;;"(57) (4) 4060232";"Cl 13 18-18 Colombia, Medellín"
"FLORISTERÍA JARDÍN LARÍN";;;"(57) (4) 2811742";"Cr49 51-18 Itagüí Colombia, Medellín"
"FLORISTERIA BELLA FLOR";;;"(57) (2) 8300200";"Cl 4 19-26 Colombia, Popayán"
"FLORISTERÍA LESLY ANDREA";;;"(57) (2) 8855678";"Cr10 # 10-24 Colombia, Cali"
"FLORISTERÍA CAMELIA";;;"(57) (2) 6684791";"Av8 N 13 N-45 Colombia, Cali"
DEKOFLORA;;;"(57) (4) 3138717";"Cl 23 Sur 27B-58 Colombia, Medellín"
"FLORISTERÍA LA PLACITA DE LAS FLORES";;;"(57) (2) 6833128";"Cl 41 24 A-17 Colombia, Cali"
"CASA DE NAVIDAD CINTAS Y COLORES";;;"(57) (4) 2344342";"Cl 50 79-21 Colombia, Medellín"
"FLORISTERÍA Y REPOSTERÍA TRES ASES";;;"(57) (2) 5543725";"Cl 10 29 B-61 Colombia, Cali"
"FLORISTERÍA ARTES DEL GIRASOL";;;"(57) (2) 8959665";"Cr10 12-62 L-108 Colombia, Cali"
"FLORISTERÍA JARDINES DE ESPAÑA FLORAL";;;"(57) 7260814";"Cl 9 Cr.12 y 13 Local 10 Colombia, Maicao"
"FLORISTERÍA GALES";;;"(57) (2) 2642531";"Cl 7 6-03 Colombia, Florida"
"MARTINEZ NELLY FLORISTERIA";;;"(57) (7) 6426108";"Cl 45 Cr13 Pto 40 Colombia, Bucaramanga"
"ARREGLOS IKEBANA FLORERÍA";;;"(57) (8) 2648482";"Cr5 39 A-34 L-101 Colombia, Ibagué"
"FLORISTERÍA PILIFAN";;;"(57) (1) 8331993";"Cl 20 12-35 Colombia, Girardot"
"FLOWER MARKET";;;"(57) (2) 6643739";"Cl 55 A N 2 A-99 B 3 Colombia, Cali"
"First Name";"Email Address";Url;Telephone;Address
"FLORISTERÍA CRISTY";;;"(57) (8) 6580798";"Cr13 16-17 Centro Colombia, Granada"
"FLORISTERÍA LAS MARGARITAS";;;"(57) (1) 6740548";"Cl 167 50-13 Colombia, Bogotá"
"A. MY LOVE FLORISTERÍA";;;"(57) (5) 4231168";"Cr6 28 A-44 Colombia, Santa Marta"
"LÓPEZ HUGO ALEXANDER";;;"(57) (1) 6774773";"Cr8 CBis 162-21 Colombia, Bogotá"
"FLORISTERÍA SANTA MARTA";;;"(57) (5) 4317080";"Cr7 20-14 Colombia, Santa Marta"
"ASTER JARDÍN FLORISTERÍA";;;"(57) (5) 8780806";"Cl 22 17-69 L-1 Colombia, Sabanalarga"
"FLORISTERÍA DECODAL";;;"(57) (5) 5742477";"Cr9 Cl 15 A Esq frente Cementerio Central Colombia, Valledupar"
"FLORISTERÍA CLARA INÉS";;;"(57) (1) 2612093";"Cr60 5 B-11 Colombia, Bogotá"
"UNICALLAS DE COLOMBIA LTDA.";;;"(57) (4) 5560489";"Vereda La Concha La unión Colombia, Medellín"
"FLORES Y DETALLES GLORIA";;;"(57) (2) 8855325";"Cl 16 5-56 Of 258 Colombia, Cali"
"FLORISTERÍA ROMA";;;"(57) (75) 5682416";"Cr7 3-37 El Humilladero Colombia, Pamplona"
"FLORISTERÍA UNCARIÑO";;;"(57) (2) 5565308";"Cl 8 31 A-34 Colombia, Cali"
"FLORISTERÍA SANTA EDUVIJES";;;"(57) (7) 5753948";"Av 0 3-86 Lleras Colombia, Cúcuta"
"EMPAQUES Y FLORES";;;"(57) (4) 2764398";"Cr27 D 34 DD S-83 Colombia, Medellín"
DECORCAJAS;;;"(57) (4) 2280093";"Cl 40 42-56 Colombia, Medellín"
"FLORISTERÍA ROSA REAL";;;"(57) (4) 2705938";"Cr42 B# 45 B S-29 Colombia, Medellín"
"FLORISTERÍA ANGIE";;;"(57) (4) 2161959";"Cr39 50-25 Int 3173 Colombia, Medellín"
"FLORES SARAHLÚ";;;"(57) (1) 4527429";"Av1 de Mayo 66-31 Colombia, Bogotá"
"LUZ MARINA HERNANDEZ";;;"(57) (5) 6648714";"Cl 33 # 2-28 Cl Baloco y Santo Domingo Colombia, Cartagena"
"FLORISTERÍA DORIS";;;"(57) (5) 6676617";"Et 2 Manz 15 Lt 1 Colombia, Cartagena"
"FLORISTERÍA TERNURA";;;"(57) (6) 3642765";"Cr15 15-87 Colombia, Santa Rosa de Cabal"
"RUMBAS Y FESTEJOS";;;"(57) (5) 6714448";"C.C. Los Ejecutivos Av Pedro de Heredia L-D 1-D 2 Colombia, Cartagena"
"ADONAY FLORISTERÍA";;;"(57) (1) 6717859";"Cl 161 39-99 Colombia, Bogotá"
"JARDÍN Y FLORISTERÍA NISSI";;;"(57) (5) 6623879";"Cr 44 D#28-21 Calle Córdoba Colombia, Cartagena"
"JARDÍN Y FLORISTERÍA ROCÍO";;;"(57) 3743720";"Cr27 21-86 Soledad Colombia, Soledad"
"FLORISTERÍA SANTA TERESITA";;;"(57) (1) 2402424";"Cr34 67-80 Colombia, Bogotá"
"FLORISTERÍA JARDÍNES DE VENECIA";;;"(57) (1) 7416959";"Dg49 S 51-65 Colombia, Bogotá"
"FLOR & FRESA";;;"(57) (1) 2151364";"Dg109 18B-22 Int 1 Colombia, Bogotá"
"FLORISTERÍA STELLA";;;"(57) (6) 7440777";"Cr18 Cl 17 L-III-IV C.C. Armenia Colombia, Armenia"
"XIAN FLOWERS Y BAMBUÉS";;;"(57) (1) 6043017";"Av Suba 100-43 Colombia, Bogotá"
"ROSAS EN CASA";;;"(57) (1) 8038717";"Cr15 104-84 Colombia, Bogotá"
"FLORISTERÍA AROMA A JARDÍN";;;"(57) (6) 7319930";"Cr15 12-27 L-1 Colombia, Armenia"
"FLORISTERIA ARCA FLORAL";;;"(57) 3116633881";"Cl 45 1 Sur-31 Colombia, Barranquilla"
"FLORISTERÍA OFRENDAS FLORALES";;;"(57) (5) 3568810";"Cr49 C 79-72 Colombia, Barranquilla"
"FLORISTERIA Y VARIEDADES GIRARDOTA";;;"(57) (4) 2800564";"Cl 7 17-48 Girardota Colombia, Medellín"
"FLORES Y EVENTOS DAYAN";;;"(57) (8) 2700783";"Av Guabinal 8 B-35 Colombia, Ibagué"
"FLORISTERÍA PARAISO FLORAL";;;"(57) (7) 6541881";"Cl 7 11-80 San Rafael Colombia, Piedecuesta"
"FLORISTERÍA MÓNACO";;;"(57) (1) 6608314";"Cl 78 61-61 Colombia, Bogotá"
"FLORESTERIA E L PARAISO";;;"(57) (8) 8716895";"Cr3 16-12 L-2 Colombia, Neiva"
"FLORISTERIA ANA ISABEL";;;"(57) (1) 6303904";"Cr69 P 73-46 Colombia, Bogotá"
"First Name";"Email Address";Url;Telephone;Address
"FLORISTERÍA MERCY";;;"(57) (6) 7440772";"Cr18 16-01 L-I P-2 Colombia, Armenia"
"FLORES MAJHU";;;"(57) (1) 5333165";"Cl 101 70 G-98 L-3 Colombia, Bogotá"
"COMERCIAL SIMONA S.A.S.";;;"(57) (1) 5411879";"Cr13 68 - 18 Colombia, Bogotá"
"FLORISTERIA AGAPANTO";;;"(57) (5) 4315320";"Cr12 22-95 Los Alcázares Colombia, Santa Marta"
"FLORES DEL SOL";;;"(57) (4) 3416421";"Cr11 29-21 Colombia, Medellín"
"FLORESA LTDA. C.I.";;;"(57) (1) 2111239";"Cl 53 21-84 Of 404 Colombia, Bogotá"
"DECORACIONES DORIS";;;"(57) (4) 5381335";"Santa Elena Colombia, Medellín"
"LEÓN BELTRÁN GRACIELA";;;"(57) (1) 2315364";"Cr34 67-77 Colombia, Bogotá"
"EVENTOS NUBY";;;"(57) (1) 2382930";"Dg50 A S 33-01 Colombia, Bogotá"
"FLORISTERÍA JARDÍN JUDITH";;;"(57) (4) 8463276";"Cl C Santa Inés Colombia, Santa Bárbara"
"FLORISTERÍA PICAFLOR";;;"(57) (4) 8272653";"Cr14 107-23 Colombia, Turbo"
"FLORISTERÍA Y VARIEDADES ANGÉLICA";;;"(57) (5) 7275337";"Cr10 12 A-18 Colombia, Riohacha"
"FLORISTERÍA Y VARIEDADES KENDRY";;;"(57) (5) 7270849";"Cl 7 10-12 Colombia, Riohacha"
"FLORISTERÍA TERNURA";;;"(57) (6) 3642765";"Cr15 15-87 Colombia, Santa Rosa de Cabal"
MARIPOSAS;;;"(57) (6) 3306859";"Cr20 D 21-03 La Pradera Dosquebradas Colombia, Pereira"
"FLORISTERÍA HOLANDESA";;;"(57) 3123277453";"Cl 18 10-101 Colombia, Tunja"
"FLORISTERÍA RUBY FLOWER";;;"(57) (5) 4314556";"Cl 20 6-48 Colombia, Santa Marta"
"ESENCIA FLORAL STORE";;;"(57) (1) 6127153";"Cl 119 13-26 Colombia, Bogotá"
"FLORISTERÍA EL JARDÍN DE CELIA";;;"(57) (5) 4241241";"Cl 10 14-11 Colombia, Ciénaga"
"LA SABANA FLORÍSTERIA";;;"(57) (8) 6724333";"Cl 40 B 30 A-25 Centro Colombia, Villavicencio"
"NATIVA CELEBRACIONES";;;"(57) (4) 5719399";"Cr42 88-50 Int 301 Colombia, Medellín"
"FLORISTERÍA STILO'S";;;"(57) (8) 6627748";"Cr34 36-81 Barzal Colombia, Villavicencio"
"BOLAÑOS MUÑOZ MERY";;;"(57) (2) 6812993";"Cl 3 42-22 Colombia, Cali"
"FLORISTERÍA KAIROS";;;"(57) (1) 6309850";"Cl 68 30-82 Colombia, Bogotá"
"CESAR DELGADO/ RINCÓN DE LAS FLORES";;;"(57) (2) 6588546";"Cl 9 5-53 P-1 Yumbo Colombia, Yumbo"
"FLORISTERÍA ABETOS";;;"(57) (2) 4445019";"Cr14 44-67 Colombia, Cali"
"A.AB ARREGLOS FLORISTERÍA TEQUENDAMA";;;"(57) (2) 5573643";"Cr39 8 A-17 Colombia, Cali"
"COMERCIALIZADORA DE FLORES COLOMBIANAS";;;"(57) (2) 6811631";"Cr10 19-09 Colombia, Cali"
"YOLI'S FLORISTERIA";;;"(57) (2) 8807839";"Cr10 11-29 Colombia, Cali"
"A DOMICILIO ARREGLOS FLORALES LAS VEGAS";;;"Conm.: (57) (4) 3439898";"Cl 30 71-19 Colombia, Medellín"
"ARREGLOS FLORALES LAS VEGAS";;;"(57) (4) 3439898";"Cl 30 71-19 Colombia, Medellín"
"PLIEGUE NATURAL";;;"(57) (2) 8937411";"Cr3 1-68 P-1 Colombia, Cali"
"FLORISTERIA Y VARIEDADES LUMER FLOR";;;"(57) 3122591808";"Cl 12 12-44 Colombia, Entrerríos"
"FLORISTERÍA MARÍA T.";;;"(57) (7) 7242246";"Cl 9 12-11 La Playa Colombia, San Gil"
"ARREGLOS FLORALES YOLY";;;"(57) (7) 6330699";"Parque Romero Pto 32 Colombia, Bucaramanga"
"FLORISTERÍA MISHELL";;;"(57) (7) 6810108";"Cl 43 # 22-67 Poblado Girón Colombia, Girón"
"FLORISTERÍA INTER-FLORES";;;"(57) (2) 3733847";"Cl 45 86-75 B-6 Ap 101 Colombia, Cali"
"FLORISTERÍA MARCELA";;;"(57) (1) 5430560";"Cr14 68-01 L-36 Colombia, Bogotá"
"FLORISTERÍA ALHELÍ";;;"(57) (2) 2279995";"Cl 20 15-67 Colombia, Buga"
"MARILENA MESTRE DE CÁRDENAS";;;"(57) (2) 2284575";"Cl 7 Sur-9 A-34 Colombia, Buga"
"First Name";"Email Address";Url;Telephone;Address
"FLORES KALÚ";;;"(57) (7) 6472695";"Cr 36 51-96 Colombia, Bucaramanga"
"FLORISTERÍA YUDY";;;"(57) (6) 7414932";"Cr18 17-01 Colombia, Armenia"
"PRADO FLORISTERÍA BANQUETES";;;"(57) 3122083066";"Cl 15 14-38 Colombia, Armenia"
"FLORISTERÍA FLORESCAL";;;"(57) (2) 8959762";"Cr10 18-32 Colombia, Cali"
"VIVERO Y FLORISTERIA LAS PALMAS";;;"(57) (7) 6223693";"Cl 50 27-59 Colombia Colombia, Barrancabermeja"
"FLORISTERÍA LILY";;;"(57) (7) 6557254";"Cr7 6-76 Colombia, Bucaramanga"
"FLORISTERÍA LA FLORESTA";;;"(57) 3172735838";"Cl 4 20-90 Colombia, Popayán"
"FLORISTERIA AMARULA";;;"(57) (4) 2810415";"Cl 564 50-56 Itagüí Colombia, Medellín"
"FLORISTERÍA MYRIAN";;;"(57) (7) 6474611";"Cr55 50-49 Colombia, Bucaramanga"
"ARTES PLÁSTICAS Y FLORISTERÍA LAS VIOLETAS";;;"(57) (8) 2652248";"Av Ambalá 29-31 Colombia, Ibagué"
"BOSQUE VIVERO Y ARTESANIAS";;;"(57) (7) 6422208";"Cl 36 12-58 Colombia, Bucaramanga"
"FLORISTERÍA BUGA";;;"(57) (2) 2273431";"Cr14 9-52 Colombia, Buga"
"COMERCIALIZADORA WILCAM";;;"(57) (4) 3317278";"Cl 36 A S 46 A-81 L-127 Envigado Colombia, Envigado"
"FLORISTERÍA STELLA DE IZQUIERDO";;;"(57) (2) 2715464";"Cl 23 24-42 Colombia, Palmira"
"FLORISTERÍA ANTONELLA";;;"(57) (2) 5577340";"Cl 2 18-06 Colombia, Cali"
"FLORISTERÍA LA ULTIMA LÁGRIMA";;;"(57) (7) 5703158";"Cr8 0 N-02 Santander Villa del Rosario Colombia, Cúcuta"
"FLORISTERÍA YURLEY";;;"(57) (7) 6708586";"Parque Romero Caseta 45 Colombia, Bucaramanga"
"FLORISTERÍA EL MANANTIAL";;;"(57) (7) 5893869";"Cl 10 1-19 L 115 Centro Colombia, Cúcuta"
"FLOR EXÓTICA";;;"(57) (5) 8783358";"Cl 21 17-59 L-1 Colombia, Sabanalarga"
"FLOR IDEAS HOLANDA";;;"(57) (1) 2185369";"Cl 99 47 A 19 Colombia, Bogotá"
"MUÑOZ ANA";;;"(57) (1) 2518734";"Cl 66 A 72 B-52 Colombia, Bogotá"
"FLORISTERIA WILLIAM";;;"(57) (1) 2401106";"Cr29 B 67-57 Colombia, Bogotá"
"MADRE MONTE LTDA.";;;"(57) (1) 2130688";"Av15 116-61 Colombia, Bogotá"
"FLORISTERÍA RAMOS Y DECORACIONES DEL VALLE";;;"(57) (2) 7225685";"Cr27 A 20-11 Las Cuadras Colombia, Pasto"
"FLORISTERÍA SANTA EDUVIJES";;;"(57) (7) 5753948";"Av 0 3-86 Lleras Colombia, Cúcuta"
"ARTE CACTUS FLOWERS";;;"(57) (1) 5203212";"Tr 17A 98 35 Colombia, Bogotá"
"COLOMBIAN FLOWER'S";;;"(57) (7) 5776632";"Av 0 4-38 Lleras Colombia, Cúcuta"
"FLORISTERÍA NOTA FLORAL";;;"(57) (4) 2860082";"Cl 10 # 10-25 Colombia, Medellín"
"FLORISTERÍA JARDINES DEL PRADO";;;"(57) (4) 2318677";"Cl 61 # 51 D-23 Colombia, Medellín"
"DISTRIBUIDORA LA ALEJANDRIA";;;"(57) (4) 2181395";"Cr39 # 49 A-22 Colombia, Medellín"
"PALOSANTO BASES ORNAMENTALES";;;"(57) (4) 4827582";"Copacabana Colombia, Medellín"
"FLORISTERÍA NOHELIA";;;"(57) (2) 5588718";"Cr27 9 C Bis-26 Colombia, Cali"
"FLORISTERÍA SANTA GEMA";;;"(57) (4) 4140873";"Cr81 # 32 F-03 Colombia, Medellín"
"FLORISTERIA VIDA NUEVA";;;"(57) (4) 5719020";"Cr51 D 61-48 Colombia, Medellín"
"FLORISTERÍA LOS PINOS";;;"(57) (2) 7214745";"Cr22 20-59 Colombia, Pasto"
"FLORISTERÍA FLORECER DEL CARIBE";;;"(57) (5) 6735031";"Av Pedro de Heredia Cl 32 18 C-15 L-102 Colombia, Cartagena"
"FLORERÍA MARY";;;"(57) (1) 7670764";"Av Usme 76 C-17 S Colombia, Bogotá"
"DISTRIBUIDORA DE FLORES MARGUI";;;"(57) (5) 6580310";"Cr14 31 A-27 Calle Real Colombia, Cartagena"
"ANKAR FLORISTERÍA";;;"(57) (7) 6423543";"Parque Romero Puesto-37 Colombia, Bucaramanga"
"FORERO MARTHA";;;"(57) (1) 6197482";"Cr8 D 106-05 Colombia, Bogotá"
"First Name";"Email Address";Url;Telephone;Address
"FLORISTERÍA ENCANTOS Y SENTIMIENTOS";;;"(57) (4) 2182083";"Cr39 # 49-45 Colombia, Medellín"
"ARTE FLOR";;;"(57) (4) 4612588";"Cr60 21-32 Bello Colombia, Bello"
"FLORISTERÍA DISEÑOS";;;"(57) (4) 5613338";"Cr47 44-35 Colombia, Medellín"
"FLORISTERIA MARVIC";;;"(57) (2) 5569359";"Cr16 13-02 Colombia, Cali"
"FLORISTERÍA EL CRISANTEMO";;;"(57) (4) 2707244";"Cr34 39 S-70 Envigado Colombia, Envigado"
"FLORISTERÍA VALERIA";;;"(57) (4) 2168172";"Cr40 50-16 L-2217 Colombia, Medellín"
"FLORISTERIA CYMBIDIUM";;;"(57) (2) 2127476";"Cl 8 4-35 Colombia, Cartago"
"FLORISTERÍA LAS VEGAS";;;"(57) (1) 2214779";"Cr57 44-35 Colombia, Bogotá"
"FLORISTERÍA EL ENCANTO";;;"(57) (7) 6575008";"Cl 51 36-36 Colombia, Bucaramanga"
"EL ARTE DE LAS FLORES";;;"(57) (8) 8717006";"Cl 16 3-11 Colombia, Neiva"
"DISTRIBUIDORA JUNI";;;"(57) (1) 2019389";"Cr22 19-89 Colombia, Bogotá"
"FLORISTERÍA ISABELLA";;;"(57) (2) 2274343";"Cl 6 8-12 Colombia, Buga"
"REGALOS EN CARTAGENA.COM";;;"(57) (5) 6609990";"Manga Cr22 29-14 Av de la Asamblea Colombia, Cartagena"
"FLORISTERÍA DORIS";;;"(57) (5) 6676617";"Et 2 Manz 15 Lt 1 Colombia, Cartagena"
"RUMBAS Y FESTEJOS";;;"(57) (5) 6714448";"C.C. Los Ejecutivos Av Pedro de Heredia L-D 1-D 2 Colombia, Cartagena"
"FLORISTERÍA PRADOS";;;"(57) (1) 2369428";"Cr41 96-12 Colombia, Bogotá"
"FLORISTERÍA QUINDIO";;;"(57) (6) 7453088";"Cr14 12-28 Colombia, Armenia"
"ASALEM FLORISTERÍA";;;"(57) (1) 2046703";"Av 1 de Mayo 52 C-27 Colombia, Bogotá"
"FLORISTERÍA STELLA";;;"(57) (6) 7440777";"Cr18 Cl 17 L-III-IV C.C. Armenia Colombia, Armenia"
"ACUA ROSEN";;;"(57) (1) 3465875";"Tr2 A 67-50 Int 1 Ap 701 Colombia, Bogotá"
"FIORI FLORES CON ESTILO";;;"(57) 3166239425";"Cl 22 N 14-40 Colombia, Armenia"
"FLORES FÁTIMA";;;"(57) (4) 2786820";"Cr51 # 130 S-63 Caldas Colombia, Medellín"
"FLORISTERÍA LA ROSA DE LOS VIENTOS";;;"(57) (4) 5484726";"Cr30 A 31-30 Colombia, Medellín"
"FLORISTERÍA LA UNICA";;;"(57) (4) 3037381";"Cl 136 S 49-58 Caldas Colombia, Medellín"
"DÍGALO CON FLORES";;;"Nal: (57) (4) 42173733";"Cl 50 A 39-44 Colombia, Medellín"
"FLORISTERÍA OFRENDAS FLORALES";;;"(57) (5) 3568810";"Cr49 C 79-72 Colombia, Barranquilla"
"LA FRUTTA";;;"(57) (4) 3136497";"Cl 22 S 40-74 Envigado Colombia, Envigado"
"A DOMICILIO FLORISTERIA ARREGLOS FRUTALES";;;"(57) (4) 2179148";"Cl 49 37-54 Colombia, Medellín"
"GÓMEZ ANA ELVIA";;;"(57) (1) 6153996";"Cl 145 C 54 B-21 Int 5 Ap 101 Colombia, Bogotá"
"FLORISTERÍA & DISTRIBUIDORA ABC";;;"(57) (5) 3513095";"Cr38 43-62 Colombia, Barranquilla"
"FLORES DEL NORTE";;;"(57) (5) 3781787";"Cl 96 A# 49 C-96 Colombia, Barranquilla"
"EL NORTEÑO";;;"(57) (5) 6601937";"Matuna AV Venezuela Parque Las Flores PTO1 Colombia, Cartagena"
"MERCEDES FORERO";;;"(57) (1) 2263676";"Cl 97 61 A-12 Colombia, Bogotá"
"FLOWERS AND SERVICES";;;"(57) (1) 2126181";"Cl 69 11 A-92 P-2 Colombia, Bogotá"
"FLORISTERIA FANNY DECORACION";;;"(57) (1) 4295686";"Av (Cl) 24 80 B-48 Colombia, Bogotá"
LETORNASOL;;;"(57) (1) 2229970";"Dg42 48-52 Colombia, Bogotá"
"FLORISTERÍA PARAÍSO FLORAL";;;"(57) (1) 5430911";"Av (Cr) 14 68-00 L-10 Colombia, Bogotá"
"FLORISTERÍA ARTE Y DETALLES";;;"(57) (4) 8326260";"Cl 8 Cr6 Y Cr7 Colombia, Puerto Berrío"
"EVENTOS NUBY";;;"(57) (1) 2382930";"Dg50 A S 33-01 Colombia, Bogotá"
"DARLING FLOWERS";;;"(57) (1) 3613681";"Cl 15 Sur-16 -30 Colombia, Bogotá"
"First Name";"Email Address";Url;Telephone;Address
"CAPULLITOS FLORISTERIA";;;"(57) (7) 6454730";"Cr23 39-16 Colombia, Bucaramanga"
"FLORISTERÍA ARTE FLORAL";;;"(57) (6) 3292828";"Cr7 27-62 Colombia, Pereira"
"FLORISTERÍA LOS GERANIOS";;;"(57) (7) 6325466";"Av Quebrada Seca 33-130 L-2 Colombia, Bucaramanga"
"FLERISTERIA LAS MARCEDES";;;"Domic.: (57) (4) 3417608";"Cl 32 84- 01 Colombia, Medellín"
FLORSAN;;;"(57) (7) 6703632";"Cl 44 12-72 L-2 Colombia, Bucaramanga"
"FLORISTERIA ISABELITA";;;"(57) (1) 2615293";"Cr60 5 B-06 Colombia, Bogotá"
"FLORISTERÌA JARDÌN DE LA ENEA";;;"(57) (6) 8749184";"Cr35 100-28 La Enea Colombia, Manizales"
"GÓMEZ WILMER";;;"(57) (1) 6176158";"Cr52 130-82 Colombia, Bogotá"
"FLORES KIANA";;;"(57) (1) 4007070";"Av (Cr) 15 118-84 Colombia, Bogotá"
"FLORISTERÍA VERSALLES";;;"(57) (7) 5771896";"Av9 E 6 N-95 Ceiba II Colombia, Cúcuta"
"FLORISTERÍA NUEVA GRANADA";;;"(57) (1) 2693649";"Cr20 25 A-03 Colombia, Bogotá"
"FLORISTERIA SHALEM";;;"(57) (1) 3610558";"Cl 15 S 16-12 Colombia, Bogotá"
"JARDÍN Y FLORISTERÍA PÉTALOS";;;"(57) (5) 3451012";"Cl 73 39-59 Colombia, Barranquilla"
"ALARCÓN TORRES DE BEATRIZ";;;"(57) (1) 2684906";"Cr20 25-43 Colombia, Bogotá"
"AMANDA DECORACIONES";;;"(57) (1) 2360119";"Cr15 85-15 Of 301 Colombia, Bogotá"
"FLORES ANGY";;;"(57) (1) 3464509";"Cr 3 61 75 Colombia, Bogotá"
"LOBELIA FLORISTERÍA";;;"(57) (2) 7316165";"Cl 19 31 B-23 Las Cuadras Colombia, Pasto"
"FLORISTERÍA ALEGRÍA FIESTAS Y EVENTOS";;;"(57) (2) 2702909";"Cl 32 B 3 E-08 Colombia, Palmira"
"FLORISTERIA DURLEY";;;"(57) (7) 6022871";"Cl 50 20-30 Colombia Colombia, Barrancabermeja"
"FLORISTERÍA Y MARMOLERÍA ALEJANDRA";;;"(57) (7) 7275605";"Cl 6 15-128 Colombia, Socorro"
"FLORISTERÍA NATHALI";;;"(57) (7) 7273819";"Cl 6 15-119 Colombia, Socorro"
"FLORISTERÍA BOUQUET";;;"(57) (2) 2381352";"Cr9 6 S-01 Colombia, Buga"
"DECORACIONES GECO";;;"(57) 3148344255";"Cr100 AA 48 F A-11 Colombia, Medellín"
"FLORISTERIA Y PIÑATERIA LA CASA DE LAS FLORES";;;"(57) 3103415647";"Cr11 10-83 Colombia, San Gil"
"FLORISTERÍA IMPERIO FLORAL";;;"(57) (2) 5243484";"Cr50 14-15 Colombia, Cali"
"DECORACION FARITZA";;;"Nal: (57) (4) 2813955";"Cl 43 50 - 57 Colombia, Medellín"
"ASTRO FLORISTERIA";;;"(57) (1) 2368859";"Cr 11 82-71 L-176 Colombia, Bogotá"
"FLORISTERIA KABUKI";;;"(57) (1) 3506389";"Cl 28 13-22 Colombia, Bogotá"
"FINCA PONTEVEDRA";;;"(57) (7) 1000000";"Via Principal mesa de los Santos Colombia, Bucaramanga"
"FLORISTERÍA RAMOS Y DECORACIONES DEL VALLE";;;"(57) (2) 7225685";"Cr27 A 20-11 Las Cuadras Colombia, Pasto"
"FLORES Y TERRARIOS";;;"(57) (1) 2181030";"Cl 99 47 A 09 Of 203 Colombia, Bogotá"
"UNICALLAS DE COLOMBIA LTDA.";;;"(57) (4) 5560489";"Vereda La Concha La unión Colombia, Medellín"
"EL CASTILLO DE LAS FLORES";;;"(57) (1) 3689712";"Cr33 25 D-20 L-103 Colombia, Bogotá"
"FLORISTERÍA LILAS";;;"(57) (8) 8363968";"Cl 3 S 4-36 Trinidad Colombia, Pitalito"
"FLORISTERÍA EL PALACIO DE LAS FLORES";;;"(57) (2) 8216626";"Cl 4 20-20 Colombia, Popayán"
"FLORISTERÍA EL LLANO";;;"(57) (7) 5721454";"Cl 7 8-51 El Llano Colombia, Cúcuta"
"DISTRIBUIDORA DE FLORES YITOFLOR";;;"(57) (7) 6472695";"Cl 13 27-14 Colombia, Bucaramanga"
"FLORISTERÌA AMBIENTE FLORAL";;;"(57) (4) 3457795";"Cl 30 A 77-84 Colombia, Medellín"
"ARTE FLOR";;;"(57) (4) 4612588";"Cr60 21-32 Bello Colombia, Bello"
"FLORISTERÍA J.C.";;;"(57) (4) 5311328";"Cl 48 # 51-30 Rionegro Colombia, Medellín"
"First Name";"Email Address";Url;Telephone;Address
"ABC ABRAZA A FLORARTE COLOMBIA INTERNACIONAL";;;"(57) (1) 4922199";"Cl 140 12 B-61 Colombia, Bogotá"
"FLORES Y DETALLES EL GIRASOL";;;"Domic.: (57) (1) 2126801";"Cr13 68-44 Colombia, Bogotá"
"FLORES Y DETALLES";;;"(57) (2) 6807481";"Cr66 3 D-06 Colombia, Cali"
"PALO DE ROSA";;;"(57) (1) 6296952";"Av (Cr) 9 115-06 Colombia, Bogotá"
"FLORISTERIA KABUKI";;;"(57) (1) 3506389";"Cl 28 13-22 Colombia, Bogotá"
"FLORISTERIA LA PETITE POUPEP";;;"(57) (1) 5423675";"Av(Cr)14 68-00 L-15 Colombia, Bogotá"
"FLORISTERÍA JARDÍN DISEÑOS";;;"(57) (5) 4213663";"Cl 15 7-04 Colombia, Santa Marta"
"FLORISTERÍA DALIA";;;"(57) 3012078543";"CL 15 18-37 Colombia, Baranoa"
"ILUSIONES FLORES Y DECORACIONES";;;"(57) (7) 5803146";"Cl 1 A Casa F-03 Urb San Fernando Los Patios Colombia, Cúcuta"
"FLORISTERÍA DISTRIBUIDORA DE FLORES JARDÍN SILVESTRE";;;"(57) (2) 7291721";"Cl 11 22 F-89 Brr Santiago Colombia, Pasto"
"BALLESTEROS ANDREA";;;"(57) (1) 6060712";"Cr11 69-10 Colombia, Bogotá"
"FLORISTERIA CYMBIDIUM";;;"(57) (2) 2127476";"Cl 8 4-35 Colombia, Cartago"
"FLORISTERÍA CLARA INÉS";;;"(57) (1) 2612093";"Cr60 5 B-11 Colombia, Bogotá"
"FLORES FANTASÍA";;;"(57) (1) 2360532";"Av100 14-63 P-3 Colombia, Bogotá"
"FLORISTERIA CRISTY";;;"(57) (1) 2884461";"Dg 42 Bis 14 32 Colombia, Bogotá"
"FLORISTERÍA DETALLES NUBIA";;;"(57) (7) 5760801";"Av3 9-49 San Luis Colombia, Cúcuta"
"FLORISTERÍA LOS GERANIOS";;;"(57) (7) 5741376";"Cl 1 0-130 Lleras Colombia, Cúcuta"
"EUROFLOR FLORISTERIA";;;"(57) (1) 6231501";"Tr24 83-20 Colombia, Bogotá"
"FLORISTERÍA YOLY";;;"(57) (8) 4204896";"Cr8 15-49 Ciudad Jardín Colombia, Mocoa"
"FLORISTERÌA AMBIENTE FLORAL";;;"(57) (4) 3457795";"Cl 30 A 77-84 Colombia, Medellín"
"FLORISTERÍA LAS ACACIAS";;;"(57) (4) 2853442";"Cr52 # 1 S-38 Colombia, Medellín"
"ARTE FLOR";;;"(57) (4) 4612588";"Cr60 21-32 Bello Colombia, Bello"
"FLORISTERÍA Y DECORACIONES SANTA ANA";;;"(57) (4) 2399403";"Cl 50 # 38-07 Colombia, Medellín"
"FLORISTERÍA Y CASA DE EVENTOS LORENA";;;"(57) (2) 8962853";"Cr10 19-06 Esq Colombia, Cali"
"FONTANA FLORES";;;"(57) (1) 2173634";"Cl 79 B 7-55 Colombia, Bogotá"
"FLORISTERÍA Y EVENTOS ANELIZ";;;"(57) (4) 4960638";"Medellin Colombia, Medellín"
"FLORISTERÍA PETALOS DE AMOR";;;"(57) (4) 2390587";"Cl 50 39-52 Pto 2220 Colombia, Medellín"
"FLORERÍA MARY";;;"(57) (1) 7670764";"Av Usme 76 C-17 S Colombia, Bogotá"
"FLORISTERIA KARISMA";;;"(57) (5) 6695169";"Dg 27 53 C-36 Colombia, Cartagena"
"FLORISTERÍA GANESHA";;;"(57) (5) 6630470";"Tr71 E 31 A-60 Colombia, Cartagena"
"FLORISTERÍA ILUSIONES";;;"(57) (5) 6742192";"Cr22 C 29 B-104 Conj.R Portal de la Popa Casa 23 Colombia, Cartagena"
"DISEÑOS VICTORIA REGIA";;;"(57) (1) 6020479";"Tr18 96-81 Colombia, Bogotá"
"FLORERÍA MONARCA";;;"(57) (4) 3720766";"Cr48 46-45 Itagüí Colombia, Itagüí"
"FLORISTERÍA MIS MARGARITAS";;;"(57) (1) 4340778";"Av (Cl) 72 77 A-69 Colombia, Bogotá"
"ADORNOS A DOMICILIO SAN ANGEL";;;"Conm.: (57) (4) 2760735";"Tr29 S 32 B-114 Envigado Colombia, Envigado"
"STILUS FLORES";;;"(57) (1) 6011446";"Cra 22 No 106 B-61 Colombia, Bogotá"
"ARTES Y FLORES DEL QUINDÍO";;;"(57) (6) 7451463";"Cl 12 15-04 Colombia, Armenia"
"FLORISTERÍA GALANTEOS";;;"(57) (4) 2651741";"Cr73 31 A-129 Colombia, Medellín"
"FLORISTERÍA GOOD NESS";;;"(57) (4) 4064412";"Cr13 15-40 Colombia, Medellín"
"ROSAS EN CASA";;;"(57) (1) 8038717";"Cr15 104-84 Colombia, Bogotá"
"First Name";"Email Address";Url;Telephone;Address
"MONTOYA RAMÍREZ ADRIANA MARCELA";;;"(57) (1) 3111914";"Cl 74 31-06 Colombia, Bogotá"
"FLORISTERÍA NATURALES FLORES Y DECORACIÓN";;;"(57) (8) 8332906";"Cl 7 9-19 Colombia, Garzón"
"MARMOLES ATENAS";;;"(57) 3155773569";"Cl 11 12-95 Colombia, Cartago"
"FLORISTERÍA TÚ & YO";;;"(57) (2) 2721683";"Cr26 33-80 Colombia, Palmira"
"FLORISTERÍA ROSAS Y MATAS";;;"(57) (7) 6427766";"Parque Romero L 21-22 Colombia, Bucaramanga"
"ARTE Y FLORES FLORISTERÍA";;;"(57) (2) 5249596";"Cl 9 37 A-54 Colombia, Cali"
"COMERCIALIZADORA WILCAM";;;"(57) (4) 3317278";"Cl 36 A S 46 A-81 L-127 Envigado Colombia, Envigado"
"FLORISTERÍA LA ITALIANITA";;;"(57) (7) 5710449";"Cl 14 0-68 Colombia, Cúcuta"
"FLORISTERÍA FLORES DE LA TIERRA";;;"(57) (6) 8975916";"Cl 29 24-4l Colombia, Manizales"
"COLOMBIA FLOW-ART";;;"(57) (1) 2746828";"Cl 136 18-19 Colombia, Bogotá"
"FLORISTERÍA SANTA GEMA";;;"(57) (4) 4140873";"Cr81 # 32 F-03 Colombia, Medellín"
DECORCRUZ;;;"(57) (2) 3374660";"Cr50 13-83 Esq Colombia, Cali"
"FLORISTERÍA JARDÍNES DE VENECIA";;;"(57) (1) 7416959";"Dg49 S 51-65 Colombia, Bogotá"
"FLORISTERÍA LOS POMPONES";;;"(57) (6) 7466673";"Cl 5 N 17-09 Colombia, Armenia"
"FLORISTERÍA ROSAS";;;"(57) (6) 7458573";"Cr15 11-20 Colombia, Armenia"
"FLORISTERÍA MARIELA";;;"(57) (5) 4337407";"Tr9 Dg33 Esq Colombia, Santa Marta"
"BRICEÑO ROMERO CLARA PATRICIA";;;"(57) (1) 3104348";"Cr13 68-62 Colombia, Bogotá"
"C.I TOPFLOWER S.A";;;"(57) (4) 3541122";"Cr48 16-24 Colombia, Medellín"
"CONCEPTOS URBANOS S.A.";;;"(57) (2) 6530172";"Av7 N 24-61 Colombia, Cali"
"FLORISTERÍA MABY";;;"(57) (1) 2675874";"Cr102 19-92 Font Colombia, Bogotá"
"FLORISTERÍA GÉNESIS";;;"(57) (5) 3186945";"Cr24 36-11 L-3 Colombia, Barranquilla"
"FLORISTERÍA DISTRIBUIDOR MAYORISTA ROSAS";;;"(57) (4) 2182070";"Cl 50 # 38-91 Colombia, Medellín"
"FLORISTERÍA FAMILIAR";;;"(57) (4) 2887430";"Cr43 A 56 S-60 Colombia, Sabaneta"
"ENCANTO FLORAL";;;"(57) (2) 8228721";"Cl 4 20-80 Colombia, Popayán"
"FLORISTERÍA SUEÑOS Y SENTIMIENTOS";;;"(57) (4) 8330446";"Cl 50 5-19 Colombia, Puerto Berrío"
"FLORISTERIA VARIEDADES GALAXIA";;;"(57) (1) 2384310";"Cl 57 B 68 B-80 S Colombia, Bogotá"
MARIPOSAS;;;"(57) (6) 3306859";"Cr20 D 21-03 La Pradera Dosquebradas Colombia, Pereira"
"FLORES DULIMA";;;"(57) (1) 2487112";"Av13 69-20 Of 202 Colombia, Bogotá"
"FLORISTERÍA LESLY ANDREA";;;"(57) (2) 8855678";"Cr10 # 10-24 Colombia, Cali"
"FLORISTERIA EL BOSQUE ENCANTADO";;;"(57) (2) 5245400";"Cl 9 38 - 60 Colombia, Cali"
"DISTRIFLORES DE COLOMBIA";;;"(57) (2) 8852198";"Cr10 19-35 Colombia, Cali"
"FLORISTERIA Y DECORACION MARCELA";;;"(57) (2) 8855479";"Cr10 10-76 L-7 Colombia, Cali"
"FLORISTERIA LINDAS FLORES";;;"(57) (7) 7242088";"Cr8 14-60 Colombia, San Gil"
"FLORISTERÍA EXÓTICA";;;"(57) (6) 3333777";"Cl 21 6-33 Colombia, Pereira"
"FLOWER MARKET";;;"(57) (2) 6643739";"Cl 55 A N 2 A-99 B 3 Colombia, Cali"
"FLORISTERÍA CARDÓ";;;"(57) (1) 6011206";"Cl 98 18-21 Colombia, Bogotá"
"FLORISTERÍA Y ARTESANÍAS ANAÍS 24 HORAS";;;"(57) (5) 4356204";"Cl 28 30 A-62 Colombia, Santa Marta"
"ABC DE LAS FLORES";;;"(57) (7) 6424417";"Cl 44 Cr12 L-23 Colombia, Bucaramanga"
"LA FLORISTA";;;"(57) (2) 2713018";"Cl 36 23-02 Colombia, Palmira"
"FLORISTERÍA CARRUSEL";;;"(57) (1) 5400184";"Cr15 64-19 Colombia, Bogotá"
"First Name";"Email Address";Url;Telephone;Address
"EL PALACIO DE LAS HIERBAS Y LA FLORES";;;"(57) (4) 2500344";"Cr79 A 45 A-100 Pto 8-A Colombia, Medellín"
"LE BOUQUET FLORISTERÍA";;;"(57) (2) 3150571";"Cl 16 85-10 L-102 Colombia, Cali"
"FLORISTERÍA ANA MARÍA";;;"(57) (5) 5749349";"Cl 13 7-01 Esq Colombia, Valledupar"
"CUPIDO FLORISTERÍA";;;"(57) (2) 3156856";"Cr66 A 11-170 Colombia, Cali"
"ARTE FLOR FLORISTERÍA";;;"(57) (2) 5143661";"Cl 9 24-24 Colombia, Cali"
"FLORISTERIA YAYI";;;"(57) (2) 5520000";"Cr 52 A 5 B - 10 Colombia, Cali"
"CUPIDO TEL";;;"(57) (8) 8722191";"Cl 7 12-56 L-2 Colombia, Neiva"
"ARREGLOS DIMELO CON FLORES";;;"(57) (6) 3360713";"Cr11 Bis 38-140 Colombia, Pereira"
"LA FIORERIA";;;"(57) (1) 3170604";"Cl 70 A 11-28 Colombia, Bogotá"
"FLORES Y DETALLES";;;"(57) (6) 7312830";"Cr15 11-73 Colombia, Armenia"
"A.AB ARREGLOS FLORISTERÍA TEQUENDAMA";;;"(57) (2) 5573643";"Cr39 8 A-17 Colombia, Cali"
"FLORISTERIA JARDIN VERACRUZ";;;"(57) (4) 2170257";"Cr39 50-15 L. 2224 Colombia, Medellín"
"FLORISTERIA TOCADOS";;;"(57) (4) 3511794";"Cr64 38-100 Colombia, Medellín"
"FLORISTERÍA CARRUSSEL";;;"(57) (1) 2102105";"Cr15 64-19 Colombia, Bogotá"
"FLORISTERÍA PÉTALOS";;;"(57) (6) 3683624";"Cr8 6-11 Colombia, La Virginia"
"FLORISTERÍA D'CARLOS";;;"(57) (2) 2813862";"Cr32 21 A-12 Colombia, Palmira"
"FLORES Y FIESTAS LINA";;;"(57) 3108663058";"Cr13 14-88 Colombia, Granada"
"SURTIFLORES DE ALAMEDA";;;"(57) (2) 6817854";"Cr23 D 9-33 Colombia, Cali"
"FLORES DANNA";;;"(57) (1) 2954915";"Cl 39 79-42 Int 1 Colombia, Bogotá"
"PUNTO CARDINAL DE ORIENTE";;;"(57) (4) 5317176";"Cr54 A 25-60 Colombia, Rionegro"
"FLORISTERÍA LA MAGNOLIA";;;"(57) (7) 6342999";"Cr30 # 40-17 Colombia, Bucaramanga"
"FLORES Y FLORES";;;"(57) (1) 5304130";"Cl 90 9-06 (B. Chicó) Colombia, Bogotá"
"HACIENDA FLORAL";;;"(57) (1) 6089688";"Av. Boyacá Cl. 152 Colombia, Bogotá"
"FLORISTERÍA LAURA";;;"(57) (28) 8292969";"Cr12 6-34 Colombia, Santander de Quilichao"
"FLORISTERÍA ASTER";;;"(57) (5) 8780806";"Cl 22 17-69 L-1 Sabanalarga Colombia, Sabanalarga"
"FLORISTERIA LADY FLOR";;;"(57) (1) 7412795";"Cl 38 S 52 C-05 Colombia, Bogotá"
"FLORISTERIA KENYA";;;"(57) (1) 2495029";"Cl 78 16 A - 40 Colombia, Bogotá"
"FLORISTERÍA MYRIAN";;;"(57) (7) 6474611";"Cr55 50-49 Colombia, Bucaramanga"
"FLORISTERIA LILIA Y LUNA";;;"(57) (1) 4339229";"Cl 91 A 95 J-42 Colombia, Bogotá"
"FLORISTERÍA CLARA INÉS";;;"(57) (1) 2612093";"Cr60 5 B-11 Colombia, Bogotá"
"ARTE DISEÑO FLORAL D'JOSÉ";;;"(57) (1) 3117970";"Cl 70 64 C-16 Colombia, Bogotá"
"FLORISTERÍA ALEDRI";;;"(57) (4) 2789364";"Cr50 133 S-88 Caldas Colombia, Medellín"
"FLORISTERÍA ARTE FLOR";;;"(57) (2) 8809181";"Cl 8 # 13-18 Colombia, Cali"
"CHARLOT FLORISTERÍA";;;"(57) (2) 5246004";"Cl 9 38-62 Colombia, Cali"
"EQUILIBRIO FLORAL";;;"(57) (4) 3771857";"Cr48 45-13 Colombia, Medellín"
"FLORISTERÍA PIPI";;;"(57) (5) 7273659";"Cr6 3-42 Colombia, Riohacha"
"FLORISTERÍA CECY";;;"(57) (1) 6876413";"Cr 107 140-33 Colombia, Bogotá"
"FLORISTERÍA LA ROSÉE";;;"(57) (5) 3017753";"Cr72 91 A-100 Trr 3 Ato 1011 Colombia, Barranquilla"
"NATIVA CELEBRACIONES";;;"(57) (4) 5719399";"Cr42 88-50 Int 301 Colombia, Medellín"
"ARTES FLORES Y SERVICIOS";;;"(57) (7) 6323719";"Cl 35 29-35 Colombia, Bucaramanga"
"First Name";"Email Address";Url;Telephone;Address
"ALMACÉN GENTILEZAS FLORES Y REGALOS";;;"(57) (4) 3134802";"Cr43 D 10-07 Colombia, Medellín"
"YOLI'S FLORISTERIA";;;"(57) (2) 8807839";"Cr10 11-29 Colombia, Cali"
"A DOMICILIO ARREGLOS FLORALES LAS VEGAS";;;"Conm.: (57) (4) 3439898";"Cl 30 71-19 Colombia, Medellín"
"ARREGLOS FLORALES LAS VEGAS";;;"(57) (4) 3439898";"Cl 30 71-19 Colombia, Medellín"
"FLORISTERÍA NATALIA";;;"(57) (2) 2712637";"Cr30 32-133 Colombia, Palmira"
"PLIEGUE NATURAL";;;"(57) (2) 8937411";"Cr3 1-68 P-1 Colombia, Cali"
"A. ARREGLOS FLORES DEL JARDÍN";;;"(57) (2) 3351016";"Cr25 29 B-47 Colombia, Cali"
DIFRUT®S;;;"(57) (2) 6652402";"Cl 55 An 2 An-99 Colombia, Cali"
"FLORISTERÍA Y EVENTOS LIZ";;;"(57) (2) 3363895";"Tr25 28-06 P-2 Colombia, Cali"
"FLORISTERÍA SANTA MÓNICA";;;"(57) (2) 2734700";"Cr33 31-36 Colombia, Palmira"
"COMERCIALIZADORA FLORES DE MEDELLÍN";;;"(57) (2) 6832381";"Cr 10 10-88 Colombia, Cali"
"FLORISTERÍA EL RINCÓN DE LAS FLORES";;;"(57) (2) 2127511";"Cl 11 2-77 Colombia, Cartago"
"FLORISTERÍA LA ROSA DORADA";;;"(57) (2) 5562500";"Cr37 A 5 F-14 Ap 402 Colombia, Cali"
"FLORISTERÍA AROMA";;;"(57) (6) 3347504";"Cr9 24-34 Colombia, Pereira"
"GOTITA DE AMOR";;;"(57) (6) 3227631";"Cr16 48-03 Los Naranjos Dosq Colombia, Pereira"
"FLORISTERÍA Y TIENDA FLORAL FLORA BRASILIS";;;"(57) (6) 3358819";"Cl 14 13-16 L-4 Colombia, Pereira"
"MARMOLERÍA Y FLORISTERÍA REAL";;;"(57) (6) 8856471";"Cr25 44-21 Colombia, Manizales"
"FLORES EL BUEN SERVICIO";;;"(57) (1) 6153657";"Av19 134 A-28 Colombia, Bogotá"
"LA CASITA DE LAS ROSAS E.U.";;;"(57) (1) 6105351";"Cr 14 # 87-68 Colombia, Bogotá"
RUMBITAS;;;"(57) (7) 6571492";"Cr45 55-43 Terrazas Colombia, Bucaramanga"
"FLORISTERIA LINDAS FLORES";;;"(57) (7) 7242088";"Cr8 14-60 Colombia, San Gil"
"FLORISTERÍA MILFOR";;;"(57) (1) 8311134";"Cr14 17-57 Colombia, Girardot"
"FLORISTERÍA FLORES Y JARDINES";;;"(57) (7) 6475187";"Cl 68 # 17-27 Colombia, Bucaramanga"
"FLORISTERÍA Y MARMOLERÍA DON CARLOS";;;"(57) (8) 2643107";"Cl 32 1-37 Colombia, Ibagué"
"C.I AMERICAN FLOWERS LTDA";;;"(57) (1) 7575760";"Cr19 52-19 Colombia, Bogotá"
"FLORISTERIA ANGELA";;;"(57) (7) 7242933";"Cl 19 7-45 Colombia, San Gil"
"FLORISTERÌA JARDÌN DE LA ENEA";;;"(57) (6) 8749184";"Cr35 100-28 La Enea Colombia, Manizales"
"FLORISTERIA MARIA ELENA";;;"(57) (4) 5410106";"Cl 22 20-28 Colombia, Medellín"
"FLORISTERÍA SENTIMIENTOS";;;"(57) (2) 2133621";"Cr3 16-122 Colombia, Cartago"
"FLORISTERÍA EL GIRASOL DE ORO";;;"(57) (7) 6427888";"Cl 45 # 13 Esq L-2 Pto 44 Parque Romero Colombia, Bucaramanga"
"DISTRIBUIDORA EL GIRASOL";;;"(57) (2) 7207681";"Cl 20 21-11 Colombia, Pasto"
"DÍAZ HENAO HEBERT";;;"(57) (1) 4944181";"Av1 de Mayo-71 D-77 L-2 Colombia, Bogotá"
"FLORES KAPICUA";;;"(57) (1) 6183864";"Cr20 86 A-80 Ap 202 Colombia, Bogotá"
"MONTOYA RAMÍREZ ADRIANA MARCELA";;;"(57) (1) 3111914";"Cl 74 31-06 Colombia, Bogotá"
"FLORISTERÍA Y EVENTOS JARDINES ABC";;;"(57) (6) 3339417";"Cr6 23-26 Colombia, Pereira"
"DECORACIONES FLORISTERÍA";;;"(57) (2) 7226451";"Cl 20 22-72 Colombia, Pasto"
"LOBELIA FLORISTERÍA";;;"(57) (2) 7316165";"Cl 19 31 B-23 Las Cuadras Colombia, Pasto"
"LA FLORISTA";;;"(57) (2) 2713018";"Cl 36 23-02 Colombia, Palmira"
"FLORISTERÍA CARRUSEL";;;"(57) (1) 5400184";"Cr15 64-19 Colombia, Bogotá"
"FLORISTERIA DURLEY";;;"(57) (7) 6022871";"Cl 50 20-30 Colombia Colombia, Barrancabermeja"
"First Name";"Email Address";Url;Telephone;Address
"FLORISTERÍA LUISA MARÍA";;;"(57) (2) 8890830";"Cr10 # 19-30 L-266 Colombia, Cali"
"FLORISTERIA FANNY DECORACION";;;"(57) (1) 4295686";"Av (Cl) 24 80 B-48 Colombia, Bogotá"
"SURTIFLORES-PARAÌSO FLORAL";;;"(57) (2) 8960167";"Cr 10 12 - 14 Colombia, Cali"
"FLORISTERÍA LOS NARDOS";;;"(57) (1) 2024669";"Av6 40 A-13 Colombia, Bogotá"
"FLORES ANITA";;;"(57) (1) 2820390";"Cr5 14-60 Colombia, Bogotá"
"DISTRIBUIDORA JUNI";;;"(57) (1) 2019389";"Cr22 19-89 Colombia, Bogotá"
"ACOSTA HERNÁNDEZ LUZ ANGELA";;;"(57) (1) 6602158";"Cl74 46-04 Colombia, Bogotá"
"LOS NOGALES FLORISTERÍA";;;"(57) (7) 6437455";"Cr 28 # 51-47 Colombia, Bucaramanga"
"PARAISO FLORAL";;;"(57) (4) 3163162";"Cl 42 63 C-122 Colombia, Medellín"
"LUZ MARINA HERNANDEZ";;;"(57) (5) 6648714";"Cl 33 # 2-28 Cl Baloco y Santo Domingo Colombia, Cartagena"
"LA ROSA DE SHARÓN";;;"(57) (1) 2162073";"Cr 47 138 11 Colombia, Bogotá"
"FLORISTERÍA SAN LUIS";;;"(57) (4) 7832613";"Cl 22 13-56 Circunvalar Colombia, Montería"
"FLOR DE GUADALUPE";;;"Telefax: (57) (7) 5753017";"Av 0 3-72 Colombia, Cúcuta"
"ADRIANA SATIZÁBAL PRODUCCIONES";;;"(57) (1) 6209419";"Cr16 121-79 Colombia, Bogotá"
"FLORISTERÍA CAMELIAS DE ABRIL";;;"Domic.: (57) (5) 6623564";"Dg22 21-76 Av Crisanto Luque Colombia, Cartagena"
"FLORISTERÍA MODELO";;;"(57) (8) 6452751";"Cl 6 9-07 Centro Colombia, Puerto López"
"FLORISTERÍA JARDÍNES DE VENECIA";;;"(57) (1) 7416959";"Dg49 S 51-65 Colombia, Bogotá"
"FLORISTERÍA MARY YINETH";;;"(57) (8) 6727332";"Cl 40 30-26 Centro Colombia, Villavicencio"
"ALIRIO FLORISTERÍA";;;"(57) (6) 7440443";"Manz 18 Casa 9 La Unión Colombia, Armenia"
"ARREGLOS FLORALES EL CISNE";;;"(57) (4) 5611024";"Cl47 51-69 Colombia, Medellín"
"FLORISTERÍA OFRENDAS FLORALES";;;"(57) (5) 3568810";"Cr49 C 79-72 Colombia, Barranquilla"
"BANQUETES Y FLORISTERÍA YINA";;;"(57) (4) 3385777";"Cr53 A 33-52 Itagüí Colombia, Itagüí"
"VALVUENA TOVAR JANET";;;"Nal: (57) (5) 3580098";"Cr 53 80-91 L-3 Colombia, Barranquilla"
"LINDAS FIESTAS";;;"(57) (5) 6604505";"Cl 26 18 B-64 Av Jiménez Colombia, Cartagena"
"FLORISTERÍA JARDÍN PASIONES FLORALES";;;"(57) (5) 6698301";"Almirante Colón Manz V' Lt 20 Colombia, Cartagena"
"FLORISTERÍA HELICONIAS";;;"(57) (8) 4342361";"Cl 13 12-17 Colombia, Florencia"
"FLORISTERÍA CAROLINE";;;"(57) 3177002616";"Manz D Casa 13 B/Nuevo Armero Colombia, Ibagué"
"FLORISTERÍA FLOR DEL CAMPO";;;"(57) (1) 6207829";"Cl 119 12-55 Colombia, Bogotá"
"RAMÍREZ AFRICANO MERCEDES";;;"(57) (1) 2684812";"Cr20 25-85 Colombia, Bogotá"
"FLORISTERÍA ILUSIONES CUPIDO";;;"(57) (4) 8873877";"Cr19 18-28 Colombia, Yarumal"
"FLORES SANTA SOFÍA";;;"(57) 3184780013";"Cr10 5-30 Centro Colombia, Popayán"
"FLORISTERÍA Y JARDINES PÉTALO";;;"(57) (4) 5610040";"Cl 54 # 48-43 Colombia, Medellín"
"TINTU FLOWERS LTDA.";;;"(57) (1) 4106886";"Av BoyacÃ 51-15 Of 201 Colombia, Bogotá"
"SERVI FIESTAS FLORES Y DETALLES";;;"(57) (52) 6861229";"Cr47 A 22-60 Colombia, El Carmen de Bolívar"
"FIESTAS Y BANQUETES FERCHI FLORES";;;"(57) (4) 5621374";"Cr56 # 40-33 Colombia, Medellín"
"DÍGALO CON FLORES SU FLORISTERÍA";;;"(57) (8) 5125943";"Av Las Américas 5 A-6 Colombia, San Andrés"
"ENCANTO FLORAL";;;"(57) (2) 8228721";"Cl 4 20-80 Colombia, Popayán"
"FLORISTERÍA LAURA";;;"(57) (28) 8292969";"Cr12 6-34 Colombia, Santander de Quilichao"
"FLORISTERÍA MAYLAND";;;"(57) (1) 5282034";"Cl 147 7 G-81 Colombia, Bogotá"
"AMOR Y FLORES";;;"(57) (1) 3491289";"Cl 53 18-40 L-3 Colombia, Bogotá"
"First Name";"Email Address";Url;Telephone;Address
"INEM SEDE CATATUMBO";;;"(57) (8) 6701210";"Cr19 23 A-19 Colombia, Villavicencio"
"CALYX LTDA.";;;"(57) (1) 6107709";"Cl 90 13A-31 L-2 Colombia, Bogotá"
"FLORISTERÍA LIRIO DE PLATA";;;"(57) (4) 2861625";"Cr6 Este 10-61 Colombia, Medellín"
"FLORES NATURALES MAO";;;"(57) (8) 6610382";"Cr30 40-63 Centro Colombia, Villavicencio"
"FLORISTERÍA FLORES ALEJANDRA";;;"(57) 3132576378";"Cr33 35-73 Barzal Alto Colombia, Villavicencio"
"CANELA FLORES Y DETALLES";;;"(57) (8) 6621060";"Cl 33A 40-77 El Espejo Colombia, Villavicencio"
"FLORISTERÍA CALI";;;"(57) (2) 8807731";"Cl 11 # 10-41 Colombia, Cali"
"FLORISTERÍA LUNA VERDE";;;"(57) (4) 2308435";"Cl 50 # 74-61 Colombia, Medellín"
"FLORISTERÍA GLORIA Y EL MANA";;;"(57) (2) 8961681";"Cr10 10-76 Colombia, Cali"
"CASA DE NAVIDAD CINTAS Y COLORES";;;"(57) (4) 2344342";"Cl 50 79-21 Colombia, Medellín"
"DISTRIFLORES DE COLOMBIA";;;"(57) (2) 8852198";"Cr10 19-35 Colombia, Cali"
"FLORISTERÍA ARTES DEL GIRASOL";;;"(57) (2) 8959665";"Cr10 12-62 L-108 Colombia, Cali"
"FLORISTERÍA NATASHA";;;"(57) (2) 5133990";"Cr53 A 5 B-76 Colombia, Cali"
"AGUILAR ESPERANZA";;;"(57) (2) 3728079";"Cl 15 B 106-16 Colombia, Cali"
"A. ARREGLOS FLORES DEL JARDÍN";;;"(57) (2) 3351016";"Cr25 29 B-47 Colombia, Cali"
"FLORISTERÍA LLUVIA DE GIRASOLES";;;"(57) (2) 8960505";"Cr10 # 10-84 Colombia, Cali"
"STELLA GONZÁLEZ DE EUSSE Y/ FLORISTERÍA EXÓTICA";;;"(57) (2) 2271984";"Cl 9 17-50 Colombia, Buga"
"VIVERO Y ARTESANÍAS LAURA";;;"(57) (2) 2411661";"Cl 4 5B-67 El naranjito Colombia, Buenaventura"
"FLORISTERÍA BELLA FLOR DE BUGA";;;"(57) (2) 2366597";"Cl 21 19-131 Colombia, Buga"
"FLORISTERÍA ABEDULES";;;"(57) (6) 3322418";"Cl 45 14-46 Colombia, Pereira"
"MARMOLERÍA Y FLORISTERÍA REAL";;;"(57) (6) 8856471";"Cr25 44-21 Colombia, Manizales"
"FLORISTERÍA BRISAS DEL ROSAL";;;"(57) (8) 2662729";"Cr1 31-76 América Colombia, Ibagué"
"FLORISTERÍA LA ORQUÍDEA";;;"(57) (8) 2620549";"Cr4 Estadio 21-64 Colombia, Ibagué"
"ANDREA FLORISTERIA";;;"(57) (7) 6345982";"Av El Jardín Casa 33 Colombia, Bucaramanga"
"FLORISTERÍA FLORES Y JARDINES";;;"(57) (7) 6475187";"Cl 68 # 17-27 Colombia, Bucaramanga"
"REPRESENTACIONES EG";;;"(57) (1) 3602629";"Cl 9 Bis 20-15 Pto 1415 Colombia, Bogotá"
"FLERISTERIA LAS MARCEDES";;;"Domic.: (57) (4) 3417608";"Cl 32 84- 01 Colombia, Medellín"
"FLORISTERIA ANGELA";;;"(57) (7) 7242933";"Cl 19 7-45 Colombia, San Gil"
"FLORISTERIA MARIA ELENA";;;"(57) (4) 5410106";"Cl 22 20-28 Colombia, Medellín"
"KHARISMA FLORAL";;;"(57) (1) 6371388";"Av19 108-57 Colombia, Bogotá"
"EL MUNDO DE LAS FLORES";;;"(57) (2) 5561024";"Cl 9 24-24 L-200 Colombia, Cali"
"FLORISTERÍA PÉTALOS";;;"(57) (6) 3683624";"Cr8 6-11 Colombia, La Virginia"
SURTIFLOR;;;"(57) (2) 2127766";"Cr3 10-43 Colombia, Cartago"
"FLORES MARCELITAS";;;"(57) (1) 2644413";"Av1 de Mayo 75-58 S Colombia, Bogotá"
"FLORISTERÍA ALBA";;;"(57) (8) 2642509";"Av1 31-74 Colombia, Ibagué"
"FLORISTERÍA EKOS";;;"(57) (1) 8328583";"Cr9 18-01 Centro Colombia, Girardot"
"ARREGLOS FLORALES FLORISTERIA DELIFLOR";;;"(57) (7) 6442351";"Real de Minas Plaza Mayor E-7 L-113 Colombia, Bucaramanga"
"PISTILOS FLORISTERIA";;;"(57) (1) 7531704";"Cr8 B 106-16 Colombia, Bogotá"
"FLORISTERÍA D'CACHÉ";;;"(57) (7) 6433077";"Cl 52 35-17 Colombia, Bucaramanga"
"LA FLOR DE LA CANELA";;;"(57) (2) 6676160";"Av6 Bis N 27-50 Colombia, Cali"
"First Name";"Email Address";Url;Telephone;Address
"FLORISTERÍA LOS GIRASOLES";;;"(57) (4) 2767821";"Dg40 33 S-76 Envigado Colombia, Envigado"
"FLORISTERÍA LAS PALMAS";;;"(57) (2) 2293647";"Cr15 19-142 Colombia, La Unión"
"FUNERALES LA MARIA S.A.S.";;;"(57) (2) 2750866";"Cr33 A 24-06 Colombia, Palmira"
"FLORISTERÍA SIEMPRE CONTIGO";;;"(57) (2) 2242000";"Cl 26 32-07 Colombia, Tuluá"
"FLORISTERÍA LA ULTIMA LÁGRIMA";;;"(57) (7) 5703158";"Cr8 0 N-02 Santander Villa del Rosario Colombia, Cúcuta"
"FLORISTERÍA GUILLE";;;"Domic.: (57) (6) 3310227";"Cr10 5-39 Colombia, Pereira"
"FLORISTERÍA Y EVENTOS PALACIO REAL";;;"(57) (7) 6456446";"Cr33 36-17 Colombia, Bucaramanga"
"AZALEIA FLORISTERIA Y DECORACIONES";;;"(57) (7) 6435817";"Cr27 A 45 Bis-28 Ap 202 Colombia, Bucaramanga"
"FLORISTERIA SANTA INÉS";;;"(57) (1) 2616559";"Cr 60 8 A-09 Colombia, Bogotá"
"SAKURA ARTE FLORAL";;;"(57) (6) 8812076";"Cr25 53-41 Colombia, Manizales"
"ELEITER HENRÍQUEZ FLORISTERÍA";;;"(57) (5) 8781514";"Cl 20 19-06 Colombia, Sabanalarga"
"DISTRIFLORES LEÓN";;;"(57) (2) 8211868";"Cl 3 11-43 Colombia, Popayán"
"LÓPEZ HUGO ALEXANDER";;;"(57) (1) 6774773";"Cr8 CBis 162-21 Colombia, Bogotá"
"FLORISTERÍA ARTE Y DISEÑO AMERICANO";;;"(57) (5) 4210574";"Cl 15 7-04 Colombia, Santa Marta"
DECORCINTAS;;;"(57) (1) 3332498";"Cr7 9-41 S Colombia, Bogotá"
"FINCA PONTEVEDRA";;;"(57) (7) 1000000";"Via Principal mesa de los Santos Colombia, Bucaramanga"
"FLORISTERÍA FLORA DEL HUILA";;;"(57) (8) 8715389";"Cl 8 12-55 Colombia, Neiva"
"FLORISTERÍA LA ORQUIDEA";;;"(57) (8) 8712434";"Cl 9 1 G-06 Colombia, Neiva"
"FLORISTERÍA IMPERIAL";;;"(57) (8) 7711841";"Cr10 9-30 Centro Colombia, Sogamoso"
"ESTRADA CLARA";;;"(57) (1) 6170854";"Cr48 91-67 Colombia, Bogotá"
"FLORISTERIA AMARILIS";;;"(57) (2) 7214587";"Cr22 20-47 Colombia, Pasto"
"FLORISTERÍA KIOTO";;;"(57) (1) 2173146";"Cl 69 18-20 Colombia, Bogotá"
"ARTE CACTUS FLOWERS";;;"(57) (1) 5203212";"Tr 17A 98 35 Colombia, Bogotá"
"CALATEA ARTE EN FLOR";;;"(57) (4) 3117827";"Cr39 7-97 Colombia, Medellín"
"LIRIOS DEL VALLE";;;"Telefax: (57) (4) 2857764";"Cr50 C 10 S-146 Colombia, Medellín"
"FLORISTERÍA HAWAIANA";;;"(57) (2) 3164150";"Cr97 42-20 Colombia, Cali"
"FLORISTERÍA Y CASA DE EVENTOS LORENA";;;"(57) (2) 8962853";"Cr10 19-06 Esq Colombia, Cali"
"FONTANA FLORES";;;"(57) (1) 2173634";"Cl 79 B 7-55 Colombia, Bogotá"
"FLORISTERÍA SAN RAFAEL";;;"(57) (2) 3129465";"Cr 101 12 39 Colombia, Cali"
"FLORISTERÍA LA ROSA";;;"(57) (6) 3367311";"Cr6 28-30 Colombia, Pereira"
"FLORISTERÍA ARTE FLOR";;;"(57) (2) 8809181";"Cl 8 # 13-18 Colombia, Cali"
"FLORISTERÍA LOS GIRASOLES";;;"(57) (2) 3311190";"Cr86 6-50 Colombia, Cali"
"FLORISTERIA ANDREA";;;"(57) (2) 5581932";"Cr22 # 12-80 Colombia, Cali"
"FLORISTERÍA IKEBANA";;;"(57) (2) 7251750";"Cr7 10-10 Colombia, Ipiales"
"FLORISTERÍA AZUCENA";;;"(57) (4) 2708508";"Cr41 37 S-59 Envigado Colombia, Medellín"
"EL GRAN PASAJE DE LAS FLORES";;;"(57) (2) 6803130";"Cr10 12-68 Colombia, Cali"
"FLORISTERÍA DALIA";;;"(57) (5) 4308737";"Manz H Casa 30 Colombia, Santa Marta"
"FLORISTERÍA SAN VALENTÍN";;;"(57) (4) 5712794";"Cl 67 47-39 Colombia, Medellín"
"OPCIÓN HINCAPIE";;;"(57) (4) 5380434";"Sta Elena Colombia, Medellín"
"FLORISTERÍA VIVI";;;"(57) (1) 6721963";"Cr13 C Bis 164 A-16 Colombia, Bogotá"
"First Name";"Email Address";Url;Telephone;Address
"FLORISTERÍA JARDÍN DETALLES";;;"(57) (5) 6697291";"Líbano Cl 31 49 A-03 Av Pedro de Heredia Colombia, Cartagena"
"FLORISTERÍA FRECIA";;;"(57) (8) 8720166";"Cl 8 7-61 Colombia, Neiva"
"FLORISTERÍA Y NOVEDADES ZOMBYE";;;"(57) (4) 7822096";"Cr5 34-34 Colombia, Montería"
"RAMÍREZ AFRICANO MERCEDES";;;"(57) (1) 2684812";"Cr20 25-85 Colombia, Bogotá"
"INDIANA FLOWERS";;;"(57) (4) 2170600";"Cr39 # 50-15 L-225 Colombia, Medellín"
"FLORISTERÍA PARAÍSO FLORAL";;;"(57) (1) 5430911";"Av (Cr) 14 68-00 L-10 Colombia, Bogotá"
"FLORISTERÍA LOS ROSALES";;;"(57) (1) 4102433";"Cl 24 74 A-40 Colombia, Bogotá"
"FLORISTERIA LOS LIRIOS";;;"(57) (2) 8397997";"Cl 67 N 11-33 Colombia, Popayán"
"FLOWERS TO GO";;;"(57) (4) 3322783";"Cl 37 B S 27 D-112 Int 117 Colombia, Medellín"
"FLORISTERÍA Y VARIEDADES ANGÉLICA";;;"(57) (5) 7275337";"Cr10 12 A-18 Colombia, Riohacha"
"LOLY DECORACIONES Y DETALLES";;;"(57) (5) 5843463";"Cr9 13 C-28 Colombia, Valledupar"
"AN FLORES VARIEDADES Y FLORISTERÍA";;;"(57) (5) 7270975";"Cl 13 10-109 Colombia, Riohacha"
"FLORISTERÍA Y VARIEDADES KENDRY";;;"(57) (5) 7270849";"Cl 7 10-12 Colombia, Riohacha"
"CÁRDENAS DE MARÍA CECILIA";;;"(57) (1) 6409062";"Ac (Cl) 80 62-54 Int 6 Apto 111 Colombia, Bogotá"
"FLORISTERÍA LA VILLA";;;"(57) (8) 7320147";"Cr10 11-42 Colombia, Villa de Leyva"
"HOLANDESA FLORES DECORACIONES";;;"Telefax: (57) (7) 5751788";"Av 0 4 - 04 L- 2 Colombia, Cúcuta"
"FLORISTERÍA CALAMARY";;;"(57) (4) 2762401";"Cr41 37 S-44 Envigado Colombia, Envigado"
"FLORISTERÍA CAROLITA";;;"(57) (2) 6842766";"Cl 9 A 42-55 Colombia, Cali"
"BINGO CASA TEQUENDAMA";;;"(57) (2) 5525308";"Cr45 A 6 A-74 Colombia, Cali"
"FLORISTERÍA KATHERINE";;;"(57) (2) 5143468";"Cl 9 24-02 L-202 Colombia, Cali"
"YOLI'S FLORISTERIA";;;"(57) (2) 8807839";"Cr10 11-29 Colombia, Cali"
"ARREGLOS FLORALES Y FLORALES MARÍA TERESA";;;"(57) (2) 4465106";"Cl 47 1 D-53 Colombia, Cali"
"FLORISTERÍA BAMBOO";;;"(57) (2) 2739749";"Cr37 32 A-07 Colombia, Palmira"
"FLORISTERÍA LINDAS FLORES Y ROSAS";;;"(57) (2) 8842564";"Cr10 # 20-23 Colombia, Cali"
"COMPAÑIA FLORAL LOTTAS";;;"(57) (5) 3568014";"Cr53 79-211 L-1 Colombia, Barranquilla"
"FLORISTERIA EL PERCAL";;;"(57) (4) 2750724";"Cl 49 N 48-75 Colombia, Bello"
"OCAMPO MERILUZ";;;"(57) (2) 2196289";"Cl 51 48-69 Colombia, Sevilla"
"VIVERO Y ARTESANÍAS LAURA";;;"(57) (2) 2411661";"Cl 4 5B-67 El naranjito Colombia, Buenaventura"
"FLORISTERÍA FLORIDETALLES";;;"(57) (8) 2686332";"Manz U Casa 11 Urb Tolima Grande Colombia, Ibagué"
"AVIVA FLORES & EMOCIONES";;;"(57) (8) 2633587";"Cr2 11-59 Colombia, Ibagué"
"KHARISMA FLORAL";;;"(57) (1) 6371388";"Av19 108-57 Colombia, Bogotá"
"FLORISTERÍA LIZETH";;;"(57) 7266465";"Cl 16 11-61 Colombia, Maicao"
"MIRANDA FLORISTERÍA";;;"(57) (1) 5430903";"Cr13 68-14 L-102 Colombia, Bogotá"
"FLORISTERIA D'ALIX";;;"(57) (7) 6707491";"Malecón de Las Flores L-5 Colombia, Bucaramanga"
"FLORISTRÍA MARÍA ELENA";;;"(57) (6) 8860845";"Cr23 51-71 Colombia, Manizales"
"EL PRADO FLORISTERÍA";;;"(57) (8) 2638414";"Cr4 9-77 Colombia, Ibagué"
"FLORISTERÍA CHICALA";;;"(57) (8) 2611081";"Cl 12 1-20 Colombia, Ibagué"
"FLORISTERÍA D'CACHÉ";;;"(57) (7) 6433077";"Cl 52 35-17 Colombia, Bucaramanga"
DALEROSAS.COM;;;"(57) (7) 3183586450";"Bucaramanga Colombia, Bucaramanga"
"NARANJO ORTEGA Y CIA";;;"(57) (1) 6271470";"Tr14 128-75 Ap 301 Colombia, Bogotá"
"First Name";"Email Address";Url;Telephone;Address
"FLORISTERÍA ALFA Y OMEGA";;;"(57) (4) 4164716";"Cl 44 79 AA-50 Colombia, Medellín"
"DECORACIONES FANTASIA E.U.";;;"(57) (2) 6643893";"Cl 50 N 2 C N-37 Colombia, Cali"
"DEPOSITO Y FLORERÍA D'ANGELI'S";;;"(57) (2) 5561246";"Cr30 8 A-03 Colombia, Cali"
"FLORISTERIA ANDRE DECORACIONES";;;"(57) (7) 7276100";"cl 10 12-45 Colombia, Socorro"
"FLORISTERIA EL SHADDAI";;;"(57) (5) 3732151";"Cl 88 77 B-39 Colombia, Barranquilla"
"FLORISTERÍA ACAPULCO";;;"(57) (1) 2855507";"Cl 43 13-80 L-2 Colombia, Bogotá"
"AMERICAN FLOWERS";;;"(57) (5) 3565688";"Cl 76 43 B-34 Colombia, Barranquilla"
"FLORISTERIA AGAPANTO";;;"(57) (5) 4315320";"Cr12 22-95 Los Alcázares Colombia, Santa Marta"
"FLORISTERÍA KATHY'S";;;"(57) (4) 8392589";"Cl 21 5-21 Colombia, Caucasia"
"FLORES EL CORTIJO";;;"(57) (8) 6623382";"Cl 40 30 A-54 Colombia, Villavicencio"
CONALFLORES;;;"(57) (8) 6623937";"Cr33 36-43 Barzal Bajo Colombia, Villavicencio"
"FLORISTEROA Y VARIEDADES FRANCIA";;;"(57) (2) 3715541";"Av6 N 48 N-38 Colombia, Cali"
DECORCINTAS;;;"(57) (2) 5567077";"Cl 8 37-47 Colombia, Cali"
"VIVERO Y ARTESANÍAS LAURA";;;"(57) (2) 2411661";"Cl 4 5B-67 El naranjito Colombia, Buenaventura"
"FLORISTERÍA VIVEROS";;;"(57) (6) 3278190";"Manz 21 Casa 6 Corales Colombia, Pereira"
"FANTASÍA FLORAL";;;"(57) (2) 7232523";"Cl 20 27 A-20 Colombia, Pasto"
"FLORISTERÍA EXPRESSIONES";;;"(57) (2) 2160625";"Cr11 6-42 Colombia, Caicedonia"
"POM POM FLORISTERÍA";;;"(57) (8) 2746340";"Manz A Casa 7 Parrales Colombia, Ibagué"
"FLORISTERÍA IMPERIO FLORAL";;;"(57) (2) 5243484";"Cr50 14-15 Colombia, Cali"
"ANGELES FLOWER'S J.E.";;;"(57) (1) 4102426";"Cl 24 81 C-39 Colombia, Bogotá"
"FLOR EXÓTICA";;;"(57) (5) 8783358";"Cl 21 17-59 Colombia, Sabanalarga"
"FLORISTERÍA LUZ DE LIZ";;;"(57) (5) 8781116";"Cr10 21-46 Colombia, Sabanalarga"
"FLORISTERÍA SANTA MARTA";;;"(57) (5) 4317080";"Cr7 20-14 Colombia, Santa Marta"
"FLORISTERÍA DECODAL";;;"(57) (5) 5742477";"Cr9 Cl 15 A Esq frente Cementerio Central Colombia, Valledupar"
"FLORISTERÍA SAN RAFAEL";;;"(57) (2) 3129465";"Cr 101 12 39 Colombia, Cali"
"FLORISTERÍA LOS DETALLES QUE ENAMORAN";;;"(57) (1) 7136250";"Cr32 B 10-23 S Colombia, Bogotá"
"C.I. TUCAN FLOWERS";;;"(57) (1) 2573725";"Tr10 101-17 Of 302 Colombia, Bogotá"
"BEATRIZ BUSTAMANTE TALLER FLORAL";;;"(57) (4) 2663164";"Cl 1 S# 43 C-281 Ap 414 Colombia, Medellín"
"ROSAS EN CASA";;;"(57) (1) 8038717";"Cr15 104-84 Colombia, Bogotá"
"FLORISTERÍA AMPARO";;;"(57) (8) 8722418";"Cr3 15-42 Colombia, Neiva"
"FLORISTERÍA LA PRIMAVERA";;;"(57) (5) 6630565";"San Pedro Manz 37 Lt 8 Sector Santa Lucía Colombia, Cartagena"
"JOHANA MARIA GARCES BETANCOUR";;;"(57) (5) 3454151";"Cl 76 # 43 B-34 Colombia, Barranquilla"
"FLORISTERÍA JARDÍN AMERICANO";;;"(57) (5) 3454151";"Cl 76 43 B-34 Colombia, Barranquilla"
"FLORES BOGOTÁ";;;"(57) (1) 6045720";"Cr56 B 127-52 Colombia, Bogotá"
"AHUMADA PORTO DE SERAFINA";;;"(57) (5) 4140073";"Cl 9 6-16 Colombia, Fundación"
"FLORISTERIA ISABEL MELUK";;;"(57) (1) 6710196";"Cl 167 54 A-40 Colombia, Bogotá"
"FLORISTERÍA ROSY";;;"(57) (2) 5900716";"Cr12 # 10-63 Colombia, Cali"
"FLORISTERIA OLIMPICA";;;"(57) (4) 2500504";"Cl 45 79 A-100 L-106 Colombia, Medellín"
"ALQUILER DE SILLAS MESAS Y TABLONES CRISTHIAN";;;"(57) (2) 3288564";"Cr39 39-63 Colombia, Cali"
"FLORISTERÍA KAROL";;;"(57) 3113865020";"Cr104 96-10 Colombia, Chigorodó"
"First Name";"Email Address";Url;Telephone;Address
"FLORISTERÍA CARRUSSEL";;;"(57) (1) 2102105";"Cr15 64-19 Colombia, Bogotá"
"FLORISTERÍA DISTRIBUIDORA ISANDRA";;;"(57) (8) 8721945";"Cr3 15-18 Colombia, Neiva"
"FLORISTERÍA Y ARTESANÍAS ANAÍS 24 HORAS";;;"(57) (5) 4356204";"Cl 28 30 A-62 Colombia, Santa Marta"
"GONZÁLEZ MONTOYA MARÍA VÍCTORIA";;;"(57) (1) 2530706";"Cl 118 70C 33 Int 4 AP301 Colombia, Bogotá"
"FLORISTERÍA FLORESCAL";;;"(57) (2) 8959762";"Cr10 18-32 Colombia, Cali"
"MARMOLES ATENAS";;;"(57) 3155773569";"Cl 11 12-95 Colombia, Cartago"
"FLORISTERÍA CARRUSEL";;;"(57) (1) 5400184";"Cr15 64-19 Colombia, Bogotá"
"FLORISTERIA FLORQUIDEA";;;"(57) (7) 7244080";"Cr8 19-11 Colombia, San Gil"
"FLORISTERÍA LOHADO TROPICAL";;;"(57) (7) 6382369";"Cl 31 # 26 A-19 P-2 C.C. La Florida Cañaveral Colombia, Bucaramanga"
"FLORISTERÍA TOCAREMA IN";;;"(57) (1) 8354267";"Cr8 36-39 Colombia, Girardot"
"EL PRADO FLORISTERÍA";;;"(57) (8) 2638414";"Cr4 9-77 Colombia, Ibagué"
"FLORISTERÍA CHICALA";;;"(57) (8) 2611081";"Cl 12 1-20 Colombia, Ibagué"
"FLORISTERÍA EL MANÁ";;;"(57) (2) 8855471";"Cr10 # 10-76 L-3 Colombia, Cali"
"NAVARRO ULDARICO";;;"(57) (1) 3704195";"Cr27 Cl 19 Puerta-06 L-86013 Colombia, Bogotá"
"ALQUILER DE VESTIDOS DE NOVIA ANGELICA MARIA";;;"(57) (7) 6393096";"Cr12 14-34 Ciudad Valencia Colombia, Bucaramanga"
"FLOR EXÓTICA";;;"(57) (5) 8783358";"Cl 21 17-59 L-1 Colombia, Sabanalarga"
"ROSALES DE SUBA FLORISTERIA";;;"(57) (1) 6432308";"Cl 128 70 C-33 Colombia, Bogotá"
"FLORES Y DECORACIÓN AMPARO RESTREPO";;;"(57) (6) 8855158";"Cl 45 23-10 Colombia, Manizales"
"EL CASTILLO DE LAS FLORES";;;"(57) (8) 7629005";"Cr16 14-58 Centro Colombia, Duitama"
"FLORISTERÍA ARTE Y DISEÑO AMERICANO";;;"(57) (5) 4210574";"Cl 15 7-04 Colombia, Santa Marta"
"ORQUIDEAS ROYAL";;;"(57) (1) 2560514";"Cr7 85-47 L-101 Colombia, Bogotá"
"MONTOYA CASTRO JOSÉ";;;"(57) (1) 6153105";"Tr30 (Av19) 153-15 L-3 Colombia, Bogotá"
"ASTER JARDÍN FLORISTERÍA";;;"(57) (5) 8780806";"Cl 22 17-69 L-1 Colombia, Sabanalarga"
"FLORISTERIA SOCORRO TROPICAL";;;"(57) 3156274557";"Cr14 11-62 Colombia, Socorro"
"FLORISTERIA ANTURIOS";;;"(57) 3045727029";"Cl 10 15-68 Colombia, Socorro"
"FLORISTERÍA ANGELITA";;;"(57) (7) 6915414";"Cl 197 22 B-73 Villa Margarita Colombia, Bucaramanga"
"FLORISTERÍA ESTADIO";;;"Conm.: (57) (4) 2600800";"Cl 50 73-52 Colombia, Medellín"
"FLORA Y EVENTOS VALLADARES";;;"(57) (2) 3739136";"Cl 9 38-06 Colombia, Cali"
DECORCINTAS;;;"(57) (1) 3332498";"Cr7 9-41 S Colombia, Bogotá"
"FLORISTERIA CYMBIDIUM";;;"(57) (2) 2127476";"Cl 8 4-35 Colombia, Cartago"
"FLORES TATTY";;;"(57) (27) 7264159";"Cl 9 S 1-16 Sucre Colombia, La Unión"
"FLORES SAN MARTÍN";;;"(57) (2) 7211040";"Cl 21 21-18 Colombia, Pasto"
"UNICALLAS DE COLOMBIA LTDA.";;;"(57) (4) 5560489";"Vereda La Concha La unión Colombia, Medellín"
"ACUÑA ESPERANZA";;;"(57) (1) 2697534";"Cl 37 24-67 Colombia, Bogotá"
"EL PARAÍSO FLORISTERÍA Y VARIEDADES";;;"(57) (7) 5721077";"Cl 7 3-60 Centro Colombia, Cúcuta"
"EL JARDÍN DE LUCÍA";;;"(57) (7) 5731510";"Av2 11-62 Centro Colombia, Cúcuta"
"ACCESORIOS Y ADORNOS ANTURIO'S";;;"(57) (8) 8716848";"Cr3 16-40 Colombia, Neiva"
"FLORISTERÍA FLOR Y ARTE DISEÑOS";;;"(57) (7) 5773881";"Av0 5-90 Lleras Colombia, Cúcuta"
"BON-ART VICTORIA DE GÓMEZ";;;"(57) (7) 5753312";"Av9 Este 12-54 Riviera Colombia, Cúcuta"
"FLORISTERIA IBIZA";;;"(57) (4) 5319511";"Cl 47 49-51 Rionegro Colombia, Medellín"
"First Name";"Email Address";Url;Telephone;Address
"FLORES Y DETALLES VICKY";;;"(57) (4) 5412519";"Cl 19 22-45 Colombia, Medellín"
"HELADERIA CARIBIAN";;;"(57) (2) 4343866";"Cr4 N 71 I-02 B-26 Ap 101 Colombia, Cali"
"FLORISTERÍAS YAMY";;;"(57) (2) 2642014";"Cl 7 15-10 Colombia, Florida"
"JULIO CÉSAR URREGO RUÍZ / A. CASA FLORAL";;;"(57) (2) 8205761";"Cr11 2-48 Colombia, Popayán"
"FLORISTERÍA SAN VALENTÍN";;;"(57) (4) 5712794";"Cl 67 47-39 Colombia, Medellín"
"FLORISTERÍA JARDÍN ALÁ";;;"(57) (5) 6650982";"El Laguito Edif Los Almirantes P-1 Colombia, Cartagena"
"FLORISTERÍA Y VIVERO SENSACIÓN";;;"(57) (5) 2740787";"Cr18 24-23 Centro Colombia, Sincelejo"
"FLOR DE GUADALUPE";;;"Telefax: (57) (7) 5753017";"Av 0 3-72 Colombia, Cúcuta"
"FLORERÍA MONARCA";;;"(57) (4) 3720766";"Cr48 46-45 Itagüí Colombia, Itagüí"
"FLORISTERÍA EVA Y NÉSTOR";;;"(57) (6) 7392311";"Vía Montenegro Bdg 2 L-15 Colombia, Armenia"
"FLORISTERÍA LA ROSA";;;"(57) (6) 3367311";"Cr6 28-30 Colombia, Pereira"
"ARREGLOS Y DECORACIONES MAXIFLORES";;;"(57) (7) 6302819";"Cr19 39-05 Colombia, Bucaramanga"
"FLORISTERÍA DISEÑO REAL";;;"(57) (2) 8800943";"Cl 8 10-73 Colombia, Cali"
"FLORISTERÍA NUEVA SANTA CRUZ";;;"(57) (4) 8281810";"Cl 99 97-02 Colombia, Apartadó"
"FLORISTERÍA SAIGON";;;"(57) (5) 3700506";"Cl 45 No. 24-87 L-4 Colombia, Barranquilla"
"LAS FLORES YAFRA FLORES & DECORACIONES";;;"Nal: (57) (1) 3104348";"Cr13 68-76 Colombia, Bogotá"
"FLORISTERÍA ACAPULCO";;;"(57) (1) 2855507";"Cl 43 13-80 L-2 Colombia, Bogotá"
"FLORISTERIA FLORES SILVESTRES";;;"(57) (7) 6217210";"Cr39 59-36 Alcázar Colombia, Barrancabermeja"
"FLORISTERÍA HELICONIAS";;;"(57) (8) 4342361";"Cl 13 12-17 Colombia, Florencia"
"PLANTAS Y COLORES S.A.S.";;;"(57) (4) 4448066";"Cr50 42-85 Colombia, Medellín"
"JIMENEZ CELIZ ELCIDA MARÍA";;;"(57) (5) 3520899";"Cr31 71-75 Colombia, Barranquilla"
"FLORISTERÍA SAN PABLO";;;"(57) (4) 5865646";"Cr65 19-36 Colombia, Medellín"
"FLORISTERIA FLORESLID";;;"(57) (6) 8856868";"Cl 45 24 B-30 Cristo Rey Colombia, Manizales"
"FLORISTERÍA Y VARIEDADES LAS MERCEDES";;;"(57) (4) 2789080";"Cr50 133 Sur-12 Caldas Colombia, Medellín"
"COOKIE GIFT LTDA";;;"(57) (1) 4935132";"Cr 7 a N 96 - 35 Apto 201 Colombia, Bogotá"
"FLORISTERÍA MARGARITA";;;"(57) (4) 8395486";"Cr6 18-25 Colombia, Caucasia"
REFLORECER;;;"(57) (1) 2527488";"Cl 70 A 89 A 23 Colombia, Bogotá"
"DISTRIFLORES NORTE";;;"(57) (2) 8232060";"Cr9 18 N-55 Colombia, Popayán"
"FLORISTERÍA ARTE Y COLOR";;;"(57) (1) 7210155";"Cl 12 6-11 Soacha Colombia, Soacha"
"FLORISTERIA MAGARITA";;;"(57) (2) 6697494";"Cr4 15-34 Yumbo.. Colombia, Cali"
"FLORISTERÍA Y VARIEDADES ANGÉLICA";;;"(57) (5) 7275337";"Cr10 12 A-18 Colombia, Riohacha"
"FLORISTERÍA YENDY";;;"(57) (76) 5653693";"Cl 7 18-50 Colombia, Aguachica"
"FLORISTERÍA Y VARIEDADES KENDRY";;;"(57) (5) 7270849";"Cl 7 10-12 Colombia, Riohacha"
"FLORISTERÍA D'NANCY";;;"(57) (76) 5652527";"Cl 3 10-66 Colombia, Aguachica"
"INSTITUTO DE TRÁNSITO Y TRANSPORTE DEL META";;;"Nal: (57) (8) 6550305";"Cl 8 3-31 Colombia, Villavicencio"
"INSTITUCIÓN EDUCATIVA GERMÁN ARCINIEGAS";;;"(57) (8) 6677590";"Cr47 B 7 B-20 Colombia, Villavicencio"
"DECORACIONES MIGUEL ANGEL";;;"(57) (5) 4212864";"Cl 22 6-103 L-6 Colombia, Santa Marta"
"FLORES BOGOTÁ";;;"(57) (1) 6045720";"Cr56 B 127-52 Colombia, Bogotá"
"FLORISTERÍA LAS ORQUIDEAS";;;"(57) (8) 6703489";"Cl 42 33-36 El Triunfo Colombia, Villavicencio"
"FLORISTERÍA CADAMA";;;"(57) (2) 2702630";"Cl 20 32 A-45 Colombia, Palmira"
"First Name";"Email Address";Url;Telephone;Address
"FLORISTERÍA Y VARIEDADES ANGÉLICA";;;"(57) (5) 7275337";"Cr10 12 A-18 Colombia, Riohacha"
"FERNANDO CAMARGO EVENTOS";;;"(57) (5) 5700415";"Cr9 13-58 Colombia, Valledupar"
"AN FLORES VARIEDADES Y FLORISTERÍA";;;"(57) (5) 7270975";"Cl 13 10-109 Colombia, Riohacha"
"FLORISTERÍA Y VARIEDADES KENDRY";;;"(57) (5) 7270849";"Cl 7 10-12 Colombia, Riohacha"
"INVIAS - INSTITUTO NACIONAL DE VÍAS";;;"(57) (8) 6646492";"Tr28 41-91 P-2-3 Colombia, Villavicencio"
"INSTITUTO DE TRÁNSITO Y TRANSPORTE DEL META";;;"Nal: (57) (8) 6550305";"Cl 8 3-31 Colombia, Villavicencio"
"FLORISTERIA ISABEL MELUK";;;"(57) (1) 6710196";"Cl 167 54 A-40 Colombia, Bogotá"
"CÁRDENAS DE MARÍA CECILIA";;;"(57) (1) 6409062";"Ac (Cl) 80 62-54 Int 6 Apto 111 Colombia, Bogotá"
"FLORISTERÍA HOLANDESA";;;"(57) 3123277453";"Cl 18 10-101 Colombia, Tunja"
"FLORISTERÍA LA VILLA";;;"(57) (8) 7320147";"Cr10 11-42 Colombia, Villa de Leyva"
ROMÁNTICAS;;;"(57) 3012008237";"Cr5 17-82 Colombia, Ibagué"
"FLORISTERÍA EL DETALLE";;;"(57) 7261516";"Cl 9 12-38 Colombia, Maicao"
"FLORISTERÍA EL JARDÍN DE CELIA";;;"(57) (5) 4241241";"Cl 10 14-11 Colombia, Ciénaga"
"ALFARO MARIELA";;;"(57) (5) 4850449";"Cl 4 12-55 Colombia, Plato"
"FLORES CARISMA";;;"(57) (8) 6729881";"Av40 20-05 L-3 Colombia, Villavicencio"
"FLORISTERÍA ROSSY";;;"(57) (2) 3350321";"Cr29 A# 18-35 P-2 Colombia, Cali"
"FLORISTERÍA LUNA VERDE";;;"(57) (4) 2308435";"Cl 50 # 74-61 Colombia, Medellín"
"BINGO CASA TEQUENDAMA";;;"(57) (2) 5525308";"Cr45 A 6 A-74 Colombia, Cali"
"FLORISTERÍA BELLO JARDÍN";;;"(57) (4) 2737773";"Cr55 23 A-37 Bello Colombia, Medellín"
"FLORISTERÍA NATALIA";;;"(57) (2) 2712637";"Cr30 32-133 Colombia, Palmira"
"FLORISTERÍA MARGARITAROSA FLORES Y FIESTAS";;;"(57) (2) 5246717";"Cr32 26 A-17 Colombia, Cali"
"FLORISTERIA EL PERCAL";;;"(57) (4) 2750724";"Cl 49 N 48-75 Colombia, Bello"
"OCAMPO MERILUZ";;;"(57) (2) 2196289";"Cl 51 48-69 Colombia, Sevilla"
"FLORISTERÍA LOS LIRIOS DEL CAMPO";;;"(57) (2) 4382593";"Cr12 53-31 Colombia, Cali"
"FLORISTERIA LOS MOMENTOS";;;"(57) (6) 3340799";"Cl 21 6-31 Colombia, Pereira"
"PÜREZ VERGARA LUZ MARINA";;;"(57) (6) 3266840";"Cr3 34-37 Colombia, Pereira"
"FLORISTERIA ADRIANA TORRES";;;"(57) (4) 5779285";"Cr39 49 A-16 Colombia, Medellín"
"MARMOLERÍA Y FLORISTERÍA REAL";;;"(57) (6) 8856471";"Cr25 44-21 Colombia, Manizales"
"FLORISTERÍA LAS AMAPOLAS DEL COCA-COLO";;;"(57) (7) 6211777";"Cl 47 17-40 Buenos Aires Colombia, Barrancabermeja"
"FLORISTERÍA ZABRISKY";;;"(57) (6) 3352421";"Cl 21 Cr9 Esq Colombia, Pereira"
"MARTINEZ NELLY FLORISTERIA";;;"(57) (7) 6426108";"Cl 45 Cr13 Pto 40 Colombia, Bucaramanga"
"ETIQUETA AZUL FLORISTERÍA";;;"(57) (5) 2820354";"Cl 20 25-31 Centro Colombia, Sincelejo"
"AVIVA FLORES & EMOCIONES";;;"(57) (8) 2633587";"Cr2 11-59 Colombia, Ibagué"
"EL ARTE FLORAL FLORISTERÍA";;;"(57) (7) 6420102";"Cr20 46-126 Frente Al Mirador de La Pilita Colombia, Bucaramanga"
"FLORISTERÍA DEL MAR";;;"(57) (7) 6572019";"Cr46 # 64-16 La Florida Colombia, Bucaramanga"
"DIANNY'S FLORISTERÍA";;;"(57) (7) 6465904";"Cr22 Cl 43 Esq Colombia, Bucaramanga"
"FLORISTERIA LAS ACACIAS";;;"(57) (8) 2623137";"Cr2 10-38 Colombia, Ibagué"
"FLORISTERÍA JARDÍN ORIENTAL";;;"(57) (75) 5695613";"Cl 12 11-43 Centro Colombia, Ocaña"
"FLORISTERÍA TRIÁNGULO ROJO";;;"(57) (7) 5713534";"Av4 10-27 P-2 Centro Colombia, Cúcuta"
"FLORES KIANA";;;"(57) (1) 4007070";"Av (Cr) 15 118-84 Colombia, Bogotá"
"First Name";"Email Address";Url;Telephone;Address
"RUMBAS Y FESTEJOS";;;"(57) (5) 6714448";"C.C. Los Ejecutivos Av Pedro de Heredia L-D 1-D 2 Colombia, Cartagena"
"FLORISTERÍA SELENE";;;"(57) (4) 5611372";"Cl 47 53-57 Colombia, Medellín"
"FLORES LAS BRISAS DEL CARIBE";;;"(57) (1) 2866360";"Cl24 9-31 L-146 Colombia, Bogotá"
LETORNASOL;;;"(57) (1) 2229970";"Dg42 48-52 Colombia, Bogotá"
"FLORISTERIA LEIDY";;;"(57) (4) 8414655";"Cr50 51-22 Colombia, Andes"
"FLORISTERÍA LA MANSIÓN DE LA FLOR";;;"(57) 3206472013";"Cl 4 19-62 Colombia, Popayán"
"FLORISTERÍA RUBY FLOWER";;;"(57) (5) 4314556";"Cl 20 6-48 Colombia, Santa Marta"
"FLORISTERIA LADY FLOR";;;"(57) (1) 7412795";"Cl 38 S 52 C-05 Colombia, Bogotá"
"FLORISTERÍA MARY CRIST";;;"(57) (8) 6622310";"Cr33 35-54 Barzal Bajo Colombia, Villavicencio"
"ALQUILER DE SILLAS MESAS Y TABLONES CRISTHIAN";;;"(57) (2) 3288564";"Cr39 39-63 Colombia, Cali"
"FLORISTERIA ROSA BLANCA";;;"(57) (2) 2295359";"Cr5 6-49 Colombia, Roldanillo"
"EL OASIS FLORISTERÍA";;;"(57) (8) 2659291";"Cl 45 10 A-16 Calarcá Colombia, Ibagué"
"FLORISTERÍA ELSA";;;"(57) (8) 2644351";"Av1 31-70 América Colombia, Ibagué"
"FLORISTERIA EL GIRASOL";;;"(57) (7) 6025551";"Cr21 49-25 Colombia Colombia, Barrancabermeja"
"MARTINEZ NELLY FLORISTERIA";;;"(57) (7) 6426108";"Cl 45 Cr13 Pto 40 Colombia, Bucaramanga"
"FLORISTERÍA GIOMAR - PROPLANTEX DE COLOMBIA";;;"(57) (7) 6554953";"Km 13 Autop Piedecuesta Glorieta La Españolita Colombia, Piedecuesta"
"FLORISTERÍA MILFOR";;;"(57) (1) 8311134";"Cr14 17-57 Colombia, Girardot"
"FLORISTERIA ANGELA";;;"(57) (7) 7242933";"Cl 19 7-45 Colombia, San Gil"
"FLORISTERÍA MARIFLOR";;;"(57) (4) 2317416";"Cr51 D 61-72 Colombia, Medellín"
"FLORISTERÍA CARRUSSEL";;;"(57) (1) 2102105";"Cr15 64-19 Colombia, Bogotá"
"DISTRIBUIDORA JARDÍN REAL";;;"(57) (1) 2499549";"Cl 53 19-23 Colombia, Bogotá"
"FLORES LOS CEDRITOS";;;"(57) (1) 2684807";"Cr20 25-97 Colombia, Bogotá"
"FLORISTERÍA CARRUSEL";;;"(57) (1) 5400184";"Cr15 64-19 Colombia, Bogotá"
"FLORISTERÍA DA FLORES";;;"(57) (7) 7273041";"Cl 11 13-17 Colombia, Socorro"
"FLORISTERÍA LAS CAMELIAS";;;"(57) (7) 6451801";"Cl 17 29-44 Colombia, Bucaramanga"
"FLORISTERÍA LIBELULA";;;"(57) (6) 3454526";"Cr6 27-60 Colombia, Pereira"
"FLORISTERÍA TOQUE DE DISTINCIÓN";;;"(57) (1) 8327332";"Cl 16 8-26 Centro Colombia, Girardot"
"FLORISTERÍA EL IMPERIO DE LAS FLORES";;;"(57) (7) 6385516";"Cl 21 # 29-28 Molinos Bajos Colombia, Bucaramanga"
"FLORISTERÍA FÉNIX";;;"(57) (2) 8841418";"Cl 8 12-57 Colombia, Cali"
"FLORES Y EVENTOS SER";;;"(57) (2) 6601813";"Av6 A N 18 N-69 L-63 Colombia, Cali"
"FLORISTERÍA MARANDUA D'NORSAN";;;"(57) (7) 5755912";"Dg Santander 8-23 Popular Colombia, Cúcuta"
"FLORISTERÍA GUILLE";;;"Domic.: (57) (6) 3310227";"Cr10 5-39 Colombia, Pereira"
"LA CASA DE LAS FLORES";;;"(57) (8) 6724483";"Cr24 A 40 A-76 Colombia, Villavicencio"
"FLORISTERÍA LA FLORA";;;"(57) (5) 4213002";"Cl 15 7-01 Colombia, Santa Marta"
"FLORISTERÍA PETALOS";;;"(57) (4) 2538841";"Cl 43 86 A-48 Colombia, Medellín"
"FLORISTERÍA KARISMA TROPICAL";;;"(57) (1) 6916531";"Tr17 A 97-64 Colombia, Bogotá"
"CUPIDO FLORES & BONSAI";;;"(57) (1) 2865668";"Av Jmz 4-96 Colombia, Bogotá"
"FLORISTERÍA JACARANDA";;;"(57) (7) 5710228";"Cl 9 2-25 Colombia, Cúcuta"
"FLORISTERÍA SHIRLEY";;;"(57) (7) 5714451";"Cl 9 3-63 Int 103 Frente al Palacio Nacional Colombia, Cúcuta"
"ESTILO FLORAL Y EVENTOS";;;"(57) (1) 4429495";"Cr 118 No.86-20 Colombia, Bogotá"
"First Name";"Email Address";Url;Telephone;Address
"SEGURA GALLARDO MONICA MARIA";;;"(57) (8) 8716969";"Cl 7 7 A-09 Colombia, Neiva"
"PETALS AND ART";;;"(57) (4) 2576063";"Cl 82 90 E-71 Colombia, Medellín"
"FLORISTERÍA CHARLY";;;"(57) (4) 5485321";"Cl 30 # 31-70 Marinilla Colombia, Medellín"
"GONZÁLEZ MONTOYA MARÍA VÍCTORIA";;;"(57) (1) 2530706";"Cl 118 70C 33 Int 4 AP301 Colombia, Bogotá"
"FLORISTERÍA ISABELLA";;;"(57) (7) 5832802";"Cl 11 1-45 Centro Colombia, Cúcuta"
ISTERÍA GALES";;;"(57) (2) 2642531";"Cl 7 6-03 Colombia, Florida"
"FLORISTERÍA LA ESPERANZA";;;"(57) 3124149866";"Av10 39-130 El Recreo km 5 Los Patios Colombia, Cúcuta"
"FLORISTERÍA ARCO IRIS";;;"(57) (7) 5755087";"Av Gran Colombia 5 Este-58 Popular Colombia, Cúcuta"
