"First Name";"Email Address";Url;Telephone;Address
"TECNOALUMINIOS FLOREZ";gerencia@tecnoaluminiosflorez.com;;"(57) (7) 5763140";"Redoma San Mateo C.C. Mayorista L-10 Colombia, Cúcuta"
"CONSTRUCTORA VÍCTOR SÁNCHEZ";;;"(57) (4) 2515983";"Cl 52 47-28 Int 724 Colombia, Medellín"
"ESPACIOS Y CONCEPTOS";;;"(57) (1) 6113309";"Cr13 90-36 Of 503 Colombia, Bogotá"
"PUNTO FIRME CONSTRUCCIONES";;;"(57) (4) 3131112";"Cr43 A 16 S-47 Int 402 Colombia, Medellín"
"MIGUEL MARSIGLIA & CÍA. LTDA.";;;"(57) (5) 6773501";"Tr54 30-403 Conj.R Santillana de Los Patios Ap 10 Colombia, Cartagena"
EQUIPROYECTOS;;;"(57) (4) 2886849";"Cr47 74 S-30 Sabaneta Colombia, Sabaneta"
"CONSTRUCTORA COLINAS DEL ESTE";;;"(57) (1) 2103138";"Tr1 A 57-27 Colombia, Bogotá"
"FERNANDO SÁNCHEZ CASTAÑO Y CÍA LTDA.";;;"(57) (1) 6210513";"Cl 93 B 18-45 Of 201 Colombia, Bogotá"
"INVERSIONES PORVENIR S. EN C.";;;"(57) (8) 6624180";"Cr32 38-70 Of 802 Centro Colombia, Villavicencio"
"FULL SERVICE CONSTRUCCIONES";;;"(57) (2) 2136767";"Cr 7 9-53 Colombia, Cartago"
"CONSTRUCCIONES VIAS Y EQUIPOS";;;"(57) (1) 4343143";"Av (Cl) 80 71-65 Colombia, Bogotá"
"PROMOTORA PARTAMENTOS DANN S.";;;"Conm.: (57) (1) 6338555";"Cl 93 B 19-44 Colombia, Bogotá"
"CONSTRUCTORA BIOTHECNE CI LTDA.";;;"(57) (8) 6716727";"B-A L-15 cc.Villacentro Colombia, Villavicencio"
"CARIBEAN CONSTRUCTION";;;"(57) (1) 2141627";"Cr13 119-95 Of 105 Colombia, Bogotá"
"ARQUITECTURA Y URBANISMO CONSTRUCCIONES S.A.";;;"(57) (1) 6330429";"Cl 128 7A-14 Colombia, Bogotá"
"INSPECCIONES INGECOR";;;"(57) (4) 2813859";"Cl 81 54-44 Int 414 Colombia, Medellín"
"INCODISEÑO S.A.S.";;;"(57) (2) 8242666";"Cl 4 7-32 Of 407 Colombia, Popayán"
"PROCAL CONSTRUCTORES S.A.S.";;;"(57) (2) 8361616";"Cl 20 N 16-10 Colombia, Popayán"
DURAPANEL;;;"(57) (4) 4440707";"Cl 27 41-80 Itagüí Colombia, Medellín"
"CONSTRUVIMO LTDA";;;"(57) (4) 5632402";"Cl 47 47-06 Rionegro Colombia, Medellín"
"CGV CONSTRUCCIÓN GERENCIA Y VENTAS";;;"(57) (4) 2707902";"Cl 10 32-115 L-111 Colombia, Medellín"
"SERVICIOS DE ARQUITECTURA E INGENIERÍA LTDA";;;"(57) (5) 3533567";"Cl 77 65-37 L-112 Colombia, Barranquilla"
"CONSTRUCTORA CASASCOLOMBIA S.A.S.";;;"(57) 3175127944";"Cr23 B 9-21 Colombia, Armenia"
"CONSTRUCCIONES J E L S.A.S.";;;"(57) (4) 2133293";"Cl 69 36-07 Colombia, Medellín"
"CONSTRUCTORA LOREA LTDA";;;"(57) (4) 5318376";"Rionegro Colombia, Medellín"
SERCALING;;;"(57) (1) 7009363";"Cr26 40-82 Colombia, Bogotá"
"INGABO S.A.S.";;;"(57) 3207261361";"Cl 21 N 14-35 Colombia, Armenia"
"CONSTRUCTORA F & M DEL VALLE S.A.S.";;;"(57) (2) 3272286";"Cr42 C 43-32 Colombia, Cali"
"CONSTRUCTORA NORBERTO ODEBRECHT S.A.";;;"(57) (1) 6216218";"Av15 100-69 Of 603 Colombia, Bogotá"
"CONSTRUCTORA EXPERTA";;;"(57) (1) 6198602";"Autop Norte 114-78 Of 401 Colombia, Bogotá"
"CONSTRUCTORA CREA S.A.";;;"(57) (1) 6607459";"Av (Cr) 68 A 70 C-70 Colombia, Bogotá"
"CHAMS CHEDRAUI S. EN C.";;;"(57) (5) 3455152";"Cr43 79 B-127 Of 1-A Colombia, Barranquilla"
"COOPCONTRUIR C.T.A. LTDA.";;;"(57) (5) 3563844";"Cr 43 79 B-127 L-1-B Colombia, Barranquilla"
"PROCICON LTDA";;;"(57) (5) 3690558";"Cr62 64-104 Colombia, Barranquilla"
"DRY WALL DE LA COSTA";;;"(57) (5) 3689306";"Vía 40 73-290 Of 418 Trr 2 Centro Empresarial Mix Colombia, Barranquilla"
"CONSTRUCTORA ALVAREZ";;;"(57) (5) 3682243";"Vía 40 73-290 Of 418 Trr 2 Centro Empresarial Mix Colombia, Barranquilla"
"CONSTRUCCIONES VIYA S.A.";;;"(57) (5) 3599043";"Cr51 B Km 7 Dg Uniatlántico Lt 2-A Colombia, Barranquilla"
"GRAMA CONSTRUCCIONES S.A.";;;"(57) (5) 3780099";"Cl 93 43-180 Colombia, Barranquilla"
"ENSAMBLES DEL HUILA";;;"(57) (8) 8642260";"Cl 14 5-74 Colombia, Neiva"
"CONTRUCTORA BALCONES DE LA COLINA LTDA.";;;"(57) (5) 3483092";"Cr36 84-185 P-2 Colombia, Barranquilla"
"First Name";"Email Address";Url;Telephone;Address
"INGETOP S.A.S";;;"(57) (1) 6680610";"Cr19 B 168-09 Colombia, Bogotá"
"CONSTRUCTORA INGAR";;;"(57) (5) 3557736";"Cr74 81-36 Colombia, Barranquilla"
"CONTRUCTORA SIERRADENTRO";;;"(57) (5) 4202220";"Cl 23 6-18 La Esperanza Colombia, Santa Marta"
"AGORA CONSTRUCTORES LTDA.";;;"(57) (4) 2530827";"Cr90 45-49 Colombia, Medellín"
"CONSTRUIR LTDA.";;;"(57) (2) 2122574";"Cl 13 1 N-29 Colombia, Cartago"
"OBS ASSETS S.A.S.";;;"Telefax: (57) (1) 3138342";"Cr7 73 - 55 Of 801 Colombia, Bogotá"
"FUTURO S.A.";;;"(57) (1) 6157099";"Cl 127 13 A-54 Colombia, Bogotá"
"CONSTRUCTORA SOJIMECA S.A.";;;"(57) (5) 4217273";"Av del Libertador 14-142 Colombia, Santa Marta"
"CONSTRUCCIONES CASALUJO S.A.S.";;;"Telefax: (57) (1) 2159067";"Cl 116 22 - 15 Ap 704 Colombia, Bogotá"
"CONSORCIO AFA-SMA";;;"(57) (5) 4313524";"Cl 15 3-74 Of 302-A Colombia, Santa Marta"
"INVERSIONES ARA";;;"(57) (1) 2187864";"Cl 106 36-19 Colombia, Bogotá"
"CONSTRUCTORA LIDER";;;"(57) (5) 3456324";"Cr49 B 79-01 L-23 Colombia, Barranquilla"
"IBERIA CONSTRUCCIONES";;;"(57) (2) 6651480";"Cl 51 N 4 A N-58 Colombia, Cali"
"G & C CONSTRUCTORES S.A.S.";;;"(57) (2) 6685903";"Av5 B N 20 N-52 Of 115 Colombia, Cali"
"CONSTRUCCTORA CAPITAL MEDELLÍN S.A.S";;;"Domic.: (57) (4) 4487440";"Cl 19 43 G - 169 Of 601 Colombia, Medellín"
"CARLOS PRIETO CONSTRUCCIONES S.A.S.";;;"(57) (1) 5357704";"Cr86 A 84 A-12 Colombia, Bogotá"
"CONSTRUIR S.A.";;;"(57) (2) 2719910";"Cl 65 26 A-45 Colombia, Palmira"
"GIRALDO & SALAZAR ARQUITECTOS LTDA.";;;"(57) (2) 6604318";"Av5 N 22-24 Of 501 Colombia, Cali"
"AGIL E.U.";;;"Conm.: (57) (4) 3346699";"Cl 36 D S 27 D-179 Int 101 Colombia, Medellín"
SCALA;;;"(57) (8) 2671585";"Cr14 74 B-11 Av Ambalá Colombia, Ibagué"
"INGENIEROS & ARQUITECTOS LTDA.";;;"(57) (8) 6621792";"Cl 38 32-41 Parque Santander Of 1106 Colombia, Villavicencio"
"ALVAREZ CONSTRUACABADOS";;;"(57) (2) 2747650";"Cl 50 40-54 Colombia, Palmira"
"C.J.R. CONSTRUCCIONES E.U.";;;"(57) (2) 3168831";"Cl 13 98-10 B-4 Of 607 Colombia, Cali"
"SIGMA CONSTRUCCIONES CIVILES S.A.S";;;"Nal: (57) (4) 2624655";"Cr51 41 - 222 Int 504 Colombia, Medellín"
"CONSTRUCCIÓN Y ASESORÍAS";;;"(57) (2) 2758820";"Cr32 29-16 Colombia, Palmira"
"CONINCON LTDA";;;"(57) (1) 5312978";"Cl 94 16-09 Ap 503 Colombia, Bogotá"
"INVERSIONES Y PROMOCIONES HUILA LTDA.";;;"(57) (8) 8710811";"Cl 11 4-01 Colombia, Neiva"
"A&S ASESORÍAS Y SOLUCIONES CONSTRUCTIVAS S.A.S.";;;"(57) (1) 8330238";"Cl 18 9-86 Of D-301 Edif El Sol Colombia, Girardot"
"ICAGEL LTDA.";;;"(57) (8) 2701368";"Cr7 A. 29-31 Colombia, Ibagué"
"TAVERA SALAMANCA ALEJANDRO";;;"(57) (7) 6573717";"Cr35 54-25 Ap 202 Colombia, Bucaramanga"
"URVIVIENDAS LTDA.";;;"(57) (7) 6422942";"Cl 35 19-41 Of 1402 Colombia, Bucaramanga"
"INMOBILIARIA AMPRO";;;"(57) (7) 6487046";"Parag·itas Real III Casa 89 Floridablanca Colombia, Floridablanca"
"HADI DISEÑO CONSTRUCTORA";;;"(57) (7) 6451180";"Cl 42 17-29 Centro Colombia, Bucaramanga"
"ARKADIA CONSULTORÍAS & CONSTRUCCIONES LTDA.";;;"Nal: (57) (7) 5747877";"Cl 6 6E-139 Quinta Oriental Colombia, Cúcuta"
"EDIFICACIONES BOREAL";;;"(57) (2) 7229418";"Cr34 12-40 Colombia, Pasto"
"GÓMEZ LUCENA & ASOCIADOS LTDA. EDGAR";;;"(57) (1) 3462871";"Cl 68 # 4 A-09 Colombia, Bogotá"
"RICAURTE CONSTRUCCIONES S.A.S.";;;"(57) (2) 4029411";"Cl 5 46-83 L 236 Colombia, Cali"
"VARGAS & VARGAS MILLÁN LTDA";;;"(57) (1) 6180993";"Cl 104 14 A-45 Of 302 Colombia, Bogotá"
"ALFHERNANDEZ ACCESORIOS Y PASAMANOS";;;"(57) (7) 6420060";"Cl 45 19-65 Colombia, Bucaramanga"
"HYDROCHINA S.A.S";;;"(57) (1) 6115804";"Cr10 83-73 Ap 302 Colombia, Bogotá"
"First Name";"Email Address";Url;Telephone;Address
"INCOELSA S.A.S";;;"(57) (1) 8661484";"Cr6 4-14 Of 203 Cajicá Colombia, Bogotá"
"CONSTRUCTORA FEDERAL S.A.S.";;;"(57) (1) 6368859";"Cl 90 18-53 Colombia, Bogotá"
"RCH CONSTRUCTORES ASOCIADOS S.A";;;"(57) (1) 6299980";"Cl 122 19-59 Colombia, Bogotá"
"CONSTRUCTORA TERRA LTDA-";;;"(57) (6) 8872852";"Cr24 22-36 Of 301 centro Colombia, Manizales"
ECODICON;;;"(57) (2) 7316500";"Cr32 B 19-54 Colombia, Pasto"
"MESA GONZÃLEZ ALBERTO";;;"(57) (1) 5331388";"Cl 88 30-32 Colombia, Bogotá"
"INGECONAS LTDA.";;;"(57) (1) 4783535";"Cr20 125-38 Of 104 Colombia, Bogotá"
INDUCACETÓN;;;"(57) (1) 2800970";"Cr7 0-06 E Colombia, Bogotá"
"FERRETERÍA LA VALENCIANA";;;"Domic.: (57) (7) 5802125";"Servicio a Domicilio Colombia, Cúcuta"
"CONSTRUCTORA INECONTEC";;;"(57) (2) 7238744";"Cr27 19-54 Int 3 Colombia, Pasto"
"HYDROCHINA S.A.S";;;"(57) (1) 6115804";"Cr10 83-73 Ap 302 Colombia, Bogotá"
CONSTRULÓPEZRIVAS;;;"(57) (6) 3215214";"Cl 17 23-64 Of 11-3 Colombia, Pereira"
"INVERSIONES TORRELAVEGA LTDA.";;;"(57) (2) 2106982";"Cr4 39-89 Vía al Batallón Colombia, Cartago"
"ARCIVILES LTDA";;;"(57) 3108511113";"Cl 17 D 16-08 Remanso Colombia, Villavicencio"
"INVERSIONES PENINSULA E.U.";;;"(57) (1) 2134908";"Cr1 Este 108 A 49 Colombia, Bogotá"
"CONSTRUCTORA MOLINO LTDA.";;;"(57) (1) 2369609";"Cr16 79-31 Of 401 Colombia, Bogotá"
"V.I.P CONSTRUCTIONS S.A.S.";;;"(57) (1) 6276791";"Cl 128 B 49-71 Colombia, Bogotá"
"CONOPTIMA LTDA.";;;"(57) (7) 6436339";"Cr34 46-50 Colombia, Bucaramanga"
"PRIFCO CONSTRUCCIONES Y EQUIPOS LTDA.";;;"(57) (5) 3576242";"Cr52 100-105 Colombia, Barranquilla"
"INVER & CONSTRU-SIÓN";;;"(57) (8) 2651563";"Cr4 Estadio 30-33 Colombia, Ibagué"
"ARQUITECTURA Y URBANISMO";;;"(57) 3176441212";"Cl 7 S 18-44 Colombia, Buga"
"URBANIZACIÓN EL TREBOL";;;"(57) (2) 2124899";"Cl 10 4-60 L-5 Colombia, Cartago"
"GAMBOA & RAMÍREZ ARQUITECTURA E INGENIERÍA LTDA";;;"(57) (7) 5772440";"Av4 Este 1-09 La Ceiba Colombia, Cúcuta"
"ARQUITRANS S.A.S.";;;"(57) (4) 2506416";"Cl 47 72 B-31 Int 101 Colombia, Medellín"
"SOTO GAITÁN CARLOS ALBERTO";;;"(57) (7) 5714315";"Cl 11 A 1 E-63 Ap 602 Edif Dorado Caobos Colombia, Cúcuta"
"PROMOTORA BIANCO S.A.S";;;"(57) (4) 3540906";"Cr40 10-35 Colombia, Medellín"
"DIEGO PARRA MEJORA Y CONSTRUCCIONES";;;"(57) (4) 3798889";"Cl 39 A 55 A-29 Itagui Colombia, Itagüí"
"CONSTRUCTORA ENTRE VERDES S.A.S";;;"Conm.: (57) (4) 2662880";"Cl 12 43 F-03 Colombia, Medellín"
"PROYECTOS E INVERSIONES DE SANTANDER";;;"(57) (7) 6992352";"Cr37 52-43 Colombia, Bucaramanga"
"CONCAY S.A.";;;"(57) (1) 3258500";"Cr1 76-91 Colombia, Bogotá"
"PRADA ROJAS INGENIEROS LTDA.";;;"(57) (7) 6322823";"Cl 21 29-49 Colombia, Bucaramanga"
"CONSTRUCTORA PROYECTART S.A.S.";;;"Telefax: (57) (1) 6247814";"Tr60 115 - 58 Trr C Of 307 Colombia, Bogotá"
"HACIENDA EL IMPERIO LTDA";;;"(57) (1) 3126383";"Av (Cr) 15 74-70 Of 601 Colombia, Bogotá"
"URBANISMOS Y CONSTRUCCIONES AQG S.A.S.";;;"Telefax: (57) (1) 7806897";"Cr77 M 72 A - 25 S Colombia, Bogotá"
"CRYSTAL TOWERS";;;"(57) (1) 6201707";"Cl 122 7 A-18 Ap 401 Colombia, Bogotá"
"COCIVIMILCO S.A.";;;"(57) (1) 6114597";"Cocivimilco S.A. Colombia, Bogotá"
"CONSTRUCTORA FICH S.A.";;;"(57) (1) 4831112";"Cl 110 7 C-76 Colombia, Bogotá"
"CONSTRUAVAN S.A.S.";;;"Telefax: (57) (1) 5391237";"Cr113 C 154 - 17 Of 301 Colombia, Bogotá"
"K.M.A LTDA.";;;"(57) (1) 6334244";"Dg127 A 23-92 Colombia, Bogotá"
"EL TALLER DE S S.A.S.";;;"Telefax: (57) (1) 4007527";"Cr19 39 - 85 Colombia, Bogotá"
"First Name";"Email Address";Url;Telephone;Address
"GRUPO ARQDECKO S.A.S.";;;"(57) (5) 3031388";"Cr46 61-51 Of 205 Colombia, Barranquilla"
"HUGO CALDERÓN Y CÍA LTDA.";;;"(57) (2) 6836797";"Cl 49 N 6 N-250 Colombia, Cali"
"CONCRETO Y CONSTRUCCIONES CIVILES S.A.S";;;"(57) (4) 4383563";"Cl 58 C 90-115 Int 107 Colombia, Medellín"
"ALTITUD VIDRIERA DEL VALLE S.A.S.";;;"(57) (2) 5241004";"Cr42 5 E-21 Colombia, Cali"
"TORRES ASOCIADOS ACEDIET LTDA";;;"(57) (7) 5727419";"Cl11 4-74 Of201 Centro Colombia, Cúcuta"
"INCIMET LTDA.";;;"(57) (8) 6621477";"Cl 15 42-38 Colombia, Villavicencio"
"ORVEL CONSTRUCCIONES S.A.S";;;"(57) (6) 8751037";"Cl 64 13-32 La Toscana Colombia, Manizales"
"HBJ CONSTRUCCIONES";;;"(57) (4) 5535607";"Cr22 8-12 La Ceja Colombia, Medellín"
"JOSÉ SIERRA Y GUZMÁN CÍA LTDA.";;;"(57) (4) 3119095";"Cl 10 42-45 Int 311 Colombia, Medellín"
"CONSTRUCTORA PROYECTART S.A.S.";;;"Telefax: (57) (1) 6247814";"Tr60 115 - 58 Trr C Of 307 Colombia, Bogotá"
"P R V ASOCIADOS LTDA.";;;"(57) (1) 2358994";"Cr 7 79 B - 15 Of 303 Colombia, Bogotá"
"CONSTRUCTORA OBREVAL S.A.";;;"(57) (1) 7023759";"Cl 49 13-33 P-14 Colombia, Bogotá"
"INMOBILIARIA ADRIANA RIVERA";;;"(57) (2) 8231214";"Cl 14 N 6 A-08 Colombia, Popayán"
"LASMO ARQUITECTOS LTDA.";;;"(57) (1) 2582044";"Cr23 137-97 Colombia, Bogotá"
"INVERSIONES LA MANCHA LTDA.";;;"Telefax: (57) (1) 2749308";"Cr45 147 - 12 B-7 Of 401 Colombia, Bogotá"
"EL TALLER DE S S.A.S.";;;"Telefax: (57) (1) 4007527";"Cr19 39 - 85 Colombia, Bogotá"
"J.I.C INGENIERÍA Y CONSTRUCCIÓN S.A.S.";;;"(57) (1) 5366390";"Cr100 B 133-15 Colombia, Bogotá"
"CONSTRUCTORA SENERCO LTDA.";;;"(57) (2) 7239154";"Cr24 17-75 Of 602 Edif Concasa Colombia, Pasto"
"BASA INGENIERÍA";;;"(57) (1) 6209161";"Av19 118-95 Of 411 Colombia, Bogotá"
"PRESTIGE FLOORING";;;"(57) (4) 3772533";"Cr42 75-83 L-130 Itagüí Colombia, Itagüí"
"JARDINES LTDA";;;"(57) (4) 3614655";"Cl 9 S 83 A-02 Int 104 Colombia, Medellín"
"HAG S.A.";;;"(57) (4) 3410255";"Cl 21 82 A-93 Ap 201 Colombia, Medellín"
"METAL ORIENTE LTDA.";;;"(57) (2) 4359030";"Parcelacion La Nubia Km 1.5 Vía Cavasa Colombia, Cali"
"CONCESIONARIA RUTA DEL SOL S.A.S.";;;"(57) (1) 6585333";"Cr15 106-65 P-4 Colombia, Bogotá"
"CUSEZAR S.A.";;;"(57) (1) 6516066";"Av (Cl) 116 7–15 Int 2 P-15 Colombia, Bogotá"
"VIVIENDAS S.A.";;;"(57) (7) 5717032";"Av 1 14-63 Of. 201 Edif. San Vicente II La Playa Colombia, Cúcuta"
"CONSTRUCTORA BARAJAS S.A.";;;"(57) (5) 6655756";"Bgde Cr3 6 A-100 Torre Empresarial Protección Colombia, Cartagena"
"CONSTRUCCIONES EL BOSQUE";;;"(57) (1) 2682008";"Cl 38 29-86 Colombia, Bogotá"
"DISUCÓN LTDA";;;"(57) (2) 4898659";"Cl 5B4 37-93 Colombia, Cali"
"CONSTRUCTORA AGORA LTDA.";;;"(57) (4) 7823870";"Cl 29 7-75 Colombia, Montería"
"CONSTRUCCIONES LA PIRÁMIDE";;;"(57) (8) 6603184";"Cl 6 34-86 Vega Colombia, Villavicencio"
PROURBE;;;"(57) (7) 6395060";"Cl 103 14-14 Alameda Colombia, Bucaramanga"
"PROMOTORA PARTAMENTOS DANN S.";;;"Conm.: (57) (1) 6338555";"Cl 93 B 19-44 Colombia, Bogotá"
"CONSTRUCTORA BIOTHECNE CI LTDA.";;;"(57) (8) 6716727";"B-A L-15 cc.Villacentro Colombia, Villavicencio"
"CONSTRUCCIONES FUTURA S.A.";;;"(57) (8) 6715986";"Av40 26 C-37 Colombia, Villavicencio"
"WT COSTRUCTORES";;;"(57) (4) 3328613";"Cl 48 S 39 B-20 Int 201 Envigado Colombia, Envigado"
"JD CONSTRUCCIONES INTEGRALES DE INGENIERIA S.A.S.";;;"(57) (4) 4823559";"Av 44 61-38 Colombia, Medellín"
"A ESCALA PROMOTORA DE PROYECTOS S.A.S.";;;"(57) (4) 2301054";"Cq 1 66 B-122 Int 301 Colombia, Medellín"
"M.C OBRAS CIVILES";;;"(57) (4) 3771474";"Cl 70 51-17 Itagüí Colombia, Itagüí"
"CONURBAR LTDA";;;"(57) (7) 6430803";"C.C. Cabecera Et. IV Of. 420 Colombia, Bucaramanga"
"First Name";"Email Address";Url;Telephone;Address
"CONSTRUCTORA ENTRE VERDES";;;"(57) (4) 2792944";"Cl 81 S 63-121 Ap 130 La Estrella Colombia, Medellín"
"HMS CONSTRUCTORES S.A.S";;;"(57) (7) 5893906";"Av 2 E 17 A-10 L-1 Los Caobos Colombia, Cúcuta"
"CARLOS GAVIRIA Y ASOCIADOS S.A.";;;"(57) (1) 6101052";"Av (Cr) 11 86-32 Of 201 Colombia, Bogotá"
"CONSTRUCTORA GLOBAL S.A.S.";;;"(57) (4) 3793186";"Cl 38 A S 36-39 Envigado Colombia, Envigado"
"CONSTRUCCIÒN Y PROYECTOS";;;"(57) (4) 4123197";"Cr84 43-36 Of 106 Colombia, Medellín"
"EQUILATEROS E.U.";;;"(57) (5) 6904726";"Manga Av4 21-116 Colombia, Cartagena"
"INGENIERÍA CORPER SAS";;;"Telefax: (57) (7) 5743847";"Av 0 4-74 Colombia, Cúcuta"
"GEOMINAS S.A.";;;"(57) (4) 3135258";"Cl 16 AA S 42-74 Colombia, Medellín"
"CONSTRUINVERTIR S.A.S.";;;"(57) (6) 7312981";"Cr12 0-20 Colombia, Armenia"
"SERVICIOS DE ARQUITECTURA E INGENIERÍA LTDA";;;"(57) (5) 3533567";"Cl 77 65-37 L-112 Colombia, Barranquilla"
"CONSTRUCTORA LOS ANGELES S.A.S.";;;"(57) (6) 7312679";"Cl 24 N 5-07 Colombia, Armenia"
BOYCA;;;"(57) (1) 6212330";"Cl 93 12-54 Of 406 Colombia, Bogotá"
"D&C INGENIERÍA LTDA.";;;"(57) (1) 2447412";"Cr 39A 25-25 Colombia, Bogotá"
"HIDROPAV S.A.S.";;;"Telefax: (57) (1) 4503654";"Cl 55 S 81 A - 03 Colombia, Bogotá"
"PROYECTAMOS Y EDIFICAMOS S.A.S.";;;"(57) (8) 2663870";"Cr5 37 Bis-19 Of 301 Colombia, Ibagué"
"CIMA CONSTRUCTORA S.A.S.";;;"(57) (1) 4057017";"Av (Cl) 24 51-40 Of 505 Colombia, Bogotá"
"UBICCA CONTRUCTORA S.A.S";;;"(57) (4) 4167007";"Cr76 34 A-41 Colombia, Medellín"
"CREACIONES TERNURITAS";;;"(57) (7) 6340594";"Cl 22 22-35 Colombia, Bucaramanga"
"BEST COMPANY LTDA.";;;"(57) (7) 6340594";"Cl 22 22-35 Colombia, Bucaramanga"
"MONTANGO S.A.";;;"(57) (2) 4052063";"Av 9 An 9-40 Of 201 Colombia, Cali"
"PROCESOS CONSTRUCTIVOS INTEGRADOS S.A.S";;;"(57) (7) 6553820";"Cl 6 Norte 4-200 Junin Casa 10 Manz L Colombia, Bucaramanga"
PROBISERVI;;;"(57) (4) 5532265";"Cr21 18-36 La Ceja Colombia, La Ceja"
"LOTERO ROJAS FILIBERTO";;;"(57) (2) 3304052";"Cr101 12 ABis-70 Casa 51 Colombia, Cali"
"CONSTRUCTORA ESCANDON MEJIA LTDA.";;;"(57) (7) 6573177";"Cr45 55-62 Terrazas Colombia, Bucaramanga"
"CONSORCIO MORENO TAFURT S.A.";;;"(57) (2) 2756881";"Cl 31 30-19 Of 401 Edif Versilia Colombia, Palmira"
"J.J. BERNAL S. CONSTRUCCIONES LTDA.";;;"(57) (2) 4466396";"Cr5 N 64 N-12 P-3 Colombia, Cali"
"BUEN VIVIR CIA. CONSTRUCCIONES LTDA.";;;"(57) (6) 3314975";"Cr15 4-50 L-101 Molinos de Aragón Colombia, Pereira"
"SARB CONSTRUCCIONES";;;"(57) (7) 6341680";"Cl 20 31-26 Of 102 Colombia, Bucaramanga"
"URBANISMOS Y CONSTRUCCIONES AQG S.A.S.";;;"Telefax: (57) (1) 7806897";"Cr77 M 72 A - 25 S Colombia, Bogotá"
"GRUPO CONSTRUCTOR PRODIGYO S.A.";;;"(57) (2) 8200432";"Cl 35 N 21-200 Colombia, Popayán"
"CONSTRUCTORA TAYKA COLOMBIA S.A.S.";;;"(57) (2) 7364394";"Cr18 12-50 Brr. Las Américas Colombia, Pasto"
"ANTISISMOS LTDA.";;;"(57) (4) 2682344";"Cr43 A 1 S-31 Int 406 Colombia, Medellín"
"VELNEC S.A.";;;"(57) (1) 2410530";"Cl 28 13 A-15 Of 1402 Colombia, Bogotá"
"MARTINEZ SANCHEZ HAROL F";;;"(57) (7) 5893906";"Av2 E 17 A-10 L-1 Los Caobos Colombia, Cúcuta"
"CONSTRUINVERSIONES A & M LTDA";;;"(57) (6) 7421044";"Cra 25 Cl 47 Esq C.C Zaguanes L-4 P-2 Colombia, Calarcá"
"LIMOR CONSTRUCCIONES LTDA";;;"(57) (1) 8619792";"Cr2 17-49 Int 2 Chía Colombia, Chía"
"CONSTRUCTORA CONMAN LTDA.";;;"(57) (5) 3593714";"Cr42 B 84-213 Colombia, Barranquilla"
"CONSTRUCTORA JAIME BARRERO & CÍA. LTDA.";;;"(57) (1) 2366537";"Cr49 94-82 Colombia, Bogotá"
"ROJAS IRAGORRI ARQUITECTOS LTDA.";;;"(57) (1) 2357005";"Cl 71 6-57 Ap 301 Colombia, Bogotá"
"INVERSIONES BUEN VIVIR LTDA";;;"(57) (1) 2142309";"Cr17 A 116-65 Colombia, Bogotá"
"First Name";"Email Address";Url;Telephone;Address
"CONSTRUCTORA INECONTEC";;;"(57) (2) 7238744";"Cr27 19-54 Int 3 Colombia, Pasto"
"HAROLD VACA ARQUITECTO";;;"(57) (2) 6644810";"Cl 53 N 9-15 Colombia, Cali"
"CONSTRUCTORES E INTERVENTORES LTDA.";;;"Telefax: (57) (5) 3785636";"Cl 108 49 E-11 Colombia, Barranquilla"
"LAGOS CONSTRUCTORA";;;"(57) (2) 5571024";"Av Roosevelt 26-73 Colombia, Cali"
"CUBICO S.A.S";;;"(57) (4) 4441704";"Cl 17 C S 44-38 Colombia, Medellín"
"CONSTRUCTORA EDILICIA - STRADA SUITES";;;"(57) (7) 6456427";"Cl 37 24-41 Colombia, Bucaramanga"
"MIGUEL MARSIGLIA & CÍA. LTDA.";;;"(57) (5) 6773501";"Tr54 30-403 Conj.R Santillana de Los Patios Ap 10 Colombia, Cartagena"
"CONSTRUCTORA BARAJAS S.A.";;;"(57) (5) 6655756";"Bgde Cr3 6 A-100 Torre Empresarial Protección Colombia, Cartagena"
"CONCITEC LTDA.";;;"(57) (1) 6150631";"Cr46 152-46 Of 404 Colombia, Bogotá"
"CONSTRUCTORES CONSULTORES LTDA";;;"(57) (1) 5353986";"Dg87 Bis 79 A-81 Colombia, Bogotá"
"OCAMPO AYALDE Y CÍA. LTDA. EDGAR";;;"(57) (2) 6644002";"Av3 N 54-57 Colombia, Cali"
"CONSTRUCCIONES SIGMA S.A.";;;"(57) (1) 6475800";"Cr7 127-48 Of 601 Colombia, Bogotá"
"CONSTRUCTORA OS SAS";;;"(57) (1) 6005986";"Cl 58 22-43 Colombia, Bogotá"
"EDUHOLDING COLOMBIA";;;"Telefax: (57) (1) 7429055";"Cr7 113 - 43 Of 805 Colombia, Bogotá"
"INVERSIONES DON MARCOS LTDA.";;;"(57) (1) 3483753";"Cl 72 A 20 A-22 Of 404 Colombia, Bogotá"
"METRO INGENIERÍA S.A.S.";;;"(57) (7) 6571116";"Cr29 45-45 Of 1302 Edif Metropolitan Business Park Colombia, Bucaramanga"
"CONSTRUCTORA MAGALLANES";;;"(57) (5) 3688222";"Cl 77 72-36 Colombia, Barranquilla"
"A. ABAA";;;"(57) (2) 3282222";"Cr47 B 43-72 Colombia, Cali"
"MUÑOZ SEPÚLVEDA EDILBERTO";;;"(57) (2) 3272259";"Cr43 B 46-14 Colombia, Cali"
"INGENIERÍA DE IDEAS E INFORMACIÓN S.A.";;;"(57) (2) 3120066";"Av5 N 21-22 Colombia, Cali"
"INVER & CONSTRU-SIÓN";;;"(57) (8) 2651563";"Cr4 Estadio 30-33 Colombia, Ibagué"
"CONSULTORÍAS ASESORÍAS CONSTRUCCIONES";;;"(57) (1) 2205257";"Cr15 73-48 P-3 Colombia, Bogotá"
"CONSTRUCTORA P-F LTDA.";;;"Telefax: (57) (5) 3798789";"Cr36 54-90 Colombia, Barranquilla"
"CASA Y PISCINA CONSTRUCCIONES";;;"(57) (2) 7328211";"Cr8 12-211 Chachagüí Colombia, Pasto"
"CONSTRUCCIONES TOWER DEL CARIBE S.A.S.";;;"Telefax: (57) (5) 3775660";"Cr43 B 82-111 Colombia, Barranquilla"
"CONSTRUCTORA EL CEDRO LTDA.";;;"Telefax: (57) (5) 3737281";"Cr43 B 82-114 Colombia, Barranquilla"
"CONSTRUCTORA DE VIVIENDAS CONVIVA";;;"(57) (4) 2341221";"Cr81 A 48 A-38 Colombia, Medellín"
"ESPINOSA PINZÓN Y CÍA LTDA.";;;"(57) (1) 2367568";"Cr22 83-80 Colombia, Bogotá"
"PORTALES DEL JORDÁN LTDA.";;;"(57) (2) 8920977";"Av4 A Oe 5-207 Colombia, Cali"
"EMPRENDIMIENTOS INMOBILIARIOS";;;"Telefax: (57) (1) 2563579";"Cr10 96-18 Colombia, Bogotá"
"OSLEYUVA CONSTRUCCIONES";;;"(57) (5) 3482493";"Cl 87 13 C-40 Int. 9 Colombia, Barranquilla"
"YO SOY CONSTRUCTOR S.A.S.";;;"Telefax: (57) (1) 4506001";"Cl 53 S 79 C - 21 Int 3 Ap 304 Colombia, Bogotá"
"FERRETERÍA DICO";;;"(57) (2) 2253406";"Cr35 30-32 Colombia, Tuluá"
"MECON S.A.";;;"(57) (2) 8937507";"Cl 12 A Oe 2 A-50 Colombia, Cali"
"DC TOTAL";;;"(57) (4) 3373757";"Cr2 A 11 A-45 San Antonio de Prado Colombia, Medellín"
"IARCO S.A";;;"(57) (4) 2610699";"Cr43 33-57 Int 301 Colombia, Medellín"
"ADMINISTRACIÓN INMOBILIARIA M&M S.A.S.";;;"Telefax: (57) (1) 6165547";"Cl 93 A 11 - 07 Of 302 Colombia, Bogotá"
"MALUNA LTDA.";;;"(57) (4) 3814725";"Cr51 41-224 Of 701 Colombia, Medellín"
"TIERRAS CONSTRUCCIÓN Y URBANIZACIONES LTDA.";;;"(57) (1) 2447180";"Av. Américas 37-81 Colombia, Bogotá"
"ADMINISTRADORA DE ACTIVOS SANTANDER S.A.S.";;;"Telefax: (57) (1) 2444699";"Cl 44 19 - 38 Colombia, Bogotá"
"First Name";"Email Address";Url;Telephone;Address
"A.C. TANGIBLES";;;"(57) (2) 3372653";"Cl 23 36 B-42 Colombia, Cali"
"INVERSIONES LOMITA NUEVA";;;"(57) (7) 5713018";"Cl 10 5-50 Of 506 Centro Colombia, Cúcuta"
"CONSTRUCCIONES EXPRESS LTDA.";;;"(57) (5) 4318844";"Av del Ferrocarril 18-48 L-5 Colombia, Santa Marta"
"AVALÚOS Y DESENGLOBES DISPLANEAR®TE";;;"(57) 3007902361";"Cr79 BB 45-49 Colombia, Medellín"
"NELMA INGENIEROS CONTRATISTAS";;;"(57) (1) 6163080";"Cr53 104 B-22 Int 3 Of 203 Colombia, Bogotá"
"CONSTRUCTORA ALCALÁ LTDA.";;;"(57) (8) 6726726";"Cl 38 32-41 Of 603 Centro Colombia, Villavicencio"
CONSTRUCMODULOS;;;"(57) (1) 6742957";"Cr49 B 176-40 Colombia, Bogotá"
"LUIS FERNANDO GÓMEZ R Y CÍA LTDA.";;;"(57) (1) 3177457";"Cl 71 6-11 Colombia, Bogotá"
"RUGE SOTELO ISRAEL";;;"(57) (1) 2104458";"Cr24 63 C-28 Of 501 Colombia, Bogotá"
"URBANAS S.A.";;;"(57) (1) 4275151";"Av Eldorado 68 C-61 Of 7-28 Colombia, Bogotá"
"SERVINGENIERÍA LTDA.";;;"(57) (5) 4214248";"Cl 30 4-53 Manzanares Colombia, Santa Marta"
"SERVINCO SERVICIOS DE INGENIERÍA Y CONSTRUCCIÓN";;;"(57) (2) 8204402";"Aida Lucia Casa No 50 Colombia, Popayán"
"BARRERA CORAL & CIA LTDA.";;;"(57) (1) 2507493";"Cl 73 Bis 68 H-24 Colombia, Bogotá"
"ZÚÑIGA & PÉREZ LTDA.";;;"(57) (5) 4211614";"Cl 23 6-18 Of 302 C.C. Plazuela 23 Colombia, Santa Marta"
"XYON CONSTRUCTORA";;;"(57) (5) 6560711";"Cl 70 6-99 Colombia, Cartagena"
"ARKGRUN DISEÑO Y CONSTRUCCIÓN SAS";;;"Telefax: (57) (1) 4040451";"Cl 79 A 18-34 Of 310 Colombia, Bogotá"
"CONSTRUACUÑA E.U.";;;"Telefax: (57) (1) 2790418";"Tr18 Bis 49-10 Sur Colombia, Bogotá"
"CONSTRUCCIONES PARQUE 80 LTDA.";;;"(57) (1) 2856295";"Tr18 ABis 37-67 Colombia, Bogotá"
"CASAS PREFABRICADAS EL CASTILLO";;;"(57) (4) 4925673";"Cr86 A 42 C-61 Colombia, Medellín"
"CONSORCIO CONSTRUCTORA CÚCUTA S.A.";;;"(57) (7) 5712469";"Av 0 11-30 Of 408-B C.C. Gran Bulevar Colombia, Cúcuta"
"CONSTRUCTORA CAMÚ";;;"(57) (6) 7411538";"Cl 21 16-46 P-10 Colombia, Armenia"
"GUTIÉRREZ FACCINI & CÍA. S. EN C.";;;"(57) (1) 2118637";"Cl 80 8-14 Of 402 Colombia, Bogotá"
"M Y M CONSTRUCCIONES LTDA.";;;"(57) (1) 6374562";"Av (Cr) 13 122-35 Colombia, Bogotá"
"MONAPE S.A.S";;;"(57) (7) 5710328";"Cl 10 5-50 Of 508 Edif Agrobancario Centro Colombia, Cúcuta"
"ORTIZ GALLEGO LUIS EUDES";;;"(57) (4) 2854691";"Cr81 A 50-11 Int 201 Colombia, Medellín"
"CONSTRUCTORA LÓPEZ Y ASOCIADOS S.A.S";;;"(57) (2) 3364405";"Cl 48 90-80 P-2 Colombia, Cali"
"CONSTRUCTORA JAIME GRANADA E.U.";;;"(57) (4) 5721270";"Cr28 100-40 Colombia, Medellín"
"PRESTIGE FLOORING";;;"(57) (4) 3772533";"Cr42 75-83 L-130 Itagüí Colombia, Itagüí"
"AVILA PROYECTOS";;;"Conm.: (57) (4) 3422736";"Cl 31 B 102 A-07 Colombia, Medellín"
"DEMOCOL LTDA.";;;"(57) (4) 4711571";"Cl 103 C 66-105 Colombia, Medellín"
"CONSTRUBOTERO S.A.";;;"(57) (4) 3317852";"Cr42 B 25 S-23 Envigado Colombia, Envigado"
"GRUPO SAN REMO";;;"(57) (4) 3116680";"cl 5 a 43 B-25 of 210 Colombia, Medellín"
"CONSTRUCTORA LA CONVENCIÓN";;;"(57) (4) 5660172";"Cr77 B 47-91 Int 101 Rionegro Colombia, Medellín"
INGERCONST;;;"(57) (4) 2513064";"Cr49 49-73 Of 906 Colombia, Medellín"
"PROMOTORA DE PROYECTOS SANTA MARTA";;;"Conm.: (57) (4) 2689244";"Cl 10 S 48 B-05 Colombia, Medellín"
"EJEPROYECTOS LTDA.";;;"(57) (4) 2306630";"Cq 73 A 34 A-12 Int 701 Colombia, Medellín"
"CONSTRUCTORA CEAS S.A.S.";;;"(57) (4) 4481446";"Cr48 66 B S-111 Sabaneta Colombia, Sabaneta"
"CONSTRUMAR LTDA.";;;"(57) (4) 2666796";"Cl 4 S 48-110 Int 528 Colombia, Medellín"
"CASAS MUDULARES LTDA";;;"(57) (2) 5243110";"Via Cali Jamundi Km 10 Hacienda La Gloria Colombia, Cali"
"ACABADOS ALVARO®S DÍMAGEN";;;"(57) (4) 3543545";"Cl 14 109-78 Colombia, Medellín"
"First Name";"Email Address";Url;Telephone;Address
"CONSTRUCTORA MANIZALES S.A.";;;"(57) (6) 8848682";"Cl 22 21-48 Of 203 Centro Colombia, Manizales"
"LUIS FERNANDO GÓMEZ R Y CÍA LTDA.";;;"(57) (1) 3177457";"Cl 71 6-11 Colombia, Bogotá"
"URBANISMOS Y CONSTRUCCIONES AQG S.A.S.";;;"Telefax: (57) (1) 7806897";"Cr77 M 72 A - 25 S Colombia, Bogotá"
"COCIVIMILCO S.A.";;;"(57) (1) 6114597";"Cocivimilco S.A. Colombia, Bogotá"
"DUARTE SANDRO";;;"(57) (5) 4235862";"Manz F Casa 3 Bavaria Country Colombia, Santa Marta"
"CONSTRUCTORA OBREVAL S.A.";;;"(57) (1) 7023759";"Cl 49 13-33 P-14 Colombia, Bogotá"
"CONSTRUCTORA EL GALEON LTDA";;;"(57) (1) 2142569";"Tr13 A 119-95 Ap 204 Colombia, Bogotá"
"CONSTRUCTORA 4500 S.A.S.";;;"Telefax: (57) (1) 4672572";"Cr14 B 118 - 72 Of 201 Colombia, Bogotá"
"SOCIEDAD CONSTRUCTORA TERRACOTA LTDA.";;;"(57) (1) 3335084";"Cl 1 S 7 A-04 P-2 Colombia, Bogotá"
"CONCESIONARIA SAN RAFAEL S.A.";;;"(57) (1) 6185835";"Cr12 97-04 Of 501 Colombia, Bogotá"
"VALDEMORO S.A.S.";;;"(57) (2) 5242324";"Cr84 5-100 Of 101 Trr A Colombia, Cali"
"ACTIVA S.A.";;;"Conm.: (57) (6) 3254483";"Av Circunvalar 11-80 Of 1101 Edif Capitol San José Colombia, Pereira"
"CONSTRUCTORA CAMÚ";;;"(57) (6) 7411538";"Cl 21 16-46 P-10 Colombia, Armenia"
"FAJARDO BOLAÑOS HERNÁN";;;"(57) (2) 7311573";"Cl 19 A 31 B-27 Of 202 Edif La Victoria Colombia, Pasto"
"CONSTRUCTORA TORRE MARFIL";;;"(57) (4) 4144588";"Cr78 A 34 A-13 Colombia, Medellín"
"VEGAS DE SABANETA";;;"(57) (4) 3380202";"Cl 53 C S 43-74 Int 9 Envigado Colombia, Envigado"
"SERVICIOS L.F";;;"(57) (4) 3892913";"Cr 45A 97-34 Colombia, Medellín"
"DEMOCOL LTDA.";;;"(57) (4) 4711571";"Cl 103 C 66-105 Colombia, Medellín"
INGERCONST;;;"(57) (4) 2513064";"Cr49 49-73 Of 906 Colombia, Medellín"
"TORRE CONSTRUCCIÓN S.A.";;;"Conm.: (57) (4) 2350141";"Cl 36 65 D-34 Int 103 Colombia, Medellín"
"COMERCIALIZAMOS TRANSPORTAMOS Y CONSTRUIMOS LTDA.";;;"(57) (4) 3712229";"Cr51 68-02 Itagüí Colombia, Itagüí"
CONSTRUMADERAS;;;"(57) (4) 2818842";"Cr42 75-83 L-140 Colombia, Medellín"
"PROFESIONALES TÉCNICOS S.A.S";;;"(57) (8) 8778019";"Cr26 19-72 Colombia, Neiva"
"CONSTRUCTORA INVERING LTDA.";;;"(57) (8) 8714108";"Cr5 10-49 Of 404 Colombia, Neiva"
"A. ABAA";;;"(57) (2) 3282222";"Cr47 B 43-72 Colombia, Cali"
"INGENIERÍA Y DOTACIONES INDUSTRIALES LTDA.";;;"(57) (8) 8623092";"Cr1 A 36-24 Colombia, Neiva"
"PRODEYSER S.A.S";;;"(57) (1) 5332314";"Tr60 115-58 Trr C Of 405 Colombia, Bogotá"
"GRUPO .AIB LTDA.";;;"(57) (1) 2153545";"Av15 122-69 Colombia, Bogotá"
"MONSERRATE 2010 S.A.";;;"(57) (1) 7253649";"Cr9 E 38-23 Soacha Colombia, Soacha"
"SPAZIO CONSTRUCTORA S.A.";;;"(57) (1) 6363099";"Cr14 87-45 Colombia, Bogotá"
"ESPACIOS Y CONCEPTOS";;;"(57) (1) 6113309";"Cr13 90-36 Of 503 Colombia, Bogotá"
"AKISSA S.A.S";;;"(57) (4) 2668660";"Cr43 A 16 A S-38 Ap 1201 Colombia, Medellín"
"MIGUEL MARSIGLIA & CÍA. LTDA.";;;"(57) (5) 6773501";"Tr54 30-403 Conj.R Santillana de Los Patios Ap 10 Colombia, Cartagena"
"CAMINOS INMOBILIARIOS S.A.";;;"(57) (1) 2571486";"Cl 92 15-48 Of 205 Colombia, Bogotá"
"INAD S.A";;;"(57) (1) 2554473";"Cr68 69-33 Colombia, Bogotá"
"CONSTUMAX S.A.";;;"(57) (1) 6227804";"Cl 100 8 A-55 Trr C Of 215 Colombia, Bogotá"
"CONSTRUCTORA OASIS S.A.S.";;;"Telefax: (57) (7) 5731049";"Av2 10-18 Int 15 Edif Ovni Colombia, Cúcuta"
"CONSTRUCTORA L & B CÍA. LTDA.";;;"Telefax: (57) (7) 5951311";"Cl 4 N 4 E 59 Ceiba Colombia, Cúcuta"
"CROSTUCTORA EL PORTICO";;;"(57) (8) 6645874";"Tr27 40-08 Colombia, Villavicencio"
"ESAMM LTDA.";;;"(57) (1) 8840961";"C.C. Centro Chía Of 309 Colombia, Bogotá"
"First Name";"Email Address";Url;Telephone;Address
"CASA DE CAMPO";;;"(57) (8) 8763847";"Cl 50 3 W-40 Colombia, Neiva"
"PROMOTORA CONVIVIENDA LTDA.";;;"Conm.: (57) (1) 6227000";"Cr14 93 B-32 Of 501 Colombia, Bogotá"
"ACSA ACRÓPOLIS CONSTRUCCIONES S.A.";;;"Conm.: (57) (1) 2571710";"Cl 93 14-20 Of 611 Colombia, Bogotá"
"SOLIDOS LTDA.";;;"(57) (1) 2810966";"Av (Cr) 10 18-44 Of 1102 Colombia, Bogotá"
"ATLANTIS CONSTRUCTORA";;;"(57) (5) 2753030";"Cl 28 25 A-08 Av Luis Carlos Galán Colombia, Sincelejo"
"INGENIEROS CIVILES DE LA COSTA LTDA.";;;"(57) (5) 4200556";"Cr19 5 A-18 Almendros Colombia, Santa Marta"
"URBE CONSTRUCCIONES";;;"(57) (6) 7454095";"Cr20 11-97 Colombia, Armenia"
"EQUIPOS Y SUELOS";;;"(57) 3628022";"Cl 45 46-04 Urb El Parque Soledad Colombia, Soledad"
"HEICON S.A.S.";;;"(57) (4) 3540450";"Cl 10 B 36-46 Colombia, Medellín"
"CONSTRUCCIÓN ENTRE LAGOS";;;"(57) (4) 3520705";"Cq 73 34-107 Colombia, Medellín"
"CONSTRUCTOWER LTDA.";;;"(57) (1) 4273535";"Av26 68 C-61 Of 606 Colombia, Bogotá"
"MALUNA LTDA.";;;"(57) (4) 3814725";"Cr51 41-224 Of 701 Colombia, Medellín"
"PROLIVIANOS S.A.";;;"(57) (1) 6163167";"Tr21 100-20 Colombia, Bogotá"
"PVC BRASIL S.A.S.";;;"(57) (1) 6260844";"Cl 146 7-64 Of 704 Colombia, Bogotá"
"CODICOL LTDA.";;;"(57) (1) 2531263";"Cr68 D 94 A-05 Colombia, Bogotá"
"CIRCUITOS Y CABLES CYCAB";;;"(57) (2) 8212749";"Cr19 6-06 Brr La Esmeralda Colombia, Popayán"
"CONSTRUCTORA CAPITAL BOGOTÁ S.A.S.";;;"(57) (1) 6417033";"Cr67 100-20 Of 503 Colombia, Bogotá"
"DISEÑO Y DECORACIÓN KABUM LTDA.";;;"(57) (1) 5632518";"Tr74 B 40 K-35 S Of 303 Colombia, Bogotá"
"TORRE CIUDAD LTDA.";;;"(57) (1) 6370522";"Cr7 113-43 Of 1201 Colombia, Bogotá"
"CONSTRUCTORA BARREIRO GARCES";;;"(57) (2) 8329299";"Cr17 48 N-18 Colombia, Popayán"
"CONSTRUCCIONES Y ACABADOS JUAN CASTILLO";;;"(57) 3146548634";"Cl 126 28D4-16 Colombia, Cali"
"INGENIOBRAS LTDA.";;;"(57) (5) 7283708";"Cl 13 10-10 Colombia, Riohacha"
"DEEB ASOCIADOS LTDA.";;;"(57) (1) 3100866";"Cr5 59 A-19 Colombia, Bogotá"
"VELANDIA LEONEL";;;"Conm.: (57) (1) 2556100";"Cr9 61-81 Of 601 Colombia, Bogotá"
"OHL COLOMBIA LTDA";;;"(57) (1) 6296369";"Av (Cr) 9 113-52 Of 402 Colombia, Bogotá"
"CREA CONSTRUCTORA LTDA.";;;"(57) (4) 3228645";"Cr56 46-49 Int 1306 Colombia, Medellín"
"PROMOTORA BAMBU S.A.S.";;;"Telefax: (57) (1) 2130105";"Cl 117 11 A - 62 Colombia, Bogotá"
"OTICOM S.A.";;;"(57) (1) 7028028";"Cr80 146-04 Colombia, Bogotá"
"APC CONSTRUCCIONES S.A.S.";;;"Telefax: (57) (1) 2505439";"Cr69 80 - 70 B-4 Ap 510 Colombia, Bogotá"
"TORTUGO SOCIEDAD POR ACCIONES SIMPLIFICADAS";;;"Telefax: (57) (1) 3203265";"Cr13 A 31 - 71 B-1 Ap 905 Colombia, Bogotá"
"AGENCIA GAS Y LUZ";;;"(57) (4) 4442199";"Cl 98 73-25 Int 201 Colombia, Medellín"
"PJE CONSTRUCTORES LTDA.";;;"(57) (1) 6715079";"Av Cr45 169-25 Of 202 Colombia, Bogotá"
"ARTE VITRAL Y ARQUITECTURA";;;"(57) (2) 6654281";"Av3 H N 44 N-85 Colombia, Cali"
"D & F CONSTRUCTORES";;;"(57) (2) 3392749";"Cr75 9-95 Colombia, Cali"
"DAVALORES LTDA.";;;"(57) (5) 3418077";"Cl 40 44-39 Of 9 G Colombia, Barranquilla"
"AM CONSTRUCTORES S.A.";;;"(57) (1) 7498265";"Cr15 98-26 Of 301A Colombia, Bogotá"
"CONSTRUCTORA E INMOBILIARIA ROMANA";;;"(57) (2) 6534914";"Cl 44 N 4 N-68 Colombia, Cali"
"CARLOS PRIETO CONSTRUCCIONES S.A.S.";;;"(57) (1) 5357704";"Cr86 A 84 A-12 Colombia, Bogotá"
"CASA JOULTI E.A.T";;;"(57) (2) 8881162";"Cr3 11-32 Of 928 Colombia, Cali"
"ANDES ANALISIS Y DISEÑO DE EDIFICIOS S.A.S.";;;"Conm.: (57) (4) 3174311";"Cr25 12-S 59 Int 9719 Colombia, Medellín"
"First Name";"Email Address";Url;Telephone;Address
"INVERSIONES Y CONSTRUCCIONES AGM S.A.S.";;;"Telefax: (57) (1) 2353992";"Cl 64 11 - 37 L-209 Colombia, Bogotá"
"INTERAMERICANA DE PROYECTOS LTDA.";;;"(57) (1) 3154223";"Cr 35 53 A-31 Colombia, Bogotá"
"ESTRUCTURAS Y CERRAJERÍA BHS";;;"(57) (2) 3386124";"Cr42 D 46-85 Colombia, Cali"
"INVERSORA LOS CUERVO S.A.S";;;"Conm.: (57) (4) 3116969";"Cr38 10-36 Colombia, Medellín"
"STATE BUSINESS GROUP S.A.S.";;;"(57) (5) 3583877";"Cl 77 B 59-61 Of 910 Colombia, Barranquilla"
"A&S ASESORÍAS Y SOLUCIONES CONSTRUCTIVAS S.A.S.";;;"(57) (1) 8330238";"Cl 18 9-86 Of D-301 Edif El Sol Colombia, Girardot"
"CONSTRUCTORA INGEREDES";;;"(57) (6) 8775685";"Cl 1 B 5 B-23 Cs 38 Colombia, Manizales"
"CONSTRUCTORA RODRIGUEZ BRIÑEZ";;;"(57) (8) 8732800";"Cl 18 S 6-132 Colombia, Neiva"
"JC CONSTRUCCIONES";;;"(57) (6) 3358116";"Cl 19 8-34 Edif Corporación Financiera de Occiden Colombia, Pereira"
"CONSTRUCCIONES INGEURBANA";;;"(57) (8) 2660839";"Cl 53 Cr7 B Esq Rincón de Piedra Pintada Colombia, Ibagué"
"CONIMPER S.A.S";;;"(57) 3005544205";". Colombia, Barranquilla"
"DECORAMOS SU APARTAMENTO";;;"(57) (2) 3251763";"Cr41 A 29-08 Colombia, Cali"
"VERA LUIS AURELIO";;;"(57) (7) 6310104";"Cl 106 A 37-42 Altoviento II Colombia, Bucaramanga"
"HBJ CONSTRUCCIONES";;;"(57) (4) 5535607";"Cr22 8-12 La Ceja Colombia, Medellín"
"PROYECTOS INTEGRADOS S.A.";;;"(57) (1) 6019678";"Cl.97 23-60 Of.701 Colombia, Bogotá"
"DM DISEÑO CONSTRUCCIÓN S.A.S.";;;"Telefax: (57) (1) 3099098";"Cr8 B 108 A - 50 Int 1 Colombia, Bogotá"
"INVERSIONES ARGOMA S.A.S.";;;"Telefax: (57) (1) 6330361";"Cl 150 7 C - 35 Colombia, Bogotá"
"CONSTRUCTORA MARMAL";;;"(57) (7) 5716837";"Dg Santander 12-35 Of 303 Riviera Colombia, Cúcuta"
"CONSTRUCTORA CONCRETO S.A.";;;"(57) (5) 3185560";"Cr53 82-86 P-3 Of 308 Edif Ocean Tower Colombia, Barranquilla"
CAMACOL;;;"(57) (7) 5727296";"Cl 17 A 1 Este-33 Caobos Colombia, Cúcuta"
"INVERDARMA S.A.S";;;"(57) (4) 2660079";"Cr 43a 1A Sur 69 Of 304 Colombia, Medellín"
"DINPRO CONSTRUCCIONES Y SERVICIOS";;;"(57) (1) 6192702";"Cl 124 45-15 Of 601 Edificio Aluna Colombia, Bogotá"
"OBRAS Y BIENES";;;"Conm.: (57) (4) 2621091";"Cl 33 42 B- 06 Of 1020 Colombia, Medellín"
"CONSTRUCCIONES VIYA S.A.";;;"(57) (5) 3599043";"Cr51 B Km 7 Dg Uniatlántico Lt 2-A Colombia, Barranquilla"
"GRUPO EMPRESARIAL";;;"Telefax: (57) (4) 2881274";"Cr67 43 C-17 Sabaneta Colombia, Sabaneta"
"CONSTRUCTORES ANDINOS ASOCIADOS";;;"(57) (1) 4301689";"Dg82 H 72 C-57 Colombia, Bogotá"
"OTICOM S.A.";;;"(57) (1) 7028028";"Cr80 146-04 Colombia, Bogotá"
"LRS INGENIEROS LTDA.";;;"(57) (1) 6178989";"Cl 127 D 57 B-57 Colombia, Bogotá"
"AGROURBANAS S.A.";;;"Conm.: (57) (2) 8933464";"Cl 2 Oe 1-44 Colombia, Cali"
"ARCO ARQUITECTURA E INGENIERIA LTDA";;;"(57) (2) 2281881";"Cl 1 15-58 Colombia, Buga"
"CONSTRUCTORA E INVERSIONES GÓMEZ & CIA. S.A.";;;"(57) (2) 4048192";"Av. Roosevelt 39-25 Of. 603 Colombia, Cali"
"CONSTRUCTORA GALMAR LTDA";;;"(57) (2) 2140493";"Cr5 5-11 Piso 2 Colombia, Cartago"
"RODRIGUEZ CAMACHO JUAN PABLO";;;"(57) (7) 6574942";"Cl 53 36-11 Of 202 Colombia, Bucaramanga"
"LÁMINAS PARA CIELO RASOS-TOLIPOR";;;"(57) (8) 2732107";"Manz D Casa 2 Sta. Cruz Colombia, Ibagué"
"VARON PINZON CIRO ANTONIO";;;"(57) (1) 7908734";"Cl 63 A S 18 Q-16 Colombia, Bogotá"
"PROHUILA LTDA.";;;"(57) (8) 8712938";"Cl 11 4-01 Colombia, Neiva"
"CONSTRUCTORA AMBAR S.A.S";;;"(57) (4) 3566985";"Cl 27 S 28-56 Envigado Colombia, Envigado"
"WILLIAM VARGAS LINARES E.U.";;;"(57) (1) 4829647";"Cr72 52-64 Of 201 Colombia, Bogotá"
"LFC CONSTRUCCIONES Y MONTAJES S.A.";;;"(57) (4) 4620602";"Cl 26 A 57 A-86 Bello Colombia, Bello"
"ORGANIZACIÓN CASA PROPIA E.U.";;;"Conm.: (57) (4) 2519725";"Cr50 51 A-27 Of 303 Colombia, Medellín"
"First Name";"Email Address";Url;Telephone;Address
"EVN DECORADOS S.A.S.";;;"Telefax: (57) (1) 5363880";"Cl 132 Bis 156 A - 20 Colombia, Bogotá"
"DM DISEÑO CONSTRUCCIÓN S.A.S.";;;"Telefax: (57) (1) 3099098";"Cr8 B 108 A - 50 Int 1 Colombia, Bogotá"
"BOSQUES DE RÍO LTDA.";;;"(57) (1) 6761376";"Cr7 Dg237 Colombia, Bogotá"
"PROMOTORA DE CONSTRUCCIONES SILVA Y RAMÍREZ LTDA.";;;"(57) (1) 6232150";"Cr11 94-47 Of 602 Colombia, Bogotá"
"INFINISKI S.A.S.";;;"Telefax: (57) (1) 3177495";"Cl 77 1 -51 E Int 1 Of 302 Colombia, Bogotá"
"MAT & DEKO";;;"Telefax: (57) (1) 6210536";"Cl 93 B 18-45 Of 308 Colombia, Bogotá"
"DAVINCI CONSTRUCTORA";;;"(57) (2) 7290557";"Cl 20 A 27 A-20 Ap 201 Edif Plazuelas Las Cuadras Colombia, Pasto"
"GRUPO SOLERIUM S.A.";;;"(57) (1) 6161341";"Cl 98 18-71 Of 603 Colombia, Bogotá"
"BÁEZ INGENIERÍA S.A.S.";;;"(57) (1) 3204999";"Cl 49 13-33 Of 1303 Colombia, Bogotá"
"AMBIENTES Y ESTRUCTURAS";;;"(57) (2) 3304650";"Cl 12 A 56-04 Of 102 Colombia, Cali"
"LVRZ ARQUITECTURA S.A.S";;;"(57) (1) 6550003";"Cl 26 A 13-97 Of 2305 Colombia, Bogotá"
"AGROPECUARIA LA UNION S.A.";;;"(57) (27) 7442161";"Cl 12 4-12 San Carlos Colombia, La Unión"
"J.F. DICONST S.A.S.";;;"(57) (7) 6455067";"Cr24 15-31 San Francisco Colombia, Bucaramanga"
"IBAÑEZ CASTILLA CÍA. LTDA.";;;"(57) (1) 6149323";"Cr19 139-48 Colombia, Bogotá"
"CONSTRUCTORA BORINQUEN S.A.S";;;"(57) (4) 4126598";"Cr77 35-23 Colombia, Medellín"
"MESA RESTREPO ARGIRO";;;"(57) (4) 2641679";"Cl 76 CA 88 C-38 Colombia, Medellín"
"PROCIL S.A.";;;"(57) (4) 4122551";"Cl 33 74 E-69 Of.801 Colombia, Medellín"
"DEMOCOL LTDA.";;;"(57) (4) 4711571";"Cl 103 C 66-105 Colombia, Medellín"
"CONSTRUBOTERO S.A.";;;"(57) (4) 3317852";"Cr42 B 25 S-23 Envigado Colombia, Envigado"
"CAMINO DE LAS AGUAS";;;"Conm.: (57) (4) 3122711";"Cl 11 B 40 A-90 Int 107 Colombia, Medellín"
"VILDIN LTDA";;;"(57) (4) 2661308";"Cr29 E 4 S-94 Int 603 Colombia, Medellín"
"ARQUIDISEÑO PROYECTOS INMOBILIARIOS S.A.";;;"(57) (4) 4440641";"Cl 37 65 D-41 Colombia, Medellín"
CONSTRUSERVICIOS;;;"(57) (4) 5414458";"C.cial Media Lun L-6 Km 3 Vía La Fé El Retiro Colombia, Medellín"
"QUADRA CONSTRUCTORA";;;"(57) (4) 4163957";"Cl 45 D 73-45 Int 404 Colombia, Medellín"
"O.K INMOBILIARIA S.A";;;"(57) (4) 2760655";"Cl 39 S 25 B-180 Envigado Colombia, Envigado"
"ARCONCI LTDA";;;"(57) (4) 3746631";"Cl 46 A 49-30 Itagüí Colombia, Itagüí"
"ARQUITECTURA & CONSTRUCCIONES TOVAR E.U.";;;"(57) (1) 4313071";"Cl 69 C 105 F-87 Of 102 Colombia, Bogotá"
"VALOR S.A.";;;"(57) (1) 6107001";"Cr16 97-37 Colombia, Bogotá"
"BECERRA OSORIO HERNÁN YESID";;;"(57) (8) 4343247";"Cl 20 11-64 Colombia, Florencia"
"CONSTRUCTORA J.H & CÍA. LTDA.";;;"(57) (4) 2640636";"Cl 53 B 85 E-31 Int 304 Colombia, Medellín"
"CONSTRUCTORA RIO .ZUL LTDA";;;"(57) (1) 6351493";"Av13 100-12 Of 1002 Colombia, Bogotá"
"ECO-HABITAT DE COLOMBIA";;;"(57) (5) 4330708";"Dg38 5-82 Mamatoco Colombia, Santa Marta"
"GBTU S.A.";;;"(57) (5) 6658406";"Castgde Cr7 5-56 Esq. Colombia, Cartagena"
"MUROS Y REDES S.A.S";;;"(57) (4) 2706974";"Cr45 A 34 S-57 Int 172 Envigado Colombia, Envigado"
"CONSTRUCTORA LOS MAYALES S.A.";;;"(57) (5) 5743600";"Cr10 16 B-43 Colombia, Valledupar"
"MWA CONSTRUCTORES CIVILES S.A.S";;;"(57) (1) 2518904";"Cr72 Bis 75 A-47 Colombia, Bogotá"
"CONSTRUCTORA GERMANIA LTDA.";;;"(57) (6) 7497837";"Cr6 17 N-35 Colombia, Armenia"
"PROMOTORA ERRAGA S.A";;;"(57) (4) 2163554";"Cl 53 43-98 Ap 204 Colombia, Medellín"
"PROYECTO URBANO S.A.";;;"(57) (4) 5806662";". Colombia, Medellín"
"SUPERHAVIT-AT S.A.S.";;;"(57) (5) 6919595";"Av4 22-24 Colombia, Cartagena"
"First Name";"Email Address";Url;Telephone;Address
"INVERSIONES VISTA AZUL S.A";;;"(57) (7) 6387723";"Tr154 150-221 P-6 Of E-6-1 El Bosque Floridablanca Colombia, Floridablanca"
"CONSTRUCTORA MIRAMONTE S.A.S";;;"(57) (1) 8672222";"Cr27 35-75 Fusagasuga Colombia, Bogotá"
"VENDO EXPRESS";;;"(57) (8) 8351022";"Cr2 2 S-03 Esq Colombia, Pitalito"
"CONSORCIO CONSTRUCTORA CÚCUTA S.A.";;;"(57) (7) 5712469";"Av 0 11-30 Of 408-B C.C. Gran Bulevar Colombia, Cúcuta"
"CORTÁZAR Y GUTIÉRREZ LTDA.";;;"(57) (1) 6191672";"Cl 105 A 14-92 Of 103 Colombia, Bogotá"
"AGROPECUARIA LA UNION S.A.";;;"(57) (27) 7442161";"Cl 12 4-12 San Carlos Colombia, La Unión"
"CORPOINGENIAR PROY";;;"(57) (1) 7021816";"Av. Boyacá 64 C-38 P-2 Colombia, Bogotá"
"KONKRET S.A.S";;;"(57) (4) 3211182";"Cr20 20-S 44 Colombia, Medellín"
"CONSTRUTECNO S.A.S.";;;"(57) (2) 7219600";"Cr20 19 B-86 Colombia, Pasto"
"CONSTRUCCIONES DINARTEL";;;"(57) (7) 6472695";"Cl 35 24-55 Trr 1 Ap 503 Colombia, Bucaramanga"
"DESENGLOBES HERNÁN GRISALES";;;"(57) (4) 4167381";"Cr80 B 36-42 Ap 201 Colombia, Medellín"
"CUEZAR S.A.";;;"(57) (2) 2752295";"Cr45 46-14 Colombia, Palmira"
"CONDIMAT LTDA.";;;"(57) (4) 3331519";"Dg32 B 33 S-28 Envigado Colombia, Envigado"
"VEGAS DE SABANETA";;;"(57) (4) 3380202";"Cl 53 C S 43-74 Int 9 Envigado Colombia, Envigado"
"ARQUITECTURA Y CONSTRUCCIÓN";;;"(57) (4) 2319510";"Cr46 49 A-27 Int 315 Colombia, Medellín"
"HAG S.A.";;;"(57) (4) 3410255";"Cl 21 82 A-93 Ap 201 Colombia, Medellín"
"CONSTRUMAR LTDA.";;;"(57) (4) 2666796";"Cl 4 S 48-110 Int 528 Colombia, Medellín"
"CASAS MUDULARES LTDA";;;"(57) (2) 5243110";"Via Cali Jamundi Km 10 Hacienda La Gloria Colombia, Cali"
"CONSTRUCCIONES GARCÍA & GARCÍA LTDA.";;;"(57) (2) 3279078";"Cl 43 47 C-42 Esq Colombia, Cali"
"ARQUITECTURA & CONSTRUCCIONES TOVAR E.U.";;;"(57) (1) 4313071";"Cl 69 C 105 F-87 Of 102 Colombia, Bogotá"
"CONSTRUCTORA INCO";;;"(57) (5) 6600275";"San Diego Edif Banco Internacional P-9 Of 9-G Colombia, Cartagena"
"SPAZIO CONSTRUCTORA S.A.";;;"(57) (1) 6363099";"Cr14 87-45 Colombia, Bogotá"
"BECERRA OSORIO HERNÁN YESID";;;"(57) (8) 4343247";"Cl 20 11-64 Colombia, Florencia"
"ALIAR INVERSIONES";;;"(57) (1) 6241829";"Cl 112 70 B-40 Of 203 Colombia, Bogotá"
"CONSTRUCCIONES INTELIGENTES EVA LTDA";;;"(57) (1) 2141935";"Cl 108 17 A-86 Colombia, Bogotá"
"MARTINEZ SANCHEZ HAROL F";;;"(57) (7) 5893906";"Av2 E 17 A-10 L-1 Los Caobos Colombia, Cúcuta"
"INAD S.A";;;"(57) (1) 2554473";"Cr68 69-33 Colombia, Bogotá"
"CONSTRUCTORA BRIZALIA NO. 2 LTDA.";;;"(57) (4) 7821132";"Cl 40 14-70 Colombia, Montería"
"CONGAR LTDA.";;;"(57) (1) 3400882";"Cr13 32-51 Of 416 Colombia, Bogotá"
"CONSTRUTORA ALVI S.A.S";;;"(57) (7) 5899154";"Conj Cerrado Villas de Santorini Colombia, Cúcuta"
"CONSTRUCTORA GERMANIA LTDA.";;;"(57) (6) 7497837";"Cr6 17 N-35 Colombia, Armenia"
"DISEÑO Y CONSTRUCCIONES PEMOGO LTDA.";;;"(57) (8) 6670730";"Conj Los Girasoles Casa 31 A Colombia, Villavicencio"
"SIR HOUSE CONSTRUCTORA S.A.S";;;"(57) (7) 6816657";"Cl 89 21-40 P-2 Diamante II Colombia, Bucaramanga"
"CONSTRUCTORA RUBIO GONZÃLEZ S.A.S.";;;"Telefax: (57) (7) 5809321";"Cl 2 7-24 Colombia, Cúcuta"
"REFORMAS SANCHEZ LTDA";;;"(57) (4) 2889345";"Cr48 66 B S-111 Sabaneta Colombia, Sabaneta"
"WT COSTRUCTORES";;;"(57) (4) 3328613";"Cl 48 S 39 B-20 Int 201 Envigado Colombia, Envigado"
"OBRAS Y BIENES";;;"Conm.: (57) (4) 2621091";"Cl 33 42 B- 06 Of 1020 Colombia, Medellín"
"EDICRETO S.A";;;"(57) (4) 3212138";"Cr43 A 12 S-111 Colombia, Medellín"
CONSTRUIMOS;;;"(57) 3167925927";"Cr16 17-15 Of 603 Colombia, Armenia"
"CONSTRUCTORA ALTAVISTA INTERNACIONAL S.A.";;;"(57) (5) 3680656";"Cl 77 B 57-141 Of 917 Colombia, Barranquilla"
"First Name";"Email Address";Url;Telephone;Address
"DESARROLLOS Y PROYECTOS S.A.";;;"(57) (5) 3609500";"Cl 77 B 59-61 Of 301 Colombia, Barranquilla"
"RCA INGENIEROS CONSTRUCCIONES S.A.S.";;;"(57) (4) 3347103";"Tv32 S 32-47 Colombia, Medellín"
"CONSTRUCTORA PESO";;;"(57) (4) 2312512";"Cr46 54-89 Of 315 Colombia, Medellín"
"CONSTRUCTORA MARTÍNEZ SUÁREZ";;;"(57) (4) 4119933";"Cr86 47 A-68 Colombia, Medellín"
"GALEANO MONTOYA ASOCIADOS S.A.S";;;"(57) 3203242420";"Manz B Casa 14 Praderas del Norte Colombia, Ibagué"
"INVERSIONES GOVALUNA S.A.S.";;;"(57) (6) 3243214";"Cr7 16-50 Of 203 Edif Cámara de Comercio Colombia, Pereira"
"ASFALTOS Y VÍAS LTDA.";;;"(57) (4) 2355015";"Av33 63 A-62 Colombia, Medellín"
"MALUNA LTDA.";;;"(57) (4) 3814725";"Cr51 41-224 Of 701 Colombia, Medellín"
"CONSTRUCTORA P-F LTDA.";;;"Telefax: (57) (5) 3798789";"Cr36 54-90 Colombia, Barranquilla"
"MIR & DAL CONSTRUCCIONES S.A.S.";;;"Telefax: (57) (5) 3196820";"Cl 47 D 26-100 B-37 Ap 2-B Colombia, Barranquilla"
"CONSTRUCTORA BOLIVAR";;;"(57) (5) 3116498";"Cl 74 52-34 C.C. El Prado Colombia, Barranquilla"
"ALTEC PROYECTOS DE URBANISMO LTDA.";;;"(57) (2) 8228422";"Cr6 A 5 N-17 L-109 Colombia, Popayán"
"2H CONSTRUCTORES S.A.S.";;;"Telefax: (57) (5) 3030453";"Cr68 75-122 Colombia, Barranquilla"
"SERRANO QUIJANO CONSTRUCTORES LTDA";;;"(57) (1) 6128814";"Carrera 50 # 122-54 Apt 104 Colombia, Bogotá"
"ANGLO ANGULO & CÍA. S.C.A.";;;"(57) (2) 8220243";"Cl 4 8-16 Of 202 Colombia, Popayán"
"TORRE CIUDAD LTDA.";;;"(57) (1) 6370522";"Cr7 113-43 Of 1201 Colombia, Bogotá"
"S & Z CONSTRUCTORES S.A.S.";;;"(57) (1) 8040900";"Cl 152 56-75 Int 2 Ap 102 Colombia, Bogotá"
"CONSTRUCTORA FARHAT Y CÍA. LTDA.";;;"(57) (5) 3567372";"Cr53 68-226 Of 303 Colombia, Barranquilla"
"CONSTRUCTORA BELL LTDA.";;;"Telefax: (57) (5) 3821780";"Cr37 81-31 L-1 Colombia, Barranquilla"
"GRUPO SALEM S.A.S.";;;"(57) (1) 4811474";"Cr50 71-23 P-3 Colombia, Bogotá"
"HAR CONSTRUCCIONES S.A.S.";;;"(57) (1) 7578307";"Cr78 B 70 C S -03 Colombia, Bogotá"
"CONSTRUCTORA INGAR";;;"(57) (5) 3557736";"Cr74 81-36 Colombia, Barranquilla"
"I P E";;;"(57) (2) 6604289";"Cl 18 N 3-24 Of 803 Colombia, Cali"
"CONPISOS S.A.";;;"(57) (1) 7596828";"Cr7 156-80 Trr 2 Of 906 Colombia, Bogotá"
"INVERSIONES CLARA INÉS LTDA.";;;"(57) (1) 6123942";"Cl 109 13-45 Colombia, Bogotá"
"ICONO URBANO S.A.";;;"(57) (1) 6184060";"Cl 98 8-28 Of 403 Colombia, Bogotá"
"CONSTRUCTORA CC & MC S.A.S.";;;"Telefax: (57) (1) 2850374";"Cr13 38 - 47 Of 302 Colombia, Bogotá"
"CONSTRUCTORA VITALIANO S.A.S.";;;"Telefax: (57) (1) 2503250";"Cl 79 68 G - 68 Colombia, Bogotá"
"INTERAMERICANA DE PROYECTOS LTDA.";;;"(57) (1) 3154223";"Cr 35 53 A-31 Colombia, Bogotá"
"CONSTRUCTORA CLÍNICA MEGACENTRO";;;"(57) (6) 3210931";"Cl 19 9-50 Of 2105-B Edif Diario del Otún Colombia, Pereira"
"BIÉN RAIZ BOGOTÁ S.A.";;;"(57) (1) 6221739";"Cr13 98-70 Colombia, Bogotá"
"MULTIVIVIENDA LTDA.";;;"Telefax: (57) (7) 5844606";"Av1 26-60 Lt F-1 Colombia, Cúcuta"
"I.P. CONSTRUCCIONES E.U.";;;"(57) (2) 3158775";"Cr85 E 42-50 Of 604 C Colombia, Cali"
"MARÍN RIVERA JHON CARLOS";;;"(57) (2) 8940656";"Cl 20 Oe 4-99 Colombia, Cali"
"CONSTRUCTORA RONCALLO S.A.S.";;;"(57) (5) 3785931";"Cl 94 51 B-73 Colombia, Barranquilla"
"UNION GLOBAL-MAVIG S.A.S.";;;"(57) (5) 3531127";"Cl 77 B 59-61 Of 1203 Colombia, Barranquilla"
"CONSTRUCTORA TALLER DE DISEÑO";;;"(57) (2) 5215293";"Cgto La Castilla Vda las Palmas Casa Bet-El 3 -22 Colombia, Cali"
"CONTRUCTORA BOLÍVAR CALI S.A.";;;"(57) (2) 6659948";"Cl 52N Con Av 5BN Colombia, Cali"
"UBICCA CONTRUCTORA S.A.S";;;"(57) (4) 4167007";"Cr76 34 A-41 Colombia, Medellín"
"CONSTRUCTORA LUIS ARMANDO GOMEZ";;;"(57) (7) 6577842";"Cr46 55-56 Terrazas Colombia, Bucaramanga"
"First Name";"Email Address";Url;Telephone;Address
"GRUPO .AIB LTDA.";;;"(57) (1) 2153545";"Av15 122-69 Colombia, Bogotá"
"CONSTRUCTORA DE LOS ANDES COANDES CIA LTDA.";;;"(57) (1) 7560127";"Cr49 103-16 Colombia, Bogotá"
COOPEMUN;;;"(57) (1) 2872896";"Cl 36 18-23 Colombia, Bogotá"
"CONSTRUCTORA RIVA S.A.";;;"(57) (4) 4440420";"Cl 18 20-74 La Ceja Colombia, Medellín"
"CONSTRUCTORA GISAICO";;;"(57) (4) 4448327";"Cl 2 S 43 C-83 Colombia, Envigado"
"VALORIZA S.A.";;;"(57) (1) 6160805";"Cl 95 11-51 Of 403 Colombia, Bogotá"
"CONSTRUCTORA EXPERTA";;;"(57) (1) 6198602";"Autop Norte 114-78 Of 401 Colombia, Bogotá"
"EQUI-HERRAMIENTAS LTDA.";;;"(57) (5) 3720302";"Cl 45 52-73 Colombia, Barranquilla"
"EDUARDO RIPOLL & CÍA. LTDA.";;;"(57) 3205652225";"Cr49 B 76-45 Colombia, Barranquilla"
"JASSIR SAIEH S.A.S.";;;"(57) (5) 3684433";"Cl 76 73-40 L-3 Colombia, Barranquilla"
"CONTRUCTORA BALCONES DE LA COLINA LTDA.";;;"(57) (5) 3483092";"Cr36 84-185 P-2 Colombia, Barranquilla"
"INVERSIONES CONTEX S.A.";;;"Conm.: (57) (4) 5372200";"Km 6 Vía LLano Grande Colombia, Medellín"
"PROLIVIANOS S.A.";;;"(57) (1) 6163167";"Tr21 100-20 Colombia, Bogotá"
"CONSTRUCTORA FIORILLO SARMIENTO Y CÍA";;;"(57) (1) 2569929";"Cr7 82-66 Of 212 Colombia, Bogotá"
"CONSTRUYA LTDA.";;;"(57) (4) 2319814";"Cl 52 A 50-46 Of 329 Colombia, Medellín"
"CONSTRUCTORA CAPITAL BOGOTÁ S.A.S.";;;"(57) (1) 6417033";"Cr67 100-20 Of 503 Colombia, Bogotá"
CONSTRUSILVA;;;"(57) (4) 8289664";"Cr99 96-35 Colombia, Apartadó"
"CASTRO-TCHERASSI S.A.";;;"(57) (5) 3717900";"Cl 54 44-105 Colombia, Barranquilla"
"CORPORACIÓN DIOCESANA";;;"(57) (2) 2113124";"Cr4 13-64 Colombia, Cartago"
"INVERPLANES LTDA.";;;"(57) (1) 6103900";"Cl 90 14-16 Of 405 Colombia, Bogotá"
"CONSTRUCTORA BES LTDA.";;;"(57) (8) 6682377";"Cl 5 B 25-46 Colombia, Villavicencio"
"NUEVO URBANISMO S.A.S.";;;"(57) (2) 6801695";"Cl 18 122-350 Of 32 Colombia, Cali"
"MODUCON LTDA";;;"(57) (4) 4930067";"Cr85 D 34-94 Colombia, Medellín"
"SIGMA CONSTRUCCIONES CIVILES S.A.S";;;"Nal: (57) (4) 2624655";"Cr51 41 - 222 Int 504 Colombia, Medellín"
"CONSTRUPROYECTOS AMBIENTALES";;;"(57) 3107638386";"Cl 7 B N 15 Este-05 Casa 86 Urb Manolo Lemus Colombia, Cúcuta"
"VELÁSQUEZ A. ROGELIO";;;"(57) (1) 6306900";"Cr28 78-41 Colombia, Bogotá"
"ZAMBRANO PATRICIA";;;"(57) (2) 7310437";"C.C. Valle de Atriz Of 305 Colombia, Pasto"
"CONINSA RAMON H S.A.";;;"(57) (4) 4488828";"Cl 55 45-55 Colombia, Medellín"
"CONSTRUCTORA INECONTEC";;;"(57) (2) 7238744";"Cr27 19-54 Int 3 Colombia, Pasto"
"NORTEAMERICA S.A.S";;;"(57) (4) 4449828";"Av26 52-200 Bello Colombia, Medellín"
"APIA PROYECTOS Y SOLUCIONES S.A.S.";;;"(57) (1) 6734239";"Cr8 D 191-15 Trr 7 Of 804 Colombia, Bogotá"
"GRUPO BBVC S.A.";;;"(57) (7) 6360184";"Cl 88 24-79 Diamante II Colombia, Bucaramanga"
"VARGAS & VARGAS MILLÁN LTDA";;;"(57) (1) 6180993";"Cl 104 14 A-45 Of 302 Colombia, Bogotá"
"PICÓN MORENO EDWIN ALFONSO";;;"(57) (75) 5682920";"Cl 4 4-50 Centro Colombia, Pamplona"
"ARKA ARQUITECTURA E INGENIERÍA LTDA.";;;"(57) (2) 7733268";"Cr6 12-77 Colombia, Ipiales"
"AGS CONSTRUCCIONES LTDA";;;"(57) (1) 4745585";"Cr27 A 53 A-32 Colombia, Bogotá"
"TOPOGRAFÍA DIBUJO Y CONSTRUCCIÓN";;;"(57) (8) 2639607";"Cr5 14-76 Of 310 Colombia, Ibagué"
"PROYECTO HOTEL LA SAGRADA FAMILIA";;;"(57) (2) 8920759";"Cl 3 Oe 3-20 Colombia, Cali"
"CONSTRUCTORA MONTANA";;;"(57) (4) 2621324";"Cr55 40 A-20 Int 904 Colombia, Medellín"
"CICE CONSORCIO";;;"(57) (4) 4440568";"Cr35 A 15 B-35 Int 305 Colombia, Medellín"
"First Name";"Email Address";Url;Telephone;Address
"CONSTRUCCIONES EL BOSQUE";;;"(57) (1) 2682008";"Cl 38 29-86 Colombia, Bogotá"
"PATERNINA & CÍA. LTDA. JULIO C.";;;"(57) (5) 6632709";"Dg32 73-130 Colombia, Cartagena"
"P.I. LTDA. ARQUITECTOS CONSULTORES";;;"(57) (5) 6649624";"Centro Cl 32 8-50 Of 602-B Edif Banco de Colombia Colombia, Cartagena"
"INVERSIONES CIUDADELA REAL S.A.";;;"(57) (1) 6208032";"Cl 124 7 A-30 Colombia, Bogotá"
"FULL SERVICE CONSTRUCCIONES";;;"(57) (2) 2136767";"Cr 7 9-53 Colombia, Cartago"
PROURBE;;;"(57) (7) 6395060";"Cl 103 14-14 Alameda Colombia, Bucaramanga"
"NACIONAL DE PAVIMENTOS SA";;;"(57) (1) 7041706";"Tr93 53-32 Bg 66 Colombia, Bogotá"
"WT COSTRUCTORES";;;"(57) (4) 3328613";"Cl 48 S 39 B-20 Int 201 Envigado Colombia, Envigado"
"J.M. CONSTRUCCIONES";;;"(57) (4) 3742628";"Vda Los Zuleta Itagüí Colombia, Itagüí"
"IDYC S.A.S.";;;"(57) (5) 6445168";"Cl 30 G 50 A-23 Sector El Cairo Colombia, Cartagena"
"TOCCI LTDA";;;"(57) (4) 3121596";"Cl 5 A 43 B-25 Of 606 Colombia, Medellín"
"CONSTRUCIONES Y REFORMAS FRANCISCO ALVAREZ";;;"(57) (4) 2313643";"Cl 52 52-11 Of 402 Colombia, Medellín"
"CIEN % CONSTRUCTORA S.A.S.";;;"(57) 3113581083";"Cl 21 16-37 Of 701 Colombia, Armenia"
"CARLOS GAVIRIA Y ASOCIADOS S.A.";;;"(57) (1) 6101052";"Av (Cr) 11 86-32 Of 201 Colombia, Bogotá"
"CONSTRUCTORA ESPAÑA";;;"(57) (4) 4447422";"Cr46 52-140 Colombia, Medellín"
"VALORIZA S.A.";;;"(57) (1) 6160805";"Cl 95 11-51 Of 403 Colombia, Bogotá"
"CONSTRUCTORA TEYPRO S.A.";;;"(57) (1) 2265338";"Cl 106 56-76 Colombia, Bogotá"
"CONSTRUCTORA DE INDIAS S.A.";;;"(57) (4) 3125940";"Cr43 A 1 A S-29 Of 513 Colombia, Medellín"
"VILLA DANIELA";;;"(57) (1) 3125540";"Cr9 54-83 Colombia, Bogotá"
"CONSTRUCTORA MIRANDA GÓMEZ";;;"(57) (1) 8063801";"Cl 147 94 C-45 Ap 415 Colombia, Bogotá"
"BASSE ARQUITECTURA";;;"(57) (4) 4103030";"Cl 33 Aa 80 C-33 Colombia, Medellín"
"MANDAL CONSTRUCCIONES";;;"(57) (1) 2130114";"Cr8 A 108 A-36 Colombia, Bogotá"
"PROMOTORA ENTORNO 2000 LTDA.";;;"Conm.: (57) (1) 6735032";"Cr7 156-80 Of 1501 Colombia, Bogotá"
"EDUARDO RIPOLL & CÍA. LTDA.";;;"(57) 3205652225";"Cr49 B 76-45 Colombia, Barranquilla"
"AREA CONSTRUCTORA";;;"(57) (6) 7466828";"Cr13 8 N-67 Of 302 Colombia, Armenia"
"R.L.G.M INGENIERIA S.A.";;;"(57) (5) 3595860";"Cl 83 B 42 D-201 Colombia, Barranquilla"
"SKEMA PROMOTORA S.A.";;;"(57) (2) 4855740";"Cl 11 100-121 P-12 Colombia, Cali"
"RCA INGENIEROS CONSTRUCCIONES S.A.S.";;;"(57) (4) 3347103";"Tv32 S 32-47 Colombia, Medellín"
"PROLIVIANOS S.A.";;;"(57) (1) 6163167";"Tr21 100-20 Colombia, Bogotá"
"RW CONSTRUCTORES S A";;;"Telefax: (57) (5) 3689825";"Cl 76 48-47 Of 205-206 Colombia, Barranquilla"
"CONSTRUCTORA INMECON S.A.";;;"(57) (1) 6690813";"dIAG 182 20-91 cc. panama Colombia, Bogotá"
"ARINSA S.A.";;;"(57) (2) 8234763";"Centro Comercial Campanario Of.301 Colombia, Popayán"
"ANNEXAR S.A.S.";;;"Telefax: (57) (5) 3198574";"Cl 85 45-47 Colombia, Barranquilla"
"C&M URBANIZADORA CIA LTDA";;;"Nal: (57) (1) 2646560";"Cll 35 a Sur Nro 72N-15 Colombia, Bogotá"
"AVI PROYECTOS INNOVADORES";;;"(57) (5) 3049735";"Cl 84 55-21 Colombia, Barranquilla"
"CONSTRUCTORA CIAD LTDA.";;;"(57) (5) 3535545";"Cr59 77-60 Colombia, Barranquilla"
"CONSTRUVID LTDA.";;;"(57) (5) 5857676";"Cr11 13 B-54 Barrio Obrero Colombia, Valledupar"
"J.F.A. CONSTRUCCIONES E.U.";;;"(57) (5) 3690496";"Cl 70 No. 45-40 Colombia, Barranquilla"
"VELANDIA LEONEL";;;"Conm.: (57) (1) 2556100";"Cr9 61-81 Of 601 Colombia, Bogotá"
"GUTÍERREZ CONSTRUCCINES";;;"(57) (1) 2981765";"Cr114 A 22 D-09 Colombia, Bogotá"
"First Name";"Email Address";Url;Telephone;Address
"OBRAS Y TERRENOS S.A.S.";;;"(57) (4) 3112036";"Cl 12 30-242 Colombia, Medellín"
"CONSTRUCTORA INMECON S.A.";;;"(57) (1) 6690813";"dIAG 182 20-91 cc. panama Colombia, Bogotá"
"CONSTRUCCIONES CIVILES Y PROYECTOS DE COLOMBIA";;;"(57) (1) 3370182";"Cr 7A 4-19 Sur Colombia, Bogotá"
"INVERSIONES DIYCOM S.A.";;;"(57) (1) 6231968";"Av (Cr) 15 104-30 Of 806 Colombia, Bogotá"
"MANGUARE E.U.";;;"(57) (1) 2434992";"Dg27 3 A-70 Of 305 Colombia, Bogotá"
"ALDUMAN GERARDINO DISEÑO E INGENIERÍA";;;"(57) (1) 7130725";"Cr 53 A 45-12 s Colombia, Bogotá"
"C&M URBANIZADORA CIA LTDA";;;"Nal: (57) (1) 2646560";"Cll 35 a Sur Nro 72N-15 Colombia, Bogotá"
"SERRANO QUIJANO CONSTRUCTORES LTDA";;;"(57) (1) 6128814";"Carrera 50 # 122-54 Apt 104 Colombia, Bogotá"
"CONCRETARTE OBRAS CIVILES";;;"(57) (1) 7571690";"Cr78 A 6 B-28 Int 16 Ap 304 Colombia, Bogotá"
"AVI PROYECTOS INNOVADORES";;;"(57) (5) 3049735";"Cl 84 55-21 Colombia, Barranquilla"
"INVERSIONES ALTOS DEL CONDADO LTDA";;;"(57) (1) 6133544";"Cr52 125 A-59 Of 385 Colombia, Bogotá"
"ARKOPUS LTDA.";;;"(57) (1) 2115579";"Cl 63 A 11-40 Of 301 Colombia, Bogotá"
"RIVERA SIERRA JHON FELIPE";;;"(57) 3133316020";"Cr25C 76-14 Uribe II Cuba Colombia, Pereira"
"GRUPO PODER";;;"(57) (5) 3784724";"Cr51 B 82-254 Of 38 Colombia, Barranquilla"
TAMACÁ;;;"(57) (5) 4317374";"Av del Ferrocarril 29-200 Colombia, Santa Marta"
"KSALULA GRUPO INMOBILIARIO S.A.S.";;;"Telefax: (57) (1) 5267310";"Cl 164 17 - 67 B-04 Of 113 Colombia, Bogotá"
"OTICOM S.A.";;;"(57) (1) 7028028";"Cr80 146-04 Colombia, Bogotá"
"CONSTRUCTORA CC & MC S.A.S.";;;"Telefax: (57) (1) 2850374";"Cr13 38 - 47 Of 302 Colombia, Bogotá"
"CONSTRUCTORA VITALIANO S.A.S.";;;"Telefax: (57) (1) 2503250";"Cl 79 68 G - 68 Colombia, Bogotá"
"CONSORCIO AFA-SMA";;;"(57) (5) 4313524";"Cl 15 3-74 Of 302-A Colombia, Santa Marta"
"HIDROPAV S.A.S.";;;"Telefax: (57) (1) 4503654";"Cl 55 S 81 A - 03 Colombia, Bogotá"
"PROYECTOS PAPIROS RÍO JORDÁN S.A.S.";;;"Telefax: (57) (1) 5667697";"Cr6 12 C - 48 Of 303 Colombia, Bogotá"
"INARQUIM S.A.S.";;;"Telefax: (57) (1) 7440798";"Cl 124 7 - 35 Of 603 Colombia, Bogotá"
"CONSTRUCTORA CLÍNICA MEGACENTRO";;;"(57) (6) 3210931";"Cl 19 9-50 Of 2105-B Edif Diario del Otún Colombia, Pereira"
"CONSTRUCTORA OS SAS";;;"(57) (1) 6005986";"Cl 58 22-43 Colombia, Bogotá"
"AGORA PROYECTOS S.A.S.";;;"Telefax: (57) (1) 6000043";"Cl 108 45 - 30 Trr 2 Of 1507 Colombia, Bogotá"
"INCIL S.A";;;"(57) (4) 4420000";"Cl 32 B S 45 B-39 Envigado Colombia, Envigado"
"ABC INDUSTRIAL";;;"(57) (2) 3397932";"C.C. Holguines Of 818 Trr Valle del Lili Colombia, Cali"
"LFG SERVICIOS Y MONTAJES S.A.S";;;"Nal: (57) (4) 4440976";"Cl 36 A S 46 A-810 Int 241 Colombia, Medellín"
"W M ARQUITECTOS LTDA";;;"(57) (2) 6686995";"Av6 N 14-54 Of 212 Colombia, Cali"
"BE HAPPY ORGANIZACIÓN DE FIESTAS";;;"(57) 3128052586";"Cl 9 28-23 Colombia, Cali"
"PROMOTORA FOREVER";;;"Nal: (57) (4) 3540906";"Cr40 10-35 Colombia, Medellín"
"CONSTRUCTORA COVIAL S.A.";;;"(57) (1) 4500881";"Av (Cr) 80 2-51 P-4 Colombia, Bogotá"
"MAKRO INGENIERIA,SOLUCIONES Y SUMINISTROS";;;"(57) (7) 6839337";"Cr27 A 19-91 Andalucía Colombia, Bucaramanga"
"INCOELSA S.A.S";;;"(57) (1) 8661484";"Cr6 4-14 Of 203 Cajicá Colombia, Bogotá"
"CONSTRUCTORA FEDERAL S.A.S.";;;"(57) (1) 6368859";"Cl 90 18-53 Colombia, Bogotá"
"RCH CONSTRUCTORES ASOCIADOS S.A";;;"(57) (1) 6299980";"Cl 122 19-59 Colombia, Bogotá"
"FREDY TAVERA PALENCIA";;;"(57) 3124810408";"Cr4 2-67 Colombia, Barbosa"
"TECNO DOCUMENTOS COLOMBIA";;;"(57) (1) 6735260";"Cl 160 72-64 Of 20 Colombia, Bogotá"
"INCIFRAS S.A.S";;;"(57) (4) 5974236";"Cr43 A 65 S-16 Colombia, Medellín"
"First Name";"Email Address";Url;Telephone;Address
"EDIFICACIONES BOREAL";;;"(57) (2) 7229418";"Cr34 12-40 Colombia, Pasto"
"CONCONCRETO S.A.";;;"(57) (1) 6202166";"Cr6 115-65 Zona F Of 308 Colombia, Bogotá"
"CONSTRUCTORA INECONTEC";;;"(57) (2) 7238744";"Cr27 19-54 Int 3 Colombia, Pasto"
"BE ARQ PROYECTOS Y SOLUCIONES ARQUITECTÓNICAS";;;"(57) (1) 6373444";"Cl 118 Bis 11 D-30 Colombia, Bogotá"
"CONSTRUCTORA & INVERSORA INEMCO LTDA";;;"(57) (1) 4752480";"Cr19 84-41 Colombia, Bogotá"
"TECHCON S.A.S.";;;"(57) (1) 2657066";"Tr74 C 40 I-70 S Colombia, Bogotá"
"H.A.C. INGENIERÍA LTDA.";;;"(57) (2) 3722011";"Cr35 A 3 A-41 Colombia, Cali"
"CONSTRUCTORES CONSULTORES ASOCIADOS LTDA.";;;"(57) (7) 6322236";"Cl 21 29-49 Colombia, Bucaramanga"
"INGTOPARQ LTDA.";;;"(57) 7263400";"Cl 10 A 9-64 Colombia, Maicao"
"ARQUITECTURA Y VIDA CONTRUCCIONES S.A.S.";;;"(57) (2) 4890725";"Cr64 A 9-176 Limonar Colombia, Cali"
"CONSTRUCCIONES Y URBANIZACIONES";;;"(57) (8) 2755500";"Av Ambalá 69-80 Of 311 Colombia, Ibagué"
"INVERSIONES VANGUARDIA LTDA.";;;"(57) (7) 5836969";"Cl 8 7-55 Centro Colombia, Cúcuta"
"URBANIZACIÓN SANTA MARTA";;;"(57) (2) 2391251";"Cr11 4-34 Colombia, Buga"
"CONSTRUBORJA CB";;;"(57) (2) 4226408";"Cr27 B 96-47 Colombia, Cali"
"GAMBOA & RAMÍREZ ARQUITECTURA E INGENIERÍA LTDA";;;"(57) (7) 5772440";"Av4 Este 1-09 La Ceiba Colombia, Cúcuta"
"ECCOT LTDA.";;;"(57) (1) 6710627";"Cl 163 A 16 A-22 Colombia, Bogotá"
"CONSTRUMARCA LTDA";;;"(57) (7) 6422211";"Cr11 33-36 Colombia, Bucaramanga"
"RUGE SOTELO ISRAEL";;;"(57) (1) 2104458";"Cr24 63 C-28 Of 501 Colombia, Bogotá"
"LASMO ARQUITECTOS LTDA.";;;"(57) (1) 2582044";"Cr23 137-97 Colombia, Bogotá"
"EVN DECORADOS S.A.S.";;;"Telefax: (57) (1) 5363880";"Cl 132 Bis 156 A - 20 Colombia, Bogotá"
"INFINISKI S.A.S.";;;"Telefax: (57) (1) 3177495";"Cl 77 1 -51 E Int 1 Of 302 Colombia, Bogotá"
"GRUPO SOLERIUM S.A.";;;"(57) (1) 6161341";"Cl 98 18-71 Of 603 Colombia, Bogotá"
"BÁEZ INGENIERÍA S.A.S.";;;"(57) (1) 3204999";"Cl 49 13-33 Of 1303 Colombia, Bogotá"
"IBAÑEZ CASTILLA CÍA. LTDA.";;;"(57) (1) 6149323";"Cr19 139-48 Colombia, Bogotá"
"CONSTRUCTORA CONCONCRETO S.A.";;;"(57) (1) 2146333";"Cr6 115-65 Zona F Of 409 Colombia, Bogotá"
"CONSTRUCTORA CONCRETO S.A.";;;"(57) (5) 3185560";"Cr53 82-86 P-3 Of 308 Edif Ocean Tower Colombia, Barranquilla"
"ADC ARQUITECTURA DISEÑO Y CONSTRUCCIÓN";;;"(57) (4) 2644913";"Cl 77 BB 82-81 Ap 103 Colombia, Medellín"
"LORCA LTDA.";;;"Conm.: (57) (4) 3510044";"Cl 32 D 69 B-09 Colombia, Medellín"
"INMOBILIARIA Y CONSTRUCTORA PALO DE ARGENTO";;;"(57) (4) 4113642";"Cr85 45 C-76 Colombia, Medellín"
"E.A.T. COIME";;;"(57) (4) 2675625";"Cr81 105-20 Colombia, Medellín"
"RIVA S.A.";;;"(57) (4) 5683663";"Cl 18 20-74 La Ceja Colombia, Medellín"
"J.R. CONSTRUCTORES DE PROYECTOS";;;"(57) (4) 2374128";"Cr70 92 E-50 Int 301 Colombia, Medellín"
"NARANJO ALVAREZ BEATRIZ E.";;;"(57) (4) 2503546";"Tr39 A 72-44 Colombia, Medellín"
"CONSTRUCCIONES GARCÍA & GARCÍA LTDA.";;;"(57) (2) 3279078";"Cl 43 47 C-42 Esq Colombia, Cali"
"SÁNCHEZ GIRALDO Y CÍA. S. EN C. PROCASAN";;;"(57) (2) 6655888";"Cl 67 N 7 N-59 Menga Colombia, Cali"
MAHICO;;;"Nal: (57) (4) 4444017";"Cr 82 A 15 B 45 Colombia, Medellín"
"VELASCO HERACLIO";;;"(57) (2) 8363069";"Cr36 4 D-30 Int 5 Colombia, Popayán"
"CASA DE CAMPO";;;"(57) (8) 8763847";"Cl 50 3 W-40 Colombia, Neiva"
"CONSTRUCTORA MONSERRATE LTDA.";;;"(57) (7) 6317926";"Cr32 109 A-30 P-2 El Dorado Floridablanca Colombia, Floridablanca"
"GRUCOL GRUPO CONSTRUCTOR S.A.";;;"Conm.: (57) (1) 2186038";"Cr15 99-13 P-4 Colombia, Bogotá"
"First Name";"Email Address";Url;Telephone;Address
"P & P CONSTRUCTORA URBANO S.A.S.";;;"(57) (2) 8923653";"Cr2 Oe 2-21 Colombia, Cali"
"H.A.C. INGENIERÍA LTDA.";;;"(57) (2) 3722011";"Cr35 A 3 A-41 Colombia, Cali"
"CONSTRUCTORES CONSULTORES ASOCIADOS LTDA.";;;"(57) (7) 6322236";"Cl 21 29-49 Colombia, Bucaramanga"
"RODRIGUEZ R. JANER MAURICIO";;;"(57) (7) 6343279";"Cr29 40-35 Mejoras Públicas Colombia, Bucaramanga"
"GÓMEZ INGENIEROS CONSTRUCTORES S.A.S.";;;"(57) (8) 2745510";"Cr5 Cl 63 Mod T Of A-8 C.C. Arkacentro Colombia, Ibagué"
"CONSTRUCTORA HABITAT DE LOS ANDES S.A.S.";;;"(57) (8) 2719393";"Av. Ambala 100-01 Colombia, Ibagué"
"PLATA RUEDA CONSTRUCCIONES";;;"(57) (7) 6427586";"C.C. Omnicentro Of 2-8 Colombia, Bucaramanga"
"SEGURA CONSULTORIA Y CONSTRUCCIÓN S.A.S";;;"(57) (2) 5582610";"Cr19 9 E-68 Colombia, Cali"
"CONCISAN S.A.S.";;;"(57) (2) 6615360";"Av6 N 14 N-31 Of 1302 Colombia, Cali"
"PINEDA CONSTRUCTORES";;;"(57) (2) 3397413";"Cl 13 E 65 D-34 Colombia, Cali"
"A.C. TANGIBLES";;;"(57) (2) 3372653";"Cl 23 36 B-42 Colombia, Cali"
"KLAHR ASTORIA CONSTRUCTORES S.A.";;;"(57) (2) 6673044";"Cl 5 N 1 N-95 Colombia, Cali"
"CONSTRUCCIONES Y DISEÑOS ESTRUCTURALES LTDA";;;"(57) (2) 4335374";"Cl 73 A 1 A 13-27 Colombia, Cali"
"CONSTRUCCIONES AMPERIO";;;"(57) (2) 2724865";"Cl 31 A 37-29 Colombia, Palmira"
"CONSTRUCTORA CARVAJAL Y RIVERA LTDA.";;;"(57) (7) 5718913";"Cl 12 3-12 Of 301 Centro Colombia, Cúcuta"
"PROYECTO HOTEL LA SAGRADA FAMILIA";;;"(57) (2) 8920759";"Cl 3 Oe 3-20 Colombia, Cali"
"SERGOM LTDA";;;"(57) (7) 6424730";"Cl 35 17-77 Of 1208 Edif Bancoquia Colombia, Bucaramanga"
"TORRES ASOCIADOS ACEDIET LTDA";;;"(57) (7) 5727419";"Cl11 4-74 Of201 Centro Colombia, Cúcuta"
SOHINCO;;;"Conm.: (57) (4) 3119808";"Cr43 14-130 Colombia, Medellín"
"OBRAS CIVILES SOGO";;;"(57) (7) 6459501";"Cl 36 31-39 L-312 Mejoras Públicas Colombia, Bucaramanga"
"GRUPO CIUDADELA S.A.S";;;"(57) (4) 6042048";"Cr35 A15 B 35 L 103 Colombia, Medellín"
"ESTRUCTURAS J.R. Y CÍA.LTDA.";;;"(57) (6) 3306565";"Cl 15 8 A-17 Zona Ind La Macarena Dosq Colombia, Pereira"
"BASA CONSTRUCCIONES LTDA.";;;"(57) (6) 3289537";"Cl 70 10-27 Bambusa Dosq Colombia, Pereira"
"CONSTRUCCIONES J.J. S.A.";;;"(57) (6) 3354776";"Cl 19 9-50 Of 10 A Edif Diario del Otún Colombia, Pereira"
"EISSER GROUP S.A.";;;"(57) (1) 5206784";"Av (Cr) 19 95-55 Colombia, Bogotá"
CONSTRUCMODULOS;;;"(57) (1) 6742957";"Cr49 B 176-40 Colombia, Bogotá"
"HACIENDA EL IMPERIO LTDA";;;"(57) (1) 3126383";"Av (Cr) 15 74-70 Of 601 Colombia, Bogotá"
"DROKASA COLOMBIA S.A.S.";;;"Telefax: (57) (1) 3264270";"Cr13 69 - 74 Of 701 Colombia, Bogotá"
"CONSTRUCTORA ARCHI TECTUAL DESING ROAL S.A.S";;;"(57) (1) 4028071";"Cl 24 D 80 C-31 Colombia, Bogotá"
"PROKSOL S.A.";;;"(57) (1) 4871666";"Cl 97 23-60 Of 201 Trr Proksol Colombia, Bogotá"
"TITULOS Y DESARROLLOS INMOBILIARIOS S.A.S.";;;"Telefax: (57) (1) 6232483";"Cl 95 15 - 33 Of 505 Colombia, Bogotá"
"WILCER CONSTRUCCIONES S.A.S.";;;"Telefax: (57) (1) 7859996";"Cr87 A 51 - 58 S Colombia, Bogotá"
"CONSTRUCTORA SOLIDARIOS LTDA.";;;"(57) (1) 5603996";"Cr19 12-87 P-3 Of-M-6 Colombia, Bogotá"
"CONSTRUACUÑA E.U.";;;"Telefax: (57) (1) 2790418";"Tr18 Bis 49-10 Sur Colombia, Bogotá"
"GRUPO SOLERIUM S.A.";;;"(57) (1) 6161341";"Cl 98 18-71 Of 603 Colombia, Bogotá"
"TRESPALACIOS PEDROZO ALFREDO";;;"(57) (1) 4093451";"Cl 4 36-70 Trr F Ap 314 Colombia, Bogotá"
CONSTRURED;;;"(57) (4) 2364029";"Cr42 B 93-94 Colombia, Medellín"
"SERTELEC E.U.";;;"(57) (4) 7824677";"Cl 27 11-68 Colombia, Montería"
"ACTIVA S.A.";;;"Conm.: (57) (6) 3254483";"Av Circunvalar 11-80 Of 1101 Edif Capitol San José Colombia, Pereira"
"CONSTRUCTORA MIRAMONTE S.A.S";;;"(57) (1) 8672222";"Cr27 35-75 Fusagasuga Colombia, Bogotá"
"First Name";"Email Address";Url;Telephone;Address
"CONSTRUTORA OAS LTDA.";;;"(57) (1) 5200446";"Cl 99 9 A-45 Of 302-A Colombia, Bogotá"
"VALENCIA CARMONA ALONSO";;;"(57) (4) 3713038";"Cr56 69 D-58 Itagüí Colombia, Itagüí"
"ESAC INGENIERÍA LTDA.";;;"(57) (5) 3517066";"Cr26 53 D-36 Colombia, Barranquilla"
"EMPRESA DE DISEÞO Y CONSTRUCCIµN GARDUR S.A.S.";;;"(57) (1) 8023810";"Cr28 B 84-24 Colombia, Bogotá"
"FININVERCO LTDA.";;;"(57) (5) 3588655";"Cl 72 56-70 Of 403 Colombia, Barranquilla"
"CONSTRUCTORA MALAGÓN Y CÍA. LTDA.";;;"Telefax: (57) (1) 2532168";"Cr60 D 99-69 Colombia, Bogotá"
"MIR & DAL CONSTRUCCIONES S.A.S.";;;"Telefax: (57) (5) 3196820";"Cl 47 D 26-100 B-37 Ap 2-B Colombia, Barranquilla"
"FUTURO S.A.";;;"(57) (1) 6157099";"Cl 127 13 A-54 Colombia, Bogotá"
"H.B.G. INGENIEROS LTDA.";;;"(57) (2) 2278239";"Cl 5 4 A-23 Colombia, Buga"
"G.A. BOTTEGA S.A.S.";;;"(57) 3158303009";"Cr27 A 52-86 Of 302 Colombia, Bogotá"
"ANFER INGENIERÍA E.U.";;;"(57) (2) 3101368";"Cr53 13 F-31 P-2 Colombia, Cali"
"PLAZA DE LA SALUD";;;"(57) (4) 3432651";"Cr76 19-47 Colombia, Medellín"
"CENTRAL NACIONAL PROVIVIENDA SECCIONAL SANTANDER";;;"(57) (7) 6374975";"Cl 103 D 11 C-08 Manuela Beltrán Colombia, Bucaramanga"
"SERVINGENIERÍA LTDA.";;;"(57) (5) 4214248";"Cl 30 4-53 Manzanares Colombia, Santa Marta"
"SPAZIO CONSTRUCTORA S.A.";;;"(57) (1) 6363099";"Cr14 87-45 Colombia, Bogotá"
"DRY WALL DE LA COSTA";;;"(57) (5) 3689306";"Vía 40 73-290 Of 418 Trr 2 Centro Empresarial Mix Colombia, Barranquilla"
"CONSTRUCTORA ALVAREZ";;;"(57) (5) 3682243";"Vía 40 73-290 Of 418 Trr 2 Centro Empresarial Mix Colombia, Barranquilla"
"I.C. PREFABLICADOS S.A.";;;"(57) (2) 6856500";"Cl 38 N 4 AN-07 Colombia, Cali"
INTERVIALCON;;;"(57) (1) 3105240";"Cl 52 18-36 Of 103 Colombia, Bogotá"
"ARTE VITRAL Y ARQUITECTURA";;;"(57) (2) 6654281";"Av3 H N 44 N-85 Colombia, Cali"
"INGEOMAQ LTDA";;;"(57) (7) 6417763";"Cl 64 17 A-29 Trr 1 Of 401 Artemis II La Ceiba Colombia, Bucaramanga"
"OBRAS CAPITAL S.A.";;;"(57) (4) 4445270";"Cr43 B 16-80 Int 603 Colombia, Medellín"
"OBRAS Y TERRENOS LTDA.";;;"(57) (4) 3665335";"Cr120 39 FC-39 Colombia, Medellín"
"CONSTRUCTORA QUIROZ";;;"(57) (5) 3802101";"Cl 3 51 B-185 Vía Puerto Colombia Colombia, Barranquilla"
"ANCLAJES Y CONSTRUCCIONES S.A.";;;"(57) (1) 7559292";"Cr16 93 A-36 Of 503 Colombia, Bogotá"
"CONVISA S.A.S";;;"(57) (4) 2650844";"Cr64 38-53 Colombia, Medellín"
"INCIMET LTDA.";;;"(57) (8) 6621477";"Cl 15 42-38 Colombia, Villavicencio"
"CRYSTAL TOWERS";;;"(57) (1) 6201707";"Cl 122 7 A-18 Ap 401 Colombia, Bogotá"
"PUERTA DEL SOL CONSTRUCTORA S.A.S.";;;"(57) (6) 8805888";"Cr24 22-02 Of 1101 Colombia, Manizales"
"CONSTRUCTORA SAJA";;;"(57) (4) 3065823";"Cl 79 S 48-62 Int 305 Sabaneta Colombia, Sabaneta"
"CONSTRUCTORA LA CONVENCIÓN";;;"(57) (4) 5660172";"Cr77 B 47-91 Int 101 Rionegro Colombia, Medellín"
"GARCÍA VEGA S.A.S";;;"(57) (4) 2322750";"Cr43 F 17-567 Colombia, Medellín"
"CMO DURAPANEL";;;"(57) (4) 4119236";"Cr81 42-33 Colombia, Medellín"
"CONSTRUCCIONES LA PIRÁMIDE";;;"(57) (8) 6603184";"Cl 6 34-86 Vega Colombia, Villavicencio"
"INARDI LTDA.";;;"(57) (1) 6177855";"Cr70 F 117-17 Colombia, Bogotá"
"CONSTRUCCIONES FUTURA S.A.";;;"(57) (8) 6715986";"Av40 26 C-37 Colombia, Villavicencio"
"ESTRUCTURAS Y CONSTRUCCIONES PINO ALVAREZ S.A.S.";;;"(57) (4) 3665196";"Cl 30 A 83-41 Int 1089 Colombia, Medellín"
"INGEINV S.A.S.";;;"(57) (4) 2719548";"Cr27 7 B-145 Colombia, Medellín"
"CONSTRUCIONES Y REFORMAS FRANCISCO ALVAREZ";;;"(57) (4) 2313643";"Cl 52 52-11 Of 402 Colombia, Medellín"
"IMÁGEN URBANA";;;"(57) (4) 2350321";"Cr65 B 27-34 Colombia, Medellín"
"First Name";"Email Address";Url;Telephone;Address
"G.A. BOTTEGA S.A.S.";;;"(57) 3158303009";"Cr27 A 52-86 Of 302 Colombia, Bogotá"
"LÓPEZ VALENCIA JOSÉ EDGAR";;;"(57) (2) 4336009";"Cr1A5F 73-46 Colombia, Cali"
"CARLOS PRIETO CONSTRUCCIONES S.A.S.";;;"(57) (1) 5357704";"Cr86 A 84 A-12 Colombia, Bogotá"
"MALAGON MANRIQUE LYDA";;;"(57) (2) 3337125";"Cr61 18-16 Ap 209 C Colombia, Cali"
"VERCOM CONSTRUCTORES";;;"(57) (4) 2662268";"CRA 43 A 1-85 OF 611 Colombia, Medellín"
"CONSTRUCCIÓN Y ASESORÍAS";;;"(57) (2) 2758820";"Cr32 29-16 Colombia, Palmira"
"LUCAVIPE TELECOMUNICACIONES";;;"(57) (2) 5520741";"Cl 5 45-20 L-12 Colombia, Cali"
"CONSTRUCTORA GALMAR LTDA";;;"(57) (2) 2140493";"Cr5 5-11 Piso 2 Colombia, Cartago"
"CONSTRUCTORA TRIADA S.A.S";;;"Conm.: (57) (2) 3127453";"Cr100 5-169 Of 612 C Colombia, Cali"
"CORNEJO QUIÑONEZ JOSÉ MAXIMILIANO";;;"(57) (2) 3290370";"Cl 54 E 41 E-03 B-47 Ap 2 Colombia, Cali"
"CONSTRUCTORA PÁEZ LTDA.";;;"Telefax: (57) (2) 6630099";"Puente Juanchito 800 Mts Colombia, Cali"
"CONSTRUCTORA VIZKAYA-TOLIMA LTDA.";;;"(57) (8) 2639578";"Cr3 12-36 Of 709 C.C. Pasaje Real Centro Colombia, Ibagué"
"G S A TECHNOLOGIES S A";;;"(57) (1) 5233858";"Cr13 N 96-82 Of 401 Colombia, Bogotá"
"SALAZAR JHON JAIRO";;;"(57) 3154038488";"Sector B Manz 16 Lt 5 Ciudadela del Café Colombia, Pereira"
"VALFLOR LTDA.";;;"(57) (7) 6380705";"Cl 28 10-12 Lagos I Colombia, Bucaramanga"
"CONSTRUCTORA EL PALMAR";;;"(57) (8) 2618243";"C.C. Combeima Of 507 Colombia, Ibagué"
"LÁMINAS PARA CIELO RASOS-TOLIPOR";;;"(57) (8) 2732107";"Manz D Casa 2 Sta. Cruz Colombia, Ibagué"
"HIFO S.A";;;"(57) (1) 5222234";"Cr7 B 126-61 Colombia, Bogotá"
"CONSTRUCTORA SPACIO HABITAR LTDA";;;"(57) (7) 6454485";"Cr34 36-52 L-2 Colombia, Bucaramanga"
"PLAZA MAYOR CONSTRUCTORA";;;"(57) (6) 3304365";"Cl 21 23-12 La Pradera Colombia, Pereira"
DISHIART;;;"(57) (8) 2646408";"Cr3 27-90 Colombia, Ibagué"
"CONSTRUCCIONES TRAMA URBANA";;;"(57) (7) 6471846";"Cl 44 37-14 Colombia, Bucaramanga"
"PROHUILA LTDA.";;;"(57) (8) 8712938";"Cl 11 4-01 Colombia, Neiva"
"CONCORDIA CONSTRUCTORES";;;"(57) (2) 7238136";"Cr31 A 3 Oe-40 El Bosque Colombia, Pasto"
"ASPRILLA HEIDER";;;"(57) (2) 4340936";"Cl 72 K 3 A N-46 Colombia, Cali"
"RICAURTE CONSTRUCCIONES S.A.S.";;;"(57) (2) 4029411";"Cl 5 46-83 L 236 Colombia, Cali"
"CONSTRUCTORA SAMARIA S.A.";;;"(57) (5) 4232079";"Cl 26 5-12 Colombia, Santa Marta"
"CONSTRUINN LTDA.";;;"(57) (5) 4200283";"Av Libertador 21-22 Colombia, Santa Marta"
"CONATUM S.A";;;"Nal: (57) (4) 3215063";"Cr43 A 1 S-188 Int 1006 Colombia, Medellín"
"VARGAS CATAÑO PEDRO ALONSO";;;"(57) (2) 3832193";"Av2 C N 72 N-46 B-6 Ap 202 Colombia, Cali"
"CENTRAL NACIONAL PROVIVIENDA SECCIONAL SANTANDER";;;"(57) (7) 6374975";"Cl 103 D 11 C-08 Manuela Beltrán Colombia, Bucaramanga"
"INCIVIL S.A.S";;;"(57) (8) 8720123";"Cl 5 3-60 Colombia, Neiva"
"TOPOGRAFÍA DIBUJO Y CONSTRUCCIÓN";;;"(57) (8) 2639607";"Cr5 14-76 Of 310 Colombia, Ibagué"
"PRIFCO CONSTRUCCIONES Y EQUIPOS LTDA.";;;"(57) (5) 3576242";"Cr52 100-105 Colombia, Barranquilla"
"CONSTRUCTORA ZONA FRANCA DE OCCIDENTE LTDA.";;;"(57) (2) 4417791";"Cr12 49-07 Colombia, Cali"
"ARQUITECTO H.F.L.";;;"(57) (2) 3281397";"Cr46 38 A-02 L-101 Colombia, Cali"
"INMOBILIARIA OBJETIVA S.A.S - GRUPO CENYC";;;"(57) (4) 4447771";"Cl 26 A 55-16 Of 201 Bello Colombia, Medellín"
"URBANIZACIÓN SANTA MARTA";;;"(57) (2) 2391251";"Cr11 4-34 Colombia, Buga"
"CONSTRUCTORA JHOPA";;;"(57) (4) 4716303";"Cl 94 CC 83 DD-57 Int 201 Colombia, Medellín"
"CASAS DEL FUTURO S.A.S";;;"(57) (4) 5513108";"Cr51 54-22 Ap 201 Colombia, Medellín"
"First Name";"Email Address";Url;Telephone;Address
"CONSTRUTECH LTDA";;;"(57) (1) 4344038";"Cr99 64 G-65 Int 9 Colombia, Bogotá"
"PROMOTORA DE PROYECTOS EL POBLADO S.A.S";;;"Conm.: (57) (4) 2689244";"Cl 10 S 48 B-05 Colombia, Medellín"
"ATRIL CONSTRUCCIONES S.A.S";;;"Conm.: (57) (4) 3510044";"Cl 40 E 79-22 Colombia, Medellín"
"CONSTRUCTORA INECONTEC";;;"(57) (2) 7238744";"Cr27 19-54 Int 3 Colombia, Pasto"
"PICÓN MORENO EDWIN ALFONSO";;;"(57) (75) 5682920";"Cl 4 4-50 Centro Colombia, Pamplona"
"LUIS ÀLVAREZ CONSTRUCCIONES";;;"(57) (4) 3718719";"Cl 57 51-42 Itagui Colombia, Itagüí"
"COLOMBIANA DE CONSTRUCCIONES S.A.S";;;"(57) (6) 3341991";"Cr15 12-70 Colombia, Pereira"
"DISEÑOS ASOCIADOS S.A.S.";;;"(57) (4) 4182731";"Cl 7 83-11 Colombia, Medellín"
"ANCLAJES Y CONSTRUCCIONES S.A.";;;"(57) (1) 7559292";"Cr16 93 A-36 Of 503 Colombia, Bogotá"
"CONSORCIO INDUMEZCLAS C.Y V.";;;"(57) (1) 6230865";"Cl 93 11 A-28 Of 801 Colombia, Bogotá"
"URIBE DE FRANCISCO JUAN JOSÉ";;;"(57) (2) 6640910";"Av6 N 37 B N-100 Colombia, Cali"
"HERNANDO CASTELLANOS INGENIEROS CONTRATISTAS";;;"(57) (2) 3230303";"Cl 2 66 B-89 Of 101 Colombia, Cali"
"DÍAZ INÉS";;;"(57) (2) 5212544";"Cl 66 1-30 B-1 Of 402 Colombia, Cali"
"INGYCOL LTDA.";;;"(57) (2) 4476374";"Cl 69 7 N-71 P-3 Colombia, Cali"
"CONSTRUCTORES CONSULTORES ASOCIADOS LTDA.";;;"(57) (7) 6322236";"Cl 21 29-49 Colombia, Bucaramanga"
"T.V.S CONSTRUCCIONES LTDA";;;"(57) (1) 6271700";"Cl 146 7-64 Of 702 Colombia, Bogotá"
"CONSTRUCTORA DE CONDOMINIOS S.A.";;;"(57) (7) 6572221";"Cr34 52-118 Colombia, Bucaramanga"
"PRIFCO CONSTRUCCIONES Y EQUIPOS LTDA.";;;"(57) (5) 3576242";"Cr52 100-105 Colombia, Barranquilla"
CORVILAR;;;"(57) (7) 6426257";"Cr19 35-02 Of 219 Uis Bucarica Colombia, Bucaramanga"
"CONIMPER S.A.S";;;"(57) 3005544205";". Colombia, Barranquilla"
"URBANIZACIÓN SANTA MARTA";;;"(57) (2) 2391251";"Cr11 4-34 Colombia, Buga"
"CONSTRUCCIONES AMPERIO";;;"(57) (2) 2724865";"Cl 31 A 37-29 Colombia, Palmira"
"IGLESIA MEDELLÍN SUNG RAK";;;"(57) (4) 3217251";"Cl 11 S 44-36 Colombia, Medellín"
"POWERCON EAT Y/O JESÚS ZAPATA";;;"(57) (4) 4536319";"Dg54 42-88 Int 301 Bello Colombia, Bello"
"UTESCO LTDA.";;;"(57) (7) 5741170";"Av Gran Colombia 6 E-113 P-2 Colombia, Cúcuta"
"PROMOTORA BIANCO S.A.S";;;"(57) (4) 3540906";"Cr40 10-35 Colombia, Medellín"
"PRACMA S.A.S";;;"(57) (4) 3119898";"Cl 11 A 43 D-54 Colombia, Medellín"
"URBANISMOS Y CONSTRUCCIONES AQG S.A.S.";;;"Telefax: (57) (1) 7806897";"Cr77 M 72 A - 25 S Colombia, Bogotá"
"CONSTRUCCIONES TÉCNICAS DE OCCIDENTE S.A.";;;"(57) (2) 8246160";"Cl 80 N 7-76 Colombia, Popayán"
"K.M.A LTDA.";;;"(57) (1) 6334244";"Dg127 A 23-92 Colombia, Bogotá"
"EVN DECORADOS S.A.S.";;;"Telefax: (57) (1) 5363880";"Cl 132 Bis 156 A - 20 Colombia, Bogotá"
"SERVINCO SERVICIOS DE INGENIERÍA Y CONSTRUCCIÓN";;;"(57) (2) 8204402";"Aida Lucia Casa No 50 Colombia, Popayán"
"PROIECTUM S.A.S.";;;"Telefax: (57) (1) 6359670";"Cr16 93 A - 36 Of 202 Colombia, Bogotá"
"CONSTRUCTORA ZICAVAL";;;"(57) (1) 5235160";"Dg109 18 C-17 Of 313 Colombia, Bogotá"
"TABORDA VÉLEZ Y CIA.";;;"Telefax: (57) (1) 3130959";"Cr7 74-56 P-13 Colombia, Bogotá"
"XYON CONSTRUCTORA";;;"(57) (5) 6560711";"Cl 70 6-99 Colombia, Cartagena"
"INFINISKI S.A.S.";;;"Telefax: (57) (1) 3177495";"Cl 77 1 -51 E Int 1 Of 302 Colombia, Bogotá"
"RW CONSTRUCTORES S.A.";;;"(57) (5) 3787602";"Cr59 79-103 Colombia, Barranquilla"
"CONSTRUCTORA SAN DIEGO MILENIO S.A.";;;"(57) (1) 3612944";"Cr5 A 31-07 S Colombia, Bogotá"
"TUNELES DE COLOMBIA";;;"(57) (1) 6163968";"Cr47 91-18 Colombia, Bogotá"
"First Name";"Email Address";Url;Telephone;Address
PROBISERVI;;;"(57) (4) 5532265";"Cr21 18-36 La Ceja Colombia, La Ceja"
"INGYCOL LTDA.";;;"(57) (2) 4476374";"Cl 69 7 N-71 P-3 Colombia, Cali"
"TOP BIENES S.A.S.";;;"(57) (1) 8615354";"Av Pradilla 9-0 Este L-2013 Colombia, Bogotá"
"CREAR CONSTRUCCIONES Y SERVICIOS S.A.S";;;"(57) (4) 5119139";"Cr49 50-58 Int 304 Colombia, Medellín"
"T.V.S CONSTRUCCIONES LTDA";;;"(57) (1) 6271700";"Cl 146 7-64 Of 702 Colombia, Bogotá"
DECORCERAMICA;;;"(57) (8) 2615120";"Cl 15 4-51 Cent Colombia, Ibagué"
"RODRIGUEZ R. JANER MAURICIO";;;"(57) (7) 6343279";"Cr29 40-35 Mejoras Públicas Colombia, Bucaramanga"
"CONSTRUTORA INSARQ LTDA.";;;"(57) 6704266";"Cl 35 12-31 Of.205 Edificio Calle Real centro Colombia, Bucaramanga"
"GAMBOA GRANADOS GUSTAVO";;;"(57) (7) 6913753";"Tr Metropolitana 34-180 Trr 1 Ap 504 Portón del Tejar Colombia, Bucaramanga"
"ARQUITECTURA Y VIDA CONTRUCCIONES S.A.S.";;;"(57) (2) 4890725";"Cr64 A 9-176 Limonar Colombia, Cali"
"PRIFCO CONSTRUCCIONES Y EQUIPOS LTDA.";;;"(57) (5) 3576242";"Cr52 100-105 Colombia, Barranquilla"
"PLATA RUEDA CONSTRUCCIONES";;;"(57) (7) 6427586";"C.C. Omnicentro Of 2-8 Colombia, Bucaramanga"
"INVERSIONES VANGUARDIA LTDA.";;;"(57) (7) 5836969";"Cl 8 7-55 Centro Colombia, Cúcuta"
"CONSTRUCCIONES AMPERIO";;;"(57) (2) 2724865";"Cl 31 A 37-29 Colombia, Palmira"
"MAQUINARÍA Y CONSTRUCCIONES S.A.";;;"(57) (2) 6529090";"Cl 11 31-170 Acopi Yumbo Colombia, Yumbo"
"CONSTRUMARCA LTDA";;;"(57) (7) 6422211";"Cr11 33-36 Colombia, Bucaramanga"
"ALTITUD VIDRIERA DEL VALLE S.A.S.";;;"(57) (2) 5241004";"Cr42 5 E-21 Colombia, Cali"
"PROMOTORA BIANCO S.A.S";;;"(57) (4) 3540906";"Cr40 10-35 Colombia, Medellín"
"CONSORCIO I.E.I 2010";;;"(57) (1) 2111495";"Cr7 54-89 P-1 Colombia, Bogotá"
"CONCAY S.A.";;;"(57) (1) 3258500";"Cr1 76-91 Colombia, Bogotá"
"CONSTRUACABADOS DE OBRA S.A.S.";;;"Telefax: (57) (1) 2592127";"Cr6 C 132 - 78 Ap 301 Colombia, Bogotá"
"SOLUTTIA S.A.S.";;;"Telefax: (57) (1) 7021043";"Cr46 91 78 Colombia, Bogotá"
"C & C COMUNICACIONES Y CONSTRUCCIONES LTDA.";;;"(57) (1) 3605829";"Cl 13 24-13 Colombia, Bogotá"
"FUNDACIÓN SERVIVIENDA";;;"(57) (2) 8310016";"Cl 7 A 11-20 Colombia, Popayán"
"CONSTRUCTORA SADEQUIPOS S.A.";;;"(57) (1) 2313105";"Cl 69 A 51-39 Colombia, Bogotá"
"PROYECTOS INTEGRADOS S.A.";;;"(57) (1) 6019678";"Cl.97 23-60 Of.701 Colombia, Bogotá"
"GOODHAUS S.A.S.";;;"Telefax: (57) (1) 6146319";"Cl 131 A 19 - 89 B-2 Of 306 Colombia, Bogotá"
"CONSTRUCTORA PANORAMA LTDA.";;;"Nal: (57) (5) 4312792";"Cl 16 5-64 Of 206 Colombia, Santa Marta"
"CONSTRUCTORA GCG S.A.S.";;;"Telefax: (57) (1) 4585054";"Cr71 B 74 C - 20 Colombia, Bogotá"
"HYO RINCÓN ASOCIADOS CONSTRUCTORES S.A.S.";;;"Telefax: (57) (1) 4909052";"Cl 72 A 86 - 69 Colombia, Bogotá"
"SOCIEDAD CONSTRUCTORA TERRACOTA LTDA.";;;"(57) (1) 3335084";"Cl 1 S 7 A-04 P-2 Colombia, Bogotá"
"D O S S.A.S.";;;"(57) (2) 7364537";"Cl 13 39-30 Colombia, Pasto"
"ABEL BULLA E.U.";;;"(57) (1) 5361008";"Cl 127 B 92 B-41 Colombia, Bogotá"
CONSTRUPRECIOS;;;"(57) (7) 5772440";"Av4 Este 1-09 La Ceiba Colombia, Cúcuta"
"PUERTA DEL SOL CONSTRUCTORA S.A.S.";;;"(57) (6) 8805888";"Cr24 22-02 Of 1101 Colombia, Manizales"
"CORTÁZAR Y GUTIÉRREZ LTDA.";;;"(57) (1) 6191672";"Cl 105 A 14-92 Of 103 Colombia, Bogotá"
"GUTIÉRREZ FACCINI & CÍA. S. EN C.";;;"(57) (1) 2118637";"Cl 80 8-14 Of 402 Colombia, Bogotá"
"CONSTRUCCIONES DINARTEL";;;"(57) (7) 6472695";"Cl 35 24-55 Trr 1 Ap 503 Colombia, Bucaramanga"
"GRUPO INMOBILIARIO S.B";;;"(57) (4) 4483448";"Cl 56 78 A-17 Colombia, Medellín"
"INVERDARMA S.A.S";;;"(57) (4) 2660079";"Cr 43a 1A Sur 69 Of 304 Colombia, Medellín"
"First Name";"Email Address";Url;Telephone;Address
"CONSTRUCTORA UNIÓN DE OCCIDENTE";;;"(57) (2) 6611602";"Av10 N 21-05 Colombia, Cali"
"A. KORN ARQUITECTURA S.A.";;;"(57) (1) 6378169";"Cl 104 13A11 Colombia, Bogotá"
"PROMOTORA PARTAMENTOS DANN S.";;;"Conm.: (57) (1) 6338555";"Cl 93 B 19-44 Colombia, Bogotá"
"CONSTRUCCIÓN SUMINISTROS Y SERVICIOS INDUSTRIALES DEL NORTE CSSI S.A.S.";;;"Telefax: (57) (7) 5838301";"Cl 11 4-74 Of 402 Colombia, Cúcuta"
"EMPRENDIMIENTOS INMOBILIARIOS";;;"Telefax: (57) (1) 2563579";"Cr10 96-18 Colombia, Bogotá"
"CONSTRUCTORA SOLUCIONES LABORALES";;;"(57) (2) 6811818";"Cl 44 N 4 B N-44 Colombia, Cali"
"HMS CONSTRUCTORES S.A.S";;;"(57) (7) 5893906";"Av 2 E 17 A-10 L-1 Los Caobos Colombia, Cúcuta"
"PROYECTA ARQUITECTOS INGENIEROS S.A.S.";;;"(57) (1) 6125735";"Av (Cr) 45 120-07 Int 1 Colombia, Bogotá"
"CARIBEAN CONSTRUCTION";;;"(57) (1) 2141627";"Cr13 119-95 Of 105 Colombia, Bogotá"
"PROYECTO URBANO S.A.";;;"(57) (4) 5806662";". Colombia, Medellín"
"PREFABRICANDO VIVIENDAS";;;"(57) (4) 5232153";"Cr52 105 AA-31 Colombia, Medellín"
"INSPECCIONES INGECOR";;;"(57) (4) 2813859";"Cl 81 54-44 Int 414 Colombia, Medellín"
"INCODISEÑO S.A.S.";;;"(57) (2) 8242666";"Cl 4 7-32 Of 407 Colombia, Popayán"
"CONSTRUCTORA VENTA Y REMODELACIONES NUEVO MILENIO";;;"(57) (4) 2930679";"Cr49 49-48 Int 307 Colombia, Medellín"
"CONSTRUCTORA CASASCOLOMBIA S.A.S.";;;"(57) 3175127944";"Cr23 B 9-21 Colombia, Armenia"
"CARLOS GAVIRIA Y ASOCIADOS S.A.";;;"(57) (1) 6101052";"Av (Cr) 11 86-32 Of 201 Colombia, Bogotá"
"INGABO S.A.S.";;;"(57) 3207261361";"Cl 21 N 14-35 Colombia, Armenia"
"AVINCO S.A.";;;"(57) (6) 7462107";"Cl 1 11-70 Colombia, Armenia"
"PROINCO S.A.S.";;;"(57) (6) 7413953";"Cr14 23-27 Of 610 Colombia, Armenia"
"KUBIKO CARPINTERÍA Y ARQUITECTURA";;;"(57) (6) 7330359";"Av Centenario 2-56 Of 309 Colombia, Armenia"
"INGENAL LTDA";;;"Conm.: (57) (1) 2494900";"Cl 77 8-31 Colombia, Bogotá"
"ALMU LTDA";;;"(57) (4) 3135972";"Cl 68 52-90 Itagüí Colombia, Itagüí"
"CONSTRUCTORA TEYPRO S.A.";;;"(57) (1) 2265338";"Cl 106 56-76 Colombia, Bogotá"
"MARIO VIEIRA Y CÍA. LTDA.";;;"(57) (1) 2585392";"Cl 127 B 43-62 Colombia, Bogotá"
"ATLANTIS CONSTRUCTORA";;;"(57) (5) 2753030";"Cl 28 25 A-08 Av Luis Carlos Galán Colombia, Sincelejo"
"INVERSIONES Y CONSTRUCCIONES FANIGRO";;;"(57) (1) 6694964";"Cr14 C 157-40 Int 51 Colombia, Bogotá"
"CONSTRUCTORA MILTON OVIEDO ALVAREZ";;;"(57) (8) 8713549";"Cl 9 3-50 Of 415-C-C Megacentro Colombia, Neiva"
"ARTEALUM.GE S.A.S.";;;"(57) (4) 5616559";"Cl 44 B 48-123 Bdg 10 Rionegro Colombia, Rionegro"
"AREA CONSTRUCTORA";;;"(57) (6) 7466828";"Cr13 8 N-67 Of 302 Colombia, Armenia"
"EMPRESA DE DISEÞO Y CONSTRUCCIµN GARDUR S.A.S.";;;"(57) (1) 8023810";"Cr28 B 84-24 Colombia, Bogotá"
INVERCARIBE;;;"(57) (5) 3776264";"Cl 85 42B1-116 Colombia, Barranquilla"
"CONSTRUCTORAS ASOCIADAS DEL OCCIDENTE S.A.S.";;;"(57) (1) 3004453";"Cr74 A 52 B-56 Colombia, Bogotá"
"MALLO BIENES RAÚCES S.A.";;;"(57) (1) 2188774";"Cl 92 18-32 Of 202 Colombia, Bogotá"
"OBRAS Y TERRENOS S.A.S.";;;"(57) (4) 3112036";"Cl 12 30-242 Colombia, Medellín"
"PROYECTO CONSTRUCTOR";;;"(57) (4) 2661751";"Cr46 7-98 Int 403 Colombia, Medellín"
"HERWIN CASADIEGO CONSTRUCCIONES E U";;;"Telefax: (57) (5) 3045513";"Cr56 135-125 Casa 7 Colombia, Barranquilla"
"CONSTRUCCIONES EMG INGENIEROS LTDA.";;;"(57) (1) 6734343";"Cr7 156-80 Of 901 Colombia, Bogotá"
"CONSTRUACABADOS J.P. E.U.";;;"(57) (1) 6774204";"Cl 162 A 3-43 Colombia, Bogotá"
"ALTEC PROYECTOS DE URBANISMO LTDA.";;;"(57) (2) 8228422";"Cr6 A 5 N-17 L-109 Colombia, Popayán"
"CONSTRUCTORA SANTA CLARA S.A.";;;"(57) (1) 2551200";"Cl 72 5 83 P-2 Of 203 Colombia, Bogotá"
"First Name";"Email Address";Url;Telephone;Address
"INVERSIONES VANGUARDIA LTDA.";;;"(57) (7) 5836969";"Cl 8 7-55 Centro Colombia, Cúcuta"
"SINERGIA INMOBILIARIA S.A.S.";;;"(57) (6) 7456200";"Cr6 2-56 Of 401 Colombia, Armenia"
"CONSTRUCCIONES JERICO";;;"(57) (2) 3309575";"Cr67 10-63 Colombia, Cali"
"INMOBILIARIA OBJETIVA S.A.S - GRUPO CENYC";;;"(57) (4) 4447771";"Cl 26 A 55-16 Of 201 Bello Colombia, Medellín"
"CAMPAZ & CÍA S. EN C.S.";;;"(57) (2) 3317238";"Cl 13 66 Bis-57 L-223 Colombia, Cali"
"SERGOM LTDA";;;"(57) (7) 6424730";"Cl 35 17-77 Of 1208 Edif Bancoquia Colombia, Bucaramanga"
"CINCEL S.A.";;;"Conm.: (57) (4) 3325366";"Dg32 33 A S-25 Int 101 Envigado Colombia, Envigado"
"CHRISTOFELL Y CÍA";;;"(57) (5) 7272729";"Cl 2 6-43 Brr. Arriba Colombia, Riohacha"
"LIÉVANO MARIÑO GUILLERMO";;;"(57) (1) 2218235";"Cl 55 37 A-55 Ap 302 Colombia, Bogotá"
"CONSTRUIMOS & RECREAMOS LTDA.";;;"(57) (6) 3236174";"Av Américas 50-03 L-4 Colombia, Pereira"
"NAVIA GUSTAVO";;;"(57) (2) 8333509";"Cl 12 19-81 Colombia, Popayán"
"CONSTRUCTORA ELEVE S.A.S";;;"(57) (1) 4028071";"Cl 24 D 80 C-31 Colombia, Bogotá"
"HYO RINCÓN ASOCIADOS CONSTRUCTORES S.A.S.";;;"Telefax: (57) (1) 4909052";"Cl 72 A 86 - 69 Colombia, Bogotá"
"TUNELES DE COLOMBIA";;;"(57) (1) 6163968";"Cr47 91-18 Colombia, Bogotá"
INGETOPO;;;"(57) (1) 6681678";"Cl 183 11-55 B-58 Of 202 Colombia, Bogotá"
"CONSTRUCTORA AINCO";;;"(57) (4) 5484088";"Cr29 30-52 Int 104 Marinilla Colombia, Medellín"
"HR COSTRUCTORA LTDA";;;"(57) (4) 3116628";"Cr48 12 S-148 Int 201 Colombia, Medellín"
"JARDINES LTDA";;;"(57) (4) 3614655";"Cl 9 S 83 A-02 Int 104 Colombia, Medellín"
ENCOFORMAS;;;"(57) (4) 2557577";"Cr 51 7 Sur 24 Colombia, Medellín"
"CASTRO CONSTRUCCIONES";;;"(57) (4) 3454054";"Cl 21 75-51 Int 202 Colombia, Medellín"
"VELNEC S.A.";;;"(57) (1) 2410530";"Cl 28 13 A-15 Of 1402 Colombia, Bogotá"
"COINSER LTDA.";;;"(57) (4) 2921693";"Cl 59 50 C-22 Colombia, Medellín"
"GRUPO .AIB LTDA.";;;"(57) (1) 2153545";"Av15 122-69 Colombia, Bogotá"
"CONSTRUCTORA INCO";;;"(57) (5) 6600275";"San Diego Edif Banco Internacional P-9 Of 9-G Colombia, Cartagena"
"NAM LTDA.";;;"(57) (1) 6292728";"Cl 113 7-45 Trr B Of 912 Colombia, Bogotá"
"INSCO LTDA.";;;"Telefax: (57) (1) 6367230";"Cl 94 A 11 A-32 Of 404 Colombia, Bogotá"
"HR CONSTRUCCIONES LTDA.";;;"(57) (1) 3461575";"Cl 70 ABis 19-53 Colombia, Bogotá"
"CONSTRUCTORA COLINAS DEL ESTE";;;"(57) (1) 2103138";"Tr1 A 57-27 Colombia, Bogotá"
"MUROS Y REDES S.A.S";;;"(57) (4) 2706974";"Cr45 A 34 S-57 Int 172 Envigado Colombia, Envigado"
"INVERSIONES PORVENIR S. EN C.";;;"(57) (8) 6624180";"Cr32 38-70 Of 802 Centro Colombia, Villavicencio"
"MWA CONSTRUCTORES CIVILES S.A.S";;;"(57) (1) 2518904";"Cr72 Bis 75 A-47 Colombia, Bogotá"
"DEIIKO S.A.S";;;"(57) (1) 6377077";"Cl 123 7-07 Of 201 Colombia, Bogotá"
"CONSTRUCCIÓN HNO. ARNULFO ROMERO";;;"(57) (1) 7922281";"Cr16 80 A-21 S Colombia, Bogotá"
"CASA CHIA S.A";;;"(57) (1) 8636736";"kilometro 3 VÚa ChÚa Cajica Costado occidental Colombia, Bogotá"
"CONSTRUCTORA GRUPO GOA";;;"(57) (1) 8660331";"Cl 7 1-117 Cajicá Colombia, Bogotá"
"ACABADOS A PUNTO FACHADAS & REFORMAS S.A.S.";;;"(57) (4) 5785182";"Cl 32 71-38 Colombia, Medellín"
"PROYECTO URBANO S.A.";;;"(57) (4) 5806662";". Colombia, Medellín"
"I.D.C INVERSIONES";;;"Conm.: (57) (4) 3123333";"Cl 10 42-45 Int 526 Colombia, Medellín"
"TRILATERO S.A";;;"(57) (4) 3768616";"Cr45 B 29 S-71 Int 700 Envigado Colombia, Envigado"
"INPRAIZ S.A.S.";;;"(57) (6) 7312981";"Cr12 0-20 Colombia, Armenia"
"First Name";"Email Address";Url;Telephone;Address
"ARQUITECTURA Y URBANISMO";;;"(57) 3176441212";"Cl 7 S 18-44 Colombia, Buga"
"OPCIÓN TIMAGUA E.U.";;;"(57) (2) 5557602";"Parcela Guaduales Del Río Pance Colombia, Cali"
"BOUHARB CONSTRUCCIONES";;;"(57) 3104050065";"Cl 0 Colombia, Cali"
"ALVAREZ DEL PINO DANIEL";;;"(57) (2) 6654863";"Av2 G N 52 A-77 Ap 201-A Colombia, Cali"
"CONSTRUCCIONES AMPERIO";;;"(57) (2) 2724865";"Cl 31 A 37-29 Colombia, Palmira"
"CODIMEC LTDA.";;;"Conm.: (57) (4) 3746888";"Cl 37 B 43 A-46 Itagüí Colombia, Medellín"
"JOSÉ SIERRA Y GUZMÁN CÍA LTDA.";;;"(57) (4) 3119095";"Cl 10 42-45 Int 311 Colombia, Medellín"
"SARB CONSTRUCCIONES";;;"(57) (7) 6341680";"Cl 20 31-26 Of 102 Colombia, Bucaramanga"
"YO SOY CONSTRUCTOR S.A.S.";;;"Telefax: (57) (1) 4506001";"Cl 53 S 79 C - 21 Int 3 Ap 304 Colombia, Bogotá"
"CONSTRUCTORA SADEQUIPOS S.A.";;;"(57) (1) 2313105";"Cl 69 A 51-39 Colombia, Bogotá"
"PROYECTOS INTEGRADOS S.A.";;;"(57) (1) 6019678";"Cl.97 23-60 Of.701 Colombia, Bogotá"
"FUREC LTDA. CONTRATISTAS MANO DE OBRA";;;"(57) (1) 6251003";"Cl 135 19-33 Colombia, Bogotá"
"EVN DECORADOS S.A.S.";;;"Telefax: (57) (1) 5363880";"Cl 132 Bis 156 A - 20 Colombia, Bogotá"
"BALLEN BUITRAGO FILIBERTO";;;"(57) (1) 3687037";"Cr37 25 B-12 P-3 Colombia, Bogotá"
"J.I.C INGENIERÍA Y CONSTRUCCIÓN S.A.S.";;;"(57) (1) 5366390";"Cr100 B 133-15 Colombia, Bogotá"
"CONSTRUCTORA EL GALEON LTDA";;;"(57) (1) 2142569";"Tr13 A 119-95 Ap 204 Colombia, Bogotá"
"CONSTRUCTORA BOSQUES MARIANA";;;"(57) (1) 6420991";"Cr10 90-39 Ap 302 Colombia, Bogotá"
"INFINISKI S.A.S.";;;"Telefax: (57) (1) 3177495";"Cl 77 1 -51 E Int 1 Of 302 Colombia, Bogotá"
"CONIGSA S.A.";;;"(57) (1) 6170101";"Cl 97 23-60 Of 604 Colombia, Bogotá"
CONSTECN;;;"(57) (2) 3925102";"Dg26 Cl 4 87 4 Colombia, Cali"
"CONSTRUCTORA CAMÚ";;;"(57) (6) 7411538";"Cl 21 16-46 P-10 Colombia, Armenia"
"ERJAR Y CÍA LTDA.";;;"(57) (1) 2174006";"Cl 80 8-14 Of 202 Colombia, Bogotá"
"JOVES PAZ ORLANDO JOSÉ";;;"(57) (7) 5725745";"Av2 5-54 Latino Colombia, Cúcuta"
"CONSTRUCTORA JAIME GRANADA E.U.";;;"(57) (4) 5721270";"Cr28 100-40 Colombia, Medellín"
FORMAZERO;;;"(57) 3164647209";". Colombia, Medellín"
"CEFRACO S.A.";;;"(57) (4) 4445330";"Cr25 A 1-31 Of 1308 Colombia, Medellín"
"CONSTRUCTORA DE INDIAS S.A.";;;"(57) (4) 3125940";"Cr43 A 1 A S-29 Of 513 Colombia, Medellín"
"CONSTRUCTORA URBANA";;;"Conm.: (57) (6) 8862040";"Cr23 C 62-06 Colombia, Manizales"
"PRODECOL S.A.";;;"(57) (1) 6108025";"Cl 97 10-28 Of 301 Colombia, Bogotá"
"KUBO CONSTRUCTORES S.A.S";;;"(57) (1) 7480505";"Cr7 71-21 Trr A P-3 Colombia, Bogotá"
"PROYECTOS Y VIVIENDA";;;"(57) (4) 2307977";"Cl 48 65-88 Int 102 Colombia, Medellín"
"CARIBEAN CONSTRUCTION";;;"(57) (1) 2141627";"Cr13 119-95 Of 105 Colombia, Bogotá"
"GEOMINAS S.A.";;;"(57) (4) 3135258";"Cl 16 AA S 42-74 Colombia, Medellín"
"ALVAREZ LLANO Y CÍA. LTDA.";;;"(57) (4) 4522101";"Cr50 A 34-20 Bello Colombia, Bello"
CONSTRUIMOS;;;"(57) 3167925927";"Cr16 17-15 Of 603 Colombia, Armenia"
"PROMOTORA EL CASTILLO S.A.S.";;;"(57) (2) 5599107";"Vía Cali Jamundi Hda El Castillo Cc Herreira L-3 Colombia, Cali"
"LAP CONSTRUCTOR S.A.S.";;;"(57) (2) 3278408";"Cr42 C 48-10 Colombia, Cali"
"J.G.P ARQUITECTURA Y CONSTRUCCIÓN LTDA.";;;"(57) (4) 3316980";"Dg32 32 C S-22 Envigado Colombia, Envigado"
KADAS.S.A;;;"(57) (1) 6787057";"Avenida Cr 7 No 166-04 Colombia, Bogotá"
"C.M.I. E.U.";;;"(57) (5) 3702109";"Cl42 46-175 Colombia, Barranquilla"
"First Name";"Email Address";Url;Telephone;Address
"CAMPAZ & CÍA S. EN C.S.";;;"(57) (2) 3317238";"Cl 13 66 Bis-57 L-223 Colombia, Cali"
"C.I.A. UNIVERSAL DE INVERSIONES";;;"(57) (5) 4311003";"Cr2 B 14-21 Of 810 Edif De Los Bancos Colombia, Santa Marta"
"PARQUE EMPRESARIAL PROMISIÓN S.A";;;"(57) (4) 3095044";"Cl 79 S 50-69 La Estrella Colombia, Medellín"
"CHRISTOFELL Y CÍA";;;"(57) (5) 7272729";"Cl 2 6-43 Brr. Arriba Colombia, Riohacha"
"CONSTRUCTORES CONSULTORES LTDA";;;"(57) (1) 5353986";"Dg87 Bis 79 A-81 Colombia, Bogotá"
"BASA CONSTRUCCIONES LTDA.";;;"(57) (6) 3289537";"Cl 70 10-27 Bambusa Dosq Colombia, Pereira"
"GEORGE RÚA LTDA";;;"(57) (4) 2573863";"Cr66 A 88 C-11 Colombia, Medellín"
"HBJ CONSTRUCCIONES";;;"(57) (4) 5535607";"Cr22 8-12 La Ceja Colombia, Medellín"
"JORVEL CONSTRUCTORES";;;"(57) (7) 6472695";"Cl 52 A 31-67 Colombia, Bucaramanga"
"BURGOS FIGUEROA MIGUEL ANGEL";;;"(57) (2) 7251925";"Cr6 9-12 Of 208 Colombia, Ipiales"
"AMBIENTES Y ESTRUCTURAS";;;"(57) (2) 3304650";"Cl 12 A 56-04 Of 102 Colombia, Cali"
INGETOPO;;;"(57) (1) 6681678";"Cl 183 11-55 B-58 Of 202 Colombia, Bogotá"
"INMOBILIARIA POPULAR";;;"(57) (7) 5751262";"Cl 7 A 5 E-17 Popular Colombia, Cúcuta"
"CONSTRUCTORA TENIS";;;"(57) (7) 5721544";"Cl 14 A 1 Este-135 Caobos Esq Colombia, Cúcuta"
"LORCA LTDA.";;;"Conm.: (57) (4) 3510044";"Cl 32 D 69 B-09 Colombia, Medellín"
"RIVA S.A.";;;"(57) (4) 5683663";"Cl 18 20-74 La Ceja Colombia, Medellín"
"ASCONCIVIL LTDA.";;;"(57) (4) 3729236";"Cr48 46-47 Ap 301 Itagüí Colombia, Itagüí"
"MIRA TABORDA ALFONSO";;;"(57) (4) 4628205";"Cl 118 64 D-80 Colombia, Medellín"
"SUBTERRÁNEA MINERÍA Y CONSTRUCCIÓN";;;"(57) (4) 3141181";"Cl 7 S 42-70 Int 803 Colombia, Medellín"
"ELÉCTRICOS,FILTRACIONES Y TECHOS";;;"(57) (2) 3324013";"Cl 2 C 92-133 Colombia, Cali"
"NORIA LTDA";;;"(57) (4) 3262020";"Cl 21 S 42 B-30 Int 103 Colombia, Medellín"
"CONSTRUCTORA EDMUNDO ENRÍQUEZ BUCHELI Y ASOCIADOS";;;"(57) (2) 7310820";"Cr42 20-57 Morasurco Colombia, Pasto"
"CONSTRUCTORA GALOPA S.A.";;;"(57) (1) 2147250";"Cl 119 11-43 Colombia, Bogotá"
"VIVIENDAS S.A.";;;"(57) (7) 5717032";"Av 1 14-63 Of. 201 Edif. San Vicente II La Playa Colombia, Cúcuta"
"CONSTRUCTORA BRIZALIA NO. 2 LTDA.";;;"(57) (4) 7821132";"Cl 40 14-70 Colombia, Montería"
"CONSTRUCTORA GERMANIA LTDA.";;;"(57) (6) 7497837";"Cr6 17 N-35 Colombia, Armenia"
"ANIBAL LOPEZ TRUJILLO & CIA. S. EN C.";;;"(57) (1) 2551200";"Cl 72 5-83 P-2 Colombia, Bogotá"
"INGENIERÍA CORPER SAS";;;"Telefax: (57) (7) 5743847";"Av 0 4-74 Colombia, Cúcuta"
"GRUPO GEOESTRUCTURAL S.A.S";;;"(57) 3505550774";"Cr41 5 C-35 Colombia, Cali"
"PENTAGONO CONSTRUCCIONES";;;"(57) (4) 4444458";"Cr47 50-24 Of 1108 Colombia, Medellín"
"CIELOS Y MUROS JYREHT";;;"(57) (4) 5225816";"Cr49 99-49 Colombia, Medellín"
"INSPECCIONES INGECOR";;;"(57) (4) 2813859";"Cl 81 54-44 Int 414 Colombia, Medellín"
"INCODISEÑO S.A.S.";;;"(57) (2) 8242666";"Cl 4 7-32 Of 407 Colombia, Popayán"
"GEOMINAS S.A.";;;"(57) (4) 3135258";"Cl 16 AA S 42-74 Colombia, Medellín"
DURAPANEL;;;"(57) (4) 4440707";"Cl 27 41-80 Itagüí Colombia, Medellín"
INCOVIAS;;;"(57) (4) 4167969";"Cr79 A 39-62 Colombia, Medellín"
"CONSTRUCTORA LOREA LTDA";;;"(57) (4) 5318376";"Rionegro Colombia, Medellín"
"ACABADOS Y CONSTRUCCIONES GMO S.A.S.";;;"(57) (2) 3933824";"Cr15 A 17-45 Colombia, Cali"
"ALPA CONSTRUCCIONES LTDA";;;"(57) (7) 6575032";"Cl 50 25-58 Of 401 Nuevo Sotomayor Colombia, Bucaramanga"
"CONSTRUCCIONES Y SERVICIOS ARCIPET LTDA. - ARCIPET LTDA.";;;"(57) (1) 4776464";"Tr25 53 C-09 Colombia, Bogotá"
"First Name";"Email Address";Url;Telephone;Address
"WT COSTRUCTORES";;;"(57) (4) 3328613";"Cl 48 S 39 B-20 Int 201 Envigado Colombia, Envigado"
"ENSAMBLES Y PROYECTOS INMOBILIARIOS";;;"(57) (4) 2688877";"Cr43 B 14-51 Of 204 Colombia, Medellín"
"CONSTRUVIMO LTDA";;;"(57) (4) 5632402";"Cl 47 47-06 Rionegro Colombia, Medellín"
"CONSTRUCTORA OCTAVIO CUADROS";;;"(57) (4) 3711851";"Cr55 D 38 A-03 Itagüí Colombia, Itagüí"
"LAP CONSTRUCTOR S.A.S.";;;"(57) (2) 3278408";"Cr42 C 48-10 Colombia, Cali"
"CONSTRUCCIONES J E L S.A.S.";;;"(57) (4) 2133293";"Cl 69 36-07 Colombia, Medellín"
"CONSTRUCCIONES JIMENOS S.A.S.";;;"(57) (4) 2667916";"Cl 1 B S 38-30 Int 504 Colombia, Medellín"
"CONSTRUCTORA PLANETA AZUL";;;"(57) (6) 7496727";"Cr19 24 N-04 Casa 54 Colombia, Armenia"
KADAS.S.A;;;"(57) (1) 6787057";"Avenida Cr 7 No 166-04 Colombia, Bogotá"
"CONSTRUCTORA COIMBRA S.A.";;;"(57) (1) 6102016";"Auto Norte 104a-47 Colombia, Bogotá"
"CONSTRUTORA SANTA LUCIA";;;"(57) (8) 8777139";"Cl 18 41-114 Colombia, Neiva"
"GÓMEZ DE LEÓN CONSTRUCTORES";;;"(57) (4) 5218422";"Cl 97 42 B-72 Int 301 Colombia, Medellín"
"BASSE ARQUITECTURA";;;"(57) (4) 4103030";"Cl 33 Aa 80 C-33 Colombia, Medellín"
"BAOBAB INGENIERÍA Y ARQUITECTURA LTDA";;;"(57) (1) 6148259";"Cl 132 45A 19 ofc 201 Colombia, Bogotá"
"AVANZADA S.A.";;;"(57) (1) 2712541";"Cl 106 B 54-10 Colombia, Bogotá"
"CONSTRUCCIONES E.P.C. LTDA.";;;"(57) (5) 3621472";"Cr11 33-25 Colombia, Barranquilla"
"L.M.T. CONSTRUCCIONES DE LA COSTA & CÍA. LTDA.";;;"(57) (5) 2825102";"Cl 16 B 19-83 Ford Colombia, Sincelejo"
"ACUSTICA ARQUITECTONICA";;;"(57) (5) 3730174";"Cr65 80-25 Colombia, Barranquilla"
"C.M.I. E.U.";;;"(57) (5) 3702109";"Cl42 46-175 Colombia, Barranquilla"
"OSLEYUVA CONSTRUCCIONES";;;"(57) (5) 3482493";"Cl 87 13 C-40 Int. 9 Colombia, Barranquilla"
"INVERSIONES AGROINDUSTRIALES EL PARAISO S.A.S. IAP S.A.S.";;;"(57) (1) 3795535";"Cr47 91-33 Colombia, Bogotá"
"PROMOTORA DE LOS RÍOS VALENCIA";;;"(57) (6) 7496727";"Cr19 24 N-04 Casa 54 Colombia, Armenia"
"PIDSA S.A.";;;"(57) (5) 3736919";"Cr41 D 82-167 Casa 72 Campo Alegre Colombia, Barranquilla"
"YUBER OJEDA & CÍA.";;;"Nal: (57) (1) 3424429";". Colombia, Bogotá"
"CONSTRUIDA SAS";;;"(57) (4) 2355357";"cl 30 A 69-141 Colombia, Medellín"
"CONSTRUCTORES GAÑÁN & GÓMEZ";;;"(57) (4) 3545426";"Cl 13 S 51 C-36 Colombia, Medellín"
"CODICOL LTDA.";;;"(57) (1) 2531263";"Cr68 D 94 A-05 Colombia, Bogotá"
"AGUA BOMBAS Y EQUIPOS";;;"Nal: (57) (1) 6887873";"Cr110 123-10 Colombia, Bogotá"
"LTEA INGENIERÍA Y RQUITECTURA LTDA.";;;"(57) (1) 2144247";"Av (Cr) 15 123-30 Of 415 Colombia, Bogotá"
"RÍOS DE LA SIERRA CONSTRUCCIONES Y CÍA LTDA.";;;"(57) (1) 6270710";"Cl 135 50-48 Ap 202 Colombia, Bogotá"
"ANGLO ANGULO & CÍA. S.C.A.";;;"(57) (2) 8220243";"Cl 4 8-16 Of 202 Colombia, Popayán"
"URIBE ARQUITECTOS CONSTRUCTORES";;;"(57) (1) 2858959";"Cl 42 4-05 Of.101 Ed.Soho Colombia, Bogotá"
"PROCIVCO DE COLOMBIA S.A.S.";;;"(57) (1) 6044675";"Cl 72 10-70 Trr A Of 1004 Colombia, Bogotá"
PROURBACOSTA;;;"(57) (5) 3609547";"Cr43 75 B-187 L-35 Colombia, Barranquilla"
"OHL COLOMBIA LTDA";;;"(57) (1) 6296369";"Av (Cr) 9 113-52 Of 402 Colombia, Bogotá"
"CONSTRUCTORA MARFIL SAN MIGUEL S.A.";;;"(57) (5) 3736690";"Cl 82 42 F-54 Ciudad Jardín Colombia, Barranquilla"
"INNOVADORA URBANA CONSTRUCTORES ASOCIADOS S.A.S.";;;"(57) (1) 2293129";"Cl 67 S 81 G-40 Colombia, Bogotá"
"UNICA PROYECTOS LTDA.";;;"(57) (1) 3475122";"Cl 72 12-65 Colombia, Bogotá"
"OBRAS Y BIENES";;;"Conm.: (57) (4) 2621091";"Cl 33 42 B-06 Of 1019 Colombia, Medellín"
"CREA CONSTRUCTORA LTDA.";;;"(57) (4) 3228645";"Cr56 46-49 Int 1306 Colombia, Medellín"
"First Name";"Email Address";Url;Telephone;Address
"PROMOTORA BAMBU S.A.S.";;;"Telefax: (57) (1) 2130105";"Cl 117 11 A - 62 Colombia, Bogotá"
"INVERSIONES HERALDO Y CÍA. S.A.S.";;;"Telefax: (57) (1) 3060270";"Cl 4 A 41 - 02 P-2 Colombia, Bogotá"
IDEOCONSTRUCCIONES;;;"(57) (1) 5263942";"Cl 148 16 B-63 Colombia, Bogotá"
"CONSTRUCTORA MARANATHA S.A.S.";;;"(57) (5) 3852009";"Cl 76 54-11 L A 5 Colombia, Barranquilla"
"CONSTRUCTORA RAMFO S.A.S.";;;"(57) (5) 3191096";"Cl 122 31-21 Colombia, Barranquilla"
"CONSTRUCTORA LENOX S.A.S.";;;"(57) (5) 3601053";"Cl 74 56-36 L 205 Colombia, Barranquilla"
"BV PROYECTOS S.A.S.";;;"(57) (1) 7467632";"Cl 64 G 90 A-48 Colombia, Bogotá"
"SIGMA CONSTRUCCIONES CIVILES S.A.S";;;"Nal: (57) (4) 2624655";"Cr51 41 - 222 Int 504 Colombia, Medellín"
"PIEDRAS Y ENCHAPES ALFREDO";;;"(57) (2) 8922211";"Cl 2 Oe 8-07 Colombia, Cali"
"ROKAS LTDA.";;;"(57) (8) 2740698";"C.C. Arkacentro L-E-2 B-30 Colombia, Ibagué"
"BOMBAS Y MÁQUINAS AZ S.A.S.";;;"(57) (1) 5333580";"Cr53 104 B-35 Of 604 Colombia, Bogotá"
"F.M.L. INGENIEROS & CÍA. LTDA.";;;"Domic.: (57) (1) 6763000";"Cl 223 52-26 Colombia, Bogotá"
"LAGOS CONSTRUCTORA";;;"(57) (2) 5571024";"Av Roosevelt 26-73 Colombia, Cali"
"GRIALTEC S.A.S";;;"(57) (4) 2502116";"Cl 47 72-04 Colombia, Medellín"
"INGTOPARQ LTDA.";;;"(57) 7263400";"Cl 10 A 9-64 Colombia, Maicao"
"MILLÁN ARQUITECTOS INGENIEROS";;;"(57) (2) 2361229";"Cr12 6-54 P-3 Of 42 Colombia, Buga"
"LOPEZ WILLIAN WL";;;"(57) (2) 4102477";"Cr8 N 38 Bn-48 Colombia, Cali"
"SEGURA CONSULTORIA Y CONSTRUCCIÓN S.A.S";;;"(57) (2) 5582610";"Cr19 9 E-68 Colombia, Cali"
"PROMOTORA LA VIDA ES BELLA";;;"Nal: (57) (4) 2689244";"Cl 10 S 48 B-05 Colombia, Medellín"
"CAMPAZ & CÍA S. EN C.S.";;;"(57) (2) 3317238";"Cl 13 66 Bis-57 L-223 Colombia, Cali"
"CONSTRUCCIONES GONZÁLEZ TORO & CÍA. S.C.S.";;;"(57) (2) 3326882";"Cr80 6 A-60 B-2 Ap 405 Colombia, Cali"
"SOTO GAITÁN CARLOS ALBERTO";;;"(57) (7) 5714315";"Cl 11 A 1 E-63 Ap 602 Edif Dorado Caobos Colombia, Cúcuta"
"CODIMEC LTDA.";;;"Conm.: (57) (4) 3746888";"Cl 37 B 43 A-46 Itagüí Colombia, Medellín"
"ADMINISTRACIÓN INMOBILIARIA M&M S.A.S.";;;"Telefax: (57) (1) 6165547";"Cl 93 A 11 - 07 Of 302 Colombia, Bogotá"
"SHEBELE S.A.";;;"Telefax: (57) (1) 6263353";"Cr16 143 - 94 Colombia, Bogotá"
"FUNDACIÓN SERVIVIENDA";;;"(57) (2) 8310016";"Cl 7 A 11-20 Colombia, Popayán"
"INVERSIONES OSPAR LTDA.";;;"(57) (1) 2855059";"Cl 44 7-48 Of 801 Colombia, Bogotá"
"CONSTRUCCIONES FCG S.A.S.";;;"Telefax: (57) (1) 5351923";"Cl 138 152 A - 02 Colombia, Bogotá"
"EVN DECORADOS S.A.S.";;;"Telefax: (57) (1) 5363880";"Cl 132 Bis 156 A - 20 Colombia, Bogotá"
"CONSTRUCCIONES Y EDIFICACIONES CASTILLO S.A.S.";;;"Telefax: (57) (1) 2442277";"Dg151 B 136 A - 80 Casa 19 Colombia, Bogotá"
"INFINISKI S.A.S.";;;"Telefax: (57) (1) 3177495";"Cl 77 1 -51 E Int 1 Of 302 Colombia, Bogotá"
"DAVINCI CONSTRUCTORA";;;"(57) (2) 7290557";"Cl 20 A 27 A-20 Ap 201 Edif Plazuelas Las Cuadras Colombia, Pasto"
CONSTECN;;;"(57) (2) 3925102";"Dg26 Cl 4 87 4 Colombia, Cali"
"PUERTA DEL SOL CONSTRUCTORA S.A.S.";;;"(57) (6) 8805888";"Cr24 22-02 Of 1101 Colombia, Manizales"
"CONSTRUVELÁSQUEZ E.U.";;;"(57) 3207979485";". Colombia, Medellín"
"ALIRIO HOYOS SÁNCHEZ CONSTRUCCIONES";;;"(57) (4) 5134648";"Cr50 51 A-27 Of 401 Colombia, Medellín"
"CONSTRUCTORA GDM LTDA.";;;"(57) (4) 5380123";"Cr37 A 29-22 Colombia, Medellín"
"CONSTRUCTORA INCON S.A.";;;"(57) (2) 6814433";"Cl 13 A 100-35 Esq Colombia, Cali"
"VALOR S.A.";;;"(57) (1) 6107001";"Cr16 97-37 Colombia, Bogotá"
"ALIAR INVERSIONES";;;"(57) (1) 6241829";"Cl 112 70 B-40 Of 203 Colombia, Bogotá"
"First Name";"Email Address";Url;Telephone;Address
"INVERSIONES PENINSULA E.U.";;;"(57) (1) 2134908";"Cr1 Este 108 A 49 Colombia, Bogotá"
"CONSTRUCTORA MOLINO LTDA.";;;"(57) (1) 2369609";"Cr16 79-31 Of 401 Colombia, Bogotá"
"RODRIGUEZ R. JANER MAURICIO";;;"(57) (7) 6343279";"Cr29 40-35 Mejoras Públicas Colombia, Bucaramanga"
"CONSTRUCCIONES INGEURBANA";;;"(57) (8) 2660839";"Cl 53 Cr7 B Esq Rincón de Piedra Pintada Colombia, Ibagué"
"CONSTRUCCIONES INTEGRADAS S.A.S.";;;"(57) (1) 4700375";"Cl 24 B 75-35 Colombia, Bogotá"
"CONSTRUCCIONES INCOL RUÍZ";;;"(57) (7) 6541176";"Cl 1 E 3-22 Campo Verde Piedecuesta Colombia, Piedecuesta"
"PRIFCO CONSTRUCCIONES Y EQUIPOS LTDA.";;;"(57) (5) 3576242";"Cr52 100-105 Colombia, Barranquilla"
"PLATA RUEDA CONSTRUCCIONES";;;"(57) (7) 6427586";"C.C. Omnicentro Of 2-8 Colombia, Bucaramanga"
"GRUPO ARQDECKO S.A.S.";;;"(57) (5) 3031388";"Cr46 61-51 Of 205 Colombia, Barranquilla"
SUMITORRES;;;"(57) (2) 4415811";"Cr7 N 42-20 Colombia, Cali"
"FERRETERÍA DICO";;;"(57) (2) 2253406";"Cr35 30-32 Colombia, Tuluá"
"CONSTRUCCIONES JERICO";;;"(57) (2) 3309575";"Cr67 10-63 Colombia, Cali"
"CONSTRUIDEA LTDA";;;"(57) (7) 5720859";"Av2 E 15 A-17 Caobos Colombia, Cúcuta"
"CONSTRUCTORA AMBAR S.A.S";;;"(57) (4) 3566985";"Cl 27 S 28-56 Envigado Colombia, Envigado"
"CONSTRUCCIONES TEUSACÁ";;;"(57) (1) 2571501";"Cr13 A 98-08 Colombia, Bogotá"
"CONSTRUCTORA FILADELFIA LTDA.";;;"(57) (5) 4313142";"Cr3 17-27 Of 216 Edif Rex Colombia, Santa Marta"
"LUIS FERNANDO GÓMEZ R Y CÍA LTDA.";;;"(57) (1) 3177457";"Cl 71 6-11 Colombia, Bogotá"
"CONSTRUCTORA ARCHI TECTUAL DESING ROAL S.A.S";;;"(57) (1) 4028071";"Cl 24 D 80 C-31 Colombia, Bogotá"
"CONSTRUCCIONES TÉCNICAS DE OCCIDENTE S.A.";;;"(57) (2) 8246160";"Cl 80 N 7-76 Colombia, Popayán"
"CONTECSA S.A";;;"(57) (2) 8246160";"Cl 80 N 7-76 Colombia, Popayán"
"CONSORCIO S.A.S.";;;"(57) (1) 6087190";"Cl 113 9 B-32 Colombia, Bogotá"
"TUNELES DE COLOMBIA";;;"(57) (1) 6163968";"Cr47 91-18 Colombia, Bogotá"
"GRUPO SOLERIUM S.A.";;;"(57) (1) 6161341";"Cl 98 18-71 Of 603 Colombia, Bogotá"
"ACTIVA S.A.";;;"Conm.: (57) (6) 3254483";"Av Circunvalar 11-80 Of 1101 Edif Capitol San José Colombia, Pereira"
"INMOBILIARIA POPULAR";;;"(57) (7) 5751262";"Cl 7 A 5 E-17 Popular Colombia, Cúcuta"
"CONSTRUCTORA TENIS";;;"(57) (7) 5721544";"Cl 14 A 1 Este-135 Caobos Esq Colombia, Cúcuta"
"CONSTRUTECNO S.A.S.";;;"(57) (2) 7219600";"Cr20 19 B-86 Colombia, Pasto"
"PRESTIGE FLOORING";;;"(57) (4) 3772533";"Cr42 75-83 L-130 Itagüí Colombia, Itagüí"
"CONSTRUCTORA BORINQUEN S.A.S";;;"(57) (4) 4126598";"Cr77 35-23 Colombia, Medellín"
"ALIRIO HOYOS SÁNCHEZ CONSTRUCCIONES";;;"(57) (4) 5134648";"Cr50 51 A-27 Of 401 Colombia, Medellín"
"CASTRO RIVAS BENJAMÍN";;;"(57) (4) 2923903";"Cr18 B 62-198 Int 118 Colombia, Medellín"
"AVILA PROYECTOS";;;"Conm.: (57) (4) 3422736";"Cl 31 B 102 A-07 Colombia, Medellín"
"CONSTRUCTORA LA CONVENCIÓN";;;"(57) (4) 5660172";"Cr77 B 47-91 Int 101 Rionegro Colombia, Medellín"
"INGENIERÍA, CONSTRUCCIÓN Y PROYECTOS ICONPRO LTDA.";;;"(57) (4) 2181357";"Cl 42 35-21 Colombia, Medellín"
"HR COSTRUCTORA LTDA";;;"(57) (4) 3116628";"Cr48 12 S-148 Int 201 Colombia, Medellín"
"NARANJO ALVAREZ BEATRIZ E.";;;"(57) (4) 2503546";"Tr39 A 72-44 Colombia, Medellín"
"CONSTRUCTORA EDMUNDO ENRÍQUEZ BUCHELI Y ASOCIADOS";;;"(57) (2) 7310820";"Cr42 20-57 Morasurco Colombia, Pasto"
"F.M.L. INGENIEROS & CÍA. LTDA.";;;"Domic.: (57) (1) 6763000";"Cl 223 52-26 Colombia, Bogotá"
"RANCHO DEL CARIBE & CÍA. LTDA.";;;"(57) (5) 6614916";"Manz E Lt 4 Colombia, Cartagena"
"CONSTRUCTORA INCO";;;"(57) (5) 6600275";"San Diego Edif Banco Internacional P-9 Of 9-G Colombia, Cartagena"
"First Name";"Email Address";Url;Telephone;Address
"CONSTRUCTORA RUBIO GONZÃLEZ S.A.S.";;;"Telefax: (57) (7) 5809321";"Cl 2 7-24 Colombia, Cúcuta"
"BIENES & BIENES S.A.";;;"(57) (4) 3118500";"Cl 8 43 A-48 Colombia, Medellín"
"JD CONSTRUCCIONES INTEGRALES DE INGENIERIA S.A.S.";;;"(57) (4) 4823559";"Av 44 61-38 Colombia, Medellín"
"VALENCIA CARMONA ALONSO";;;"(57) (4) 3713038";"Cr56 69 D-58 Itagüí Colombia, Itagüí"
"SM CONSTRUCTORES";;;"(57) 3122561556";"Medellín Colombia, Medellín"
"ABELARDO RUIZ";;;"(57) (4) 4440680";"Cr54 75 AA S-16 Int 162 La Estrella Colombia, Medellín"
"ALVAREZ LLANO Y CÍA. LTDA.";;;"(57) (4) 4522101";"Cr50 A 34-20 Bello Colombia, Bello"
INCOVIAS;;;"(57) (4) 4167969";"Cr79 A 39-62 Colombia, Medellín"
"BORJA CONSTRUCTORES S.A.S.";;;"(57) (2) 3246255";"Cr76 B Oe 2 B-37 Colombia, Cali"
"CONSTRUCCIONES JIMENOS S.A.S.";;;"(57) (4) 2667916";"Cl 1 B S 38-30 Int 504 Colombia, Medellín"
"COLOMBIA URBANA";;;"(57) (4) 7919099";"Cr4 33-72 Colombia, Montería"
"ACABADOS Y CONSTRUCCIONES GMO S.A.S.";;;"(57) (2) 3933824";"Cr15 A 17-45 Colombia, Cali"
"CONENCO E.U.";;;"(57) (6) 3243371";"Cr7 19-28 Of 1505 Edif Torre Bolívar Colombia, Pereira"
"FORTEC S.A.";;;"(57) (6) 7497631";"Cr14 14 N-80 Of 115 Colombia, Armenia"
"MOVICONSTRUCCIONES S.A.S.";;;"(57) (5) 3683140";"Cr54 55-39 Of 405 Colombia, Barranquilla"
"BASSE ARQUITECTURA";;;"(57) (4) 4103030";"Cl 33 Aa 80 C-33 Colombia, Medellín"
"COMINAR LTDA.";;;"(57) (7) 7275308";"Cr13 9-38 Chiquinquirá Colombia, Socorro"
"RUTA DEL SOL II S.A.";;;"(57) (5) 3597921";"Cr45 85-13 Colombia, Barranquilla"
"M&S ARQUITECTOS ASOCIADOS";;;"(57) (5) 3454798";"Cr48 72-38 Of 508 Colombia, Barranquilla"
"I.R.E. INGENIERÍA DE RECONSTRUCCIÓN S.A.";;;"(57) (5) 3564012";"Cr51 80-263 P-2 Colombia, Barranquilla"
ALS;;;"(57) (4) 4446618";"Cl 11 30 A-173 Colombia, Medellín"
"GRAMA CONSTRUCCIONES S.A.";;;"(57) (5) 3780099";"Cl 93 43-180 Colombia, Barranquilla"
"EMPRESA DE DISEÞO Y CONSTRUCCIµN GARDUR S.A.S.";;;"(57) (1) 8023810";"Cr28 B 84-24 Colombia, Bogotá"
"OBRAS Y TERRENOS S.A.S.";;;"(57) (4) 3112036";"Cl 12 30-242 Colombia, Medellín"
"CONSEQUIM S.A.S.";;;"(57) 3166469064";"Bucaramanga Colombia, Bucaramanga"
"CONSTRUCTORA URCO S.A.";;;"(57) (4) 2625745";"Cr43 A 19 A-87 Of 201 Colombia, Medellín"
"INVERSIONES GOVALUNA S.A.S.";;;"(57) (6) 3243214";"Cr7 16-50 Of 203 Edif Cámara de Comercio Colombia, Pereira"
"PVC BRASIL S.A.S.";;;"(57) (1) 6260844";"Cl 146 7-64 Of 704 Colombia, Bogotá"
"CONCITEC LTDA.";;;"(57) (1) 6150631";"Cr46 152-46 Of 404 Colombia, Bogotá"
"CONSTRUCCIONES G JULIO S.A.S";;;"(57) (2) 5145662";"Cl 8 28-44 Colombia, Cali"
"INVERSIONES DIYCOM S.A.";;;"(57) (1) 6231968";"Av (Cr) 15 104-30 Of 806 Colombia, Bogotá"
"ARINSA S.A.";;;"(57) (2) 8234763";"Centro Comercial Campanario Of.301 Colombia, Popayán"
"HOME CARE APD LTDA.";;;"(57) (1) 6204150";"Cr14 A 119-96 Colombia, Bogotá"
"GONZÁLEZ RODRÍGUEZ Y CÍA. S. EN C.";;;"(57) (2) 8202539";"Cr9 13 N-68 Brr El Recuerdo Colombia, Popayán"
"TORRE CIUDAD LTDA.";;;"(57) (1) 6370522";"Cr7 113-43 Of 1201 Colombia, Bogotá"
"CONTRUCCIÓN DE PARQUES G.O.";;;"(57) (1) 7530540";"Cr53C 131 A-10 Colombia, Bogotá"
"CASTRO-TCHERASSI S.A.";;;"(57) (5) 3717900";"Cl 54 44-105 Colombia, Barranquilla"
"CONSTRUCTORA E INMOBILIARIA GEENCO & CÍA S. EN C.";;;"(57) (5) 3414011";"Cr59 64-76 Colombia, Barranquilla"
"LUVELCO Y CÚA. LTDA.";;;"(57) (1) 6177253";"Cl 147 19-51 Colombia, Bogotá"
"PROVISOCIAL LTDA.";;;"(57) (5) 3483732";"Cr34 87-09 B-17 Ap 102 Colombia, Barranquilla"
"First Name";"Email Address";Url;Telephone;Address
"INVERSIONES SAN MAURICIO";;;"(57) (2) 3976167";"Cl 13 68-64 Of 401 Colombia, Cali"
"INDUSTRIAS COLARCILLAS C.I. S.A.";;;"(57) (1) 3339887";"Cl 1 B 5 A-91 Colombia, Bogotá"
"SOLAIRE CONSTRUCCIONES";;;"(57) (2) 3263532";"Cr46 A 14 C-35 Colombia, Cali"
"EMPRENDIMIENTOS INMOBILIARIOS";;;"Telefax: (57) (1) 2563579";"Cr10 96-18 Colombia, Bogotá"
"CONSTRUCTORA MANFIG LTDA.";;;"(57) (5) 3450765";"Cr48 72-40 Of 404 Colombia, Barranquilla"
"JARAMILLO MEJÍA AURELIO";;;"(57) (6) 7412270";"Cl 21 13-51 Of 602 Colombia, Armenia"
"CONSTRUCTORA INCON S.A.";;;"(57) (2) 6814433";"Cl 13 A 100-35 Esq Colombia, Cali"
"MARIO VIEIRA Y CÍA. LTDA.";;;"(57) (1) 2585392";"Cl 127 B 43-62 Colombia, Bogotá"
"COINSA LTDA.";;;"(57) (1) 3384698";"Cr24 34-61 Colombia, Bogotá"
"TOTAL LTDA.";;;"(57) (1) 3472646";"Cl 71 5-37 Ap 204 Colombia, Bogotá"
"EQUI-HERRAMIENTAS LTDA.";;;"(57) (5) 3720302";"Cl 45 52-73 Colombia, Barranquilla"
"PROMOTORA ENTORNO 2000 LTDA.";;;"Conm.: (57) (1) 6735032";"Cr7 156-80 Of 1501 Colombia, Bogotá"
"COOPCONTRUIR C.T.A. LTDA.";;;"(57) (5) 3563844";"Cr 43 79 B-127 L-1-B Colombia, Barranquilla"
"CONCRETESA S.A.";;;"(57) (2) 4854185";"Cl 18 N 9 N 73 Colombia, Cali"
"TORRES CHAPARRO EDGAR";;;"(57) (7) 6361499";"Cl 116 31-69 Trr 4 Ap 511 Sta Catalina Colombia, Bucaramanga"
"INGECONAS LTDA.";;;"(57) (1) 4783535";"Cr20 125-38 Of 104 Colombia, Bogotá"
INDUCACETÓN;;;"(57) (1) 2800970";"Cr7 0-06 E Colombia, Bogotá"
"MONTENEGRO BURBANO JOSÉ FERNANDO";;;"(57) (2) 7735404";"Cr5 7-30 Colombia, Ipiales"
"UNIGARRO FABIÁN";;;"(57) (2) 7734646";"Cr9 24 C-56 San Luis Colombia, Ipiales"
"B.P. CONSTRUCTORES S.A.";;;"(57) (7) 6470191";"Cr31 52 B-23 Colombia, Bucaramanga"
"GRUPO CIUDADELA S.A.S";;;"(57) (4) 6042048";"Cr35 A15 B 35 L 103 Colombia, Medellín"
"NELMA INGENIEROS CONTRATISTAS";;;"(57) (1) 6163080";"Cr53 104 B-22 Int 3 Of 203 Colombia, Bogotá"
"LFC CONSTRUCCIONES Y MONTAJES S.A.";;;"(57) (4) 4620602";"Cl 26 A 57 A-86 Bello Colombia, Bello"
"COMPAÑIA DE ASESORIAS Y CONSTRUCCIÓN";;;"(57) (4) 3193770";"Cl 6 43 C-8 Of-203 Colombia, Medellín"
"SANTIAGO RESTREPO BRAVO CONSTRUCCIONES";;;"(57) (4) 4213216";"Cr82 49 F-74 Colombia, Medellín"
"NARANJO ALVAREZ BEATRIZ E.";;;"(57) (4) 2503546";"Tr39 A 72-44 Colombia, Medellín"
"SPAZIO CONSTRUCTORA S.A.";;;"(57) (1) 6363099";"Cr14 87-45 Colombia, Bogotá"
"CONSTRUTORA OAS LTDA.";;;"(57) (1) 5200446";"Cl 99 9 A-45 Of 302-A Colombia, Bogotá"
PROURBE;;;"(57) (7) 6395060";"Cl 103 14-14 Alameda Colombia, Bucaramanga"
"CONSTRUCTORA SOLUCIONES LABORALES";;;"(57) (2) 6811818";"Cl 44 N 4 B N-44 Colombia, Cali"
"CONSTRUCTORA AGUDELO G";;;"(57) (4) 2883120";"Cl 69 S 46 A-40 Colombia, Medellín"
"CIELOS Y MUROS JYREHT";;;"(57) (4) 5225816";"Cr49 99-49 Colombia, Medellín"
"INGENIERIA & ACABADOS APEC LTDA.";;;"(57) (1) 4129323";"Cr49 A 91-52 Colombia, Bogotá"
"FORMALETAS SAHECO S.A.S.";;;"(57) (1) 2800029";"Cl 8 C Sur 5-15 Este Colombia, Bogotá"
"CONSTRUCTORA COIMBRA S.A.";;;"(57) (1) 6102016";"Auto Norte 104a-47 Colombia, Bogotá"
"OÑATE SALINAS CLEMENTE";;;"(57) (5) 5742718";"Cr10 15-36 Colombia, Valledupar"
"AVANZADA S.A.";;;"(57) (1) 2712541";"Cl 106 B 54-10 Colombia, Bogotá"
"CONSTRUCTORA INMOBILIARIA MEGO LTDA.";;;"(57) (5) 3565963";"Cr53 68 B-57 Of 217 Colombia, Barranquilla"
"ARTEALUM.GE S.A.S.";;;"(57) (4) 5616559";"Cl 44 B 48-123 Bdg 10 Rionegro Colombia, Rionegro"
"MIR & DAL CONSTRUCCIONES S.A.S.";;;"Telefax: (57) (5) 3196820";"Cl 47 D 26-100 B-37 Ap 2-B Colombia, Barranquilla"
"First Name";"Email Address";Url;Telephone;Address
"PARQUE CAÑASGORDAS S.A.";;;"(57) (2) 5554551";"Cl 18 118-241 Colombia, Cali"
"CONSTRUCTORA PÁEZ LTDA.";;;"Telefax: (57) (2) 6630099";"Puente Juanchito 800 Mts Colombia, Cali"
"JKAM S.A.";;;"(57) (7) 5806667";"Cl 29 2-61 La Cordialidad Los Patios Colombia, Cúcuta"
"D&C DISEÑOS Y CONSTRUCCIONES S.A.S.";;;"(57) (5) 3692169";"Cr45 65-40 Colombia, Barranquilla"
IUSA;;;"Conm.: (57) (4) 3171755";"Cl 10 32-115 Colombia, Medellín"
"INCIVIL S.A.S";;;"(57) (8) 8720123";"Cl 5 3-60 Colombia, Neiva"
"CONSTRUCTORA VILLA ELISA LTDA.";;;"(57) (7) 5725201";"Cl 10 7-50 Of 214 Centro Colombia, Cúcuta"
"ASESORÍAS E INTERVENTORÍAS Y CONSTRUCCIÓN LTDA. ASECONSTRUCCIÓN LTDA.";;;"(57) (4) 5204790";"Cl 34 B 65 D-02 Colombia, Medellín"
"CONSTRUCCIONES PARQUE 80 LTDA.";;;"(57) (1) 2856295";"Tr18 ABis 37-67 Colombia, Bogotá"
"CONSTRUCTORA SAN FRANCISCO";;;"(57) (2) 7252266";"Cr6 9-12 Of 207 Colombia, Ipiales"
"CUEZAR S.A.";;;"(57) (2) 2752295";"Cr45 46-14 Colombia, Palmira"
"INGENIERÍA EQUIPOS Y SERVICIOS LTDA";;;"(57) (4) 3725075";"Cl 62 53 B-02 Int 102 Itagüí Colombia, Itagüí"
"DINPRO CONSTRUCCIONES Y SERVICIOS";;;"(57) (1) 6192702";"Cl 124 45-15 Of 601 Edificio Aluna Colombia, Bogotá"
"VELNEC S.A.";;;"(57) (1) 2410530";"Cl 28 13 A-15 Of 1402 Colombia, Bogotá"
MADERFINC;;;"(57) (4) 3128341";"Cl 10 43 C-52 Colombia, Medellín"
"GRUPO CREARQ LTDA.";;;"(57) (1) 2459704";"Tr25 A 45 A-72 Colombia, Bogotá"
"CONSTRUCTORA L & B CÍA. LTDA.";;;"Telefax: (57) (7) 5951311";"Cl 4 N 4 E 59 Ceiba Colombia, Cúcuta"
"CONSTRUCTORA SOLUCIONES LABORALES";;;"(57) (2) 6811818";"Cl 44 N 4 B N-44 Colombia, Cali"
"CONSORCIO EDIFICAR";;;"(57) (1) 2820305";"Cr7 24-89 Of 4101 Colombia, Bogotá"
"PROYECTO CONSTRUCTOR";;;"(57) (4) 2661751";"Cr46 7-98 Int 403 Colombia, Medellín"
"CONSTRUCCIONES EMG INGENIEROS LTDA.";;;"(57) (1) 6734343";"Cr7 156-80 Of 901 Colombia, Bogotá"
"CONSTRUACABADOS J.P. E.U.";;;"(57) (1) 6774204";"Cl 162 A 3-43 Colombia, Bogotá"
INTERVIALCON;;;"(57) (1) 3105240";"Cl 52 18-36 Of 103 Colombia, Bogotá"
"INMOBILIARIA MZ S.A.";;;"(57) (1) 6108010";"Cl 82 11-37 Of 213 Colombia, Bogotá"
"TALLER EL CONSTRUCTOR";;;"(57) (4) 2794118";"Cr66 28-22 Itagüí Colombia, Itagüí"
"CONSTRUCCIONES CASALUJO S.A.S.";;;"Telefax: (57) (1) 2159067";"Cl 116 22 - 15 Ap 704 Colombia, Bogotá"
"ESPINOSA PINZÓN Y CÍA LTDA.";;;"(57) (1) 2367568";"Cr22 83-80 Colombia, Bogotá"
"AM CONSTRUCTORES S.A.";;;"(57) (1) 7498265";"Cr15 98-26 Of 301A Colombia, Bogotá"
"CONSTRUCTORA ANGEL MIRANDA";;;"(57) (2) 5166986";"Cl 44 4-03 Colombia, Cali"
"LUCAVIPE TELECOMUNICACIONES";;;"(57) (2) 5520741";"Cl 5 45-20 L-12 Colombia, Cali"
"CIELOS RASOS VARCOR";;;"(57) (7) 6443029";"Cl 62 17 F-14 La Ceiba Colombia, Bucaramanga"
"CONSTRUCTORA PÓRTICO INGENIERÍA S.A.S.";;;"(57) (6) 8760909";"Cr8 Cl 43 Colombia, Manizales"
"ARIAS SERNA Y SARAVIA S.A.";;;"(57) (1) 2570266";"Av (Cl) 82 7-80 Colombia, Bogotá"
"CONSTRUCTORA DE CONDOMINIOS S.A.";;;"(57) (7) 6572221";"Cr34 52-118 Colombia, Bucaramanga"
"ARQUITECTURA Y VIDA CONTRUCCIONES S.A.S.";;;"(57) (2) 4890725";"Cr64 A 9-176 Limonar Colombia, Cali"
"GÓMEZ INGENIEROS CONSTRUCTORES S.A.S.";;;"(57) (8) 2745510";"Cr5 Cl 63 Mod T Of A-8 C.C. Arkacentro Colombia, Ibagué"
"DELAR ESTRUCTURAS LTDA.";;;"(57) (2) 3196509";"Cl 34 98 B-352 Ap 102-B Colombia, Cali"
"CONSTRUBORJA CB";;;"(57) (2) 4226408";"Cr27 B 96-47 Colombia, Cali"
"CR CONSTRUCTORA EL ROBLE S.A.S";;;"(57) (4) 6041852";"Cr43 A 1-50 Of 403 Colombia, Medellín"
"INTEGRA GERENCIA Y CONSTRUCCION LTDA.";;;"(57) (1) 2129475";"Cr8 69-27 Colombia, Bogotá"
"First Name";"Email Address";Url;Telephone;Address
"ICONO URBANO S.A.";;;"(57) (1) 6184060";"Cl 98 8-28 Of 403 Colombia, Bogotá"
"GÓMEZ MARÍN MARIO LEÓN";;;"(57) (4) 2394625";"Cr43 47-64 Of 1905 Colombia, Medellín"
"CUBICO S.A.S";;;"(57) (4) 4441704";"Cl 17 C S 44-38 Colombia, Medellín"
"CONINCON LTDA";;;"(57) (1) 5312978";"Cl 94 16-09 Ap 503 Colombia, Bogotá"
"HERNANDO CASTELLANOS INGENIEROS CONTRATISTAS";;;"(57) (2) 3230303";"Cl 2 66 B-89 Of 101 Colombia, Cali"
"PRIFCO CONSTRUCCIONES Y EQUIPOS LTDA.";;;"(57) (5) 3576242";"Cr52 100-105 Colombia, Barranquilla"
"ACONDICIONAMIENTO ALIADAS MEGAGAS";;;"(57) (4) 4443480";"Cl 98 73-25 Colombia, Medellín"
"CONSTRUCCIONES Y CONSULTORÍAS TÉCNICAS AMBIENTALES CONTEC";;;"(57) (2) 2435775";"Cr72 1-60 Colombia, Buenaventura"
"CONSTRUACUÑA E.U.";;;"Telefax: (57) (1) 2790418";"Tr18 Bis 49-10 Sur Colombia, Bogotá"
"CONSTRUCTORA SENERCO LTDA.";;;"(57) (2) 7239154";"Cr24 17-75 Of 602 Edif Concasa Colombia, Pasto"
"MONAPE S.A.S";;;"(57) (7) 5710328";"Cl 10 5-50 Of 508 Edif Agrobancario Centro Colombia, Cúcuta"
"CONSTRUCTORA CONCONCRETO S.A.";;;"(57) (1) 2146333";"Cr6 115-65 Zona F Of 409 Colombia, Bogotá"
"CONSTRUCTORA CONCRETO S.A.";;;"(57) (5) 3185560";"Cr53 82-86 P-3 Of 308 Edif Ocean Tower Colombia, Barranquilla"
"INVERDARMA S.A.S";;;"(57) (4) 2660079";"Cr 43a 1A Sur 69 Of 304 Colombia, Medellín"
"ORTIZ GALLEGO LUIS EUDES";;;"(57) (4) 2854691";"Cr81 A 50-11 Int 201 Colombia, Medellín"
"CONSTRUCTORA CIVIL COLOMBIANA S.A.S.";;;"(57) (4) 2734607";"Cl 115 70-38 Colombia, Medellín"
"SÁNCHEZ GIRALDO Y CÍA. S. EN C. PROCASAN";;;"(57) (2) 6655888";"Cl 67 N 7 N-59 Menga Colombia, Cali"
"ABELARDO RUIZ";;;"(57) (4) 4440680";"Cr54 75 AA S-16 Int 162 La Estrella Colombia, Medellín"
"APIC DE COLOMBIA";;;"(57) (4) 3345055";"Cr48 25AA S-70 of 418 Edificio Complex Colombia, Medellín"
"TOPOGRAFÍA DIBUJO Y CONSTRUCCIÓN";;;"(57) (8) 2639607";"Cr5 14-76 Of 310 Colombia, Ibagué"
"DANVER DE COLOMBIA";;;"(57) (1) 3134093";"Cr7 74-56 Of 1206 Colombia, Bogotá"
"CONCAY S.A.";;;"(57) (1) 3258500";"Cr1 76-91 Colombia, Bogotá"
"AGRESCORT CONSTRUCCIONES";;;"(57) (2) 7331469";"Cl 18 19-95 Colombia, Pasto"
"INGESERCON LTDA";;;"(57) (4) 4213153";"Cl 76 DE 88-35 Int 202 Colombia, Medellín"
"CONSTRUCTORA VÉLEZGO";;;"(57) (4) 3170852";"Cr25 9 A S-176 Int 601 Colombia, Medellín"
"DG CONSTRUCCIONES Y MANTENIMIENTOS S.A.S.";;;"(57) (5) 3187014";"Calle 38 No. 41-84 p-2 Of. 205 Colombia, Barranquilla"
"CONSTRUCTORA F & M DEL VALLE S.A.S.";;;"(57) (2) 3272286";"Cr42 C 43-32 Colombia, Cali"
"CONTRUCCIONES Y REFORMAS LUIS FERNANDO PARRA";;;"(57) (4) 2304147";"Cr 66 43-03 Colombia, Medellín"
"GEYPRO CONSTRUCTORES S.A.S.";;;"(57) (1) 6165496";"Cl 87 10-51 Ap 202 Colombia, Bogotá"
"OBRAS Y TERRENOS S.A.S.";;;"(57) (4) 3112036";"Cl 12 30-242 Colombia, Medellín"
"MURANO CONSTRUCTORES S.A.S.";;;"(57) (4) 7921515";"Cl 48 B 12-17 Villa del Río Colombia, Montería"
"RW CONSTRUCTORES S A";;;"Telefax: (57) (5) 3689825";"Cl 76 48-47 Of 205-206 Colombia, Barranquilla"
"I.C.C LTDA. INGENIEROS CONSTRUCTORES Y CONSULTORES";;;"(57) (1) 6150610";"Cr 46 152 46 <l-2-84 Colombia, Bogotá"
"CONSTRUCTORA CC & MC S.A.S.";;;"Telefax: (57) (1) 2850374";"Cr13 38 - 47 Of 302 Colombia, Bogotá"
"CONSTRUCCTORA CAPITAL MEDELLÍN S.A.S";;;"Domic.: (57) (4) 4487440";"Cl 19 43 G - 169 Of 601 Colombia, Medellín"
"CONSTRUTODO SAN CAYETANO";;;"(57) (4) 5535676";"Cr17 25-79 La Ceja Colombia, Medellín"
"LUNA NAVAS SERGIO FERNANDO";;;"(57) (7) 6428140";"Cr18 36-50 Of 701 Edif Cincuentenario Colombia, Bucaramanga"
"AEI PROYECTOS LTDA";;;"(57) (7) 6428140";"Cr18 36-50 Of 701 Edif Cincuentenario Colombia, Bucaramanga"
"CONSTRUCTORA LAS GALIAS S.A.";;;"(57) (1) 2136145";"Cr14 108-36 Colombia, Bogotá"
"180 GRADOS S.A";;;"(57) (2) 6819088";"Cl 38 N 6 N-35 Of 11 Colombia, Cali"
"First Name";"Email Address";Url;Telephone;Address
"CONSTRUCTORA SOJIMECA S.A.";;;"(57) (5) 4217273";"Av del Libertador 14-142 Colombia, Santa Marta"
"PROMOTORES Y ASESORES ORTIZ HIDALGO LTDA";;;"(57) (1) 6785295";"Cr34 68-38 Colombia, Bogotá"
"TRANSPORTE Y ESCAVACIÓN B & M LTDA.";;;"(57) (1) 2161056";"Cr50 145 A-19 Colombia, Bogotá"
INARCO;;;"(57) (8) 6719937";"Edificio Comité Ganaderos Of-1003 Colombia, Villavicencio"
"JHON MOSQUERA CAMACHO";;;"(57) (2) 6561588";"Dg71A1 22 B-68 Colombia, Cali"
"PROYECTOS ARCA";;;"(57) (1) 6912500";"Cr17 93-82 Ap 507 Colombia, Bogotá"
"NUEVA ERA CONSTRUCCIONES S.A.S.";;;"Telefax: (57) (1) 2300166";"Cl 45 A S 59 A - 50 Colombia, Bogotá"
"IFANT S.A.S.";;;"Telefax: (57) (1) 2022895";"Cl 1 D 39 - 03 Colombia, Bogotá"
"HERNÁNDEZ BEJARANO HENRY";;;"(57) (2) 3378499";"Cr31 31 A-54 Colombia, Cali"
"CONTRUCCIONES Y ACABADOS AGUDELO";;;"(57) (2) 4055490";"Cl 54 E 41 D-293 Colombia, Cali"
FLABECO;;;"(57) (4) 2658996";"Cr65 A 26-28 Colombia, Medellín"
"CONTRUCTORA BOLÍVAR CALI S.A.";;;"(57) (2) 6659948";"Cl 52N Con Av 5BN Colombia, Cali"
"OSMARES & CÍA LTDA.";;;"(57) (2) 5242324";"Av5 A N 17-98 Of 601 Colombia, Cali"
"ARQUIPROYECTOS Y CONSTRUCCIONES LTDA.";;;"(57) 3003324927";"Cl 5B3 Bis 38-84 Colombia, Cali"
"DOBLEA ARQUITECTOS";;;"(57) (4) 4486686";"Cr59 49-13 Colombia, Medellín"
"INGENIEROS & ARQUITECTOS LTDA.";;;"(57) (8) 6621792";"Cl 38 32-41 Parque Santander Of 1106 Colombia, Villavicencio"
"NC CONSTRUCCIONES Y CÍA. LTDA.";;;"(57) (2) 6819202";"Cl 44 N 6 N-15 Of 301 Colombia, Cali"
"OSPINA Y CARDENAS E.U.";;;"(57) (2) 4383752";"Cr28 A 50-54 Colombia, Cali"
"ALVAREZ CONSTRUACABADOS";;;"(57) (2) 2747650";"Cl 50 40-54 Colombia, Palmira"
"LUCAVIPE TELECOMUNICACIONES";;;"(57) (2) 5520741";"Cl 5 45-20 L-12 Colombia, Cali"
"CONSTRUCTORA PIEDRALINDA S.A.";;;"(57) (2) 5557576";"Cr154 20-75 Colombia, Cali"
"CONSTRUCTORA COVIAL S.A.";;;"(57) (1) 4500881";"Av (Cr) 80 2-51 P-4 Colombia, Bogotá"
"THE NATIONAL CASH";;;"(57) (1) 2832411";"Cr9 23-75 Colombia, Bogotá"
"INCOELSA S.A.S";;;"(57) (1) 8661484";"Cr6 4-14 Of 203 Cajicá Colombia, Bogotá"
"BOMBAS Y MÁQUINAS AZ S.A.S.";;;"(57) (1) 5333580";"Cr53 104 B-35 Of 604 Colombia, Bogotá"
"ORGANIZACION GONZALEZ J.H.";;;"Nal: (57) (7) 6466013";"Cl 43 18-50 Rincón de Girón Colombia, Girón"
"CONSTRUCTORA VC LTDA";;;"(57) (7) 6710611";"Cra 14 N° 2 A-24 Colombia, Bucaramanga"
"MEJOR VIVIR";;;"(57) (2) 6833688";"Cl 40 N 4 N-79 Colombia, Cali"
"INVERSIONES HUERTAS LTDA";;;"(57) (1) 7039253";"Cr24 71 D-74 Colombia, Bogotá"
"FLOR CONSTRUCTORES S.A.S.";;;"(57) (1) 4296150";"Av (Cl) 26 69 D-91 Of 509 Colombia, Bogotá"
"CAPITALYS INFRAESTRUCTURA S.A.";;;"(57) (2) 8880984";"Av2 N 7 N-55 Of 307 Colombia, Cali"
"ACUARIEGOS S.A.S.";;;"(57) (4) 8282939";"Cr100 103-01 Colombia, Apartadó"
"ARKADIA CONSULTORÍAS & CONSTRUCCIONES LTDA.";;;"Nal: (57) (7) 5747877";"Cl 6 6E-139 Quinta Oriental Colombia, Cúcuta"
"INGECONAS LTDA.";;;"(57) (1) 4783535";"Cr20 125-38 Of 104 Colombia, Bogotá"
"CONSTRUCTORA NEMESIS S.A.";;;"(57) (1) 2121111";"Cl 71 13-66 Colombia, Bogotá"
"DEISY CASTILLO CONSTRUCTORA";;;"(57) (5) 7286740";"Cr 7 28A-34 Colombia, Riohacha"
"LVARADO & DURING LTDA.";;;"Conm.: (57) (1) 6236000";"Cr15 77-50 Of 409 Colombia, Bogotá"
"VIVIENDAS PREFABRICADAS LTDA.";;;"(57) (1) 6476835";"Cr7 127-48 Of 601 Colombia, Bogotá"
INDUCACETÓN;;;"(57) (1) 2800970";"Cr7 0-06 E Colombia, Bogotá"
TECNICOCHES;;;"(57) (7) 5773938";"Av4 E 11-17 Urb. Rosal Colombia, Cúcuta"
"First Name";"Email Address";Url;Telephone;Address
"CONSTRUCTORA RODRIGUEZ DÍAZ OSCAR";;;"(57) (1) 4337774";"Cl 87 103 F-50 Int 123 Colombia, Bogotá"
"GONZÁLEZ PAREDES MANUEL EDUARDO";;;"(57) (2) 7254466";"Cr5 20-57 Colombia, Ipiales"
"ENRÍQUEZ BUCHELY Y ASOCIADOS LTDA. EDMUNDO";;;"(57) (2) 7235291";"Manz 5 Casa 10 Altos de la Colina Colombia, Pasto"
"ARIAS SERNA Y SARAVIA S.A.";;;"(57) (1) 2570266";"Av (Cl) 82 7-80 Colombia, Bogotá"
"HOLGUÍN CONSTRUCCIONES S.A.S.";;;"(57) (7) 6310513";"Cl 89 21-147 Diamante II Colombia, Bucaramanga"
"PROCESOS CONSTRUCTIVOS INTEGRADOS S.A.S";;;"(57) (7) 6553820";"Cl 6 Norte 4-200 Junin Casa 10 Manz L Colombia, Bucaramanga"
"LUIS ÀLVAREZ CONSTRUCCIONES";;;"(57) (4) 3718719";"Cl 57 51-42 Itagui Colombia, Itagüí"
"INGENIEROS ASOCIADOS A.P.V LTDA";;;"(57) (1) 8209224";"Cl 19 3 B-54 Madrid Colombia, Bogotá"
"INDUSTRIAS COLARCILLAS C.I. S.A.";;;"(57) (1) 3339887";"Cl 1 B 5 A-91 Colombia, Bogotá"
"ANCLAJES Y CONSTRUCCIONES S.A.";;;"(57) (1) 7559292";"Cr16 93 A-36 Of 503 Colombia, Bogotá"
"CONSTRUCTORA SQUADRA S.A.S";;;"(57) (1) 2116238";"Cl 109 17 A-35 Colombia, Bogotá"
"CONSTRUCTORA & INVERSORA INEMCO LTDA";;;"(57) (1) 4752480";"Cr19 84-41 Colombia, Bogotá"
"180 GRADOS S.A";;;"(57) (2) 6819088";"Cl 38 N 6 N-35 Of 11 Colombia, Cali"
"ARCIVILES LTDA";;;"(57) 3108511113";"Cl 17 D 16-08 Remanso Colombia, Villavicencio"
"COMUNREOS 2007 CONSTRUCTORA & CIA LTDA.";;;"(57) (7) 7272065";"Cl 12 13-10 Colombia, Socorro"
"EL CONSTRUCTOR AMIGO";;;"(57) (1) 2455985";"Cl 32 18-38 Colombia, Bogotá"
"CONSTRUCCIONES INGEURBANA";;;"(57) (8) 2660839";"Cl 53 Cr7 B Esq Rincón de Piedra Pintada Colombia, Ibagué"
"B.P. CONSTRUCTORES S.A.";;;"(57) (7) 6470191";"Cr31 52 B-23 Colombia, Bucaramanga"
"CONSTRUCCIONES INTEGRADAS S.A.S.";;;"(57) (1) 4700375";"Cl 24 B 75-35 Colombia, Bogotá"
"CIFUENTES SILVA GREISMAN";;;"(57) (8) 2659832";"Cl 32 5 A-21 Colombia, Ibagué"
"LATCO S.A.";;;"(57) (2) 6676759";"Cl 17 N 9 N-23 Colombia, Cali"
"ACONDICIONAMIENTO ALIADAS MEGAGAS";;;"(57) (4) 4443480";"Cl 98 73-25 Colombia, Medellín"
"CONSTRUCCIONES ANTONIO CORTÉS E.U.";;;"(57) (2) 4369147";"Cl 81 28D2-10 P-2 Colombia, Cali"
"IGLESIA MEDELLÍN SUNG RAK";;;"(57) (4) 3217251";"Cl 11 S 44-36 Colombia, Medellín"
"POWERCON EAT Y/O JESÚS ZAPATA";;;"(57) (4) 4536319";"Dg54 42-88 Int 301 Bello Colombia, Bello"
"PROMOTORA BIANCO S.A.S";;;"(57) (4) 3540906";"Cr40 10-35 Colombia, Medellín"
TERRASINO;;;"(57) (2) 6607908";"Cl 34 An 2 A-70 Colombia, Cali"
"GRUPO CIUDADELA S.A.S";;;"(57) (4) 6042048";"Cr35 A15 B 35 L 103 Colombia, Medellín"
"DROKASA COLOMBIA S.A.S.";;;"Telefax: (57) (1) 3264270";"Cr13 69 - 74 Of 701 Colombia, Bogotá"
"LUIS FERNANDO GÓMEZ R Y CÍA LTDA.";;;"(57) (1) 3177457";"Cl 71 6-11 Colombia, Bogotá"
"DUARTE SANDRO";;;"(57) (5) 4235862";"Manz F Casa 3 Bavaria Country Colombia, Santa Marta"
"PROKSOL S.A.";;;"(57) (1) 4871666";"Cl 97 23-60 Of 201 Trr Proksol Colombia, Bogotá"
"INNOVAR ESPACIO CONSTRUCTIVOS LTDA.";;;"(57) (5) 1000000";"Cl 31 29 36 L-6 Concepción IV Colombia, Santa Marta"
"URBARK LTDA";;;"(57) (1) 2136397";"Cl 122 15 A 24 Of 103 Colombia, Bogotá"
"HIDROPISCINAS DEL CAUCA";;;"(57) (2) 8236575";"Cr9 4 B N-27 L-1 Colombia, Popayán"
"WILLIAM VARGAS LINARES E.U.";;;"(57) (1) 4829647";"Cr72 52-64 Of 201 Colombia, Bogotá"
"CONSTRUCCIONES VARGAS Y GARCÍA S.A.S.";;;"Telefax: (57) (1) 6931632";"Cl 132 Bis 153 - 71 Colombia, Bogotá"
"VALDEMORO S.A.S.";;;"(57) (2) 5242324";"Cr84 5-100 Of 101 Trr A Colombia, Cali"
"BÁEZ INGENIERÍA S.A.S.";;;"(57) (1) 3204999";"Cl 49 13-33 Of 1303 Colombia, Bogotá"
"TRAUMA SUR";;;"(57) (8) 8368087";"Dg3 S 2-12 Colombia, Pitalito"
"First Name";"Email Address";Url;Telephone;Address
"C.Y.J CONSTRUCTORES";;;"(57) (4) 4812962";"Av47 B 65-88 Int 201 Bello Colombia, Bello"
"BC INGENIEROS LTDA.";;;"(57) (5) 3790514";"Cl 65 39 B-81 Colombia, Barranquilla"
"RFP INVERSIONES LTDA";;;"(57) (8) 2745566";"Av60 13-09 Colombia, Ibagué"
"E.C.S. LTDA.";;;"(57) 3167727766";"Cl 20 54-27 Colombia, Neiva"
"ACUARIEGOS S.A.S.";;;"(57) (4) 8282939";"Cr100 103-01 Colombia, Apartadó"
"IARCO S.A";;;"(57) (4) 2610699";"Cr43 33-57 Int 301 Colombia, Medellín"
"GUERRA DE LA ROSA MAURICIO";;;"(57) (2) 7238548";"Edif Pasto Plaza Of 310 Colombia, Pasto"
"CONSTRUCTORA RODRIGUEZ DÍAZ OSCAR";;;"(57) (1) 4337774";"Cl 87 103 F-50 Int 123 Colombia, Bogotá"
"INGELEC ELÉCTRICISTAS LTDA. INGELEC";;;"(57) (2) 5513103";"Cr61 2 A-93 Colombia, Cali"
"VELÁSQUEZ A. ROGELIO";;;"(57) (1) 6306900";"Cr28 78-41 Colombia, Bogotá"
"ENRÍQUEZ BUCHELY Y ASOCIADOS LTDA. EDMUNDO";;;"(57) (2) 7235291";"Manz 5 Casa 10 Altos de la Colina Colombia, Pasto"
"CONSTRUCTORA QUIROZ";;;"(57) (5) 3802101";"Cl 3 51 B-185 Vía Puerto Colombia Colombia, Barranquilla"
"CONSTRU RICHAR";;;"(57) (4) 4068429";"Cr21 4-397 Barbosa Colombia, Medellín"
"HYDROCHINA S.A.S";;;"(57) (1) 6115804";"Cr10 83-73 Ap 302 Colombia, Bogotá"
"CONSTRUCTORA & INVERSORA INEMCO LTDA";;;"(57) (1) 4752480";"Cr19 84-41 Colombia, Bogotá"
"INGENIERÍA Y CONSTRUCCIONES SION LTDA.";;;"(57) (2) 6688416";"Cl 37 N 2 B N-194 Colombia, Cali"
PROBISERVI;;;"(57) (4) 5532265";"Cr21 18-36 La Ceja Colombia, La Ceja"
"INMOBILIARIA F.B.";;;"(57) (7) 7244844";"Cr9 11-32 Colombia, San Gil"
"GÓMEZ INGENIEROS CONSTRUCTORES S.A.S.";;;"(57) (8) 2745510";"Cr5 Cl 63 Mod T Of A-8 C.C. Arkacentro Colombia, Ibagué"
"GARCÍA RODRÍGUEZ & CÍA. LTDA. (GRYCO)";;;"(57) (2) 2817037";"C.C. Llanogrande L-800 Colombia, Palmira"
"CONSTRUCTORA ZONA FRANCA DE OCCIDENTE LTDA.";;;"(57) (2) 4417791";"Cr12 49-07 Colombia, Cali"
"CONSTRUCTORA INVERSIONES VELAR S.A.";;;"(57) (2) 3158201";"Cr72 13 A-81 Colombia, Cali"
"ARQUITECTO H.F.L.";;;"(57) (2) 3281397";"Cr46 38 A-02 L-101 Colombia, Cali"
"A.C. TANGIBLES";;;"(57) (2) 3372653";"Cl 23 36 B-42 Colombia, Cali"
"GRUPO SAN SIMÓN S.A.S.";;;"Nal: (57) (4) 3793186";"Cl 38 A S 36-31 Envigado Colombia, Medellín"
"PLOMEROS A.ABAE CAÑERÍAS";;;"(57) (2) 3286969";"Cl 43 49 C-13 Colombia, Cali"
"DECORAMOS SU APARTAMENTO";;;"(57) (2) 3251763";"Cr41 A 29-08 Colombia, Cali"
"CONSTRUCTORA SERVING S.A.";;;"(57) (4) 5313969";"Cl 49 50-59 Int 414 Colombia, Rionegro"
"ARQUITRANS S.A.S.";;;"(57) (4) 2506416";"Cl 47 72 B-31 Int 101 Colombia, Medellín"
"DAVIVIR E.U";;;"(57) (1) 4160211";"Av (cl) 26 69 D 91 Of 801 Colombia, Bogotá"
"UTESCO LTDA.";;;"(57) (7) 5741170";"Av Gran Colombia 6 E-113 P-2 Colombia, Cúcuta"
"CONSTRUCTORA ENTRE VERDES S.A.S";;;"Conm.: (57) (4) 2662880";"Cl 12 43 F-03 Colombia, Medellín"
"GRUPO SIETE S.A.S";;;"(57) (1) 6771229";"Av (cl) 161 16 A 25 Colombia, Bogotá"
"INGENIEROS CALDERÓN Y JARAMILLO S.A.";;;"Conm.: (57) (6) 8810251";"Cr21 58-54 Los Rosales Colombia, Manizales"
"CONSTRUCTORA ELEVE S.A.S";;;"(57) (1) 4028071";"Cl 24 D 80 C-31 Colombia, Bogotá"
"CONTECSA S.A";;;"(57) (2) 8246160";"Cl 80 N 7-76 Colombia, Popayán"
"OCASAS COMPAÑIA LTDA.";;;"(57) (1) 6290480";"Cr9 B 125-33 Colombia, Bogotá"
"TITULOS Y DESARROLLOS INMOBILIARIOS S.A.S.";;;"Telefax: (57) (1) 6232483";"Cl 95 15 - 33 Of 505 Colombia, Bogotá"
"CONSTRUCTORA SOLIDARIOS LTDA.";;;"(57) (1) 5603996";"Cr19 12-87 P-3 Of-M-6 Colombia, Bogotá"
"XYON CONSTRUCTORA";;;"(57) (5) 6560711";"Cl 70 6-99 Colombia, Cartagena"
"First Name";"Email Address";Url;Telephone;Address
"CONSTRUCTORA COLINAS DEL ESTE";;;"(57) (1) 2103138";"Tr1 A 57-27 Colombia, Bogotá"
"INGEINCO S.A.S.";;;"(57) (8) 6629354";"Cl 38 33 A-14 Centro Colombia, Villavicencio"
"GRAICO LTDA.";;;"(57) (1) 6109907";"Cr 19 C 86-30 Of-501 Colombia, Bogotá"
"CONSTRUCTORA CAICEDO HERMANOS S.A.";;;"(57) (2) 8232366";"Cl 34 N 12-08 Colombia, Popayán"
SERVIVIENDA;;;"(57) (28) 1000000";"Popayán Colombia, Santander de Quilichao"
CONMEZCLAS;;;"(57) (4) 4667575";"Cl 52 50-07 Int 301 Bello Colombia, Bello"
"CONSTRUCCIÓN SUMINISTROS Y SERVICIOS INDUSTRIALES DEL NORTE CSSI S.A.S.";;;"Telefax: (57) (7) 5838301";"Cl 11 4-74 Of 402 Colombia, Cúcuta"
"CIMECEL LTDA.";;;"(57) (1) 2104725";"Cr13 61-47 L-307 Colombia, Bogotá"
"CONSTRUCTORA CMT Y CIA. LTDA.";;;"(57) (8) 6632361";"Centro Comercial Villacentro B-A Of 301 Colombia, Villavicencio"
"CONSTRUCTORA NACIONAL S.A.";;;"(57) (4) 3124149";"Cl 7 39-215 Of 306 Colombia, Medellín"
"HERNANDEZ JORGE A.";;;"(57) (4) 3610840";"Cl 9 54-87 Colombia, Medellín"
"M.C OBRAS CIVILES";;;"(57) (4) 3771474";"Cl 70 51-17 Itagüí Colombia, Itagüí"
"CONSTRUCCIONES J E L S.A.S.";;;"(57) (4) 2133293";"Cl 69 36-07 Colombia, Medellín"
"MARIO VIEIRA Y CÍA. LTDA.";;;"(57) (1) 2585392";"Cl 127 B 43-62 Colombia, Bogotá"
KADAS.S.A;;;"(57) (1) 6787057";"Avenida Cr 7 No 166-04 Colombia, Bogotá"
"ALPA CONSTRUCCIONES LTDA";;;"(57) (7) 6575032";"Cl 50 25-58 Of 401 Nuevo Sotomayor Colombia, Bucaramanga"
"INGENIEROS CIVILES DE LA COSTA LTDA.";;;"(57) (5) 4200556";"Cr19 5 A-18 Almendros Colombia, Santa Marta"
"MANDAL CONSTRUCCIONES";;;"(57) (1) 2130114";"Cr8 A 108 A-36 Colombia, Bogotá"
"CONSTRUCTORA MP LTDA.";;;"(57) (1) 6155960";"Av (Cl) 127 13A-54 Of 501 Colombia, Bogotá"
"CONSTRUCCIONES E.P.C. LTDA.";;;"(57) (5) 3621472";"Cr11 33-25 Colombia, Barranquilla"
"ACUSTICA ARQUITECTONICA";;;"(57) (5) 3730174";"Cr65 80-25 Colombia, Barranquilla"
"INVERSIONES AGROINDUSTRIALES EL PARAISO S.A.S. IAP S.A.S.";;;"(57) (1) 3795535";"Cr47 91-33 Colombia, Bogotá"
"LTM3 S.A.S.";;;"(57) (1) 7957780";"Cr10 80-30 Colombia, Bogotá"
"GRAMA CONSTRUCCIONES S.A.";;;"(57) (5) 3780099";"Cl 93 43-180 Colombia, Barranquilla"
"CONSTRUCTORA PESO";;;"(57) (4) 2312512";"Cr46 54-89 Of 315 Colombia, Medellín"
"INVERSIONES GOVALUNA S.A.S.";;;"(57) (6) 3243214";"Cr7 16-50 Of 203 Edif Cámara de Comercio Colombia, Pereira"
"RW CONSTRUCTORES S A";;;"Telefax: (57) (5) 3689825";"Cl 76 48-47 Of 205-206 Colombia, Barranquilla"
"CONSTRUCCIONES G JULIO S.A.S";;;"(57) (2) 5145662";"Cl 8 28-44 Colombia, Cali"
"CODICOL LTDA.";;;"(57) (1) 2531263";"Cr68 D 94 A-05 Colombia, Bogotá"
"AGUA BOMBAS Y EQUIPOS";;;"Nal: (57) (1) 6887873";"Cr110 123-10 Colombia, Bogotá"
"ANNEXAR S.A.S.";;;"Telefax: (57) (5) 3198574";"Cl 85 45-47 Colombia, Barranquilla"
"CONSTRUCCIONES Y ACABADOS JUAN CASTILLO";;;"(57) 3146548634";"Cl 126 28D4-16 Colombia, Cali"
"PROCIVCO DE COLOMBIA S.A.S.";;;"(57) (1) 6044675";"Cl 72 10-70 Trr A Of 1004 Colombia, Bogotá"
"MARCA CONSTRUCTORES LTDA.";;;"(57) (1) 6717503";"Cr67 167-61 Of 518 Colombia, Bogotá"
"DESARROLLOS URBANOS S.A.S.";;;"(57) (1) 7557446";"Cr67 167-61 Of 405 Colombia, Bogotá"
"UNICA PROYECTOS LTDA.";;;"(57) (1) 3475122";"Cl 72 12-65 Colombia, Bogotá"
"CONSORCIO TDF";;;"(57) (1) 3721898";"Cr10 C 31-60 S Colombia, Bogotá"
"ALEJANDRO CHAR & CÍA. INGENIEROS CONSTRUCTORES";;;"(57) (5) 3608081";"Cr43 75 B-187 P-2 Colombia, Barranquilla"
"VICTORIA ADMINISTRADORES";;;"(57) (2) 7311567";"C.C. Valle de Atriz L-213 Colombia, Pasto"
"CONSTRUIR LTDA.";;;"(57) (2) 2122574";"Cl 13 1 N-29 Colombia, Cartago"
"First Name";"Email Address";Url;Telephone;Address
"CONSTRUCTORA VITALIANO S.A.S.";;;"Telefax: (57) (1) 2503250";"Cl 79 68 G - 68 Colombia, Bogotá"
"PROMOTORA DE INVERSIONES SAN PEDRO S.A.S.";;;"Telefax: (57) (1) 2572143";"Cl 82 11 - 37 Of 207 Colombia, Bogotá"
"CONSTRUSAR LTDA.";;;"(57) (1) 6159949";"Cl 127 BBis 49-13 Colombia, Bogotá"
"CONSTRUCCIONES Y SERVICIOS DEL VALLE";;;"(57) (2) 3739354";"Cr73 3 A-46 Colombia, Cali"
"DE LA HOZ BRATFORD & PEÑARANDA CIA LTDA";;;"(57) (1) 6570659";"Cr 7 121-20 L.103 Colombia, Bogotá"
"I.P. CONSTRUCCIONES E.U.";;;"(57) (2) 3158775";"Cr85 E 42-50 Of 604 C Colombia, Cali"
"OV CONSTRUCTORA LTDA.";;;"(57) (6) 3161205";"Cr12 12-08 Colombia, Pereira"
"CONSORCIO INME CONSTRUCCIONES";;;"(57) (2) 6696896";"Cl 7 7-15 Yumbo Colombia, Yumbo"
"AM CONSTRUCTORES S.A.";;;"(57) (1) 7498265";"Cr15 98-26 Of 301A Colombia, Bogotá"
"CONSTRUCTORA SERBIA";;;"(57) (4) 2505403";"Cl 35 76-45 Colombia, Medellín"
"CONFINEZZA S.A.";;;"(57) (2) 6843434";"Cl 58 1 N-151 Colombia, Cali"
"OSMARES & CÍA LTDA.";;;"(57) (2) 5242324";"Av5 A N 17-98 Of 601 Colombia, Cali"
"CONCRETESA S.A.";;;"(57) (2) 4854185";"Cl 18 N 9 N 73 Colombia, Cali"
"CONSTRUTODO SAN CAYETANO";;;"(57) (4) 5535676";"Cr17 25-79 La Ceja Colombia, Medellín"
"GIRALDO & SALAZAR ARQUITECTOS LTDA.";;;"(57) (2) 6604318";"Av5 N 22-24 Of 501 Colombia, Cali"
"ARAGON CONSTRUCTORA Y CÍA. S.C.S.";;;"(57) (2) 2755771";"Cr26 15 A-18 Colombia, Palmira"
"MUTTUO ESTUDIO DE DISEÑO S.A.S.";;;"(57) (4) 5704750";"Cr83 A 32 EE-45 Colombia, Medellín"
"CONSTRUIR MULTISERVICIOS E.A.T.";;;"(57) (2) 6694913";"Cl 5 9-38 Yumbo Colombia, Yumbo"
"CONSTRUCTORA A&C";;;"(57) (7) 6423031";"Cr19 36-20 Of 603 Colombia, Bucaramanga"
"PERUSSI LTDA.";;;"(57) (7) 6344393";"Cr24 7-26 Colombia, Bucaramanga"
"SIGMA CONSTRUCCIONES CIVILES S.A.S";;;"Nal: (57) (4) 2624655";"Cr51 41 - 222 Int 504 Colombia, Medellín"
"CONSTRUCCIONES M2";;;"(57) (2) 3236501";"Cr75 Oe 2C4-31 Colombia, Cali"
"C T INGENIERIA S.A.S";;;"(57) (2) 2107192";"Cr1 10-14 Colombia, Cartago"
"CONINCON LTDA";;;"(57) (1) 5312978";"Cl 94 16-09 Ap 503 Colombia, Bogotá"
"METRO INGENIERÍA S.A.S.";;;"(57) (7) 6571116";"Cr29 45-45 Of 1302 Edif Metropolitan Business Park Colombia, Bucaramanga"
"CASTELLANOS VARGAS CONSTRUCCIONES S.A.S";;;"(57) (2) 3232821";"Cr67 1 B-34 Colombia, Cali"
"V. M. CONSTRUCCIONES LTDA.";;;"Conm.: (57) (1) 6214066";"Cr11 A 94 A 31 Of 408 Colombia, Bogotá"
"INCOELSA S.A.S";;;"(57) (1) 8661484";"Cr6 4-14 Of 203 Cajicá Colombia, Bogotá"
"SOCIEDAD ESPACIO Y DISEÑO CONSTRUCCIONES S.A.";;;"(57) (6) 3257931";"Cr13 11-80 Of 1001 Edif Capitol Colombia, Pereira"
"PROVALOR PROYECTOS CON VALOR S.A.S";;;"(57) (1) 6361857";"Cr19 A 90-13 Of 504 Colombia, Bogotá"
"CONSTRUCCIONES SERGIO NIÑO";;;"(57) (7) 6590566";"Cl 16 29-80 Sta Cruz Girón Colombia, Girón"
"BC INGENIEROS LTDA.";;;"(57) (5) 3790514";"Cl 65 39 B-81 Colombia, Barranquilla"
"MONTANGO S.A.";;;"(57) (2) 4052063";"Av 9 An 9-40 Of 201 Colombia, Cali"
"INMOBILIARIA AMPRO";;;"(57) (7) 6487046";"Parag·itas Real III Casa 89 Floridablanca Colombia, Floridablanca"
"VIVIENDA INDUSTRIALIZADA DE SANTANDER LTDA. VISA LTDA.";;;"(57) (7) 6345338";"Cr27 36-14 Of 507 Colombia, Bucaramanga"
DISHIART;;;"(57) (8) 2646408";"Cr3 27-90 Colombia, Ibagué"
"GUERRA DE LA ROSA MAURICIO";;;"(57) (2) 7238548";"Edif Pasto Plaza Of 310 Colombia, Pasto"
"CONSTRUCCIONES TRAMA URBANA";;;"(57) (7) 6471846";"Cl 44 37-14 Colombia, Bucaramanga"
"CONCORDIA CONSTRUCTORES";;;"(57) (2) 7238136";"Cr31 A 3 Oe-40 El Bosque Colombia, Pasto"
"URBANSA S.A.";;;"(57) (1) 6280166";"Cr12 98-35 P-5 Colombia, Bogotá"
"First Name";"Email Address";Url;Telephone;Address
"CONSTRU INNOVA";;;"(57) (7) 6994970";"Cr25 19-30 Of 701 Colombia, Bucaramanga"
"P R V ASOCIADOS LTDA.";;;"(57) (1) 2358994";"Cr 7 79 B - 15 Of 303 Colombia, Bogotá"
"MÈTODO CONSTRUCTIVO";;;"(57) (4) 3772739";"Cl 29 A 42-97 Casa 166 Itagui Colombia, Itagüí"
INGERCONST;;;"(57) (4) 2513064";"Cr49 49-73 Of 906 Colombia, Medellín"
"PROMOTORA LOMALINDA S.A.S";;;"Conm.: (57) (4) 2665433";"Cl 10 B 35-27 Colombia, Medellín"
"INSCO LTDA.";;;"Telefax: (57) (1) 6367230";"Cl 94 A 11 A-32 Of 404 Colombia, Bogotá"
"DISEÑOS INTEGRADOS LTDA";;;"(57) (1) 6138717";"Cl 117 70C - 60 Colombia, Bogotá"
MADERFINC;;;"(57) (4) 3128341";"Cl 10 43 C-52 Colombia, Medellín"
"CAMACOL NARIÑO";;;"(57) (2) 7315143";"Cl 18 28-84 Of 403 Edif Cámara de Comercio Colombia, Pasto"
"GRAICO LTDA.";;;"(57) (1) 6109907";"Cr 19 C 86-30 Of-501 Colombia, Bogotá"
"B & A CONSTRUCCIONES LTDA.";;;"Telefax: (57) (7) 5843512";"C.C. BolÚvar L- B-17-D Colombia, Cúcuta"
"J Y F";;;"(57) (4) 2759550";"Cl 52 51-37 Colombia, Medellín"
"CONSTRUCTORA PLANETA";;;"(57) (5) 6533516";"Cr69 31-139 Of 226-A C.C. Ronda Real Colombia, Cartagena"
"ABELARDO RUIZ";;;"(57) (4) 4440680";"Cr54 75 AA S-16 Int 162 La Estrella Colombia, Medellín"
"KUBIKO CARPINTERÍA Y ARQUITECTURA";;;"(57) (6) 7330359";"Av Centenario 2-56 Of 309 Colombia, Armenia"
"CASACTIVA S.A.S";;;"(57) (1) 6377440";"Cr14 119-89 Colombia, Bogotá"
"CONSTRUCTORA COIMBRA S.A.";;;"(57) (1) 6102016";"Auto Norte 104a-47 Colombia, Bogotá"
"CONSTRUTORA SANTA LUCIA";;;"(57) (8) 8777139";"Cl 18 41-114 Colombia, Neiva"
"UMAÑA GOMEZ & CIA. S.A.S.";;;"(57) (5) 3854230";"Av Circunvalar Cl 110 6 QSN-522 Bdg 16-1 Colombia, Barranquilla"
"URBE CONSTRUCCIONES";;;"(57) (6) 7454095";"Cr20 11-97 Colombia, Armenia"
"CUMBRIA CONSTRUCTORA S.A.S.";;;"(57) (1) 6101648";"Cr16 A 78-55 Of 305 Colombia, Bogotá"
"RCA INGENIEROS CONSTRUCCIONES S.A.S.";;;"(57) (4) 3347103";"Tv32 S 32-47 Colombia, Medellín"
"TERRITORIO S.A C.I";;;"(57) (1) 4008091";"Cl 85 21-31 Of 301 Colombia, Bogotá"
"CONSTRUCTORA SANTA CLARA S.A.";;;"(57) (1) 2551200";"Cl 72 5 83 P-2 Of 203 Colombia, Bogotá"
"CERÓN LEONARDO";;;"(57) 3206810549";"Cr6 9-39 Brr El Empedrado Colombia, Popayán"
"VELANDIA LEONEL";;;"Conm.: (57) (1) 2556100";"Cr9 61-81 Of 601 Colombia, Bogotá"
"CONTRUCTORA SIERRADENTRO";;;"(57) (5) 4202220";"Cl 23 6-18 La Esperanza Colombia, Santa Marta"
"CONSTRUCTORA TECHO";;;"(57) (2) 2110244";"Cr 7 10-83 Colombia, Cartago"
INDUMETOCA;;;"(57) (1) 8785051";"Cl 9 5-45 Tocancipá Colombia, Bogotá"
"R R D SOLUCIONES S.A.S.";;;"Telefax: (57) (1) 2789000";"Cl 40 I S 12 J - 49 Colombia, Bogotá"
"I.P. CONSTRUCCIONES E.U.";;;"(57) (2) 3158775";"Cr85 E 42-50 Of 604 C Colombia, Cali"
"D & F CONSTRUCTORES";;;"(57) (2) 3392749";"Cr75 9-95 Colombia, Cali"
"TRAZADO INMOBILIARIO S.A.S.";;;"Conm.: (57) (4) 3111719";"Cr43 A 1-85 Of 814 Colombia, Medellín"
"CONTRUCTORA BOLÍVAR CALI S.A.";;;"(57) (2) 6659948";"Cl 52N Con Av 5BN Colombia, Cali"
"BARCO Y HENAO CONSTRUCTORES S.A.S";;;"Nal: (57) (4) 2609952";"Cr 66 42 - 60 Int 503 Colombia, Medellín"
"OSPINA Y CARDENAS E.U.";;;"(57) (2) 4383752";"Cr28 A 50-54 Colombia, Cali"
"PARQUE CAÑASGORDAS S.A.";;;"(57) (2) 5554551";"Cl 18 118-241 Colombia, Cali"
"ROKAS LTDA.";;;"(57) (8) 2740698";"C.C. Arkacentro L-E-2 B-30 Colombia, Ibagué"
"INVERSIONES TORCOROMA SIGLO XXI S.A";;;"(57) (7) 5741244";"Av3 E 7 A-09 Popular Colombia, Cúcuta"
"INMOBILIARIA URBANOS & RURALES";;;"(57) (7) 5760213";"Av3 14-70 San Luis Colombia, Cúcuta"
"First Name";"Email Address";Url;Telephone;Address
"ARISTA ARQUITECTURA & INGENIERIA S.A.S.";;;"(57) (5) 2817130";"Cl 32 4 E-08 Colombia, Sincelejo"
"ALVAREZ DEL PINO DANIEL";;;"(57) (2) 6654863";"Av2 G N 52 A-77 Ap 201-A Colombia, Cali"
"HUGO CALDERÓN Y CÍA LTDA.";;;"(57) (2) 6836797";"Cl 49 N 6 N-250 Colombia, Cali"
"KLAHR ASTORIA CONSTRUCTORES S.A.";;;"(57) (2) 6673044";"Cl 5 N 1 N-95 Colombia, Cali"
"CONSTRUCCIONES ANTONIO CORTÉS E.U.";;;"(57) (2) 4369147";"Cl 81 28D2-10 P-2 Colombia, Cali"
"J.J. BERNAL S. CONSTRUCCIONES LTDA.";;;"(57) (2) 4466396";"Cr5 N 64 N-12 P-3 Colombia, Cali"
"CONSTRUCCIÒN Y PROYECTOS";;;"(57) (4) 4123197";"Cr84 43-36 Of 106 Colombia, Medellín"
"CR CONSTRUCTORA EL ROBLE S.A.S";;;"(57) (4) 6041852";"Cr43 A 1-50 Of 403 Colombia, Medellín"
"PROMOTORA BIANCO S.A.S";;;"(57) (4) 3540906";"Cr40 10-35 Colombia, Medellín"
"TORRES ASOCIADOS ACEDIET LTDA";;;"(57) (7) 5727419";"Cl11 4-74 Of201 Centro Colombia, Cúcuta"
"BUEN VIVIR CIA. CONSTRUCCIONES LTDA.";;;"(57) (6) 3314975";"Cr15 4-50 L-101 Molinos de Aragón Colombia, Pereira"
"CONSORCIO TIGER SETAM";;;"(57) (5) 6552687";"Castgde Cl 5 A 8-32 Av Piñango Colombia, Cartagena"
"CONSTRUCTORA MANIZALES S.A.";;;"(57) (6) 8848682";"Cl 22 21-48 Of 203 Centro Colombia, Manizales"
"ADMINISTRACIÓN INMOBILIARIA M&M S.A.S.";;;"Telefax: (57) (1) 6165547";"Cl 93 A 11 - 07 Of 302 Colombia, Bogotá"
"CONSTRUALIADO ALARCON MORA S.A.S.";;;"Telefax: (57) (1) 6792270";"Dg182 20 - 91 Of 222-A Colombia, Bogotá"
"RUGE SOTELO ISRAEL";;;"(57) (1) 2104458";"Cr24 63 C-28 Of 501 Colombia, Bogotá"
AIRAVATA;;;"(57) (1) 2687664";"Cr42 C 22 A-80 Ap 601 Colombia, Bogotá"
"CRYSTAL TOWERS";;;"(57) (1) 6201707";"Cl 122 7 A-18 Ap 401 Colombia, Bogotá"
"INVERSIONES OSPAR LTDA.";;;"(57) (1) 2855059";"Cl 44 7-48 Of 801 Colombia, Bogotá"
"SERVINGENIERÍA LTDA.";;;"(57) (5) 4214248";"Cl 30 4-53 Manzanares Colombia, Santa Marta"
"ENCHAPES VR S.A.S.";;;"Telefax: (57) (1) 6745142";"Cr7 H 153 A - 45 Colombia, Bogotá"
"SÍNTESIS ARQUITECTOS S.A.S.";;;"Telefax: (57) (1) 6166577";"Cl 86 10 - 88 Of 801 Colombia, Bogotá"
"DISSER INGENIERÍA";;;"Telefax: (57) (1) 2125862";"Cl 64 10-45 Int 102 Colombia, Bogotá"
"CONSTRUCTORA BOSQUES MARIANA";;;"(57) (1) 6420991";"Cr10 90-39 Ap 302 Colombia, Bogotá"
"DECORACIONES MEYER S.A.S.";;;"Telefax: (57) (1) 4756846";"Cr90 6 D - 50 Casa 155 Colombia, Bogotá"
"CONSTRUCTORA SAN DIEGO MILENIO S.A.";;;"(57) (1) 3612944";"Cr5 A 31-07 S Colombia, Bogotá"
"CHM CONSTRUCTORES ASOCIADOS LTDA.";;;"(57) (1) 2919184";"Dg88 B 81 A-18 Colombia, Bogotá"
"CONSTRUCTORA SENERCO LTDA.";;;"(57) (2) 7239154";"Cr24 17-75 Of 602 Edif Concasa Colombia, Pasto"
"TRESPALACIOS PEDROZO ALFREDO";;;"(57) (1) 4093451";"Cl 4 36-70 Trr F Ap 314 Colombia, Bogotá"
"JIMÉNEZ INGENIERÍA LTDA.";;;"(57) (5) 7288504";"Cl 11 5-51 Of 1 P-3 Centro Colombia, Riohacha"
"CORPOINGENIAR PROY";;;"(57) (1) 7021816";"Av. Boyacá 64 C-38 P-2 Colombia, Bogotá"
"CONCREPLÁS BENÍTEZ LTDA";;;"(57) (1) 2261737";"Cr70 C 102-15 Colombia, Bogotá"
"ORTIZ GALLEGO LUIS EUDES";;;"(57) (4) 2854691";"Cr81 A 50-11 Int 201 Colombia, Medellín"
"LOS CASTORES CONSTRUCTORES LTDA";;;"(57) (4) 2506092";"Cl 32 B 79 A-39 Colombia, Medellín"
"REFORMAS Y CONTRATOS HUGO BEDOYA";;;"(57) (4) 2381090";"Cr84 21-31 Ap 218 Colombia, Medellín"
"COMPAÑIA DE ASESORIAS Y CONSTRUCCIÓN";;;"(57) (4) 3193770";"Cl 6 43 C-8 Of-203 Colombia, Medellín"
"CONSTRUVELÁSQUEZ E.U.";;;"(57) 3207979485";". Colombia, Medellín"
"URBANIZADORA MP S.A.";;;"(57) (4) 3345708";"Cr48 10-45 Int 954 Colombia, Medellín"
"ALIRIO HOYOS SÁNCHEZ CONSTRUCCIONES";;;"(57) (4) 5134648";"Cr50 51 A-27 Of 401 Colombia, Medellín"
"CÉSPEDES DIEGO";;;"(57) (4) 2660514";"Cl 5 C 36 B-50 Trr 2 Ap 402 Colombia, Medellín"
"First Name";"Email Address";Url;Telephone;Address
"OBRAS Y SISTEMAS LTDA.";;;"(57) (1) 4790844";"Av15 118-45 L-3 Colombia, Bogotá"
"R.D.A.C. MONTAJES Y CONSTRUCCIONES";;;"(57) (4) 4537267";"Av 32 57-112 Bello Colombia, Bello"
"ASOCIACIÓN DE VIVIENDA CHUIRA";;;"(57) (8) 8760653";"Cl 76 1 D-48 Colombia, Neiva"
"CONSTRUCTORA NORBERTO ODEBRECHT S.A.";;;"(57) (1) 6216218";"Av15 100-69 Of 603 Colombia, Bogotá"
"REDICON LTDA";;;"(57) (1) 3478118";"Cl 57 18-22 Of 604 Colombia, Bogotá"
"PROMOTORA ENTORNO 2000 LTDA.";;;"Conm.: (57) (1) 6735032";"Cr7 156-80 Of 1501 Colombia, Bogotá"
"CONSTRUCTORA INMOBILIARIA MEGO LTDA.";;;"(57) (5) 3565963";"Cr53 68 B-57 Of 217 Colombia, Barranquilla"
"GRUPO INNOVA";;;"(57) 3104220596";"Vía Edén Km 7 Colombia, Armenia"
"PROCICON LTDA";;;"(57) (5) 3690558";"Cr62 64-104 Colombia, Barranquilla"
"CUMBRIA CONSTRUCTORA S.A.S.";;;"(57) (1) 6101648";"Cr16 A 78-55 Of 305 Colombia, Bogotá"
"CONSTRUIR HERMANOS";;;"(57) 3117855067";"Cr6 Cl 17 N Esq Colombia, Armenia"
"CONSTRU C.E.M. LTDA.";;;"(57) (5) 3566014";"Cr51 75-145 Colombia, Barranquilla"
"FININVERCO LTDA.";;;"(57) (5) 3588655";"Cl 72 56-70 Of 403 Colombia, Barranquilla"
"INVERSIONES CONTEX S.A.";;;"Conm.: (57) (4) 5372200";"Km 6 Vía LLano Grande Colombia, Medellín"
"I.C. PREFABLICADOS S.A.";;;"(57) (2) 6856500";"Cl 38 N 4 AN-07 Colombia, Cali"
"CONSTRUCTORES E INTERVENTORES LTDA.";;;"Telefax: (57) (5) 3785636";"Cl 108 49 E-11 Colombia, Barranquilla"
"CONSTRUCTORES GAÑÁN & GÓMEZ";;;"(57) (4) 3545426";"Cl 13 S 51 C-36 Colombia, Medellín"
"ROOSIRI S.A.";;;"(57) (1) 6347503";"Cr19 82-33 Of 601 Colombia, Bogotá"
"CONSTRUYA LTDA.";;;"(57) (4) 2319814";"Cl 52 A 50-46 Of 329 Colombia, Medellín"
"RIVERA SIERRA JHON FELIPE";;;"(57) 3133316020";"Cr25C 76-14 Uribe II Cuba Colombia, Pereira"
"MERLOT & CÍA LTDA.";;;"(57) (5) 3444149";"Cr54 55-39 Of 201 Colombia, Barranquilla"
"CONSTRUCTORA CONMAN LTDA.";;;"(57) (5) 3593714";"Cr42 B 84-213 Colombia, Barranquilla"
"OHL COLOMBIA LTDA";;;"(57) (1) 6296369";"Av (Cr) 9 113-52 Of 402 Colombia, Bogotá"
"SERVICIOS INTEGRALES DE CONSTRUCCIÓN ANDINA SERINCOL";;;"(57) (5) 3523681";"Cr26 D 75 C-34 Silencio Colombia, Barranquilla"
"ORBE S.A. CONSTRUCCIONES";;;"(57) (5) 5712062";"Cl 12 8-42 Of 221 Orbe Plaza Centro de Negocios Colombia, Valledupar"
"CONSTRUINVERSIONES NEPAL S.A.";;;"(57) (1) 6292092";"Cl 114 9-01 Trr A Of 904 Colombia, Bogotá"
"MEGATERRA GRUPO DE INVERSIÓN Y CONSTRUCCIÓN";;;"(57) (1) 3460707";"Cl 72 6-30 Of-1001 Colombia, Bogotá"
"DMC Y LOZANO CONSTRUCCIONES S.A.S.";;;"Telefax: (57) (1) 2181141";"Cl 100 11 A - 07 Ap 302 Colombia, Bogotá"
"KSALULA GRUPO INMOBILIARIO S.A.S.";;;"Telefax: (57) (1) 5267310";"Cl 164 17 - 67 B-04 Of 113 Colombia, Bogotá"
"PROMOTORA BAMBU S.A.S.";;;"Telefax: (57) (1) 2130105";"Cl 117 11 A - 62 Colombia, Bogotá"
"ICONO URBANO S.A.";;;"(57) (1) 6184060";"Cl 98 8-28 Of 403 Colombia, Bogotá"
"OBRAS Y PROYECTOS Y CÍA. LTDA.";;;"Conm.: (57) (1) 3451600";"Cr12 70 A-37 Colombia, Bogotá"
"CORPORACIÓN DIOCESANA";;;"(57) (2) 2113124";"Cr4 13-64 Colombia, Cartago"
"HENAO Y NARANJO INGENIERÍA INTEGRAL S.A.S.";;;"Telefax: (57) (1) 2371379";"Cl 5 C 41 - 12 Colombia, Bogotá"
"WMR ARQUITECTURA S.A.S";;;"Telefax: (57) (1) 2219378";"Cr30 55 - 05 Of 103 Colombia, Bogotá"
"ERIRA HÉCTOR";;;"(57) (1) 2849463";"Cr7 22-31 Of 210 Colombia, Bogotá"
"AC CONSTRUCTORA S.A.S.";;;"Telefax: (57) (1) 6709150";"Cl 155 A 4 - 06 Ap 301 Colombia, Bogotá"
"CONSTRUCTORA SORIANO DEL TORO";;;"(57) (6) 7450895";"Cl 2 N 18-209 L-1 Colombia, Armenia"
"INGENIERÚA Y SERVICIOS D Y C LTDA.";;;"(57) (1) 4711971";"Cr24 B 31 B 88 S Colombia, Bogotá"
"LOSADA Y LOSADA CONSTRUCTORES LTDA.";;;"(57) (2) 2365132";"Cl 13 S 8-87 Of 102 Colombia, Buga"
"First Name";"Email Address";Url;Telephone;Address
"G S A TECHNOLOGIES S A";;;"(57) (1) 5233858";"Cr13 N 96-82 Of 401 Colombia, Bogotá"
"CONSTRUCTORA NEMESIS S.A.";;;"(57) (1) 2121111";"Cl 71 13-66 Colombia, Bogotá"
"INVERSIONES LOMITA NUEVA";;;"(57) (7) 5713018";"Cl 10 5-50 Of 506 Centro Colombia, Cúcuta"
"ARTE VITRAL Y ARQUITECTURA";;;"(57) (2) 6654281";"Av3 H N 44 N-85 Colombia, Cali"
"CONSTRUCCIONES S.Y.";;;"(57) (2) 6638630";"Cr26 M Dg 70-09 Colombia, Cali"
"CONSTRUCTORA LUIS ARMANDO GOMEZ";;;"(57) (7) 6577842";"Cr46 55-56 Terrazas Colombia, Bucaramanga"
"INVERSIONES Y PROMOCIONES HUILA LTDA.";;;"(57) (8) 8710811";"Cl 11 4-01 Colombia, Neiva"
"INGENIERÍA Y DOTACIONES INDUSTRIALES LTDA.";;;"(57) (8) 8623092";"Cr1 A 36-24 Colombia, Neiva"
"BE HOUSE S.A.S";;;"(57) (4) 3666046";"Cr37 2 S-15 Pobaldo Colombia, Medellín"
"VILLARREAL CONSTRUCTORA E INMOBILIARIA LTDA.";;;"(57) (2) 4046095";"Av5 23 D N-93 L-7 Colombia, Cali"
"ACONDICIONAMIENTO ALIADAS MEGAGAS";;;"(57) (4) 4443480";"Cl 98 73-25 Colombia, Medellín"
"SOTO GAITÁN CARLOS ALBERTO";;;"(57) (7) 5714315";"Cl 11 A 1 E-63 Ap 602 Edif Dorado Caobos Colombia, Cúcuta"
"V & S INGENIERÍA LTDA.";;;"(57) (8) 6827786";"Cl 40 32-50 Of 607 Centro Colombia, Villavicencio"
"INVERSIONES SIBERIA S.A";;;"(57) (1) 3176770";"Cr7 74-56 P-13 Colombia, Bogotá"
"CONSTRUCTORA ZICAVAL";;;"(57) (1) 5235160";"Dg109 18 C-17 Of 313 Colombia, Bogotá"
"AKISSA S.A.S";;;"(57) (4) 2668660";"Cr43 A 16 A S-38 Ap 1201 Colombia, Medellín"
"ANTONIO HOLGUÚN RODRÚGUEZ E.U.";;;"(57) (1) 7043538";"Cr68 H 65-09 Colombia, Bogotá"
"SEGURIDAD INDUSTRIAL Y CONSTRUCCIÓN LTDA. INSECK LTDA.";;;"(57) (5) 3023890";"Cr58 90-75 Colombia, Barranquilla"
"ARQUITECTURA Y SUMINISTROS LTDA.";;;"Telefax: (57) (1) 2730319";"Cl 40 C S 78 B - 18 Colombia, Bogotá"
"IES DE OCCIDENTE S.A.";;;"(57) (2) 5240041";"Cr34 3-89 P-3 Colombia, Cali"
"LFG SERVICIOS Y MONTAJES S.A.S";;;"Nal: (57) (4) 4440976";"Cl 36 A S 46 A-810 Int 241 Colombia, Medellín"
"RUBIO CALDERÓN JORGE EDGAR";;;"(57) 3115326875";"Cr3 8-55 Colombia, Ibagué"
"CUSEZAR S.A.";;;"(57) (1) 6516066";"Av (Cl) 116 7–15 Int 2 P-15 Colombia, Bogotá"
"HYDRA INGENIERIA";;;"(57) (4) 4143344";".cl 32 D 75 B 16 Colombia, Medellín"
"INVERMERC LTDA.";;;"(57) (1) 6150142";"Cr46 152-46 L-175 C.C. Mazurén Colombia, Bogotá"
"GUTÍERREZ CONSTRUCCINES";;;"(57) (1) 2981765";"Cr114 A 22 D-09 Colombia, Bogotá"
"COR INGENIEROS LTDA";;;"(57) (1) 4510394";"Cr72 I 37 D-28 Colombia, Bogotá"
"HIFO S.A";;;"(57) (1) 5222234";"Cr7 B 126-61 Colombia, Bogotá"
"GAMBOA GRANADOS GUSTAVO";;;"(57) (7) 6913753";"Tr Metropolitana 34-180 Trr 1 Ap 504 Portón del Tejar Colombia, Bucaramanga"
"URBANIZACIÓN EL TREBOL";;;"(57) (2) 2124899";"Cl 10 4-60 L-5 Colombia, Cartago"
"NARANJO ALVAREZ BEATRIZ E.";;;"(57) (4) 2503546";"Tr39 A 72-44 Colombia, Medellín"
"CONSTRUCTORA VÍCTOR SÁNCHEZ";;;"(57) (4) 2515983";"Cl 52 47-28 Int 724 Colombia, Medellín"
"INGENIERÍA CORPER SAS";;;"Telefax: (57) (7) 5743847";"Av 0 4-74 Colombia, Cúcuta"
"PIETRA SANTA CONSTRUCCIONES S.A.S.";;;"(57) 3155477915";"Cl 21 13-51 Of 502 Colombia, Armenia"
"CONSTRCTORA LARES S.A.S";;;"(57) (1) 2125248";"Cl 71 10-48 Of 303 Colombia, Bogotá"
"TAVERA SALAMANCA ALEJANDRO";;;"(57) (7) 6573717";"Cr35 54-25 Ap 202 Colombia, Bucaramanga"
"INVERSIONES CORREA MUÑOZ S.A.S";;;"(57) (2) 6609374";"Cl 19 N 2 N-29 Ap 2602 Colombia, Cali"
"CONSTRUCCIONES JERICO";;;"(57) (2) 3309575";"Cr67 10-63 Colombia, Cali"
"COCIVIMILCO S.A.";;;"(57) (1) 6114597";"Cocivimilco S.A. Colombia, Bogotá"
"CHAPARRO DE LA CRUZ CÉSAR";;;"(57) (1) 5676436";"Cl 26 S 9-31 Colombia, Bogotá"
"First Name";"Email Address";Url;Telephone;Address
"ESPACIOS ASEPTICOS";;;"(57) (4) 4448389";"Cl 39 S 25 C-89 Int 221 Envigado Colombia, Medellín"
"C.R.C. PROYECTOS";;;"(57) (8) 2714088";"Centro de Servicios El Vergel L-2 Colombia, Ibagué"
"RFP INVERSIONES LTDA";;;"(57) (8) 2745566";"Av60 13-09 Colombia, Ibagué"
"GENERACIÓN PROYECTOS E INVERSIONES S.A.S.";;;"(57) (6) 8819840";"Cr23 63-15 Of. 305 A Colombia, Manizales"
"ARKADIA CONSULTORÍAS & CONSTRUCCIONES LTDA.";;;"Nal: (57) (7) 5747877";"Cl 6 6E-139 Quinta Oriental Colombia, Cúcuta"
"CONSTRUCTORA NEMESIS S.A.";;;"(57) (1) 2121111";"Cl 71 13-66 Colombia, Bogotá"
"PROYECTOS URBANOS DE COLOMBIA S.A.";;;"(57) (1) 2367672";"Cr21 A 81-82 Colombia, Bogotá"
"APG CONSTRUCCIONES S.A.S.";;;"(57) (4) 2369701";"Cl 95 A 39-32 Colombia, Medellín"
IUSA;;;"Conm.: (57) (4) 3171755";"Cl 10 32-115 Colombia, Medellín"
"CONSTRUCTORA SAMARIA S.A.";;;"(57) (5) 4232079";"Cl 26 5-12 Colombia, Santa Marta"
"CONSTRUINN LTDA.";;;"(57) (5) 4200283";"Av Libertador 21-22 Colombia, Santa Marta"
"CONSORCIO INDUMEZCLAS C.Y V.";;;"(57) (1) 6230865";"Cl 93 11 A-28 Of 801 Colombia, Bogotá"
"CONSTRUCTORA SQUADRA S.A.S";;;"(57) (1) 2116238";"Cl 109 17 A-35 Colombia, Bogotá"
"VILLARREAL CONSTRUCTORA E INMOBILIARIA LTDA.";;;"(57) (2) 4046095";"Av5 23 D N-93 L-7 Colombia, Cali"
"LAZER INGENIERÍA Y CONSTRUCCIONES";;;"(57) (2) 5556100";"Cl 5 38-25 Of 501 Colombia, Cali"
"P & P CONSTRUCTORA URBANO S.A.S.";;;"(57) (2) 8923653";"Cr2 Oe 2-21 Colombia, Cali"
"H.A.C. INGENIERÍA LTDA.";;;"(57) (2) 3722011";"Cr35 A 3 A-41 Colombia, Cali"
"INMOBILIARIA F.B.";;;"(57) (7) 7244844";"Cr9 11-32 Colombia, San Gil"
"MILLÁN ARQUITECTOS INGENIEROS";;;"(57) (2) 2361229";"Cr12 6-54 P-3 Of 42 Colombia, Buga"
"PRIFCO CONSTRUCCIONES Y EQUIPOS LTDA.";;;"(57) (5) 3576242";"Cr52 100-105 Colombia, Barranquilla"
"CIFUENTES SILVA GREISMAN";;;"(57) (8) 2659832";"Cl 32 5 A-21 Colombia, Ibagué"
"SEGURA CONSULTORIA Y CONSTRUCCIÓN S.A.S";;;"(57) (2) 5582610";"Cr19 9 E-68 Colombia, Cali"
"ARQUITECTURA Y URBANISMO";;;"(57) 3176441212";"Cl 7 S 18-44 Colombia, Buga"
"CONSTRUCTORA INGEPLANOS S.A.S.";;;"(57) (4) 2707497";"Tr 36 S 29-66 Envigado Colombia, Medellín"
"MAECHA CANDIA LUIS CARLOS";;;"(57) (2) 4479463";"Cr1 E 59-34 Colombia, Cali"
SUMITORRES;;;"(57) (2) 4415811";"Cr7 N 42-20 Colombia, Cali"
"J.J. BERNAL S. CONSTRUCCIONES LTDA.";;;"(57) (2) 4466396";"Cr5 N 64 N-12 P-3 Colombia, Cali"
"CONSTRUCTORA VILLA ELISA LTDA.";;;"(57) (7) 5725201";"Cl 10 7-50 Of 214 Centro Colombia, Cúcuta"
"POWERCON EAT Y/O JESÚS ZAPATA";;;"(57) (4) 4536319";"Dg54 42-88 Int 301 Bello Colombia, Bello"
"INVERSIONES LOMITA NUEVA";;;"(57) (7) 5713018";"Cl 10 5-50 Of 506 Centro Colombia, Cúcuta"
"CONSTRUCCIÒN Y PROYECTOS";;;"(57) (4) 4123197";"Cr84 43-36 Of 106 Colombia, Medellín"
"MOSQUERA G. ALFONSO";;;"(57) (2) 6562215";"Cl 71 24 A-32 Colombia, Cali"
"SARB CONSTRUCCIONES";;;"(57) (7) 6341680";"Cl 20 31-26 Of 102 Colombia, Bucaramanga"
"CONSTRUCTORA FILADELFIA LTDA.";;;"(57) (5) 4313142";"Cr3 17-27 Of 216 Edif Rex Colombia, Santa Marta"
"CONSTRUACABADOS DE OBRA S.A.S.";;;"Telefax: (57) (1) 2592127";"Cr6 C 132 - 78 Ap 301 Colombia, Bogotá"
"CONSTRUALIADO ALARCON MORA S.A.S.";;;"Telefax: (57) (1) 6792270";"Dg182 20 - 91 Of 222-A Colombia, Bogotá"
"VANEGAS Y GARZÓN LTDA.";;;"(57) (1) 3802740";"Cr3 A 18-55 Trr B Ap 15-1 Colombia, Bogotá"
"CONSTRUCCIONES TELLES S.A.S.";;;"Telefax: (57) (1) 4027837";"Cl 5 A S 86 D - 40 Colombia, Bogotá"
"INVERSIONES SIBERIA S.A";;;"(57) (1) 3176770";"Cr7 74-56 P-13 Colombia, Bogotá"
"BALLEN BUITRAGO FILIBERTO";;;"(57) (1) 3687037";"Cr37 25 B-12 P-3 Colombia, Bogotá"
"First Name";"Email Address";Url;Telephone;Address
"CONSTRUCIONES SANTIAGO RESTREPO";;;"(57) (4) 2857351";"Cl 3 65-108 Colombia, Medellín"
"GERENCIA INTERVENTORÍA Y CONSTRUCCIÓN";;;"(57) (4) 2689244";"Cl 10 S 48 B-05 Colombia, Medellín"
"CONSTRUCTORA MAXIMA S.A.S.";;;"(57) (4) 4444270";"Cr42 75-83 Colombia, Medellín"
"CONSTRUMAR LTDA.";;;"(57) (4) 2666796";"Cl 4 S 48-110 Int 528 Colombia, Medellín"
INCONVEL;;;"(57) (4) 5117031";"Cr52 53-107 Colombia, Medellín"
"CONSTRUCCIONES GARCÍA & GARCÍA LTDA.";;;"(57) (2) 3279078";"Cl 43 47 C-42 Esq Colombia, Cali"
"NORIA LTDA";;;"(57) (4) 3262020";"Cl 21 S 42 B-30 Int 103 Colombia, Medellín"
"INVERSIONES SAN MAURICIO";;;"(57) (2) 3976167";"Cl 13 68-64 Of 401 Colombia, Cali"
"URÁN RENTERÍA INGENIEROS S.A. URINSA";;;"(57) (2) 8894964";"Cr3 11-32 Of 925 Colombia, Cali"
FRONPECA;;;"(57) (1) 6114230";"Cr13 89-53 Of 501 Colombia, Bogotá"
CONSTRUANDES;;;"(57) (2) 5584534";"Cl 2 Oe 24 F-60 Colombia, Cali"
"BERNARDO Y LUIS ASOCIADOS";;;"(57) (4) 4612874";"Cr50 B 122-07 Colombia, Medellín"
"CONSTRUCTORA DE LOS ANDES COANDES CIA LTDA.";;;"(57) (1) 7560127";"Cr49 103-16 Colombia, Bogotá"
"GBTU S.A.";;;"(57) (5) 6658406";"Castgde Cr7 5-56 Esq. Colombia, Cartagena"
SERVIVIENDA;;;"(57) (28) 1000000";"Popayán Colombia, Santander de Quilichao"
"CONSTRUCTORA UNIÓN DE OCCIDENTE";;;"(57) (2) 6611602";"Av10 N 21-05 Colombia, Cali"
"FULL SERVICE CONSTRUCCIONES";;;"(57) (2) 2136767";"Cr 7 9-53 Colombia, Cartago"
"CORFIAMÉRICA LTDA.";;;"(57) (1) 6170377";"Autop Norte 87-95 Colombia, Bogotá"
"AMAYA CONSTRUCTORES";;;"(57) (4) 4271895";"Cl 63 C 130-38 Int 201 Colombia, Medellín"
"SERVICONSTRUCCIONES IHG";;;"(57) (7) 6495225";"Cl 100 A 41-69 Colombia, Bucaramanga"
"C.A.S.A.COMPAÑÍA DE CONSTRUCTORES ASOCIADOS S.A";;;"(57) (1) 2369056";"Cr5 71-45 Of 202 Colombia, Bogotá"
"SAÉNZ GONZÁLEZ CONSTRUCTORES S.A.";;;"(57) (1) 6415021";"Cl 62 10-80 Of 806 Colombia, Bogotá"
"SERNA CIFUENTES ANTONIO JOSÉ";;;"(57) (4) 2858262";"Cl 87 47-32 Ap 301 Itagüí Colombia, Itagüí"
"CGV CONSTRUCCIÓN GERENCIA Y VENTAS";;;"(57) (4) 2707902";"Cl 10 32-115 L-111 Colombia, Medellín"
"CONSTRUCCIONES E INVERSIONES JVM S.A.S.";;;"(57) (6) 7452912";"Cr22 8-28 Colombia, Armenia"
"CMO DURAPANEL";;;"(57) (4) 4119236";"Cr81 42-33 Colombia, Medellín"
"BERNARDO CARVAJAL JARAMILLO PROMOTORES S.A.";;;"(57) (2) 8923085";"Sucursal Cali Colombia, Cali"
"AMR CONSTRUCCIONES";;;"(57) (1) 6369056";"Cr 14 # 86A-76 Colombia, Bogotá"
"CONSTRUCTORA LOREA LTDA";;;"(57) (4) 5318376";"Rionegro Colombia, Medellín"
"CARLOS GAVIRIA Y ASOCIADOS S.A.";;;"(57) (1) 6101052";"Av (Cr) 11 86-32 Of 201 Colombia, Bogotá"
"GRUPO B & M CONSTRUCTORA S.A.S.";;;"(57) 3113677248";"Cr6 Cl 25 N Colombia, Armenia"
"ENCOMAN COLOMBIA S.A.S.";;;"(57) (6) 7343138";"Cr14 18 N-16 Colombia, Armenia"
"CONSTRUCTORA F & M DEL VALLE S.A.S.";;;"(57) (2) 3272286";"Cr42 C 43-32 Colombia, Cali"
"CONSTRUCTORA Y URBANIZADORA PROVIMAR E.U.";;;"(57) (4) 7817335";"Cl 39 11 A-04 Colombia, Montería"
GRANVIVIENDA;;;"(57) (5) 5745966";"Cr6 16-44 Colombia, Valledupar"
"ASOCIACIÓN DE VIVIENDA CHUIRA";;;"(57) (8) 8760653";"Cl 76 1 D-48 Colombia, Neiva"
"CONSTRUCTORA GLOBAL S.A.S.";;;"(57) (4) 3793186";"Cl 38 A S 36-39 Envigado Colombia, Envigado"
"ATLANTIS CONSTRUCTORA";;;"(57) (5) 2753030";"Cl 28 25 A-08 Av Luis Carlos Galán Colombia, Sincelejo"
"CURADURÍA URBANA 1 BOGOTÁ";;;"Nal: (57) (1) 6010099";"Cl 95 23-20 Colombia, Bogotá"
"CONSTRUCTORA RUMIE LTDA.";;;"(57) (5) 3685103";"Cl 74 50-53 Of 304 Colombia, Barranquilla"
"First Name";"Email Address";Url;Telephone;Address
"CONSTRUCTORA INGAR";;;"(57) (5) 3557736";"Cr74 81-36 Colombia, Barranquilla"
"FONTANA DE TIVOLI";;;"(57) (1) 6738295";"Cr7 156-78 Trr 2 Of 1401 Colombia, Bogotá"
"JOHANN LEON DC S.A.S.";;;"Telefax: (57) (1) 2522147";"Dg84 A 85 B - 05 Colombia, Bogotá"
"CONSTRUCTORA CC & MC S.A.S.";;;"Telefax: (57) (1) 2850374";"Cr13 38 - 47 Of 302 Colombia, Bogotá"
"CONSTRUCTORA VITALIANO S.A.S.";;;"Telefax: (57) (1) 2503250";"Cl 79 68 G - 68 Colombia, Bogotá"
"HENAO Y NARANJO INGENIERÍA INTEGRAL S.A.S.";;;"Telefax: (57) (1) 2371379";"Cl 5 C 41 - 12 Colombia, Bogotá"
"R R D SOLUCIONES S.A.S.";;;"Telefax: (57) (1) 2789000";"Cl 40 I S 12 J - 49 Colombia, Bogotá"
"INVERSIONES ARA";;;"(57) (1) 2187864";"Cl 106 36-19 Colombia, Bogotá"
"AGV CONSTRUCCIONES";;;"(57) (1) 2267563";"Cl 102 70 C-38 Colombia, Bogotá"
"ESCALA LTDA.";;;"(57) (1) 2112938";"Cl 78 9-57 Of 1401 Colombia, Bogotá"
"AGUDELO & JAVELA INGENIERÍA S.A.S.";;;"(57) (2) 4465241";"Cr3 47-05 P-3 Colombia, Cali"
"OV CONSTRUCTORA LTDA.";;;"(57) (6) 3161205";"Cr12 12-08 Colombia, Pereira"
"ALIANZA BB S.A.S";;;"Conm.: (57) (4) 5111683";"Cr53 48-65 Int 401 Colombia, Medellín"
"VÉRTICE INGENIERÍA Y DISEÑO S.A.S.";;;"(57) (6) 3161232";"Cr12 1 A-29 P-2 Colombia, Pereira"
"ATEHORTÚA HERNÁN DE JESÚS";;;"(57) 3113247885";". Colombia, Medellín"
"C.J.R. CONSTRUCCIONES E.U.";;;"(57) (2) 3168831";"Cl 13 98-10 B-4 Of 607 Colombia, Cali"
"SIGMA CONSTRUCCIONES CIVILES S.A.S";;;"Nal: (57) (4) 2624655";"Cr51 41 - 222 Int 504 Colombia, Medellín"
"J&G CONSTRUYENDO S.A.S";;;"Nal: (57) (4) 2381122";"Cl 30 A 81-37 Colombia, Medellín"
"GALLEGO FLÓREZ CONSTRUCTORES S.A.S";;;"Nal: (57) (4) 5986109";"Dg59 44-31 Colombia, Medellín"
"EMPRESA DE DESARROLLO URBANO DE ARMENIA";;;"(57) (6) 7444486";"Cr17 16-00 P-5 Colombia, Armenia"
"COFESER LTDA.";;;"(57) (7) 7247019";"Cl 29 13-104 Colombia, San Gil"
"CASTELLANOS VARGAS CONSTRUCCIONES S.A.S";;;"(57) (2) 3232821";"Cr67 1 B-34 Colombia, Cali"
"V. M. CONSTRUCCIONES LTDA.";;;"Conm.: (57) (1) 6214066";"Cr11 A 94 A 31 Of 408 Colombia, Bogotá"
"HIFO S.A";;;"(57) (1) 5222234";"Cr7 B 126-61 Colombia, Bogotá"
"PROMOTORA MARQUIS S.A";;;"(57) (1) 6603030";"Cr19 A 84-14 Of 402 Colombia, Bogotá"
"CONSTRUCTORA INGEREDES";;;"(57) (6) 8775685";"Cl 1 B 5 B-23 Cs 38 Colombia, Manizales"
"INMOBILIARIA AMPRO";;;"(57) (7) 6487046";"Parag·itas Real III Casa 89 Floridablanca Colombia, Floridablanca"
"HADI DISEÑO CONSTRUCTORA";;;"(57) (7) 6451180";"Cl 42 17-29 Centro Colombia, Bucaramanga"
"VALOVIS KOPELOW & CÍA S.A.S.";;;"(57) (1) 2687809";"Cr24 36-37 Colombia, Bogotá"
"CONSTRUCTORA NEMESIS S.A.";;;"(57) (1) 2121111";"Cl 71 13-66 Colombia, Bogotá"
"CORPORACION DE VIVENDA SANTA ELENA";;;"(57) (8) 8769799";"Cl 73 1 CW-14 La Vorágine Colombia, Neiva"
"EDIFICACIONES BOREAL";;;"(57) (2) 7229418";"Cr34 12-40 Colombia, Pasto"
"TRUJILLO SERRANO Y CIA.";;;"(57) (2) 7292425";"Cl 20 A 27 A-11 Colombia, Pasto"
"CONINSA RAMON H S.A.";;;"(57) (4) 4488828";"Cl 55 45-55 Colombia, Medellín"
"CONSTRUCTORA E INMOBILIRIA SPACE 180º";;;"(57) (2) 5131224";"Cr56 3-150 Of 302 Colombia, Cali"
"VARGAS & VARGAS MILLÁN LTDA";;;"(57) (1) 6180993";"Cl 104 14 A-45 Of 302 Colombia, Bogotá"
"ARKA ARQUITECTURA E INGENIERÍA LTDA.";;;"(57) (2) 7733268";"Cr6 12-77 Colombia, Ipiales"
"INDUSTRIAS COLARCILLAS C.I. S.A.";;;"(57) (1) 3339887";"Cl 1 B 5 A-91 Colombia, Bogotá"
"BIENES Y OBRAS";;;"Nal: (57) (4) 3213952";"Cr27 7 B-180 Int 1801 Colombia, Medellín"
"PROYECTOS TÉCNICOS INGENIERIA Y CONSTRUCCIÓN";;;"(57) (2) 3324479";"Cr96 3 B-53 Colombia, Yumbo"
"First Name";"Email Address";Url;Telephone;Address
"CONSTRUCTORA TRIADA S.A.S";;;"Conm.: (57) (2) 3127453";"Cr100 5-169 Of 612 C Colombia, Cali"
"GEOMETRÍA INVERSIONES Y CONSTRUCCIONES LTDA.";;;"(57) (2) 3371671";"Cl 17 36 B-18 Colombia, Cali"
"INGEOMAQ LTDA";;;"(57) (7) 6417763";"Cl 64 17 A-29 Trr 1 Of 401 Artemis II La Ceiba Colombia, Bucaramanga"
"CASTELLANOS VARGAS CONSTRUCCIONES S.A.S";;;"(57) (2) 3232821";"Cr67 1 B-34 Colombia, Cali"
"ALTURAS S. EN C.";;;"(57) (8) 6624194";"Cl 38 32-41 Of 1405 Colombia, Villavicencio"
"CREACIONES TERNURITAS";;;"(57) (7) 6340594";"Cl 22 22-35 Colombia, Bucaramanga"
INGENIAMOS;;;"(57) 3125212973";"C.C. La Quinta L-279 Colombia, Ibagué"
"MAZUERA INGENIEROS LTDA.";;;"(57) (1) 6234361";"Av19 97-31 Of 506 Colombia, Bogotá"
"CONSTRUCTORA TERRA LTDA-";;;"(57) (6) 8872852";"Cr24 22-36 Of 301 centro Colombia, Manizales"
"INVERSIONES CORREA MUÑOZ S.A.S";;;"(57) (2) 6609374";"Cl 19 N 2 N-29 Ap 2602 Colombia, Cali"
"CONSTRUCCIONES TRAMA URBANA";;;"(57) (7) 6471846";"Cl 44 37-14 Colombia, Bucaramanga"
"INVERSIONES TORCOROMA SIGLO XXI S.A";;;"(57) (7) 5741244";"Av3 E 7 A-09 Popular Colombia, Cúcuta"
"INMOBILIARIA URBANOS & RURALES";;;"(57) (7) 5760213";"Av3 14-70 San Luis Colombia, Cúcuta"
"ATRIL CONSTRUCCIONES S.A.S";;;"Conm.: (57) (4) 3510044";"Cl 40 E 79-22 Colombia, Medellín"
"FUNDACIÓN EMPRESA PRIVADA COMPARTIR";;;"(57) (2) 5519920";"Cr44 5 C-43 Colombia, Cali"
"JKAM S.A.";;;"(57) (7) 5806667";"Cl 29 2-61 La Cordialidad Los Patios Colombia, Cúcuta"
"ABRIL DEMOEXCAVA S.A.S";;;"(57) (1) 6716015";"Cl 167 A 54 A-29 Colombia, Bogotá"
"SOCIEDAD BACC LTDA.";;;"(57) (2) 7292208";"C.C. Pasaje El Liceo Of 308 Colombia, Pasto"
CONSTRULÓPEZRIVAS;;;"(57) (6) 3215214";"Cl 17 23-64 Of 11-3 Colombia, Pereira"
"CREAR VIVIENDA CONSTRUCTORA S.A.S.";;;"(57) (2) 2816064";"Cl 23 3-23 Colombia, Palmira"
"CONSTRUCTORA GAMATELO";;;"(57) (2) 2818556";"Vía Las Palmas Km 2 Hda Sta Bárbara Colombia, Palmira"
"LAZER INGENIERÍA Y CONSTRUCCIONES";;;"(57) (2) 5556100";"Cl 5 38-25 Of 501 Colombia, Cali"
"P & P CONSTRUCTORA URBANO S.A.S.";;;"(57) (2) 8923653";"Cr2 Oe 2-21 Colombia, Cali"
"H.A.C. INGENIERÍA LTDA.";;;"(57) (2) 3722011";"Cr35 A 3 A-41 Colombia, Cali"
DECORCERAMICA;;;"(57) (8) 2615120";"Cl 15 4-51 Cent Colombia, Ibagué"
"CONSTRUCTORA MOLINO LTDA.";;;"(57) (1) 2369609";"Cr16 79-31 Of 401 Colombia, Bogotá"
"EL CONSTRUCTOR AMIGO";;;"(57) (1) 2455985";"Cl 32 18-38 Colombia, Bogotá"
"CONVISA S.A.S";;;"(57) (4) 2650844";"Cr64 38-53 Colombia, Medellín"
"ACONDICIONAMIENTO ALIADAS MEGAGAS";;;"(57) (4) 4443480";"Cl 98 73-25 Colombia, Medellín"
"INMOBILIARIA OBJETIVA S.A.S - GRUPO CENYC";;;"(57) (4) 4447771";"Cl 26 A 55-16 Of 201 Bello Colombia, Medellín"
"CONSTRUCCIONES A.O.M.C S.A.S";;;"Nal: (57) (4) 4185027";"Cl 45 A 6 C-40 Int 9903 Colombia, Medellín"
"INDUARTES CONSTRUCCIONES LTDA.";;;"(57) (2) 6635303";"Cl 94 8 B-317 Colombia, Cali"
"CONSTRUCCIONES Y DISEÑOS ESTRUCTURALES LTDA";;;"(57) (2) 4335374";"Cl 73 A 1 A 13-27 Colombia, Cali"
"CONSTRUCCIONES AMPERIO";;;"(57) (2) 2724865";"Cl 31 A 37-29 Colombia, Palmira"
"CONSTRUCTORA SERVING S.A.";;;"(57) (4) 5313969";"Cl 49 50-59 Int 414 Colombia, Rionegro"
"PROMOTORA SANTA INÉS";;;"(57) (7) 5751714";"Cl 3 N 3 E-93 Colombia, Cúcuta"
"ECCOT LTDA.";;;"(57) (1) 6710627";"Cl 163 A 16 A-22 Colombia, Bogotá"
"CONSORCIO INPRO CONSTRUSIN LTDA";;;"(57) (7) 6522253";"Cl 35 19-41 Of 808-809 Edif La Triada Colombia, Bucaramanga"
"CONSTRUCTORA MONTANA";;;"(57) (4) 2621324";"Cr55 40 A-20 Int 904 Colombia, Medellín"
"OBRAS CIVILES SOGO";;;"(57) (7) 6459501";"Cl 36 31-39 L-312 Mejoras Públicas Colombia, Bucaramanga"
"First Name";"Email Address";Url;Telephone;Address
"EDIFICACIONES BOREAL";;;"(57) (2) 7229418";"Cr34 12-40 Colombia, Pasto"
"ABRIL DEMOEXCAVA S.A.S";;;"(57) (1) 6716015";"Cl 167 A 54 A-29 Colombia, Bogotá"
"CONCONCRETO S.A.";;;"(57) (1) 6202166";"Cr6 115-65 Zona F Of 308 Colombia, Bogotá"
"CONSTRUCTORA PAISAJE VERDE S.A.S.";;;"(57) (7) 5804230";"Av10 21-24 Loc 4 Km 8 Los Patios Colombia, Cúcuta"
"COLOMBIANA DE CONSTRUCCIONES S.A.S";;;"(57) (6) 3341991";"Cr15 12-70 Colombia, Pereira"
"CONSTRUCTORA SQUADRA S.A.S";;;"(57) (1) 2116238";"Cl 109 17 A-35 Colombia, Bogotá"
"ISAZA INGENIEROS S.A.S.";;;"(57) (4) 4445298";"Cr65 E 32 D-33 Colombia, Medellín"
"H.A.C. INGENIERÍA LTDA.";;;"(57) (2) 3722011";"Cr35 A 3 A-41 Colombia, Cali"
"MUÑOZ SEPÚLVEDA EDILBERTO";;;"(57) (2) 3272259";"Cr43 B 46-14 Colombia, Cali"
"CONSTRUCTORES CONSULTORES ASOCIADOS LTDA.";;;"(57) (7) 6322236";"Cl 21 29-49 Colombia, Bucaramanga"
"RODRIGUEZ R. JANER MAURICIO";;;"(57) (7) 6343279";"Cr29 40-35 Mejoras Públicas Colombia, Bucaramanga"
"MILLÁN ARQUITECTOS INGENIEROS";;;"(57) (2) 2361229";"Cr12 6-54 P-3 Of 42 Colombia, Buga"
"ARQUITECTO H.F.L.";;;"(57) (2) 3281397";"Cr46 38 A-02 L-101 Colombia, Cali"
"MALCON MALLAS Y CONSTRUCCIONES S.A.S.";;;"(57) (2) 4056062";"Cl 31 15-09 Colombia, Cali"
"IGLESIA MEDELLÍN SUNG RAK";;;"(57) (4) 3217251";"Cl 11 S 44-36 Colombia, Medellín"
"CONSTRUCTORA MONTANA";;;"(57) (4) 2621324";"Cr55 40 A-20 Int 904 Colombia, Medellín"
"MOSQUERA G. ALFONSO";;;"(57) (2) 6562215";"Cl 71 24 A-32 Colombia, Cali"
"CONSTRUCTORES CONSULTORES LTDA";;;"(57) (1) 5353986";"Dg87 Bis 79 A-81 Colombia, Bogotá"
"CONSTRUCTORA MAGALLANES";;;"(57) (5) 3688222";"Cl 77 72-36 Colombia, Barranquilla"
"SEPTHEME S.A.S.";;;"(57) (4) 2667194";"Cl 13 36-95 Colombia, Medellín"
"MOLINOS DE MALLORCA";;;"(57) (5) 6565267";"Cl 2 Km 3-12 Colombia, Cartagena"
"CONSTRUCTORA MANIZALES S.A.";;;"(57) (6) 8848682";"Cl 22 21-48 Of 203 Centro Colombia, Manizales"
"HM Y CÍA.";;;"(57) (2) 8202718";"Cr7 1 N-28 Of 716 Colombia, Popayán"
"INVERSIONES OSPAR LTDA.";;;"(57) (1) 2855059";"Cl 44 7-48 Of 801 Colombia, Bogotá"
"ASESORÍAS E INTERVENTORÍAS Y CONSTRUCCIÓN LTDA. ASECONSTRUCCIÓN LTDA.";;;"(57) (4) 5204790";"Cl 34 B 65 D-02 Colombia, Medellín"
"INNOVAR ESPACIO CONSTRUCTIVOS LTDA.";;;"(57) (5) 1000000";"Cl 31 29 36 L-6 Concepción IV Colombia, Santa Marta"
"CHAPARRO DE LA CRUZ CÉSAR";;;"(57) (1) 5676436";"Cl 26 S 9-31 Colombia, Bogotá"
"WILLIAM VARGAS LINARES E.U.";;;"(57) (1) 4829647";"Cr72 52-64 Of 201 Colombia, Bogotá"
ARIRANG;;;"(57) (1) 6161400";"Cra.13A No97-47 Colombia, Bogotá"
"ADC ARQUITECTURA DISEÑO Y CONSTRUCCIÓN";;;"(57) (4) 2644913";"Cl 77 BB 82-81 Ap 103 Colombia, Medellín"
FORMAZERO;;;"(57) 3164647209";". Colombia, Medellín"
"PROCIL S.A.";;;"(57) (4) 4122551";"Cl 33 74 E-69 Of.801 Colombia, Medellín"
"NARANJO Y CÍA";;;"(57) (4) 4128636";"Av74 B 39 B-105 Colombia, Medellín"
"PROMOTORA LOMALINDA S.A.S";;;"Conm.: (57) (4) 2665433";"Cl 10 B 35-27 Colombia, Medellín"
"SPAZIO CONSTRUCTORA S.A.";;;"(57) (1) 6363099";"Cr14 87-45 Colombia, Bogotá"
"GP CÍA S.EN C.";;;"(57) (5) 5482781";"Cl 16 7-18 Of 511 Colombia, Valledupar"
"3 G CONSTRUCTORES S.A.";;;"(57) (5) 6659459";"Cr1 6-106 L-102 Edif Mar Adentro Colombia, Cartagena"
á"
"K.M.A LTDA.";;;"(57) (1) 6334244";"Dg127 A 23-92 Colombia, Bogotá"
"GOODHAUS S.A.S.";;;"Telefax: (57) (1) 6146319";"Cl 131 A 19 - 89 B-2 Of 306 Colombia, Bogotá"
"CONSTRUCTORA EL GALEON LTDA";;;"(57) (1) 2142569";"Tr13 A 119-95 Ap 204 Colombia, Bogotá"
"DOMO ACÚSTICA S.A.S.";;;"Telefax: (57) (1) 7027987";"Cl 150 A 53 - 26 Of 405 Colombia, Bogotá"
"CUSEZAR S.A.";;;"(57) (1) 6516066";"Av (Cl) 116 7–15 Int 2 P-15 Colombia, Bogotá"
"MESA RESTREPO ARGIRO";;;"(57) (4) 2641679";"Cl 76 CA 88 C-38 Colombia, Medellín"
"AVILA PROYECTOS";;;"Conm.: (57) (4) 3422736";"Cl 31 B 102 A-07 Colombia, Medellín"
"INGESERCON LTDA";;;"(57) (4) 4213153";"Cl 76 DE 88-35 Int 202 Colombia, Medellín"
"VILDIN LTDA";;;"(57) (4) 2661308";"Cr29 E 4 S-94 Int 603 Colombia, Medellín"
"G & R CONTRATISTAS ASOCIADOS";;;"(57) (4) 2697461";"Cl 49 30-70 Colombia, Medellín"
"GARCÍA VEGA S.A.S";;;"(57) (4) 2322750";"Cr43 F 17-567 Colombia, Medellín"
"CONSULTORES INTEGRALES";;;"(57) (4) 4525396";"Cl 47 48-50 Int 301 Bello Colombia, Bello"
"CONSTRUCTORA EDMUNDO ENRÍQUEZ BUCHELI Y ASOCIADOS";;;"(57) (2) 7310820";"Cr42 20-57 Morasurco Colombia, Pasto"
"VELASCO HERACLIO";;;"(57) (2) 8363069";"Cr36 4 D-30 Int 5 Colombia, Popayán"
"ADMINISTRADORA DE ACTIVOS SANTANDER S.A.S.";;;"Telefax: (57) (1) 2444699";"Cl 44 19 - 38 Colombia, Bogotá"
"ARKITECH DISEÑO Y CONSTRUCCION S.A.S.";;;"Telefax: (57) (1) 6133767";"Tr60 122 - 25 Colombia, Bogotá"
"ARANJUEZ CONSTRUCCIONES S.A.S.";;;"Telefax: (57) (1) 7270611";"Cl 2 A 70 A - 64 P-2 Colombia, Bogotá"
"VIVIR CONSTRUCCIONES LTDA.";;;"(57) (7) 6715021";"Cr17 12-08 Colombia, Bucaramanga"
