"First Name";"Email Address";Url;Telephone;Address
"EL PARAISO DEL CONDE";paraisodelconde@gmail.com;www.elparaisodelconde.com;"(57) (5) 6633666";"Las Palmeras Dg32 78-35 Colombia, Cartagena"
"IBIZA MOTEL LOUNGE";gerencia@motelibiza.com;www.motelibiza.com;"(57) (4) 4484969";"Cr42 79-39 Autop Sur Itagüí Colombia, Medellín"
"MARIA LA INMACULADA";dpclainmaculada@emcali.net.co;www.velaslainmaculada.com;"(57) (2) 8852166";"Cr10 22 A-31 Colombia, Cali"
QUPONSEX.COM;servicliente@quponsex.com;www.quponsex.com;"(57) (2) 4875410";"Cali Colombia, Cali"
"MOTEL JARDÍN DEL AMOR HOSTAL.";ggarcia@une.net.co;www.jardindelamor.co;"(57) (4) 2110202";"Cr51 73-90 Colombia, Medellín"
"MOTEL LA HERRADURA";ioort65@hotmail.com;www.motellaherradura.com;"(57) (7) 6386998";"Km 4 Vía Antigua Floridablanca Colombia, Bucaramanga"
"APARTAHOTEL LA PRIMAVERA";sugerencias@dondeflorecelapasion.com;www.dondeflorecelapasion.com;"(57) (8) 2659294";"Cr2 Cl 26 Esq Colombia, Ibagué"
"MY LOVE STORE";ventas@mylovestore.co;www.mylovestore.co;"(57) (2) 4878972";"Cr80 10 A-07 L-14 Colombia, Cali"
"MOTEL EL DESCANSO DEL AMOR";descansodelamor@une.net.co;www.moteleldescansodelamor.com;"(57) (4) 4810620";"Autop Med-Bog Km 4 Colombia, Medellín"
"LUNA LUNERA";lunalunera@une.net.co;www.lunalunera.com.co;"(57) (4) 2354700";"Av33 63 B-215 Conquistadores Colombia, Medellín"
"INVERSIONES ARAUCARIAS LTDA.";invaraucarias@hotmail.com;www.guiacereza.com/invegas/;"(57) (4) 2881732";"Cl 52   S 43 A-95 Sabaneta Colombia, Medellín"
"REY DE CORAZONES S.A.S.";reydecorazones@emcali.net.co;www.motelreydecorazones.com;"(57) (2) 5552449";"Vía Cali-Jamundí Km 7 Colombia, Cali"
"MOTEL REY DE CORAZONES";reydecorazones@emcali.net.co;www.motelreydecorazones.com;"(57) (2) 5552449";"Vía Cali-Jamundí Km 7 Colombia, Cali"
"HOTEL CAMPESTRE HAWAII";hotel_hawaii@hotmail.com;www.hotelhawaiipiedecuesta.com;"(57) (7) 6552217";"Km 2 Vía Piedecuesta San Gil Colombia, Bucaramanga"
"APARTAHOTEL CIUDAD DE CALI";apartahotelciudadcali@hotmail.com;www.apartahotelciudadcali.com;"(57) (2) 4483254";"Dg26 K 73-16 Marroquín II Colombia, Cali"
"MOTEL BABILONIA SUITES";babiloniasuite@yahoo.es;www.babiloniasuites.com;"(57) (1) 6747339";"Cr7 188-57 Colombia, Bogotá"
"MOTEL PARAISO ROMANO";magcali@hotmail.com;www.elparaisoromano.com;"Telefax: (57) (2) 6654274";"Cr35 10-33 Antigua Carrt A Yumbo Colombia, Cali"
"ESTADERO LA JAIBA";rafaelcabeza@hotmail.com;www.estaderolajaiba.com;"(57) (5) 6661931";"D. Lemaitre Cl 65 17-269 Colombia, Cartagena"
"MOTEL DESEOS";dianamecheverryc@gmail.com;www.deseos.com.co;"(57) (2) 4383975";"Cr8 41-38 Colombia, Cali"
BOSSANOVA;danielquiceno@hotmail.com;www.bossanovacali.com;"(57) (2) 5242946";"Cr41 a 10-09 Colombia, Cali"
"APARTAHOTEL VILLA CAMPESTRE";villa.campestre@hotmail.com;;"(57) (5) 6630790";"El Gallo Tr54 22-72 Villa Campestre Carrt La Cordialidad Colombia, Cartagena"
"MOTEL LAS CABAÑAS";jpabloib@gmail.com;www.lascabanasmotel.com;"(57) (4) 2661306";"Cl 14 43 F-65 Colombia, Medellín"
"APARTA HOTEL SOL & LUNA";contacto@solylunacali.com;www.solylunacali.com;"(57) (2) 5240408";"Cl 36 42-73 Colombia, Cali"
"HOSTAL BRISAS DEL ESTADIO";brisas@une.net.co;www.brisasdelestadio.com;"(57) (4) 2303424";"Cl 51 67 B-125 Colombia, Medellín"
"AMARTE SUITE";amartesuite@gmail.com;www.amartesuite.com;"(57) (1) 2558420";"Cl 62 14-19 Colombia, Bogotá"
"MOTEL UNICORNIO";palacioj30@solarhoteles.com;www.motelunicornio.blogspot.com;"(57) (4) 3095050";"Cl 79   S 49-150 La Estrella Colombia, Medellín"
"APARTAHOTEL ECLIPSE";contacto@apartahoteleclipse.com;www.eclipsecali.com;"(57) (2) 5248777";"Cr22 58-77 El Trebol Colombia, Cali"
"HOSTAL HOLLYWOOD";alfo789@hotmail.com;www.amobladoshollywood.com;"(57) (8) 6677766";"Km 5 Antigua Vía Restrepo Colombia, Villavicencio"
"EL PARAISO ROMANO";paraisoromano@hotmail.com;www.elparaisoromano.com;"(57) (5) 3437191";"Cr17 30-266 Soledad 2000 Colombia, Barranquilla"
"HOTEL CAYENAS";abeljosecueto@gmail.com;www.cayenashotel.com;"(57) (5) 3706912";"Cl 43 44-136 Colombia, Barranquilla"
"MOTEL EL CASTILLO DEL EDÉN";info@motelelcastillodeleden.com;www.motelelcastillodeleden.com;"(57) (7) 6464972";"Cl 37 34-42 Girón Km 1 Vía al Aeropuert Colombia, Bucaramanga"
"HOTEL DAVINCI";ninragu1977@hotmail.com;www.hoteldavincicalarca.com;"(57) (6) 7432352";"Cr27 39-22 Colombia, Calarcá"
"MOTEL AVALOS";motelavalos@yahoo.com;www.motelavalos.com;"(57) (2) 2106677";"Cl 4 A 21-34 Colombia, Cartago"
"APARTAHOTEL LAS VIOLETAS";hotellasvioletas@hotmail.com;www.hotelresidenciaslasvioletas.com;"(57) (2) 4419502";"Cr15 43 A-03 Colombia, Cali"
"HOTEL FANTASÍA";fantasi251@hotmail.com;;"(57) (4) 2511438";"Cr52 53-58 Colombia, Medellín"
"HOTEL D LEONI";fantasi251@hotmail.com;;"(57) (4) 4481608";"Cr45 49-38 Colombia, Medellín"
"CLUB APARTAHOTEL OLIMPUS";olimpusibague@yahoo.com;;"(57) (8) 2600201";"Cl 20 32-22 Sur Brr. Miramar Colombia, Ibagué"
"HOTEL SUITE COMFORT";admon.compras@hschotel.com;www.hotelsuiteconfort.com;"(57) (4) 4440151";"Cq 5 66 B-24 Colombia, Medellín"
"MOTEL 40 GRADOS";jbg7150@gmail.com;;"(57) (4) 2796285";"Cr50 88 A   S-145 La Estrella Colombia, Medellín"
"HOTEL MONARCA";hotelmonarca@yahoo.com.co;;"(57) (4) 2856964";"Cr50 A 83 A-31 Itagüí Colombia, Medellín"
"First Name";"Email Address";Url;Telephone;Address
"MOTEL EL BOSQUE";elbosque11@une.net.co;www.elbosque-motel.com;"(57) (4) 2790303";"Cl 80   S 55-115 La Estrella Colombia, Medellín"
"HOTEL SUITE COMFORT";admon.compras@hschotel.com;www.hotelsuiteconfort.com;"(57) (4) 4440151";"Cq 5 66 B-24 Colombia, Medellín"
"THEMATIC SUITES";thematicsuites@une.net.co;www.thematicsuites.com.co;"(57) (4) 4340588";"Cl 51 67 B-27 Colombia, Medellín"
"MOTEL CALIFORNIA";mauriciof3000@yahoo.com;www.motelcaliforniacali.com;"(57) (2) 6664977";"Cl 10 30-155 Km 4 Acopi Arroyohondo Colombia, Cali"
"EROS MOTEL";erosmotel@hotmail.com;;"(57) (6) 3388728";"Vía Armenia Km 4 Colombia, Pereira"
"MOTEL CUPIDO";cupido@une.net.co;www.cupido.com.co;"(57) (4) 2392180";"Cl 46 43-17 Colombia, Medellín"
"MOTEL 40 GRADOS";jbg7150@gmail.com;;"(57) (4) 2796285";"Cr50 88 A   S-145 La Estrella Colombia, Medellín"
"MOTEL SAN JUAN DE CAROLINA";bvgsociedadltda@hotmail.com;www.motelsanjuandecarolina.com;"(57) (6) 7313010";"Km 3 Vía Armenia-Circasia Colombia, Armenia"
"MOTEL LOS PIRINEOS";hotellospirineos@hotmail.com;www.motellospirineos.com;"(57) (7) 6459728";"Km 4 Vía Pamplona E-Brr. Buenavista Colombia, Bucaramanga"
"RESIDENCIAS LAS AMÉRICAS";claudialigelly@outlook.com;www.residenciaslasamericas.com;"(57) (2) 8834303";"Cl 25 2   N-31 Colombia, Cali"
"HOTEL SWITE REAL";serranoplazahotel@hotmail.com;www.hotelswitereal.com;"(57) (7) 3012293527";"Cl 55 17 A-17 P-2 Colombia, Bucaramanga"
"MOTEL EXTASIS";m.extasis@hotmail.com;www.motelextasis.co;"(57) (7) 6532114";"Km 11 Vía A Lebrija Colombia, Bucaramanga"
"MOTEL COLOR SEX";djaramillogranada@gmail.com;www.motelcolorsex.com;"(57) (2) 2733530";"Km 2 Vía Tienda Nueva Colombia, Palmira"
"MOTEL PENTHOUSE";hfycia@hotmail.com;www.motelpenthouse.com;"(57) (6) 3128104";"Vía La Romelia El Pollo Sector Las Camelias Dosq Colombia, Pereira"
"APARTAHOTEL VILLA MARINA";villadegutierrez@hotmail.com;www.apartahotelvillamarina.com;"(57) (8) 2695568";"Km 13 Vía Ibagué-Espinal Colombia, Ibagué"
"HOTEL NOGALES";info@hotelnogales.com.co;www.hotelnogales.com.co;"(57) (5) 7280408";"Cr11 A 34 B-58 Colombia, Riohacha"
"MOTEL CABAÑAS OTUN";inverbuenosaires@une.net.co;www.cabanasotun.com;"(57) (6) 3371785";"Av30 Agosto 87-580 Vía Cerritos Colombia, Pereira"
"HOTEL CASA REAL ARMENIA";hcasarealarmenia@hotmail.com;;"(57) (6) 7340606";"Cr18 18-36 Colombia, Armenia"
"HOSTAS LAS PIRAMIDES";winston7600@hotmail.com;;"(57) (2) 2814412";"Cr22 A 41-28 Colombia, Palmira"
"HOTEL CALI";marioferandoe@yahoo.es;;"(57) (2) 7364043";"Cl 15 A 10-77 LAS LUNAS Colombia, Pasto"
"AZULADO APARTAHOTEL";fadelza3071@hotmail.com;www.azuladoapartahotel.com;"(57) (2) 5565678";"Cr34 5 A-23 Colombia, Cali"
"HOTEL ROMA DELUXE";sily@une.net.co;www.tuhotelroma.com;"(57) (4) 2544676";"Cr50 C 60-13 Colombia, Medellín"
"MOTEL LA IGUANA";hotelanyros@hotmail.com;www.motellaiguana.es.tl;"(57) (8) 4200893";"Km 3 Vía Pitalito Colombia, Mocoa"
"MOTEL LAS VEGAS";tata270965@hotmail.com;www.motelasvegas.com;"(57) (2) 2139066";"Av Circunvalar 14-50 Colombia, Cartago"
"MOTEL MOMENTOS SUITES";momentossuites@gmail.com;www.motelmomentossuites.com;"(57) (4) 2510946";"Cr49 46-33 Colombia, Medellín"
"MOTEL NUEVO MERIDIAN";alexdavid900@hotmail.com;;"(57) (1) 2351545";"Cl 59 A 13 A-40 Colombia, Bogotá"
"MOTEL MOMENTOS";maluci@hotmail.com;;"(57) (4) 8206144";"Currulao Salida Hacia Turbo 1 Km Colombia, Turbo"
"MOTEL AS DE AMOR";marohe1075@hotmail.com;;"(57) (6) 3163630";"Vía Armenia Km 2 Colombia, Pereira"
"HOTEL NOCHES DE PARIS";gvoto_2006@hotmail.com;;"(57) (2) 8842018";"Cl 24 A   N 1   N-22 Colombia, Cali"
"HOTEL EL DIAMANTE";cristian.alzate.arango@gmail.com;;"(57) (5) 3200627";"Cl 41 38-65 Colombia, Barranquilla"
"HOTEL H Y M";hotelhym@gmail.com;www.hotelhympalmira.com;"(57) (2) 2728085";"Cr33 30-41 Colombia, Palmira"
"MOTEL EL JARDIN";mariagsalamancavelez@hotmail.com;;"(57) (6) 8899251";"Km 2 Vía Panamericana Colombia, Manizales"
"HOTEL TORRE IDEAL";hoteltorreideal@latinmail.com;;"(57) (2) 7214410";"Cl 18 A 6-20 Av. Idema Colombia, Pasto"
"MOTEL EL FARO";catamar80@hotmail.com;;"(57) (5) 3788425";"Cl 79 73-458 Colombia, Barranquilla"
"RESIDENCIA CAYENA REAL";beatrizevelasquezr@hotmail.com;;"(57) (5) 3706956";"Cl 42 44-109 Colombia, Barranquilla"
"MOTEL REFUGIO DE AMOR";motelrefugiodeamor@hotmail.com;;"(57) (6) 7485744";"Vía Montenegro Km 2 Colombia, Armenia"
"MOTEL VILLA DEL SOL Y GUADUALES";motelguaduales@uniweb.net.co;www.motelguaduales.com.co;"(57) (2) 2714099";"Cr32 Vía Candelaria Colombia, Palmira"
"MOTEL RIOS";carolina.eraso@hotmail.com;;"(57) (2) 7232198";"Cr22 B 14-75 Colombia, Pasto"
"MOTEL LA FINQUITA";motellafinquita@outlook.com;;"(57) (6) 7402379";"Vía a Balboa Km 1 Colombia, Armenia"
"FUN FACTORY COLOMBIA SEX-SHOP";info@funfactory-colombia.com;www.funfactory-colombia.com;"(57) (1) 2232831";"Cr92 64 C-59 Colombia, Bogotá"
"First Name";"Email Address";Url;Telephone;Address
"PARADISE MOTEL";paradisearmenia@outlook.com;;"(57) (6) 7485606";"Km 2 Vía Montenegro Colombia, Armenia"
"MOTEL LA FINQUITA";motellafinquita@outlook.com;;"(57) (6) 7402379";"Vía a Balboa Km 1 Colombia, Armenia"
"MOTEL REFUGIO DE AMOR";motelrefugiodeamor@hotmail.com;;"(57) (6) 7485744";"Vía Montenegro Km 2 Colombia, Armenia"
"SAN AGUSTÍN EVENTOS Y TURISMO";pradocentro@tusanagustin.com;www.tusanagustin.com;"(57) (4) 4444494";"Cl 60 45 D-71 Colombia, Medellín"
"HOTEL LE BLANC";;;"Conm.: (57) (4) 2604771";"Cl 50 67-66 Colombia, Medellín"
"MOTEL CASA BLANCA";;;"(57) (2) 4359014";"Km. 3 Vía Candelaria (Juanchito) Colombia, Cali"
"TABERNA RESIDENCIA LA ESMERALDA";;;"(57) (5) 3403438";"Cl 41 # 39-28 Colombia, Barranquilla"
"BAR MOTEL ANTURIO";;;"(57) (6) 3207686";"Vía Armenia Pereira Km 4 Colombia, Pereira"
"MOTEL FANTASIA";;;"(57) (2) 6411166";"Cr38 9-107 Yumbo Colombia, Cali"
"HOTEL SEÑORIAL";;;"(57) (2) 7734610";"Cl 14 4-36 Colombia, Ipiales"
"INVERSIONES PORTAL 2013 S.A.S.";;;"Telefax: (57) (1) 7100093";"Cl 31 S 69 B - 28 Colombia, Bogotá"
"APARTA HOTEL MILENIUM";;;"Nal: (57) (2) 4417735";"Cr15 31A-27 Colombia, Cali"
"EL GRAN MOTEL";;;"(57) (2) 6653890";"Cr38 9-106 Cj Inducón Menga Colombia, Cali"
"TAXI BILINGUE";;;"(57) (2) 3740546";"Cl 15 53-172 Ap 502-D Colombia, Cali"
"RESIDENCIAS CARAMELO";;;"(57) (2) 6629999";"Cr8 B 72 B-85 Colombia, Cali"
"MOTEL LOS RECUERDOS";;;"(57) (2) 2718111";"Km 2 Vía Tienda Nueva Colombia, Palmira"
"RESIDENCIAS MADDONA";;;"(57) (7) 6203336";"Cl 50 4-06 Colombia, Barrancabermeja"
"HOTEL DON MARCOS";;;"(57) (2) 8205095";"Cl 5 A 15-96 Colombia, Popayán"
"HOTEL RESIDENCIAS MI FANTASIA";;;"(57) (7) 6334628";"Cl 39 19-100 Colombia, Bucaramanga"
"MOTEL LAS VALLAS";;;"(57) (6) 8805283";"Cl 21 9-06 Colombia, Manizales"
"PUNTO 30 HOUSE";;;"(57) 3127765266";"Km 3 Vía al Huila Colombia, Popayán"
"RESIDENCIAS LOS CRISTALES";;;"(57) (2) 8841172";"Cr15 17-54 Colombia, Cali"
"RESIDENCIAS PLAYA AZUL";;;"(57) (1) 3664746";"Cl 17 A S 15-66 Colombia, Bogotá"
"HOTEL UNIVERSO";;;"(57) (5) 3743639";"Cr8 B 5-325 Colombia, Barranquilla"
"ULTRAPROYECTOS LTDA.";;;"(57) (8) 6824888";"Cl 26 25-90 Colombia, Villavicencio"
"MOTEL LA FINCA";;;"(57) (2) 6669177";"Parcelación La Dolores B-12-F Colombia, Cali"
"MOTEL YO Y TU VIP";;;"(57) (2) 6656069";"Cr38 9-117 Cj Inducom Menga Colombia, Cali"
"MOTEL FENIX";;;"(57) (1) 2314796";"Cl 73 69 B-22 Colombia, Bogotá"
"HOTEL ARCAY";;;"(57) (2) 6638409";"Cl 70 # 7 CBis-05 Colombia, Cali"
"MOTEL LAS ORQUIDEAS";;;"(57) (6) 3283972";"Av Simón Bolívar Cl 76 Júpiter Dosq Colombia, Pereira"
"MOTEL LA ISLA";;;"(57) (4) 2790665";"Cl 96 S 49 B-50 Colombia, Medellín"
"MOTEL PASIONES";;;"(57) (5) 6731105";"A 500 Mts de La Terminal de Transportes Colombia, Cartagena"
"MOTEL SANTANA";;;"(57) (2) 2124766";"Cl 54 2-15 Colombia, Cartago"
"HOTEL EL PARQUEADERO";;;"(57) (6) 8734522";"Cl 11 20-23 Colombia, Manizales"
"MOTEL SENSACIONES";;;"(57) (4) 4279078";"Cl 62 D 108 BB-11 Colombia, Medellín"
"DESEOS MOTEL";;;"(57) (5) 3195593";"Cr38 117-120 Km 3 Vía Juan Mina Colombia, Barranquilla"
"HOTEL SPECIAL ROOM";;;"(57) (4) 2510525";"Cl 49 49-50 Colombia, Medellín"
"DOLCE VITTA LTDA";;;"(57) (1) 2380043";"Cl 31 S 69-90 Colombia, Bogotá"
"MOTEL CUPIDO EL REY DEL AMOR";;;"(57) (7) 6738045";"Vía Rionegro Km 6 Café Madrid Colombia, Bucaramanga"
"AMOBLADOS CABAÑAS LA COLINA";;;"(57) (8) 7718892";"Vía al Llano Km 2 Vda. Santa Helena Colombia, Sogamoso"
"First Name";"Email Address";Url;Telephone;Address
"EL BUNQUER LTDA.";;;"Conm.: (57) (7) 5844499";"Km 3 Autop Internacional Lomitas Colombia, Cúcuta"
"APARTAHOTEL SIRIUS";;;"(57) (7) 6373660";"Vía Girón Km 4.3 Colombia, Bucaramanga"
"MOTEL VILLA HELENA";;;"(57) (7) 6451501";"Km 4 Vía Cucuta Colombia, Bucaramanga"
"MOTEL ILUSIONES";;;"(57) (2) 2722484";"Vía a Guayabal Km 5 Colombia, Palmira"
"MOTEL LAS VALLAS";;;"(57) (6) 8805283";"Cl 21 9-06 Colombia, Manizales"
"RESIDENCIAS LA CONQUISTA";;;"(57) (2) 4410409";"Cr15 36 A-73 Colombia, Cali"
"MOTEL EL FARO";;;"(57) (2) 5150282";"Cr3 15 C-76 Colombia, Cali"
"MOTEL MOTIVOS";;;"Conm.: (57) (4) 2794000";"Cl 80 S 50-123 La Estrella Colombia, Medellín"
"ESTADERO LA CANGREJA";;;"(57) (5) 6661340";"D. Lemaitre Cl 65 17 A-109 Colombia, Cartagena"
"MOTEL SAN JUANITO";;;"(57) (7) 5766445";"Av29 13 B-08 Vía Bocono Colombia, Cúcuta"
"MOTEL TANTRA";;;"(57) (8) 6689102";"Cr27 26 C-18 Porvenir Colombia, Villavicencio"
"LOS LPES";;;"(57) (1) 2789563";"Cl 18 S 15-22 P-2 Colombia, Bogotá"
"MOTEL PUNTO G";;;"(57) 3147286438";"Vía Roldanillo La Unión Carrt Panorama Km 4 Colombia, Roldanillo"
"MOTEL Y HOSPEDAJE LA FLECHA EN PUNTA CANA";;;"(57) (5) 6734004";"Vía Mamonal Km15 Colombia, Cartagena"
"AMOBLADOS LOS PRINCIPES";;;"(57) (5) 3721204";"Cl 42 39-67 Colombia, Barranquilla"
"HOTEL ROCAS DEL SUR";;;"(57) (1) 7100006";"Dg 49 sur 50 - 63 Colombia, Bogotá"
"AMOBLADOS CABAÑAS LA COLINA";;;"(57) (8) 7718892";"Vía al Llano Km 2 Vda. Santa Helena Colombia, Sogamoso"
"MOTEL EL PARAÍSO";;;"(57) (5) 4323716";"Km 2 Vía a Gaira frente Zona Franca Industrial Colombia, Santa Marta"
"ULTRAPROYECTOS LTDA.";;;"(57) (8) 6824888";"Cl 26 25-90 Colombia, Villavicencio"
"RESIDENCIAS I LOVE YOU";;;"(57) (2) 4431339";"Cl 33 A 15-71 Colombia, Cali"
"MOTEL EL GRAN SAMÁN";;;"(57) (2) 4436132";"Tr25 # 27-21 Colombia, Cali"
"MOTEL CONDORICOSAS";;;"(57) (2) 4861622";"Cr8 24-46 Colombia, Cali"
"RESIDENCIAS DINASTÍA";;;"(57) (2) 8890923";"Cr13 11-36 Colombia, Cali"
"ESTADERO CANDÓ";;;"(57) (4) 2740261";"Copacabana Colombia, Medellín"
"APARTAHOTEL AVENTURA";;;"(57) (2) 8964084";"Cl 5 12-55 Colombia, Cali"
"HOTEL SUITE LAS GÓNDOLAS";;;"(57) (1) 2306878";"Dg49 S 50-50 Colombia, Bogotá"
"MOULIN ROUGE";;;"(57) (6) 3244165";"Av del Río 7-02 Bavaria Colombia, Pereira"
"MOTEL PARADISE";;;"(57) (6) 8899148";"Carrt Panamericana Km 2 Los Alcázares Colombia, Manizales"
"MOTEL LEMON";;;"(57) (6) 3163631";"Km 2 Vía Armenia Colombia, Pereira"
"HOTEL DON MARCOS";;;"(57) (2) 8205095";"Cl 5 A 15-96 Colombia, Popayán"
"HOSPEDAJES Y RESIDENCIAS MONTERREY";;;"(57) (1) 8354585";"Cr13 35-80 Colombia, Girardot"
"MI GRANJITA";;;"(57) (7) 6315857";"Cr33 75-74 Carrt Antigua Floridablanca Km 3 Colombia, Bucaramanga"
"HOTEL RESIDENCIAS LA FONTANA";;;"(57) (8) 2643141";"Cr2 Cl 25 Esq. Colombia, Ibagué"
"MOTEL GÉMINIS";;;"(57) (2) 2208573";"Cl 9 3-106 Colombia, Zarzal"
"APARTA HOTEL INTIMO";;;"(57) (2) 6626079";"Cr9 A 73-03 Colombia, Cali"
"MOTEL LA CHINITA";;;"(57) (7) 5700823";"Cl 7 15-101 Via antigusa La Parada Colombia, Cúcuta"
"IN LOVE HOTEL";;;"(57) (4) 2335667";"Cr51 78-71 Colombia, Medellín"
"RESIDENCIAS LOS CRISTALES";;;"(57) (2) 8841172";"Cr15 17-54 Colombia, Cali"
"HOSTAL SOUTH BEACH";;;"(57) (4) 2324784";"Cr44 # 30-09 Colombia, Medellín"
"CHACÓN OLIVA";;;"(57) (1) 3293912";"Cr64 73-46 Colombia, Bogotá"
"First Name";"Email Address";Url;Telephone;Address
"MOTEL GÉMINIS";;;"(57) (2) 2208573";"Cl 9 3-106 Colombia, Zarzal"
"RESIDENCIAS MONTERREY";;;"(57) (2) 8892272";"Cl 17 15-23 Colombia, Cali"
"MOTEL LOVE STORY";;;"(57) (2) 6662864";"Cr34 16-04 Autop Cali Yumbo Km 2 Colombia, Cali"
"MOTEL COMPLICIDADES";;;"(57) (4) 4014297";"Dg52 12-43 Colombia, Medellín"
"AMOBLADOS EXAGONO";;;"(57) (6) 8837592";"Cr27 Cl 10 A-21 Colombia, Manizales"
"MOTEL ORQUÍDEA";;;"(57) 3187071183";"Cl 30 80-66 Colombia, Santa Marta"
"MOTEL EL BOSQUE RITMO'S DISCOBAR";;;"(57) (5) 4300169";"Cr21 43-31 Km 1 Colombia, Santa Marta"
"MOTEL LOS GIRASOLES";;;"(57) (2) 7731827";"Los Chilcos Colombia, Ipiales"
"MOTEL REY EROS";;;"(57) (2) 7217660";"Km 7 Vía Catambuco Colombia, Pasto"
COCONITO;;;"(57) (1) 4139881";"Tr93 51-53 Colombia, Bogotá"
"ESTADERO LOS COCHES";;;"(57) (7) 6468016";"Kms 10-11 Vía al Aeropuerto Colombia, Bucaramanga"
"MOTEL PACANDÉ";;;"(57) (6) 7477323";"Vía Jardines Km 1 Colombia, Armenia"
"DESEOS MOTEL";;;"(57) (5) 3195593";"Cr38 117-120 Km 3 Vía Juan Mina Colombia, Barranquilla"
"HOTEL PUNTO CERO";;;"(57) (4) 4376437";"Dg64 E 67-345 Colombia, Medellín"
"RESIDENCIAS NUEVO CHALET";;;"(57) (1) 2494330";"Cr 15 61-62 Colombia, Bogotá"
"MOTEL EL PORTAL";;;"(57) 3726396";"Cl 63 14 C-76 Los Rosales Soledad Colombia, Soledad"
"RESIDENCIAS EL ESCONDITE";;;"(57) (2) 8854173";"Cr 6 22-97 Colombia, Cali"
"APARTAHOTEL LAS MIL Y UNA NOCHES";;;"(57) (2) 2746731";"Cl 31 38 A-22 Colombia, Palmira"
"HOSTAL SOL Y LUNA";;;"(57) (2) 2721852";"Cl 44 10 -81 Colombia, Palmira"
"RESIDENCIAS EL RECUERDO";;;"(57) (7) 6707841";"Cl 30 16-70 Colombia, Bucaramanga"
"HOTEL - RESIDENCIAS D'KCH";;;"(57) (7) 6426948";"Cl 42 18-06 Colombia, Bucaramanga"
"RESIDENCIAS LAS MAGNOLIAS";;;"(57) (76) 6607947";"Cr7 10-61 Colombia, Málaga"
"MOTEL AMASIS";;;"(57) (6) 3329972";"Vía Armenia Km 4 Colombia, Pereira"
"HOSPEJADE JARDIN";;;"(57) (4) 2120097";"Cl 73 51-93 Colombia, Medellín"
"MOTEL SPARCIMIENTO'S";;;"(57) (2) 2137999";"Cr22 8-71 Colombia, Cartago"
"APARTA HOTEL LAS AVENIDAS";;;"(57) (2) 4369411";"Cr28 D 72 S-39 Colombia, Cali"
"MI GRANJITA";;;"(57) (7) 6315857";"Cr33 75-74 Carrt Antigua Floridablanca Km 3 Colombia, Bucaramanga"
"MOTEL MIRADOR CABAÑAS";;;"(57) (7) 6466694";"Vía Girón Km 2 Aeropuerto Colombia, Bucaramanga"
"MOTEL LAS ORQUIDEAS";;;"(57) (6) 3283972";"Av Simón Bolívar Cl 76 Júpiter Dosq Colombia, Pereira"
"MOTEL CLASSIC";;;"(57) (4) 4261220";"Cl 63 # 91-185 Colombia, Medellín"
"RESIDENCIAS EL BOSQUE";;;"(57) (4) 5730949";"Cl 73 51-45 Colombia, Medellín"
"AFRODITA MOTEL";;;"(57) (2) 6907908";"Cl 10 30-153 Colombia, Cali"
"MOTEL PARADOR";;;"(57) (5) 6637574";"Turbaco Plan Parejo Cr15 29-108 Colombia, Cartagena"
"MOTEL EL CASTILLO";;;"(57) 3147124048";"Km 4 Calarcá Via al Valle Colombia, Calarcá"
"MOTEL LOS COCHES";;;"(57) 3136932412";"Vía al Valle Km 5 Colombia, Armenia"
"MOTEL SENSACIONES";;;"(57) (4) 4279078";"Cl 62 D 108 BB-11 Colombia, Medellín"
"BAR MOTEL ANTURIO";;;"(57) (6) 3207686";"Vía Armenia Pereira Km 4 Colombia, Pereira"
"MOTEL ESTA ES MI FINQUITA";;;"(57) (5) 5825948";"Cl 44 34-15 Colombia, Valledupar"
"HOSTAL ALTOS DE LA CALERA";;;"(57) (1) 6320999";"Vía La Calera Km 4.5 Colombia, Bogotá"
"MOTEL NOCHE DE LUNA";;;"(57) (2) 6655900";"Cr38 9-97 Cj Inducon Menga Colombia, Cali"
"First Name";"Email Address";Url;Telephone;Address
"HOTEL RESIDENCIAS MI FANTASIA";;;"(57) (7) 6334628";"Cl 39 19-100 Colombia, Bucaramanga"
"AMOBLADOS EL BALCÓN";;;"(57) (2) 3376686";"Cr46 A 45-17 Colombia, Cali"
"MOTEL LA HACIENDA";;;"(57) (5) 4229371";"Km 7 Troncal del Caribe Colombia, Santa Marta"
"MOTEL EL BOSQUE RITMO'S DISCOBAR";;;"(57) (5) 4300169";"Cr21 43-31 Km 1 Colombia, Santa Marta"
"HOSTAL APARTAMENTOS SAMARA";;;"(57) (1) 2351221";"Cr14 A 60-50 Colombia, Bogotá"
"MOTEL REY EROS";;;"(57) (2) 7217660";"Km 7 Vía Catambuco Colombia, Pasto"
"MASAJES LA NOCHE";;;"(57) (4) 3160002";"Cr52 25-84 Colombia, Medellín"
"RESIDENCIAS WALKIRIA";;;"(57) (5) 3444300";"Cr 53 61 35 Colombia, Barranquilla"
"MOTEL MANHATAN";;;"(57) (4) 7640358";"Partida Para San Carlos Km 4 Colombia, Cereté"
"MOTEL CASA BLANCA";;;"(57) (2) 4359014";"Km. 3 Vía Candelaria (Juanchito) Colombia, Cali"
"MOTEL CESAR'S PALACE";;;"(57) (5) 3591278";"Cr38 100-102 Entrada Juan Mina Colombia, Barranquilla"
"MOTEL EL PORTAL";;;"(57) 3726396";"Cl 63 14 C-76 Los Rosales Soledad Colombia, Soledad"
"MOTEL SANTA BARBARA";;;"(57) (5) 5825176";"Cr7 A 42-130 Colombia, Valledupar"
"CANCÚN CAPRI-RESIDENCIAS";;;"(57) (5) 5712233";"Cr15 19 D-63 (Mercado Nuevo) Colombia, Valledupar"
"AMOBLADOS CABAÑAS LA COLINA";;;"(57) (8) 7718892";"Vía al Llano Km 2 Vda. Santa Helena Colombia, Sogamoso"
"HOTEL RESIDENSIAL LYON";;;"(57) (2) 5577786";"Cl 8 23-09 Colombia, Cali"
"MOTEL NOCHE DE LUNA";;;"(57) (2) 6655900";"Cr38 9-97 Cj Inducon Menga Colombia, Cali"
"RESIDENCIAS EL ESCONDITE";;;"(57) (2) 8854173";"Cr 6 22-97 Colombia, Cali"
"HOTEL RESIDENCIAS K3";;;"(57) (2) 8960300";"Cr 12 21-10 Colombia, Cali"
"HOTEL Y RESIDENCIAS TARDES DE PARIS NO 2";;;"(57) (2) 8822183";"Cl 25 Cr9 Esq Colombia, Cali"
"RESIDENCIAS CARAMELO";;;"(57) (2) 6629999";"Cr8 B 72 B-85 Colombia, Cali"
"MOTEL DEL RIO";;;"(57) (2) 2273156";"Km 1.5 Vía Buga-Buenaventura Colombia, Buga"
"RESIDENCIAS EL RECUERDO";;;"(57) (7) 6707841";"Cl 30 16-70 Colombia, Bucaramanga"
"APARTAHOTEL EL ENCANTO";;;"(57) (8) 8704270";"Km 9 Vía Al Sur Colombia, Neiva"
"MOTEL STARS";;;"(57) (7) 6466696";"Km 12 Vía Lebrija Aeropuerto Colombia, Bucaramanga"
"MOTEL MOTIVOS DEL CORAZÓN";;;"(57) (2) 2122165";"Km 2 Vía Alcalá-Cartago Colombia, Cartago"
"RESIDENCIAS TAXCALA";;;"(57) (7) 6520562";"Cl 30 # 16-34 Colombia, Bucaramanga"
"MOTEL ARIZONA";;;"(57) (6) 8899382";"Vía Panamericana Km 2 Colombia, Manizales"
"RESIDENCIAS TAMINAKA";;;"(57) (5) 4214894";"Cl 24 8-19 Colombia, Santa Marta"
"MOTEL ORQUÍDEA";;;"(57) 3187071183";"Cl 30 80-66 Colombia, Santa Marta"
"MOTEL CLARO DE LUNA";;;"(57) (2) 4417173";"Tr30 17 F-39 Colombia, Cali"
"MOTEL TRAVESURAS";;;"(57) (2) 6664967";"Cl 10 30-20 Yumbo Colombia, Yumbo"
IBIZA;;;"(57) (2) 6553350";"Cr32 9-63 Antigua Vía Cali Yumbo Colombia, Yumbo"
"EL REMANSO";;;"(57) (4) 2544814";"Cl 61 50 C- 59 Colombia, Medellín"
"MOTEL LOS COCHES";;;"(57) (4) 2121011";"Cl71 51-60 Colombia, Medellín"
SONILUJOS;;;"(57) (6) 3648505";"Cl 16 11-68 P-1 Colombia, Santa Rosa de Cabal"
"CABAÑAS ZONA ROSA";;;"(57) (7) 6820299";"Carrt Florida 50 Mts Antigua E-Bellavista Colombia, Bucaramanga"
"MOTEL CUPIDO EL REY DEL AMOR";;;"(57) (7) 6738045";"Vía Rionegro Km 6 Café Madrid Colombia, Bucaramanga"
"INVERSIONES GRAN PORTAL 2013 S.A.S.";;;"Telefax: (57) (1) 7107862";"Cl 31 S 69 B - 25 Colombia, Bogotá"
"RESIDENCIAS I LOVE YOU";;;"(57) (2) 4431339";"Cl 33 A 15-71 Colombia, Cali"
"First Name";"Email Address";Url;Telephone;Address
"MOTEL OASIS";;;"(57) (2) 2107878";"Cl 10 Cr22 Vía A Cali Colombia, Cartago"
"MOTEL YO Y TU FOR STARS";;;"(57) (2) 6656069";"Av6 N 72-20 Colombia, Cali"
"MOTEL SAN JUANITO";;;"(57) (7) 5766445";"Av29 13 B-08 Vía Bocono Colombia, Cúcuta"
"LAS PIRAMIDES - MOTEL";;;"(57) (1) 2493995";"Cl 60 14 A-16 Colombia, Bogotá"
"MOTEL SANTAROS";;;"(57) (5) 6534040";"Cr86 22 B-280 Colombia, Cartagena"
"COMPAÑÍA VALNOSA S.A.";;;"(57) (2) 8960300";"Cr12 21-10 Colombia, Cali"
"MOTEL Y HOSPEDAJE LA FLECHA EN PUNTA CANA";;;"(57) (5) 6734004";"Vía Mamonal Km15 Colombia, Cartagena"
"TABERNA RESIDENCIA LA ESMERALDA";;;"(57) (5) 3403438";"Cl 41 # 39-28 Colombia, Barranquilla"
"RESIDENCIAS EL NIDO";;;"(57) (5) 3460984";"Cr27 # 38-33 Colombia, Barranquilla"
"MOTEL SANTA BARBARA";;;"(57) (5) 5825176";"Cr7 A 42-130 Colombia, Valledupar"
"MOTEL HOLLYWOOD";;;"(57) (5) 5716789";"Cl 44 21-74 avenida Colombia, Valledupar"
"HOSTAL ALTOS DE LA CALERA";;;"(57) (1) 6320999";"Vía La Calera Km 4.5 Colombia, Bogotá"
"MOTEL 1A";;;"(57) (2) 6654455";"Cr38 9-121 Menga Yumbo Colombia, Yumbo"
"MOTEL ONLY";;;"(57) (4) 3734142";"Av Pilsen 37 B 43-50 Colombia, Medellín"
"RESIDENCIAS CRISTAL PALACÉ";;;"(57) (2) 8804489";"Cl 21 4-41 Colombia, Cali"
"HOTEL Y RESIDENCIAS TARDES DE PARIS NO 2";;;"(57) (2) 8822183";"Cl 25 Cr9 Esq Colombia, Cali"
"MOTEL MENGA";;;"(57) (2) 6644555";"Cl 10 38-104 Acopi Yumbo Colombia, Yumbo"
"APARTAHOTEL EL CASTILLO";;;"(57) (2) 5537124";"Cl 10 49-53 Colombia, Cali"
"APARTAHOTEL VENECIA";;;"(57) (2) 3270452";"Cl 36 42 B-93 Colombia, Cali"
"RESIDENCIAS SANTA ELENA";;;"(57) (2) 3359557";"Cr29 23-42 P-2 Colombia, Cali"
"MOTEL REY EROS";;;"(57) (2) 7217660";"Km 7 Vía Catambuco Colombia, Pasto"
"AFRODITA MOTEL";;;"(57) (2) 6907908";"Cl 10 30-153 Colombia, Cali"
"HOSTAL SOUTH BEACH";;;"(57) (4) 2324784";"Cr44 # 30-09 Colombia, Medellín"
"MOTEL TRAVESURAS";;;"(57) (2) 6664967";"Cl 10 30-20 Yumbo Colombia, Yumbo"
"RESIDENCIAS MEDIA LUNA";;;"(57) (7) 6303823";"Cr17 A 24-48 P-3 Alarcón Colombia, Bucaramanga"
"HOTEL EL RINCÓN";;;"(57) (4) 5111605";"Cr50 A 53-10 Colombia, Medellín"
"MOTEL LOS COCHES";;;"(57) (4) 2121011";"Cl71 51-60 Colombia, Medellín"
"MOTEL MOMENTOS";;;"(57) (4) 8206144";"K 1 Salida Turbo Colombia, Currulao"
"MOTEL CESAR'S PALACE";;;"(57) (5) 3591278";"Cr38 100-102 Entrada Juan Mina Colombia, Barranquilla"
"GIRALDO GARCÍA LUIS EVELIO";;;"(57) (2) 6644555";"Cl 70 N 2 A-130 Yumbo Colombia, Cali"
"MOTEL EROS";;;"(57) (1) 7430782";"Cl 64 14-46 Colombia, Bogotá"
"HOTEL SEÑORIAL";;;"(57) (2) 7734610";"Cl 14 4-36 Colombia, Ipiales"
"HOTEL SPECIAL ROOM";;;"(57) (4) 2510525";"Cl 49 49-50 Colombia, Medellín"
"DOLCE VITTA LTDA";;;"(57) (1) 2380043";"Cl 31 S 69-90 Colombia, Bogotá"
"AMOBLADOS MELÉNDEZ";;;"(57) (2) 5523464";"Cl 5 62 A-147 Colombia, Cali"
"MOTEL LA FINCA";;;"(57) (2) 6669177";"Parcelación La Dolores B-12-F Colombia, Cali"
"MOTEL YO Y TU VIP";;;"(57) (2) 6656069";"Cr38 9-117 Cj Inducom Menga Colombia, Cali"
"RESIDENCIAS RAMIREZ";;;"(57) (2) 8811397";"Cr7 A 23-43 Colombia, Cali"
"MOTEL DEL RIO";;;"(57) (2) 2273156";"Km 1.5 Vía Buga-Buenaventura Colombia, Buga"
"APARTAHOTEL EL ENCANTO";;;"(57) (8) 8704270";"Km 9 Vía Al Sur Colombia, Neiva"
"First Name";"Email Address";Url;Telephone;Address
"MOTEL LUGANO";;;"(57) (4) 2911404";"Cl 56 45-73 Colombia, Medellín"
"RESIDENCIAS LA PAMPA";;;"(57) (1) 2434636";"Cr13 15-57 P-2 Colombia, Bogotá"
"MOTEL EL PORTAL";;;"(57) 3726396";"Cl 63 14 C-76 Los Rosales Soledad Colombia, Soledad"
"MORALES AYALA ALDEMAR";;;"(57) (5) 3595550";"Cr38 117-40 Km 3 Vía Juan Mina Colombia, Barranquilla"
"MOTEL EL CASTILLO DEL AMOR";;;"(57) (5) 6817233";"Las Palmeras Tr54 77-75 Colombia, Cartagena"
"HOSTAL CENTRAL PARK MEDELLÍN";;;"(57) (4) 2123025";"Cr51 C 71-68 Int 101 Colombia, Medellín"
"MOTEL 1A";;;"(57) (2) 6654455";"Cr38 9-121 Menga Yumbo Colombia, Yumbo"
"HOTEL RESIDENCIAS ESPAÑA";;;"(57) (4) 5132997";"Cl 52 54-56 Colombia, Medellín"
"MOTEL NOCHE DE LUNA";;;"(57) (2) 6655900";"Cr38 9-97 Cj Inducon Menga Colombia, Cali"
"AMOBLADOS MELÉNDEZ";;;"(57) (2) 5523464";"Cl 5 62 A-147 Colombia, Cali"
"EROS AMOBLADOS";;;"(57) (2) 6626442";"Cr8 72 B-18 Colombia, Cali"
"MOTEL EXTASIS";;;"(57) (2) 6655536";"Av3 N 71-38 Colombia, Cali"
"HOTEL Y RESIDENCIAS TARDES DE PARIS NO 2";;;"(57) (2) 8822183";"Cl 25 Cr9 Esq Colombia, Cali"
"TAXI BILINGUE";;;"(57) (2) 3740546";"Cl 15 53-172 Ap 502-D Colombia, Cali"
"APARTAHOTEL LAS MIL Y UNA NOCHES";;;"(57) (2) 2746731";"Cl 31 38 A-22 Colombia, Palmira"
"MOTEL DEL RIO";;;"(57) (2) 2273156";"Km 1.5 Vía Buga-Buenaventura Colombia, Buga"
"HOTEL - RESIDENCIAS D'KCH";;;"(57) (7) 6426948";"Cl 42 18-06 Colombia, Bucaramanga"
"APARTA HOTEL LAS AVENIDAS";;;"(57) (2) 4369411";"Cr28 D 72 S-39 Colombia, Cali"
"MOTEL MIRADOR CABAÑAS";;;"(57) (7) 6466694";"Vía Girón Km 2 Aeropuerto Colombia, Bucaramanga"
IBIZA;;;"(57) (2) 6553350";"Cr32 9-63 Antigua Vía Cali Yumbo Colombia, Yumbo"
"AMOBLADOS MONTERREY";;;"(57) (2) 8836630";"Cr3 16-29 Colombia, Cali"
"APARTAHOTEL CASTILLO";;;"(57) (6) 3388601";"A 4 Km. de Pereira Vía Armenia Colombia, Pereira"
"HOTEL MOMENTOS PLAZA";;;"(57) (4) 2282798";"Cl 49 43-62 Colombia, Medellín"
"MOTEL LA POSADA";;;"(57) (8) 8742392";"km 1 via palermo Colombia, Neiva"
"MOTEL AMORIENTE";;;"(57) (2) 8238524";"Km 1 Vía al Huila Colombia, Popayán"
"RESIDENCIAS NUEVO CHALET";;;"(57) (1) 2494330";"Cr 15 61-62 Colombia, Bogotá"
"HOTEL SPECIAL ROOM";;;"(57) (4) 2510525";"Cl 49 49-50 Colombia, Medellín"
"INVERSIONES PORVENIR GLOC 2013 S.A.S.";;;"Telefax: (57) (1) 3114029";"Cr69 H 72 - 70 Colombia, Bogotá"
"HOTEL ROCAS DEL SUR";;;"(57) (1) 7100006";"Dg 49 sur 50 - 63 Colombia, Bogotá"
"RESIDENCIAS I LOVE YOU";;;"(57) (2) 4431339";"Cl 33 A 15-71 Colombia, Cali"
"APARTAHOTEL SENSACIONES";;;"(57) (2) 8961222";"Cr10 21-35 Colombia, Cali"
"RESIDENCIAS EL ESCONDITE";;;"(57) (2) 8854173";"Cr 6 22-97 Colombia, Cali"
"ESTADERO CANDÓ";;;"(57) (4) 2740261";"Copacabana Colombia, Medellín"
"ZONA G";;;"(57) (7) 6820494";"A 50 Mts de La Entrada Principal de Bellavista Colombia, Bucaramanga"
"HOTEL Y HOSPEDAJE LA MOLIENDA";;;"(57) (7) 6550380";"Cl 9 5-31 Colombia, Bucaramanga"
"MOTEL AMASIS";;;"(57) (6) 3329972";"Vía Armenia Km 4 Colombia, Pereira"
"EL REPOSO DEL GUERRERO";;;"(57) (7) 5815866";"Vía Zulia Reposo El Progreso-Atalaya Colombia, Cúcuta"
"VENUS MOTEL";;;"(57) (2) 4359015";"Vía Cavasa Km 3 Colombia, Cali"
"HOSTAL SOL Y LUNA";;;"(57) 3185626198";"Dg2 15-65 Frente A La Bombonera Colombia, Buga"
"MOTEL VILLA HELENA";;;"(57) (7) 6451501";"Km 4 Vía Cucuta Colombia, Bucaramanga"
"First Name";"Email Address";Url;Telephone;Address
"MOTEL BELLO HORIZONTE";;;"(57) (2) 8248286";"Cl 66 N 10 A-05 Colombia, Popayán"
"MOTEL TRONCAL";;;"(57) (5) 4301677";"Carrt Troncal del Caribe Corregimiento de Mamatoco Colombia, Santa Marta"
"APARTAHOTEL AVENTURA";;;"(57) (2) 8964084";"Cl 5 12-55 Colombia, Cali"
"MOTEL KISS ME";;;"(57) (2) 4861616";"Cl 29 15-38 Colombia, Cali"
"MOTEL PASIONES";;;"(57) (5) 6731105";"A 500 Mts de La Terminal de Transportes Colombia, Cartagena"
"MOTEL CINCO ESTRELLAS INTERNACIONAL";;;"(57) (5) 2826379";"Variante Km 1 Vía a Tolú Colombia, Sincelejo"
"MOTEL MAR AZUL";;;"(57) (1) 2400370";"Cl 73 69 B-74 Colombia, Bogotá"
"BAR MOTEL ANTURIO";;;"(57) (6) 3207686";"Vía Armenia Pereira Km 4 Colombia, Pereira"
"RESIDENCIAS EL NIDO";;;"(57) (5) 3460984";"Cr27 # 38-33 Colombia, Barranquilla"
"MOTEL ENCANTO VIP";;;"(57) (1) 2502702";"Cr69 H 73-24 Colombia, Bogotá"
"DOLCE VITTA LTDA";;;"(57) (1) 2380043";"Cl 31 S 69-90 Colombia, Bogotá"
"RESIDENCIAS EL RECUERDO";;;"(57) (7) 6707841";"Cl 30 16-70 Colombia, Bucaramanga"
"RESIDENCIAL PASIONES";;;"(57) (2) 4417197";"Cr15 58-62 Colombia, Cali"
"RESIDENCIAS MI OFICINA";;;"(57) (7) 6433216";"Cr18 54-83 La Concordia Centro Colombia, Bucaramanga"
"HOTEL RESIDENCIAS LA FONTANA";;;"(57) (8) 2643141";"Cr2 Cl 25 Esq. Colombia, Ibagué"
"APARTAHOTEL EL CASTILLO";;;"(57) (2) 5537124";"Cl 10 49-53 Colombia, Cali"
"MOTEL LAS ORQUIDEAS";;;"(57) (6) 3283972";"Av Simón Bolívar Cl 76 Júpiter Dosq Colombia, Pereira"
"HOTEL MOMENTOS PLAZA";;;"(57) (4) 2282798";"Cl 49 43-62 Colombia, Medellín"
"CABAÑAS ZONA ROSA";;;"(57) (7) 6820299";"Carrt Florida 50 Mts Antigua E-Bellavista Colombia, Bucaramanga"
"HOTEL ANGEL";;;"(57) (2) 6624394";"Cr8 # 72-78 P-2 Colombia, Cali"
"RESIDENCIAS CARAMELO";;;"(57) (2) 6629999";"Cr8 B 72 B-85 Colombia, Cali"
"MOTEL BRISAS DEL AMOR";;;"(57) (2) 2286819";"Variante Vía Buga -Palmira Colombia, Buga"
"APARTA HOTEL SECRETOS";;;"(57) (2) 4341940";"Cl70 1 A 11-39 Colombia, Cali"
"BAVEL LTDA.";;;"(57) (4) 2316757";"Cl 52 49-28 Of 401 Colombia, Medellín"
"HOSPEJADE JARDIN";;;"(57) (4) 2120097";"Cl 73 51-93 Colombia, Medellín"
"RESTAURANTE MILENIUM";;;"(57) (2) 2729825";"Vía A Guayabal Km 2 Colombia, Palmira"
"MOTEL ARIZONA";;;"(57) (6) 8899382";"Vía Panamericana Km 2 Colombia, Manizales"
"SEX SHOP-KAMASUTRA";;;"(57) (2) 8209133";"C.C. Anarkos Plaza Cl 6 Cr6 Nivel 2 L-31 Colombia, Popayán"
"MOTEL VILLAMOR";;;"(57) (2) 7217666";"Botanilla Km 6 Catambuco Colombia, Pasto"
"MOTEL CLASSIC";;;"(57) (4) 4261220";"Cl 63 # 91-185 Colombia, Medellín"
"APARTAHOTEL LOS REFUGIOS";;;"(57) (1) 8366760";"Vía Girardot-Melgar Km 5 Colombia, Girardot"
"MOTEL EL PARAISO CAMPESTRE";;;"Telefax: (57) (5) 3766690";"Cr6 10 A-69 Colombia, Barranquilla"
"MOTEL NUEVA IRLANDA";;;"(57) (1) 3429811";"Cr16 23-78 Colombia, Bogotá"
"HOSTAL SOL Y LUNA";;;"(57) 3185626198";"Dg2 15-65 Frente A La Bombonera Colombia, Buga"
"APARTAHOTEL PALMEIRAS";;;"(57) (7) 6367760";"Cr33 70-58 Quebrada La Iglesia Colombia, Bucaramanga"
"MOTEL GÉMINIS";;;"(57) (2) 2208573";"Cl 9 3-106 Colombia, Zarzal"
"APARTAHOTEL VENECIA";;;"(57) (2) 3270452";"Cl 36 42 B-93 Colombia, Cali"
"LA SIESTA";;;"(57) (6) 3388011";"Vía Armenia Km 7 Colombia, Pereira"
"ESTADERO LA CANGREJA";;;"(57) (5) 6661340";"D. Lemaitre Cl 65 17 A-109 Colombia, Cartagena"
"MOTEL SAHARA";;;"(57) 3146627472";"Vía Al Caimo Km 2 Colombia, Armenia"
"First Name";"Email Address";Url;Telephone;Address
"MOTEL LAS DELICIAS";;;"(57) (2) 7200660";"Vía Panamericana Sur Km 4 Colombia, Pasto"
"MOTEL LOS LAURELES CRIBA";;;"(57) (5) 6720708";"La Quinta Cl 33-27 A-67 Colombia, Cartagena"
"MOTEL ONLY";;;"(57) (4) 3734142";"Av Pilsen 37 B 43-50 Colombia, Medellín"
"MOTEL PANAMERICANO";;;"(57) (2) 3390959";"Cl 4 70-04 Colombia, Cali"
"MEDIA NARANJA MOTEL";;;"(57) (2) 8203920";"Vía al Huila Brr. Colina de Pomona Colombia, Popayán"
"MOTEL EL BOSQUE RITMO'S DISCOBAR";;;"(57) (5) 4300169";"Cr21 43-31 Km 1 Colombia, Santa Marta"
"MOTEL SAHARA";;;"(57) 3146627472";"Vía Al Caimo Km 2 Colombia, Armenia"
"APARTA HOTEL SECRETOS";;;"(57) (2) 4341940";"Cl70 1 A 11-39 Colombia, Cali"
"HOTEL - RESIDENCIAS D'KCH";;;"(57) (7) 6426948";"Cl 42 18-06 Colombia, Bucaramanga"
"HOTEL Y HOSPEDAJE LA MOLIENDA";;;"(57) (7) 6550380";"Cl 9 5-31 Colombia, Bucaramanga"
"RESIDENCIAS MI OFICINA";;;"(57) (7) 6433216";"Cr18 54-83 La Concordia Centro Colombia, Bucaramanga"
"PROYECTO Y DISEÑO LTDA";;;"(57) (1) 2253588";"Tr69 Bis 72-63 Colombia, Bogotá"
"MOTEL REY EROS";;;"(57) (2) 7217660";"Km 7 Vía Catambuco Colombia, Pasto"
"CABAÑAS ZONA ROSA";;;"(57) (7) 6820299";"Carrt Florida 50 Mts Antigua E-Bellavista Colombia, Bucaramanga"
"CASA FONTANA";;;"(57) (1) 2556063";"Calle 62 No 15-30 Colombia, Bogotá"
"MOTEL EL PORTAL";;;"(57) 3726396";"Cl 63 14 C-76 Los Rosales Soledad Colombia, Soledad"
"MOTEL ENCANTO VIP";;;"(57) (1) 2502702";"Cr69 H 73-24 Colombia, Bogotá"
"HOTEL RESIDENCIAS ESPAÑA";;;"(57) (4) 5132997";"Cl 52 54-56 Colombia, Medellín"
"MOTEL EL GRAN SAMÁN";;;"(57) (2) 4436132";"Tr25 # 27-21 Colombia, Cali"
"INVERSIONES PALATINO LTDA";;;"(57) (2) 5553013";"Vía Jamundí Km 3 Variante Puerto Tejada Colombia, Cali"
"MOTEL SEX AND LOVE";;;"(57) (2) 6669308";"Cl 0 T 2-174 Vía Cali-Palmira Colombia, Cali"
"APARTAHOTEL SABORES";;;"(57) (2) 3264116";"Cr29 A 1 12 B-173 Colombia, Cali"
"APARTAHOTEL EL ENCANTO";;;"(57) (8) 8704270";"Km 9 Vía Al Sur Colombia, Neiva"
"APARTA HOTEL LEMUA";;;"(57) (2) 3395104";"Cl 10 64 A-23 Colombia, Cali"
"AMOBLADOS EL BALCÓN";;;"(57) (2) 3376686";"Cr46 A 45-17 Colombia, Cali"
"HOTEL CASA BONITA";;;"(57) (4) 2301713";"Cl 51 67 B-101 Colombia, Medellín"
"ULTRAPROYECTOS LTDA.";;;"(57) (8) 6824888";"Cl 26 25-90 Colombia, Villavicencio"
"APARTAHOTEL CASTILLO";;;"(57) (6) 3388601";"A 4 Km. de Pereira Vía Armenia Colombia, Pereira"
"MOTEL CIUDADELA DORESKY";;;"(57) (4) 4810052";"Vía Machado Copacabána Colombia, Medellín"
"LA PLAZA DE LA CERVEZA-AGUILA LA RUMBA DE HOY";;;"(57) (5) 3722950";"Cl 45 20-131 Colombia, Barranquilla"
"LA CALERA";;;"(57) (5) 3406495";"Cr41 43-57 Colombia, Barranquilla"
"MOTEL 1A";;;"(57) (2) 6654455";"Cr38 9-121 Menga Yumbo Colombia, Yumbo"
"MOTEL NOCHE DE LUNA";;;"(57) (2) 6655900";"Cr38 9-97 Cj Inducon Menga Colombia, Cali"
"RESIDENCIAS EL ESCONDITE";;;"(57) (2) 8854173";"Cr 6 22-97 Colombia, Cali"
"MOTEL YO Y TU VIP";;;"(57) (2) 6656069";"Cr38 9-117 Cj Inducom Menga Colombia, Cali"
"EL BUNQUER LTDA.";;;"Conm.: (57) (7) 5844499";"Km 3 Autop Internacional Lomitas Colombia, Cúcuta"
"RESIDENCIAS TAMINAKA";;;"(57) (5) 4214894";"Cl 24 8-19 Colombia, Santa Marta"
"MOTEL OASIS";;;"(57) (2) 2107878";"Cl 10 Cr22 Vía A Cali Colombia, Cartago"
"HOTEL EXÓTICO";;;"(57) (4) 5125619";"Cl 55 52-48 Colombia, Medellín"
"RESIDENCIAS CRISTAL PALACÉ";;;"(57) (2) 8804489";"Cl 21 4-41 Colombia, Cali"
"First Name";"Email Address";Url;Telephone;Address
"MOTEL COMPLICIDADES";;;"(57) (4) 4014297";"Dg52 12-43 Colombia, Medellín"
"RESIDENCIAS TAXCALA";;;"(57) (7) 6520562";"Cl 30 # 16-34 Colombia, Bucaramanga"
"MOTEL EMPERADOR";;;"(57) (6) 8899298";"Km 4 Antigua Vía Chinchiná Colombia, Manizales"
"HOTEL RESIDENCIAS MONTPELLIER";;;"(57) (7) 6346802";"Cl 33 23-68 Colombia, Bucaramanga"
"MOTEL ARIZONA";;;"(57) (6) 8899382";"Vía Panamericana Km 2 Colombia, Manizales"
"SEX SHOP-KAMASUTRA";;;"(57) (2) 8209133";"C.C. Anarkos Plaza Cl 6 Cr6 Nivel 2 L-31 Colombia, Popayán"
"RESIDENCIAS TAMINAKA";;;"(57) (5) 4214894";"Cl 24 8-19 Colombia, Santa Marta"
"HOTEL LUCCA";;;"(57) (4) 2511859";"Cr54 54-60 Colombia, Medellín"
"ROMANCES SUITES";;;"(57) 3212167388";"Km 2 Pitalito-Timaná Colombia, Pitalito"
"MOTEL MANHATAN";;;"(57) (4) 7640358";"Partida Para San Carlos Km 4 Colombia, Cereté"
"HOSPEDAJE SANTANA";;;"(57) (2) 6570730";"Cr4 Oe 20-150 Yumbo Colombia, Yumbo"
"RESIDENCIAS PLAYA AZUL";;;"(57) (1) 3664746";"Cl 17 A S 15-66 Colombia, Bogotá"
"HOTEL EL PARQUEADERO";;;"(57) (6) 8734522";"Cl 11 20-23 Colombia, Manizales"
"SECRETOS DE AMOR";;;"(57) (5) 3581159";"Cr53 68-204 Colombia, Barranquilla"
"AMOBLADOS LOS PRINCIPES";;;"(57) (5) 3721204";"Cl 42 39-67 Colombia, Barranquilla"
"MOTEL CESAR'S PALACE";;;"(57) (5) 3591278";"Cr38 100-102 Entrada Juan Mina Colombia, Barranquilla"
"MOTEL EL PORTAL";;;"(57) 3726396";"Cl 63 14 C-76 Los Rosales Soledad Colombia, Soledad"
"MOTEL ACAPULCO";;;"(57) (5) 5745955";"Cl 20 11-131 Colombia, Valledupar"
"MOTEL ENCANTO VIP";;;"(57) (1) 2502702";"Cr69 H 73-24 Colombia, Bogotá"
"MOTEL ACUARIO";;;"(57) (1) 2385721";"Cr69 C 31-04 S Colombia, Bogotá"
"MOTEL EL GRAN SAMÁN";;;"(57) (2) 4436132";"Tr25 # 27-21 Colombia, Cali"
"HOTEL RESIDENCIAS LAS PALMITAS";;;"(57) (2) 5543009";"Cl 15 21-72 Colombia, Cali"
"MOTEL YO Y TU VIP";;;"(57) (2) 6656069";"Cr38 9-117 Cj Inducom Menga Colombia, Cali"
"RESIDENCIAS CARAMELO";;;"(57) (2) 6629999";"Cr8 B 72 B-85 Colombia, Cali"
"MOTEL DEL RIO";;;"(57) (2) 2273156";"Km 1.5 Vía Buga-Buenaventura Colombia, Buga"
"MOTEL PARADISE";;;"(57) (6) 8899148";"Carrt Panamericana Km 2 Los Alcázares Colombia, Manizales"
"EL BUNQUER LTDA.";;;"Conm.: (57) (7) 5844499";"Km 3 Autop Internacional Lomitas Colombia, Cúcuta"
"APARTAHOTEL MANABI";;;"(57) (2) 8959756";"Cr11 24-53 Colombia, Cali"
"MOTEL PANAMERICANO";;;"(57) (2) 3390959";"Cl 4 70-04 Colombia, Cali"
"HOTEL RESIDENCIAS LA FONTANA";;;"(57) (8) 2643141";"Cr2 Cl 25 Esq. Colombia, Ibagué"
"ESTADERO MOTEL LOS GANZOS";;;"(57) (7) 6352944";"Vía A Pamplona Km 4 Buenos Aires Colombia, Bucaramanga"
"APARTA HOTEL INTIMO";;;"(57) (2) 6626079";"Cr9 A 73-03 Colombia, Cali"
"MOTEL MOTIVOS DEL CORAZÓN";;;"(57) (2) 2122165";"Km 2 Vía Alcalá-Cartago Colombia, Cartago"
"INVERSIONES NORCAR S.A.S.";;;"Telefax: (57) (1) 2502459";"Cr69 H 73 - 64 Colombia, Bogotá"
"MOTEL REY EROS";;;"(57) (2) 7217660";"Km 7 Vía Catambuco Colombia, Pasto"
"MASAJES LA NOCHE";;;"(57) (4) 3160002";"Cr52 25-84 Colombia, Medellín"
"AFRODITA MOTEL";;;"(57) (2) 6907908";"Cl 10 30-153 Colombia, Cali"
"MOTEL AMORIENTE";;;"(57) (2) 8238524";"Km 1 Vía al Huila Colombia, Popayán"
