"First Name";"Email Address";Url;Telephone;Address
"MEDACOP S.A.S.";contactenos@medacop.com;www.medacop.com;"(57) (1) 4461673";"Cr54 17-59 Colombia, Bogotá"
"VELAS Y VELONES DON PEDRO";vvp@une.net.co;www.pycvvp.com;"Conm.: (57) (4) 4261411";"Cr118 64 C-47 Robledo Pajarito Colombia, Medellín"
"CERERIAS ESPAÑOLAS FORNER Y BARBERA S.A.S";clientes@cereriasespanolas.com;www.cereriasespanolas.com;"(57) (1) 7028346";"Cr68 H# 77-19 Las Ferias Colombia, Bogotá"
"PLATERIA VICENZA";ventas@plateriavicenza.com;www.plateriavicenza.com;"(57) (1) 2365163";"Av(Cra). 15 No. 93-60 L-110 Colombia, Bogotá"
"TALLERES GOLGAMA LTDA.";info@golgama.com;www.golgama.com;"(57) (1) 2857662";"Cl 49 17 32/38 Colombia, Bogotá"
"FUNDACIÓN PÍA AUTÓNOMA LIBRERÍA SEMINARIO CONCILIAR";libreria.seminario@une.net.co;www.arqmedellin.co;"(57) (4) 2518142";"Cl 57 49-71 Colombia, Medellín"
"ALMACÉN PÍO XII S.A.S";correo@almacenespioxii.com;www.almacenespioxii.com;"(57) (1) 3413947";"Cr6 12-59 Colombia, Bogotá"
"EMISORA MINUTO DE DIOS";info@minutodediosmed.org;www.minutodediosmed.org;"(57) (4) 4481230";"Cl 56 41-57 Colombia, Medellín"
"GÓMEZ LOTERO Y CÍA. LTDA.";secretariageneral@gomezlotero.com;www.gomezlotero.com;"(57) (4) 4519962";"Cr50 29 A-39 L-141 Bello Colombia, Medellín"
"ARTÍCULOS RELIGIOSOS";;www.articulosreligiosos.com.co;"(57) (5) 3690861";". Colombia, Barranquilla"
"PODER ANGELICAL";poderangelical@hotmail.com;www.poderangelical.com;"(57) (1) 2499278";"Av Caracas 63-51/53 Colombia, Bogotá"
"ALMACEN Y PLATERIA TIANA S.A.S.";plateriatiana51@yahoo.com;www.plateriatiana.co;"(57) (1) 3458538";"Cr15 51-36 Colombia, Bogotá"
"CERERÍA LA NACIONAL";liligonzavila@hotmail.com;www.cererialanacional.com;"(57) (1) 3111008";"Cr69 K 78-44 Colombia, Bogotá"
"COMERCIALIZADORA AL COSTO S.A.S.";papeleriaalkosto@hotmail.com;;"(57) (4) 5127645";"Cr54 46-45 Int 312 Colombia, Medellín"
"NICCA S.A.S.";ryidi@nicca.co;www.nicca.co;"(57) (5) 3604010";"Cl 49 66 B-02 Colombia, Barranquilla"
"FLORISTERÍA DECORAFLOR";fdecoraflor@gmail.com;www.floristeriadecoraflorpasto.com;"(57) (2) 7232202";"Cr26 18-10 Colombia, Pasto"
"LIBRERÍA MINUTO DE DIOS";erikamd@minutodediosmed.org;www.minutodediosmed.org;"(57) (6) 3334207";"Cl 20 8-70 Colombia, Pereira"
"LA CERERÍA... VELAS Y VELONES";lacereriavyv@hotmail.com;;"(57) (6) 7475997";"Cr18 57-49 Diagonal al Estadio Vía al Aeropuerto Colombia, Armenia"
"VELADORAS BOLIVAR";maledy@une.net.co;;"(57) (4) 2537324";"Cl 44 B 91-25 Colombia, Medellín"
"COMERCIALIZADORA LITÚRGICA Y EDITORIAL LTDA.";cliturgica@une.net.co;;"(57) (4) 2518692";"Cr50 52-126 Of 401 Colombia, Medellín"
"ALMACÉN SAN ANTONIO NO 2";faber396@hotmail.com;;"(57) (6) 3339795";"Cr7 20-48 Colombia, Pereira"
"ALMACÉN EL VATICANO";artvaticano@gmail.com;;"(57) (4) 5115840";"Cl 57 48-20 Colombia, Medellín"
D'CORALIA;dcoralia@hotmail.com;www.decoralia.com;"(57) (2) 2128733";"Cr5 7-05 Colombia, Cartago"
"LIBRERIA OASIS";libreriaoasiscentro@gmail.com;;"(57) (7) 6844907";"Cl 41 14-32 Colombia, Bucaramanga"
"ALMACÉN VATICANO ARTÍCULOS RELIGIOSOS";articulosreligiososvaticano@gmail.com;;"(57) (6) 8800810";"Cr23 27-46 Colombia, Manizales"
"FÁBRICA DE VELAS CASIOPEA";velas.casiopea@etb.net.co;www.velascasiopea.com;"(57) (1) 3366302";"Cr12 20-69 Of 108 Colombia, Bogotá"
"VELAS Y VELONES CRISTAL S.A.S.";velonescristal@hotmail.com;www.velonescristal.com;"(57) (4) 2575138";"Cl 79 B 85 A-97 Colombia, Medellín"
"LAMPARARIOS ELECTRONICOS";normapguarnizo@hotmail.com;www.lampararios.unlugar.com;"(57) (4) 2642649";"Cr85 66-34 B-20 Ap 112 Colombia, Medellín"
"PLASTICOS AMAYA S.A.S.";plasticosamaya@hotmail.com;www.plasticosamaya.com;"(57) (2) 3721177";"Cl 19 B 20-61 Colombia, Cali"
"TALLER DE LAS CORONAS";tallerdelascoronas@hotmail.com;;"(57) (4) 2114052";"Cl 86 41-43 Colombia, Medellín"
"ALMACEN ARTE RELIGIOSO MARIA AUXILIADORA";artereligioso@live.com;;"(57) (4) 5120019";"Cl 57 48-22 Colombia, Medellín"
"ALMACEN TIERRA SANTA";tierrasantaitagui@hotmail.com;;"(57) (4) 3668647";"Cr49 49-50 Itagüí Colombia, Medellín"
"ALMACÉN Y JOYERÍA LA CORONA";almacenyjoyerialacorona1@hotmail.com;;"(57) (4) 2760778";"Cl 38   S 41-36 Envigado Colombia, Medellín"
"LIBRERIA VIDA";libreriavida.bucaramanga@gmail.com;;"(57) (7) 6423100";"Cl 35 14-52 Colombia, Bucaramanga"
"ANGELES Y SANTOS";;;"(57) (4) 4222391";"Cl 50 77 B-59 Colombia, Medellín"
"GARCÍA YUNEZ DE GEORGINA";;;"(57) (5) 3704336";"Cr45 53-161 L-4 Colombia, Barranquilla"
"ALMACÉN SEMINARIO";;;"(57) (4) 2789946";"Cl 130 S 49-41 Caldas Colombia, Medellín"
"ROMERIA LA MILAGROSA";;;"(57) (7) 6945146";"Boulevar Bolívar 25-42 Colombia, Bucaramanga"
"ARTÍCULOS RELIGIOSOS LOS TESOROS DE LA VIRGEN";;;"(57) (2) 5137337";"C.C. Palmetto Plaza P-2 Colombia, Cali"
"ESCULTURA LIBERTAD";;;"(57) (6) 3368160";"Cr6 27-38 Colombia, Pereira"
"First Name";"Email Address";Url;Telephone;Address
"ORFEBRERÍA RELIGIOSA AGUDELO";;;"(57) (4) 4515453";"Cr60 71-79 Bello Colombia, Bello"
"ARTÍCULOS RELIGIOSOS RAMÓN ARCILA";;;"(57) (4) 2884089";"Cl 70 S 44-07 Sabaneta Colombia, Sabaneta"
"LIBRERÍA GUADALUPE";;;"(57) (4) 2516904";"Cl 57 49-81 Colombia, Medellín"
"EL ESOTERICO";;;"(57) (8) 8714557";"Cr4 5-69 Colombia, Neiva"
"ARTÍCULOS RELIGIOSOS SAN ANTONIO";;;"(57) (6) 7452870";"Cr14 13-22 Colombia, Armenia"
"ARTÍCULOS RELIGIOSOS MISERICORDIA";;;"(57) (4) 2814687";"Cr51 53-32 Itagüí Colombia, Itagüí"
"ARTÍCULOS RELIGIOSOS LOS TESOROS DE LA VIRGEN";;;"(57) (2) 5137337";"C.C. Palmetto Plaza P-2 Colombia, Cali"
"ROMERÍA SAN LAUREANO";;;"(57) (7) 6523561";"Cl 36 12-21 García Rovira Colombia, Bucaramanga"
"DIVINO NIÑO";;;"(57) (4) 4275069";"San Cristóbal Colombia, Medellín"
"ASOCIACION CULTURAL NUESTRA SEÑORA DE FÁTIMA";;;"(57) (1) 6130660";"Av Boyacá 129-01 Int 19 Colombia, Bogotá"
"IMPORTACIONES Y EXPORTACIONES SEARIS S.A.S";;;"(57) (4) 5132047";"Cl 46 54-24 Int 1105 Colombia, Medellín"
"ALMACEN JUAN PABLO II";;;"(57) (1) 5421085";"Cl 63 10-83 L-1006 Colombia, Bogotá"
"LITUARTE, CUSTODIAS Y SAGRARIOS";;;"(57) (1) 3114762";"Cr50 71 A-42 Colombia, Bogotá"
"CONFECCIONES MARIANA";;;"(57) (1) 2798868";"Dg48 J S 5 Q-38 Colombia, Bogotá"
"ALMACÉN NIÑO JESÚS DE PRAGA";;;"(57) (2) 8842037";"Cl 9 5-70 Colombia, Cali"
"RELIQUIAS SAN MARCOS DE LEÓN";;;"(57) (2) 2316846";"Cl 33 26-18 Colombia, Tuluá"
"LA PIEDAD";;;"(57) 3186702229";"Cr 5 13-87 Colombia, Cartago"
"ARTÍCULOS RELIGIOSOS MARÍA AUXILIADORA";;;"(57) (1) 3673947";"Dg27 S 5-83 Colombia, Bogotá"
"ALMACÉN ORNAMENTO LITÚRGICO";;;"(57) (1) 2431888";"Cr6 10-33 P-1 Colombia, Bogotá"
"NUEVOS HORIZONTES";;;"(57) (4) 3386739";"Cl 129 S 51-50 Caldas Colombia, Medellín"
"ARTESANÍAS RELIGIOSAS JERA";;;"(57) (4) 2317002";"Cl 56 49-21 Colombia, Medellín"
"ALMACÉN LA SACRISTÍA";;;"(57) (4) 5719279";"Cl 56 49-54 Colombia, Medellín"
"ARTE RELIGIOSO EL SANTUARIO";;;"(57) (4) 3230858";"Cl 70 S 44-07 Sabaneta Colombia, Sabaneta"
"VESTUARIO Y ARTÍCULOS PARA SACERDOTE";;;"(57) (1) 3424431";"Cr6 10-37 Colombia, Bogotá"
"ALMACÉN SANTOS ANGELES";;;"(57) (2) 2735761";"Cr25 30-98 Colombia, Palmira"
"ALMACÉN SAN GABRIEL ARCÁNGEL";;;"(57) (2) 2727696";"Cr27 28-45 Colombia, Palmira"
"ARTE RELIGIOSO SAN JOSÉ";;;"(57) (4) 2281771";"Cl 48 43-19 Colombia, Medellín"
"LA CIENCIA DE ALEJO";;;"(57) (4) 2603390";"Cr66 B C7-23 Int 101 Colombia, Medellín"
"EL PORTAL BUITEÑO";;;"(57) (1) 3101852";"Cl 53 18 A-07 Colombia, Bogotá"
"ARTESANÍAS RELIGIOSAS PRAGA S.A.";;;"(57) (4) 4825757";"Dg57 42-153 Bello Colombia, Bello"
"LA MEDALLA MILAGROSA";;;"(57) (1) 2442148";"Av28 39-17 Colombia, Bogotá"
"FÁBRICA DE ARTÍCULOS RELIGIOSOS LUIS H. HERNÁND";;;"(57) (1) 3242340";"Cl 44 A 59-12 Colombia, Bogotá"
"EL ROPERO DE RUBY";;;"(57) (7) 6364146";"Cl 112 32 A-54 El Dorado Colombia, Bucaramanga"
"CASA CATOLICA SAN MIGUEL ARCANGEL";;;"(57) 3132519193";"av 7 8 50 local 102 cc san antonio Colombia, Cúcuta"
"VELAS Y VELADORAS SAN MARCOS DE LEÓN";;;"(57) (2) 4385905";"Tr29 28-85 Colombia, Cali"
"ALMACÉN EL VATICANO";;;"(57) (2) 2274497";"Cl 4 13-20 Colombia, Buga"
"ALMACÉN SAN ANTONIO NO. 1";;;"(57) (6) 3390121";"Cr7 20-58 Colombia, Pereira"
"ARTESANÍAS LEAL";;;"(57) (4) 5276110";"Cr43 82-43 Colombia, Medellín"
"ORFEBRERÍA COLOMBIANA";;;"(57) (4) 4520807";"Cr60 71-79 Bello Colombia, Bello"
"EURO - CLERO Y CÍA. LTDA.";;;"(57) (4) 2511129";"Cl 57 49-44 L-120 Colombia, Medellín"
"First Name";"Email Address";Url;Telephone;Address
"DISTRIBUIDORA LA FE NEIVA";;;"(57) (8) 8720723";"Cr3 5-20 Colombia, Neiva"
"ARTICULOS RELIGIOSOS LA CASA DE JESÚS";;;"(57) (4) 4120057";"Cr81 40-58 Colombia, Medellín"
"ALMACÉN DEVOCIONES Y DETALLES";;;"(57) (4) 2767485";"Cr43 35 S-14 Envigado Colombia, Envigado"
"LA CASA DEL ROSARIO";;;"(57) (2) 2244080";"Cr25 26-48 Colombia, Tuluá"
"CASA HERMANDAD JESÚS NAZARENO";;;"(57) (7) 6550932";"Cl 8 8-98 Piedecuesta Colombia, Piedecuesta"
"PÉREZ LUZ MARINA";;;"(57) (1) 2828213";"Cl 11 6-04 Colombia, Bogotá"
"ROMERÍA SAN LAUREANO";;;"(57) (7) 6523561";"Cl 36 12-21 García Rovira Colombia, Bucaramanga"
"IMPORTACIONES Y EXPORTACIONES SEARIS S.A.S";;;"(57) (4) 5132047";"Cl 46 54-24 Int 1105 Colombia, Medellín"
"LIBRERÍA JUAN PABLO II";;;"Telefax: (57) (1) 5420920";"Cl 63 9 A-83 Colombia, Bogotá"
"BOTONESN Y ADORNOS LUZ";;;"(57) (1) 2154027";"Cl 119 Bis 15-10 Colombia, Bogotá"
"ARTICULOS RELIGIOSOS ALEJO";;;"(57) (4) 5117939";"Cr52 45-112 Colombia, Medellín"
"ALMACÉN EL VATICANO";;;"(57) (2) 2274497";"Cl 4 13-20 Colombia, Buga"
"ORFEBRERÍA RELIGIOSA AGUDELO";;;"(57) (4) 4515453";"Cr60 71-79 Bello Colombia, Bello"
"ARTÍCULOS RELIGIOSOS RAMÓN ARCILA";;;"(57) (4) 2884089";"Cl 70 S 44-07 Sabaneta Colombia, Sabaneta"
"VELADORAS BOGOTÁ";;;"(57) (4) 4817371";"Av43 55-45 Bello Colombia, Bello"
"CERILLAS Y ACEITES DE HIGUERILLA";;;"(57) (4) 4215830";"Cl 77 C 92-28 Colombia, Medellín"
"EL ESOTERICO";;;"(57) (8) 8714557";"Cr4 5-69 Colombia, Neiva"
"ARTE RELIGIOSO VENECIA";;;"(57) (1) 2303212";"Dg50 S 32-10 Colombia, Bogotá"
"ALMACÉN LA SACRISTÍA";;;"(57) (4) 5719279";"Cl 56 49-54 Colombia, Medellín"
"RINCÓN RELIGIOSO";;;"(57) (5) 6610583";"San Pedro Manz 5 Lt 10 L-2 Colombia, Cartagena"
"ALMACÉN SEMINARIO";;;"(57) (4) 2789946";"Cl 130 S 49-41 Caldas Colombia, Medellín"
"ALMACÉN DE ARTÍCULOS RELIGIOSOS";;;"(57) (2) 8308315";"Cl 5 8-57 Colombia, Popayán"
"VELAS Y VELONES DECORATIVOS NUESTRA SEÑORA DE C";;;"(57) (7) 5849134";"Av4 12-13 San Luis Colombia, Cúcuta"
"DISTRIBUIDOR DE DETALLES CRISTIANOS LIVING FE";;;"(57) (2) 6627193";"Dg17 72 A-139 Colombia, Cali"
"CASA CATOLICA SAN MIGUEL ARCANGEL";;;"(57) 3132519193";"av 7 8 50 local 102 cc san antonio Colombia, Cúcuta"
"ARTE RELIGIOSO";;;"(57) (4) 2734849";"Cl 105 E 71 A-68 Colombia, Medellín"
"ASOCIACION CULTURAL NUESTRA SEÑORA DE FÁTIMA";;;"(57) (1) 6130660";"Av Boyacá 129-01 Int 19 Colombia, Bogotá"
SACRAMENTAL;;;"(57) (7) 6430761";"C.C. Cabecera Et IV P-3 L-304 Colombia, Bucaramanga"
"PRODUVELAS - MAQUILA";;;"(57) (1) 5426058";"Cl 64 D 104-50 Colombia, Bogotá"
"ALMACÉN EL CAMPANARIO";;;"(57) (4) 2930876";"Cl 56 49-79 Colombia, Medellín"
"ALMACEN JUAN PABLO II";;;"(57) (1) 5421085";"Cl 63 10-83 L-1006 Colombia, Bogotá"
"REGALOS Y SANTOS";;;"(57) (4) 5118844";"Cr49 57-51 L-123 Colombia, Medellín"
"GALERIA DE ARTE RELIGIOSO LA CHINCA";;;"(57) (4) 3020360";"Cl 80 S 63-40 La Estrella Colombia, Medellín"
"VARIEDADES SAN JOSÉ";;;"(57) (4) 5114306";"Cl 46 49 -39 Colombia, Medellín"
"NUEVA VIDA ARTÍCULOS RELIGIOSOS";;;"(57) (8) 8767322";"Cr20 A 50-66 Colombia, Neiva"
"MATER ECCLESIAE LTDA.";;;"Nal: (57) (4) 2513012";"Cl 57 49-44 Int 148 Colombia, Medellín"
"ALMACÉN YO REINARE";;;"(57) (2) 2286430";"Cl 4 14-22 Colombia, Buga"
"PORTAL DE SAN JOSÉ";;;"(57) (4) 2680797";"Cl 10 42-45 Int 119 Colombia, Medellín"
"EL CAMPANARIO ESPACIOS ARTESANALES";;;"(57) (2) 7225121";"Cl 16 26-32 Colombia, Pasto"
"DISTRIBUCIONES DOMINUS";;;"(57) (7) 6337406";"Cl 46 B 22-27 Colombia, Bucaramanga"
"First Name";"Email Address";Url;Telephone;Address
"TRASLAVIÑA DIAZ ANAYIBE";;;"(57) (1) 4348908";"Cr116 B 66-52 Colombia, Bogotá"
"VARIEDADES PRAGA";;;"(57) (2) 2105558";"Cl 11 3-21 Colombia, Cartago"
"ROMERIA LA MILAGROSA";;;"(57) (7) 6945146";"Boulevar Bolívar 25-42 Colombia, Bucaramanga"
"BAZAR SAN JUDAS";;;"(57) (7) 5712134";"Cl 9 8-19 Centro Colombia, Cúcuta"
"FÁBRICA DE ARTÍCULOS RELIGIOSOS LUIS H. HERNÁND";;;"(57) (1) 3242340";"Cl 44 A 59-12 Colombia, Bogotá"
"ROMERÍA Y FLORISTERÍA SAN FRANCISCO JAVIER";;;"(57) (7) 6550580";"Cr7 # 9-35 Piedecuesta Colombia, Piedecuesta"
"CASA CATOLICA SAN MIGUEL ARCANGEL";;;"(57) 3132519193";"av 7 8 50 local 102 cc san antonio Colombia, Cúcuta"
"CAFETERIA MORITA";;;"(57) (4) 2351557";"Cl 29 C 54 A-06 Colombia, Medellín"
"EL ESOTERICO";;;"(57) (8) 8714557";"Cr4 5-69 Colombia, Neiva"
"MANUFACTURAS EL CLERO";;;"(57) (4) 2516622";"Cl 57 50-17 Colombia, Medellín"
"NUEVA VIDA ARTÍCULOS RELIGIOSOS";;;"(57) (8) 8767322";"Cr20 A 50-66 Colombia, Neiva"
"VARIEDADES LA ODISEA";;;"(57) (4) 3415624";"Cl 30 A 77-68 Colombia, Medellín"
"ANGELES ENTRE NOSOTROS";;;"Nal: (57) (4) 3669136";"Cl 5 76 A 150 Int 1208 Colombia, Medellín"
"ALMACENES EL VATICANO";;;"(57) (1) 3413100";"Cr6 11-29 Colombia, Bogotá"
"CONFECCIONES DEDAL DE ORO";;;"(57) (6) 3232535";"Cr21 30-19 Edif Torre Milano Ap 306 Dosq Colombia, Pereira"
"COLOMBIANA DE ARTESANÍAS RELIGIOSAS";;;"(57) (2) 2283116";"Cl 4 13-12 Colombia, Buga"
"ROMERÍA SAN LAUREANO";;;"(57) (7) 6523561";"Cl 36 12-21 García Rovira Colombia, Bucaramanga"
"DIVINO NIÑO";;;"(57) (4) 4275069";"San Cristóbal Colombia, Medellín"
KAIROS;;;"(57) 3174884682";"Cr15 8-51 Colombia, Florida"
"PARDO ANA";;;"(57) (1) 2338982";"Cr10 0-70 Ap 201 Colombia, Bogotá"
"TIENDA RELIGIOSA EL REDENTOR";;;"(57) (2) 2280255";"Cl 4 14-12 Colombia, Buga"
"PRODUVELAS - MAQUILA";;;"(57) (1) 5426058";"Cl 64 D 104-50 Colombia, Bogotá"
"ARTICULOS RELIGIOSOS ALEJO";;;"(57) (4) 5117939";"Cr52 45-112 Colombia, Medellín"
"LIBRERÍA SAN GABRIEL";;;"(57) (8) 8742545";"Cl 18 8 A-44 Campo Núñez Colombia, Neiva"
"LA CIENCIA DE ALEJO";;;"(57) (4) 2603390";"Cr66 B C7-23 Int 101 Colombia, Medellín"
"ARTESANÍAS RELIGIOSAS JERA";;;"(57) (4) 2317002";"Cl 56 49-21 Colombia, Medellín"
"ORFEBRERÍA COLOMBIANA";;;"(57) (4) 4520807";"Cr60 71-79 Bello Colombia, Bello"
"ARTESANIAS SALGADO";;;"(57) (2) 2361081";"Cl 4 16-74 Colombia, Buga"
"ARTICULOS RELIGIOSOS GONZALO ALBERTO COSSIO";;;"(57) (4) 4667831";"Cr58 B 57-72 Bello Colombia, Bello"
SACRAMENTOS;;;"(57) (5) 3585156";"Cr51 82-145 Colombia, Barranquilla"
"CONFECCIONES MARIANA";;;"(57) (1) 2798868";"Dg48 J S 5 Q-38 Colombia, Bogotá"
"ARTESSAKRO SEC";;;"(57) (4) 5131922";"Cl 57 46-54 Colombia, Medellín"
"ALMACÉN NIÑO JESÚS DE PRAGA";;;"(57) (2) 8842037";"Cl 9 5-70 Colombia, Cali"
"ARTÍCULOS RELIGIOSOS SAN JUDAS";;;"(57) (4) 2885911";"Cl 70 S 43 B-45 Sabaneta Colombia, Sabaneta"
"DISTRIBUIDOR DE DETALLES CRISTIANOS LIVING FE";;;"(57) (2) 6627193";"Dg17 72 A-139 Colombia, Cali"
"TIENDA ESOTERICA JULIANA";;;"(57) (7) 6308850";"Cl 45 13-69 García Rovira Colombia, Bucaramanga"
"ARTES FIBRA";;;"(57) (7) 6453723";"Cr34 32-23 Alvarez Colombia, Bucaramanga"
"RELICARIO SAN LAUREANO";;;"(57) (7) 6428271";"Cr13 34-42 Colombia, Bucaramanga"
"FÁBRICA DE IMÁGENES MARÍA AUXILIADORA";;;"(57) (1) 2457572";"Cr19 32-01 Colombia, Bogotá"
"ALMACÉN PROMESAS";;;"(57) (4) 2890069";"Cl 7 14 -27 Girardota Colombia, Medellín"
"First Name";"Email Address";Url;Telephone;Address
"CASA HERMANDAD JESÚS NAZARENO";;;"(57) (7) 6550932";"Cl 8 8-98 Piedecuesta Colombia, Piedecuesta"
"BAZAR SAN JUDAS";;;"(57) (7) 5712134";"Cl 9 8-19 Centro Colombia, Cúcuta"
"ARTICULOS RELIGIOSOS LA MILAGROSA";;;"(57) (6) 8800771";"Cr23 22-15 Colombia, Manizales"
"ARTÍCULOS RELIGIOSOS Y ESOTERICOS SANTA MARTA";;;"(57) (7) 6472695";"Cl 12 13-47 Colombia, Bucaramanga"
"DISTRIVELAS EL REY";;;"(57) (2) 7215407";"Cr9 14-60 Las Lunas Colombia, Pasto"
"VELADORAS BOGOTÁ";;;"(57) (4) 4817371";"Av43 55-45 Bello Colombia, Bello"
"CONFECCIONES MARIANA";;;"(57) (1) 2798868";"Dg48 J S 5 Q-38 Colombia, Bogotá"
"ARTESANÍAS GIRÓN";;;"(57) (7) 6466700";"Cr26 30-31 Parque Principal Girón Colombia, Girón"
SANTINI;;;"(57) (4) 2510856";"Cl 57 49-44 L-232 Colombia, Medellín"
"GIANNINI BASTIANI ROSSANA";;;"(57) (1) 2430316";"Cr6 11-58 Colombia, Bogotá"
"ARTICULOS RELIGIOSOS LA CASA DE JESÚS";;;"(57) (4) 4120057";"Cr81 40-58 Colombia, Medellín"
"FÁBRICA DE ARTÍCULOS RELIGIOSOS LUIS H. HERNÁND";;;"(57) (1) 3242340";"Cl 44 A 59-12 Colombia, Bogotá"
"SANTINI ORNAMENTOS Y ACCESORIOS RELIGIOSOS";;;"(57) (4) 2510856";"Cl 57 49-44 L-232 Colombia, Medellín"
"NUEVA VIDA ARTÍCULOS RELIGIOSOS";;;"(57) (8) 8767322";"Cr20 A 50-66 Colombia, Neiva"
"ARTÍCULOS RELIGIOSOS MARIA CECILIA ROJAS";;;"(57) (4) 8870273";"Cl 19 18-47 Colombia, Yarumal"
"LA CAMPANA MILAGROSA";;;"(57) (6) 3241363";"Cr7 25-44 Colombia, Pereira"
"CACHARROS RODO";;;"(57) 3147573266";". Colombia, Medellín"
"ALMACÉN ORNAMENTO LITÚRGICO";;;"(57) (1) 2431888";"Cr6 10-33 P-1 Colombia, Bogotá"
"DISTRIBUCIONES ANA SOFIA";;;"(57) (8) 8712835";"Cr4 5-20 Colombia, Neiva"
"EL ESOTERICO";;;"(57) (8) 8714557";"Cr4 5-69 Colombia, Neiva"
"ALMACÉN NAZARET LTDA.";;;"(57) (5) 3408584";"Cl 37 No. 43-123 Colombia, Barranquilla"
"VELAS Y VELONES DECORATIVOS NUESTRA SEÑORA DE C";;;"(57) (7) 5849134";"Av4 12-13 San Luis Colombia, Cúcuta"
"LA PIEDAD";;;"(57) 3186702229";"Cr 5 13-87 Colombia, Cartago"
"ALMACÈN EL NAZARENO";;;"(57) (7) 6223074";"Cl48 Cr16 Parroquia La Catedral - Parque Infantil Colombia, Barrancabermeja"
"CIRO GUILLERMO";;;"(57) (8) 8716882";"Cr7 7-19 Colombia, Neiva"
"ALMACÉN NIÑO JESÚS DE PRAGA";;;"(57) (2) 8842037";"Cl 9 5-70 Colombia, Cali"
"ALMACÉN SAN MIGUEL";;;"(57) (1) 3421673";"Cl 11 6-30 Colombia, Bogotá"
"DIVINO NIÑO";;;"(57) (4) 4275069";"San Cristóbal Colombia, Medellín"
"PRESENCIA S.A.";;;"(57) (4) 4140033";"Cl 42 A 63 C-131 Colombia, Medellín"
"CAFETERIA MORITA";;;"(57) (4) 2351557";"Cl 29 C 54 A-06 Colombia, Medellín"
"ZÁRATE BOHÓRQUEZ MAURICIO";;;"(57) (1) 4165147";"Tr77 A 47-82 Colombia, Bogotá"
"EL PORTAL BUITEÑO";;;"(57) (1) 3101852";"Cl 53 18 A-07 Colombia, Bogotá"
"ARTICULOS RELIGIOSOS GONZALO ALBERTO COSSIO";;;"(57) (4) 4667831";"Cr58 B 57-72 Bello Colombia, Bello"
"ARTÍCULOS RELIGIOSOS JORGE A. ROMERO";;;"(57) (5) 6605819";"Cr17 26-19 Ap 5-B Edif Balcones de Segovia Colombia, Cartagena"
"MATER ECCLESIAE LTDA.";;;"Nal: (57) (4) 2513012";"Cl 57 49-44 Int 148 Colombia, Medellín"
"ARTESANIAS LA MILAGROSA";;;"(57) (7) 6526323";"Cl 45 13-63 Colombia, Bucaramanga"
"VELAS Y VELADORAS SAN MARCOS DE LEÓN";;;"(57) (2) 4385905";"Tr29 28-85 Colombia, Cali"
"LITUARTE, CUSTODIAS Y SAGRARIOS";;;"(57) (1) 3114762";"Cr50 71 A-42 Colombia, Bogotá"
"ALMACÉN DEVOCIONES Y DETALLES";;;"(57) (4) 2767485";"Cr43 35 S-14 Envigado Colombia, Envigado"
"DISTRIBUCIONES DOMINUS";;;"(57) (7) 6337406";"Cl 46 B 22-27 Colombia, Bucaramanga"
"First Name";"Email Address";Url;Telephone;Address
"ALMACÉN LA SACRISTÍA";;;"(57) (4) 5719279";"Cl 56 49-54 Colombia, Medellín"
"RINCÓN RELIGIOSO";;;"(57) (5) 6610583";"San Pedro Manz 5 Lt 10 L-2 Colombia, Cartagena"
"ARTÍCULOS RELIGIOSOS Y ESOTERICOS SANTA MARTA";;;"(57) (7) 6472695";"Cl 12 13-47 Colombia, Bucaramanga"
"CIRO GUILLERMO";;;"(57) (8) 8716882";"Cr7 7-19 Colombia, Neiva"
"LIBRERÍA APOSTOLICA METROPOLITANA";;;"(57) (4) 5121505";"Cl 56 # 49-73 Colombia, Medellín"
"SANTINI ORNAMENTOS Y ACCESORIOS RELIGIOSOS";;;"(57) (4) 2510856";"Cl 57 49-44 L-232 Colombia, Medellín"
"LA CATÓLICA LIBRERÍA Y PAPELERÍA";;;"(57) (1) 8310869";"Cl 13 9-01 Colombia, Girardot"
"ALMACÉN ANGELLUS";;;"(57) (4) 2754645";"Cr49 51-65 Bello Colombia, Bello"
"ARTESANÍAS Y SANTOS LA PAZ";;;"(57) (4) 2315083";"Cl 57 49-63 Colombia, Medellín"
"LA MEDALLA MILAGROSA";;;"(57) (1) 2442148";"Av28 39-17 Colombia, Bogotá"
"EL BALCÓN DE LA MILAGROSA";;;"(57) (5) 3449137";"Cr44 40-51 Centro Colombia, Barranquilla"
"NUEVA VIDA ARTÍCULOS RELIGIOSOS";;;"(57) (8) 8767322";"Cr20 A 50-66 Colombia, Neiva"
"ALMACÉN DEVOCIONES Y DETALLES";;;"(57) (4) 2767485";"Cr43 35 S-14 Envigado Colombia, Envigado"
"ALMACEN SANTA TERESITA";;;"(57) (7) 6426437";"Cr22 39-93 Colombia, Bucaramanga"
"ROMERÍA SAN LAUREANO";;;"(57) (7) 6523561";"Cl 36 12-21 García Rovira Colombia, Bucaramanga"
"PARDO ANA";;;"(57) (1) 2338982";"Cr10 0-70 Ap 201 Colombia, Bogotá"
"ALMACÉN SEMINARIO";;;"(57) (4) 2789946";"Cl 130 S 49-41 Caldas Colombia, Medellín"
"NGELES RTE RELIGIOSO Y VARIEDADES";;;"(57) (1) 2124916";"Av (Cl) 63 11-27 Int 205 Colombia, Bogotá"
"ARTES FIBRA";;;"(57) (7) 6453723";"Cr34 32-23 Alvarez Colombia, Bucaramanga"
"LA CIENCIA DE ALEJO";;;"(57) (4) 2603390";"Cr66 B C7-23 Int 101 Colombia, Medellín"
