"First Name";"Email Address";Url;Telephone;Address
"ENERGIA & POTENCIA S.A.";ventas@energiaypotencia.com;www.energiaypotencia.com;"(57) (4) 3786100";"Cr45 A 66 A-100 Itagüí Colombia, Medellín"
"RACORES Y PARTES PEREIRA S.A.S.";administracion@racoresypartes;www.racoresypartes.com;"(57) (6) 3293232";"Av30 de Agosto-29 -67 Colombia, Pereira"
"GRUPO ROLDÁN";gcomercial@gruporoldan.com.co;www.gruporoldan.com.co;"(57) (4) 2325027";"Cr50 42-107 Colombia, Medellín"
"M PELÁEZ S.A.S.";jmpelaez@une.net.co;www.mpelaez.com;"(57) (4) 4445695";"Cr50 GG 10 B   S-90 Colombia, Medellín"
"MEGA REPUESTOS";;www.megarepuestos.co;"(57) (1) 2681456";"Cl 19 B 32-21 Colombia, Bogotá"
"TREFILADOS DE COLOMBIA";gerencia@trefiladosdecolombia.com;www.trefiladosdecolombia.com;"(57) (1) 3751340";"Cl 15 29-28 Colombia, Bogotá"
"MAXIFER S.A.S.";gerencia@maxifersas.com;www.maxifersas.com;"(57) (4) 4440323";"Cr50 41-54 Colombia, Medellín"
"FERRETERIA PUNTIALAMBRES S.A.S.";;www.puntialambres.com;"(57) (1) 3363400";"Cr15 11 11/13 Colombia, Bogotá"
"T.H. S.A.S.";th.sas@hotmail.com;www.thsascolombia.com;"(57) (4) 5113994";"Cl 44 A 58-23 Colombia, Medellín"
"REPARES S.A";ventas@repares.com;www.repares.com;"(57) (4) 4440340";"Cl 66 52 A-35 Itagüí Colombia, Medellín"
"FERRETERÍA TORNILLOS Y ABRASIVOS S.A.S.";ventas@tornillosyabrasivos.com;www.tornillosyabrasivos.com;"(57) (4) 3053030";"Cr49 61   S-540 Bdg 160 Sabaneta Colombia, Medellín"
COPACOL;cfpalacios77@hotmail.com;www.copacolcali.com;"(57) (2) 8897627";"Cl 24 3-08 Colombia, Cali"
"FERRETERIA PALERMO";ferrepalermo@hotmail.com;www.ferreteriapalermo.com;"Telefax: (57) (7) 5834188";"Av5 4-33 Centro Colombia, Cúcuta"
"CENTRAL DE HERRAMIENTAS DE COLOMBIA S.A.S.";gerencia@centraldeherramientaseu.com;www.centraldeherramientaseu.com;"(57) (7) 6418126";"Cl 64 # 17 A-138 Brr. la Ceiba Colombia, Bucaramanga"
"HECO HERRAMIENTAS Y EQUIPOS DE CONSTRUCCIÓN S.A.S.";hecosas@gmail.com;;"(57) (7) 3176378368";"Cr15 23-24 Colombia, Bucaramanga"
"DISTRIRIEGO DEL ORIENTE S.A.S.";driegoriente@gmail.com;www.distririegodeloriente.com;"(57) (7) 6959377";"Cl 31 18-07 L-2 Parque Centenario Colombia, Bucaramanga"
"JUANCHO GONZÁLEZ DOIT CENTER";info@juanchodoitcenter.com;www.juanchodoitcenter.com;"(57) (8) 5129204";"Cl 8 8 B-23 Rock Hole Colombia, San Andrés"
"PULSAGRO S.A.S";pulsagro2@gmail.com;www.pulsagro.com;"(57) (4) 2654404";"Cr65 B 30-90 Colombia, Medellín"
"FERRETERÍA FRANKFURT";danielfrankfurt12@hotmail.com;;"(57) (7) 6456371";"Cr33 30 A-107 Colombia, Bucaramanga"
"HERRAGRO S.A.";gerencia@herragro.com;www.herragro.com;"(57) (6) 8982778";"Km 9 Vía al Magdalena Parque Industrial David Uribe Colombia, Manizales"
"CENTRAL PECUARIA";centralpecuaria@hotmail.com;www.centralpecuaria.com;"(57) (8) 2641160";"Cl 28 4 C-16 Colombia, Ibagué"
"MAQUINARIA AZUCARERA LTDA.";mazucol@hotmail.com;www.maquinariaazucarera.com;"(57) (2) 6640210";"Av3 H 44   N-97 Colombia, Cali"
CONSTRUCUCUTA;construcucutaltda@hotmail.com;www.construcucuta.com;"(57) (7) 5834748";"Av10 6-17 Centro Colombia, Cúcuta"
"GRUPO METROPOLIS";servicioalcliente@grupometropolis.com.co;www.grupometropolisdelacosta.com;"(57) (5) 4203035";"Cr19 Cl 29 S Manz 12-C 5 Colombia, Santa Marta"
"FERRETERÍA AMISTAD - GRUPO ROLDÁN";amistad@une.net.co;www.gruporoldan.com.co;"(57) (4) 2325027";"Cr50 42-107 Colombia, Medellín"
"PA LA FINCA";palafincaquindio@gmail.com;;"(57) (6) 7443684";"Cr18 23-48 Colombia, Armenia"
"DISTRINORTE FERRETEROS S.A.S.";distrinorte-@hotmail.com;;"(57) (4) 4449004";"Cl 27 75-52 Colombia, Medellín"
"ABRASIVOS INDUSTRIALES S.A.S";gerencia@abrasivosindustriales.com.co;www.abrasivosindustriales.com.co;"(57) (4) 2354469";"Cr52 25-17 Colombia, Medellín"
"FERRETERÍA LIBERTAD - GRUPO ROLDÁN";flibertad@une.net.co;www.gruporoldan.com.co;"(57) (4) 5131766";"Cr52 53-110 Colombia, Medellín"
"EL TORNILLERO SOLUCIONES INDUSTRIALES S.A.S.";eltornillerosoluind@une.net.co;www.eltornillerosoluind.com;"(57) (4) 5163856";"Cr52 64-15 Colombia, Medellín"
"FERRETERÍA PROGRESEMOS";mercadeo@ferreteriaprogresemos.com.co;www.ferreteriaprogresemos.com;"(57) (2) 5573636";"Cr40 12 A-59 Acopi Yumbo Colombia, Cali"
MOTOMARINA;motomarina.rs@hotmail.com.co;www.motomarinabun.com;"(57) (2) 2417402";"Cl 1 8-05 Esq Cincobocas Pueblo Nuevo Colombia, Buenaventura"
"LA BANDERA";dandera.109@hotmail.com;www.almacenlabandera.com;"(57) (7) 6222258";"Cr5 48-20 Colombia, Barrancabermeja"
"LA GRAN FERRETERIA LTDA.";lagranferreteria@yahoo.com;www.lagranferreterialtda.com;"(57) (6) 3295153";"Cr7 27-65 Colombia, Pereira"
"SANMIGUELAGRO SOLUCIONES INTEGRALES S.A.S.";sanmiguel@sanmiguelagro.com;;"(57) (4) 3546152";"Cl 85 48-01 B-13 L-35 Itagüí Colombia, Medellín"
"ALMACÉN EL BATÁN";almacenelbatan@hotmail.com;;"(57) (2) 2144714";"Cr6 11-35 Colombia, Cartago"
"DISTRIAS S.A.S.";paolaa@grupodistrias.com;www.grupodistrias.com;"(57) (4) 7823430";"Cr2 44-110 Colombia, Montería"
"FERRETERÍA ARISTI LTDA.";flordelizdc@hotmail.com;ferreteriaaristi.com;"(57) (2) 8857003";"Cl 15 8-58 L-102 Colombia, Cali"
AGROMAR;agromar-btura@hotmail.com;www.agromarbun.com;"(57) (2) 2434708";"Cl 2 S 7 B-06 L-6 Pueblo Nuevo Colombia, Buenaventura"
"INDUSTRIAL DE HERRAMIENTAS";industrialdeherramientas@hotmail.com;;"(57) (4) 2323333";"Cr50 42-52 Colombia, Medellín"
"First Name";"Email Address";Url;Telephone;Address
AGROMAR;agromar-btura@hotmail.com;www.agromarbun.com;"(57) (2) 2434708";"Cl 2 S 7 B-06 L-6 Pueblo Nuevo Colombia, Buenaventura"
"ALMACÉN EL BATÁN";almacenelbatan@hotmail.com;;"(57) (2) 2144714";"Cr6 11-35 Colombia, Cartago"
"AL TORNO TALABARTERÍA TIENDA ECUESTRE";tiendaecuestre@altorno.com;www.altorno.com;"(57) (4) 3115681";"Cl 5 45-132 Colombia, Medellín"
"HERRAMIENTAS PASO FINO S.A.S";herramientaspasofino@gmail.com;www.herramientaspasofino.com;"(57) (4) 4485598";"Cr46 A 81-88 B-19 L-3-H Central Mayori Colombia, Medellín"
"ARCIGRES DE COLOMBIA";normarose64@yahoo.es;www.arcigresdecolombia.com;"(57) (2) 4879826";"Cl 44   N 5   N-42 Colombia, Cali"
"INTELTRACTOR S.A.S.";intertractor@hotmail.com;www.inteltractor.com;"(57) (2) 8890909";"Cl 23 4-106 Colombia, Cali"
FUMIMOTOR;fumimotor@hotmail.com;www.fumimotor.com;"(57) (6) 3261575";"Cr9 Bis Calle 43 Esq Colombia, Pereira"
"FERRETERÍA EL CRISOL LTDA.";elcrisol.cali@gmail.com;;"(57) (2) 4454545";"Cl 31 1-52 Colombia, Cali"
"AGROALIMENTOS MEDELLÍN S.A.";agroalimentos@une.net.co;;"(57) (4) 2854704";"Cr42 79-83 B-29 L-3 Itagüí Colombia, Medellín"
"DISTRIAS S.A.S.";paolaa@grupodistrias.com;www.grupodistrias.com;"(57) (4) 7823430";"Cr2 44-110 Colombia, Montería"
AGROMUNDO;jghenao@telecom.com.co;;"(57) (8) 5120202";"Av Las Américas 3 169 Colombia, San Andrés"
"AGROMASCOTAS-MISCELANEA EL CANARIO ROJO";elcanariorojoo@hotmail.com;;"(57) (4) 5112042";"Cl 48 54-15 Colombia, Medellín"
"SANMIGUELAGRO SOLUCIONES INTEGRALES S.A.S.";sanmiguel@sanmiguelagro.com;;"(57) (4) 3546152";"Cl 85 48-01 B-13 L-35 Itagüí Colombia, Medellín"
"DIPELCO S.A.S.";dicomercial@dipelco.com.co;;"(57) (1) 4082800";"Cl 11 28-45 P-7 Colombia, Bogotá"
"MÁQUINAS Y HERRAMIENTAS DEL CARIBE";;;"(57) (5) 3720416";"Cl 45 44-114 Colombia, Barranquilla"
"ALBER HERNÁNDEZ LTDA";;;"(57) (1) 3349682";"Cr 15 11-31 Colombia, Bogotá"
"INVERMEC S.A.";;;"(57) (1) 2371639";"Cr30 15-78 Colombia, Bogotá"
"TRACTO REPUESTOS Y SERVICIOS";;;"(57) (2) 2247777";"Cr40 Cl 26 Esq Colombia, Tuluá"
"FERRETERÍA LA ESCUADRA";;;"(57) (8) 6624647";"Cl 36 29-20 Colombia, Villavicencio"
"INSMART COLOMBIA S.A.S.";;;"Telefax: (57) (1) 2136100";"Cr9 123 - 76 Of 601 Colombia, Bogotá"
MERCADEO-ESTRA;;;"(57) (2) 6815965";"Cl 43 N 3 E N-25 Colombia, Cali"
"ALMACÉN EL HERRERO";;;"(57) (7) 6421490";"Av Quebrada Seca 15-48 Colombia, Bucaramanga"
"AUTOSERVICIOS LA CAMPIÑA";;;"(57) (4) 4265347";"Cl 64 D 94 B-01 Colombia, Medellín"
"AGROPECUARIA LA COSECHA E INSUMOS";;;"(57) (5) 6611458";"Los Alpes Tr54 31-35 Colombia, Cartagena"
"DON KIKE FERRETERÍA";;;"(57) (5) 3675105";"Cr43 82-136 Colombia, Barranquilla"
"AGRO-GAN DEL PATÍA";;;"(57) (28) 8261155";"Cr7 6-25 Colombia, El Bordo"
"PRODUCTOS INDUSTRIALES HANXOL LTDA.";;;"Telefax: (57) (1) 2468715";"Cr22 7 s-16 Colombia, Bogotá"
"CONTROL 4 DISTRIAS";;;"(57) (4) 7849313";"Cr 2 47-68 Zona Industrial Colombia, Montería"
"FERRETERÍA CÚCUTA";;;"(57) (7) 5782301";"Cenabastos Galpón I L-2 y 3 Colombia, Cúcuta"
"HERRAMIENTAS AGRICOLAS UJAR";;;"(57) (4) 4773374";"Cr89 92 C-64 Ap 261 Colombia, Medellín"
"INDUSTRIAS GALVAN";;;"(57) 3157373743";"Cr4 A 13 B-51 La Granja Colombia, Valledupar"
"AGROMANGUERAS DEL VALLE";;;"(57) (2) 2248714";"Cr23 28-27 Colombia, Tuluá"
"DISTRIBUIDOR DE HERRAMIENTAS AGRICOLAS";;;"(57) (2) 4225375";"Cl 117 26-35 Colombia, Cali"
"DEPÓSITO CAMPESINO DEL PATÍA";;;"(57) (28) 8262578";"Cl 4 7-16 Colombia, El Bordo"
"TEXCOL CÍA. LTDA.";;;"(57) (2) 7215558";"Cr21 B 19-48 Colombia, Pasto"
"MEGAHIERROS S.A.S.";;;"(57) (4) 4442373";"Cl 30 A 57-38 Colombia, Medellín"
"FERRETERÍA AGUILAR LTDA.";;;"Telefax: (57) (1) 2779809";"Cl 15 22-79 Colombia, Bogotá"
"COMPAÑIA MANUFACTURERA ANDINA S.A";;;"(57) (6) 8864200";"Cr22 75-111 Colombia, Manizales"
"INDURRUEDAS LTDA";;;"(57) (7) 6304422";"Cr17 21-33 Colombia, Bucaramanga"
"HERRAMIENTAS AGRICOLAS UJAR";;;"(57) (4) 4465462";"Cr89 92 C-64 Apt 261 Colombia, Medellín"
"First Name";"Email Address";Url;Telephone;Address
"HERRAMIENTAS AGRICOLAS UJAR";;;"(57) (4) 4773374";"Cr89 92 C-64 Ap 261 Colombia, Medellín"
"COMPAÑIA MANUFACTURERA ANDINA S.A";;;"(57) (6) 8864200";"Cr22 75-111 Colombia, Manizales"
"PRODUCTOS INDUSTRIALES HANXOL LTDA.";;;"Telefax: (57) (1) 2468715";"Cr22 7 s-16 Colombia, Bogotá"
"HERRAMIENTAS AGRICOLAS UJAR";;;"(57) (4) 4465462";"Cr89 92 C-64 Apt 261 Colombia, Medellín"
"INDURRUEDAS LTDA";;;"(57) (7) 6304422";"Cr17 21-33 Colombia, Bucaramanga"
"INVERMEC S.A.";;;"(57) (1) 2371639";"Cr30 15-78 Colombia, Bogotá"
"REPRESENTACIONES MECOL";;;"(57) (5) 5805677";"Cr13 19 E-12 Colombia, Valledupar"
"AGROMANGUERAS DEL VALLE";;;"(57) (2) 2248714";"Cr23 28-27 Colombia, Tuluá"
"ALMACÉN EL HERRERO";;;"(57) (7) 6421490";"Av Quebrada Seca 15-48 Colombia, Bucaramanga"
 Montería"
