"First Name";"Email Address";Url;Telephone;Address
"DINAMICA IPS";dinamica@dinamicaips.com;www.dinamicaips.com.co;"(57) (4) 4447428";"Cl 27 45-109 P-4 Colombia, Medellín"
ASSALUD;crdbucaramanga@assalud.com;www.assaludips.com;"(57) (7) 6970691";"Cr28 31-36 P-2 Colombia, Bucaramanga"
"ASSALUD C.R.D. I.P.S.";crdbucaramanga@assalud.com;www.assaludips.com;"(57) (7) 6970691";"Cr28 31-36 P-2 Colombia, Bucaramanga"
"HOSPITAL UNIVERSITARIO DE SAN VICENTE FUNDACIÓN.";elhospital@elhospital.org.co;www.sanvicentefundacion.com;"(57) (4) 4482626";"Cl 64 51 D-154 Colombia, Medellín"
"ANALIZAR LABORATORIO CLÍNICO AUTOMATIZADO S.A.S.";analizar@analizarlab.com;www.analizarlab.com;"(57) (1) 6580000";"Cl 103 14 A-76 Colombia, Bogotá"
"CAJA DE COMPENSACIÓN FAMILIAR DEL VALLE DEL CAUCA - COMFAMILIAR ANDI - COMFANDI";atencionalcliente@comfandi.com.co;www.comfandi.com.co;"(57) (2) 6841000";"Cr23 26 B-54 Colombia, Cali"
"CLINICA NUESTRA SEÑORA DE LOS REMEDIOS";;www.clinicadelosremedios.co;"(57) (2) 6081000";"Av2   N 24-157 Colombia, Cali"
"INSTITUTO DE RELIGIOSAS DE SAN JOSÉ DE GERONA";;www.clinicadelosremedios.co;"(57) (2) 6081000";"Av2   N 24-157 Colombia, Cali"
"CLÍNICA HIGEA I.P.S. S.A.";maros2007@gmail.com;www.clinicahigea.co;"(57) (5) 6622143";"Amberes Cr41 27-92 Cj 1 Colombia, Cartagena"
"I.P.S. LA GLORIA S.A.S";laglorialtda@hotmail.com;www.ipslagloriasas.com;"(57) (1) 2458309";"Av Cll 34 15-51 Colombia, Bogotá"
"LABORATORIO CLÍNICO HEMATOLÓGICO";comunicaciones@hematologico.com;www.lch.co;"(57) (4) 4444200";"Cr43 C 5-33 Colombia, Medellín"
"CENTRO DE MEDICINA DIAGNÓSTICA SIPLAS";siplas@siplaslab.com;www.siplaslab.com;"(57) (1) 5938393";"Cl 94 15-45 Colombia, Bogotá"
"GENES LTDA.";genforense@genesltda.com;www.genesltda.com;"(57) (4) 2684875";"Cr48 10-45 Consult 611 Colombia, Medellín"
"LABORATORIO DE INVESTIGACIÓN HORMONAL LIH";info@lablih.net;www.lablih.net;"(57) (1) 6205501";"Cr7 C 121-34 Colombia, Bogotá"
"CLÍNICA PALERMO";clemencia.florez@clinicapalermo.com;www.clinicapalermo.com.co;"(57) (1) 7420560";"Cl 45 C 22-02 Colombia, Bogotá"
"DIAGNÓSTICO & SERVICIOS S.A.S.";servicioalcliente@diagnosticoyservicios.com;www.diagnosticoyservicios.com;"(57) (7) 6030303";"Cl 48 22-77 Colombia Colombia, Barrancabermeja"
"INTERVENIR SALUD OCUPACIONAL";xsaavedra@intervenirsalud.com;www.intervenirsalud.com;"(57) (1) 2567574";"Cr49 N 95-34 Colombia, Bogotá"
"LABORATORIO CLÍNICO PATOLÓGICO LÓPEZ CORREA S.A.";laboratorio@lopezcorrea.com;www.lopezcorrea.com;"(57) (6) 3351223";"Cl 24 5-41 Colombia, Pereira"
"AUVIMER SALUD INTEGRAL EN SU CASA S.A.S.";;www.auvimer.com;"(57) (7) 6323400";"Cr35 34-36 Colombia, Bucaramanga"
"SERVICIOS MÉDICOS SAN IGNACIO S.A.S.";smsi@une.net.co;www.smsi.com.co;"(57) (4) 2161144";"Cr44 48-51 Colombia, Medellín"
"CENDIATRA LTDA.";cendiatra@gmail.com;www.cendiatra.com;"(57) (1) 2865382";"Cl 19 3-50 P-12 Colombia, Bogotá"
"HOSPITAL EN CASA S.A.";anam_bermudez@hospitalencasa.com.co;www.hospitalencasa.com.co;"(57) (2) 5242494";"Cl 5 69-03 L-235 Colombia, Cali"
"CENTROLAB I.P.S.";mercadeo@centrolab.com.co;www.centrolab.com.co;"(57) (4) 4443888";"Cl 57 A 48-21 Colombia, Medellín"
"CLÍNICA LAS VEGAS";contactenos@clinicalasvegas.com;www.clinicalasvegas.com;"(57) (4) 3159000";"Cl 2   S 46-55 Colombia, Medellín"
"CLÍNICA NUESTRA SEÑORA DEL ROSARIO";telemedicina@g-ocho.com.co;www.clinicadelrosario.co;"Telefax: (57) (2) 3262603";"Cl 10 33-51 Colombia, Cali"
"S & S SALUD Y SEGURIDAD INDUSTRIAL E.U.";juanmendoza@saludyseguridadindustrial.com;www.saludyseguridadindustrial.com;"(57) (5) 6431285";"Manga Cr17 26-19 Ls 1 Y-2 Av Jiménez Colombia, Cartagena"
"LABORATORIO CLÍNICO EDGAR GAVIRIA";labedgargaviria@yahoo.com;www.laboratorioclinicoedgargaviria.com;"(57) (5) 6697990";"Zaragocilla Cl 30 49-128 Colombia, Cartagena"
"CLÍNICA SAN FERNANDO S.A.";clinicasanfernando@hotmail.com;www.clinicasanfernandocali.com;"(57) (2) 3930030";"Cl 5 38-48 Colombia, Cali"
IDIME;servicioalcliente@idime.com.co;www.idime.com.co;"Fax: (57) (1) 5455036";"Cl 76 13-46 Colombia, Bogotá"
"OMNISALUD S.A.";camilo.zapata@clinicaomnisalud.com;www.clinicaomnisalud.com;"(57) (4) 2503921";"Cl 33 74 E-52 Colombia, Medellín"
"CENTRO MÉDICO INMUNOALERGIAS S.A.S.";juanmendozagoez@inmunoalergias.com;inmunoalergias.com;"(57) (5) 6435915";"Manga Cr17 26-19 L-1-y 2 Av Jimenez Colombia, Cartagena"
"CLÍNCIA META";contacto@clinicameta.com;www.clinicameta.com.co;"(57) (8) 6630054";"Cl 33 36-50 Colombia, Villavicencio"
"FUNDACIÓN CLÍNICA CAMPBELL";info@clinicacampbell.com.co;www.clinicacampbell.com.co;"(57) (5) 3809053";"Cl 31 14-20 Colombia, Barranquilla"
CLIPSALUD;clipsalud.sas@gmail.com;www.clipsalud.com;"(57) (8) 8750363";"Cl 18 A 5 A-48 Colombia, Neiva"
COHOSAN;gerencia@cohosan.org;www.cohosan.com;"(57) (7) 6917110";"San Jorge C.E. y Logistico Km 7 Anillo Vial Girón-Floridablanca Colombia, Bucaramanga"
"LABORATORIO CLÍNICO BIOREFERENCIA";servicioalusuario@bioreferencia.com;www.bioreferencia.com;"(57) (4) 4480002";"Cr48 17 A Sur-47 Edif Portugal L-203 Colombia, Medellín"
"CLÍNICA DE OCCIDENTE S.A.";mercadeo@cdo-sa.com;www.clinicadeoccidente.com.co;"Telefax: (57) (2) 6680076";"Cl 18   N 5-34 Colombia, Cali"
"CORPORACIÓN DE LUCHA CONTRA EL SIDA";directora@cls.org.co;www.cls.org.co;"(57) (2) 3724742";"Cr56 2-120 Colombia, Cali"
"BENAVIDES DE VEGA JOSE MARIA / PREVENIR 1A S.A.";prevenir1-a@hotmail.com;www.prevenir1A.com;"(57) (5) 4200149";"Cr20 12-32 San Francisco Colombia, Santa Marta"
"SOLUCIONES MÉDICAS EMPRESARIALES LTDA.";comercial@somedelimitada.com;www.somedelimitada.com;"(57) (1) 2875705";"Cl 41 No. 21-29 Colombia, Bogotá"
"First Name";"Email Address";Url;Telephone;Address
"HOSPITAL DE CALDAS S.E.S";agarcia@ses.com.co;www.hospitaldecaldas.com;"(57) (6) 8782501";"Cl 48 25-71 Colombia, Manizales"
"PROTEGER IPS S.A.S.";email@company.com;www.protegerips.com;"(57) (8) 6734646";"Cl 20 39-54 Brr. Camoa Colombia, Villavicencio"
"UNIDAD MEDICA DIAGNOSTICA ESPINOSA GOMEZ";mercadeo@espinosagomez.com;espinosagomez.com;"(57) (1) 3450900";"Cl 64 7-89 Colombia, Bogotá"
"LABORATORIO CLINICO MEDICO ESPINOSA GOMEZ";mercadeo@espinosagomez.com;www.mespinosagomez.com;"(57) (1) 3450900";"Cl 64 7-89 Colombia, Bogotá"
"CLÍNICA DE SALUD OCUPACIONAL DE OCCIDENTE S.A.S";clinica.sa.occidente@hotmail.com;www.clisocc.com.co;"(57) (2) 3816320";"Cl 23   N 3   N-88 Colombia, Cali"
"LABORATORIO CLÍNICO M.L.H. S.A.S.";info@laboratorioclinicomlh.com;www.laboratorioclinicomlh.com;"(57) (6) 7494110";"Cl 17   N 14-39 Colombia, Armenia"
CEFES;brios@une.net.co;www.cefesfertilidad.com;"(57) (4) 5319605";"Cl 54 43-80 Colombia, Medellín"
"CENTRO ECOGRAFICO CGR S.A.S.";centroecografico.cgr@hotmail.com;www.centroecograficocgr.com;"(57) (1) 2456047";"Cr15 33 A-21 L-102 Colombia, Bogotá"
"CLÍNICA UNIVERSITARIA BOLIVARIANA";clinica@upb.edu.co;www.upb.edu.co/clinica;"(57) (4) 4455900";"Cr72 A 78 B-50 Colombia, Medellín"
"CLÍNICA SAGRADO CORAZÓN";calidad@clinicasagradocorazon.com.co;www.clinicasagradocorazon.com.co;"(57) (4) 2151000";"Cl 49 35-61 Colombia, Medellín"
"AVALQUÍMICO S.A.S.";gerencia@avalquimico.com;www.avalquimico.com;"(57) (2) 4475948";"Cr4 C 52 A-86 Colombia, Cali"
"CLÍNICA DE LA MUJER";clinicamujer@inter.net.co;www.clinicadelamujer.com.co;"Telefax: (57) (1) 6161799";"Cr19 C# 91-17 Colombia, Bogotá"
"CLÍNICA LA COLINA";rgonzalez@clinicalacolina.com;www.clinicalacolina.com;"(57) (1) 4897000";"Cl 167 72-07 Colombia, Bogotá"
"LABORATORIO DE PATOLOGÍA SERPAT";serviciodepatologia@hotmail.com;www.serviciodepatologiaserpat.com;"(57) (1) 2558923";"Cr15 68-46 Colombia, Bogotá"
"LABORATORIO CLÍNICO GONZALO ARISTIZÁBAL M. EN C.";info@labgonzaloaristizabal.com.co;www.labgonzaloaristizabal.com.co;"(57) (4) 4035630";"Cl 53 46-38 Consult 106 Colombia, Medellín"
"ANALAB DEL LLANO S.A.S.";analabvet@hotmail.com;www.analabdelllano.com;"(57) (8) 6724999";"Cl 33 B 37-16 Colombia, Villavicencio"
"ALIANZA EXAMENES";gerencia@alianzaexamenes.com;www.alianzaexamenes.com;"(57) (1) 2174450";"Av Cl 63 24-44 Of 206 Colombia, Bogotá"
"CLÍNICA LUNGAVITA";gerencia@clinicalungavita.com;www.clinicalungavita.com;"(57) (2) 3188888";"Cr105 15-20 Colombia, Cali"
"SISOCOL CABARCAS - CARREÑO S.A.S.";sisocol.cc@gmail.com;www.sisocol.com;"(57) (7) 6575354";"Cl 53 36-08 P-2 Colombia, Bucaramanga"
"FUNDACIÓN POLICLÍNICA CIÉNAGA";policlinicacienaga@hotmail.com;www.policlinicacienaga.com;"(57) (5) 4240485";"Cl 8 11-39 Colombia, Ciénaga"
"ANGEL DIAGNÓSTICA";servicliente@angel.com.co;www.angel.com.co;"(57) (2) 6881111";"Av2   N 22   N-19 Colombia, Cali"
"LABORATORIO CLÍNICO MARTÍNEZ";coordinacionlabmartinez@gmail;www.laboratoriomartinez.com;"(57) (5) 4313622";"Cl 22 14-70 Consult 7 Centro Médico Perla del Caribe Colombia, Santa Marta"
"AGROPUNTO LA FINCA";agropuntolafinca@msm.com;www.agropuntolafinca.com.co;"(57) (8) 6702998";"Cl 26 40-39 Brr. 7 de Agosto Colombia, Villavicencio"
"JUAN PABLO II I.P.S.";mercadeo@juanpabloiiips.com;www.juanpabloiiips.com;"(57) (1) 2395905";"Cl 27   S 16-02 Colombia, Bogotá"
"ASOCIACIÓN MEDELLÍN DE LUCHA CONTRA EL CÁNCER";medicancer@une.net.co;www.medicancer.org;"(57) (4) 2634411";"Cr51 D 67-60 Colombia, Medellín"
"E.S.E. HOSPITAL SAN VICENTE DE PAÚL CALDAS";hospitaldecaldas@esehospicaldas.gov.co;www.esehospicaldas.gov.co;"(57) (4) 3786300";"Cr48 135 S-41 Caldas Colombia, Caldas"
"CENTRO MÉDICO IMBANACO";mercadeo@imbanaco.com.co;www.imbanaco.com;"(57) (2) 6821000";"Cr38 A 5 A-100 Colombia, Cali"
"LABORATORIO MÉDICO DE REFERENCIA S.A.S";comunicaciones@labmedico.com;www.labmedico.com;"(57) (4) 4440795";"Cl 63 41-27 Colombia, Medellín"
"UNIPESAJES S.A.S";Ventas@unipesajes.com;www.unipesajes.com;"(57) (4) 4488967";"Cr52 12 A Sur-37 Colombia, Medellín"
"LABORATORIO MÉDICO ECHAVARRÍA S.A.";cmontoya@labechavarria.com;www.labechavarria.com;"(57) (4) 4444343";"Cr46 14-175 Colombia, Medellín"
"CEDIMED S.A.";comunicaciones@cedimed.com;www.cedimed.com;"(57) (4) 4440019";"Cl 7 39-290 P-3 Colombia, Medellín"
"NEOVID IPS";neovidips@hotmail.com;www.neovidips.com;"(57) (4) 4482708";"Cl 11 A   S 43 A-31 Colombia, Medellín"
"CENTRO INMUNOLÓGICO COLOMBIANO";centroic@une.net.co;www.amigoscic.com;"(57) (4) 2688138";"Cr43 A 14-27 Of 306 Colombia, Medellín"
"GÓMEZ VESGA LABORATORIO CLÍNICO";gomezeugenia@hotmail.com;www.gomezvesga.com;"(57) (1) 5311200";"Cr17 93 A-21 Colombia, Bogotá"
"DEJANDO HUELLA FERTILIDAD";Info@dhfertilidad.com;www.dhfertilidad.com;"(57) (4) 2351560";"Cr48 19 A-40 Consult 1308 Colombia, Medellín"
"ONCÓLOGOS DEL OCCIDENTE S.A.";comunicaciones@oncologosdeloccidente.com;www.oncologosdeloccidente.com;"(57) (6) 3310712";"Av Circunvalar 1-46 Colombia, Pereira"
"UNIDAD DE FERTILIDAD FERTIVIDA Y CIA LTDA";info@fertivida.com.co;www.fertivida.co;"(57) (1) 6169239";"Cr19 A 82-85 Consult 401 Colombia, Bogotá"
"SOCIEDAD DE MEDICINA DE LABORATORIO SOMELAB";milocc@hotmail.com;www.laboratorio-test.com;"(57) (4) 5131366";"Cl 51 45-93 Consult 105 Colombia, Medellín"
"LABORATORIO CLINICO DRA ALICIA GAVIRIA";lab.aliciagaviriadiaz@hotmail.es;;"(57) (5) 6745910";"Prado Cl 30 36-10 P-1 Av Pedro de Heredia Colombia, Cartagena"
"INSTITUTO DEL TÓRAX";torax@une.net.co;www.institutodeltorax.com;"(57) (4) 4037020";"Cl 57 50 A-37 Colombia, Medellín"
"First Name";"Email Address";Url;Telephone;Address
"LABORATORIO CLÍNICO VID";laboratorio@congregacionmariana.org.co;www.laboratoriovid.org.co;"(57) (4) 4441754";"Cl 52 42-30 Colombia, Medellín"
"ONCÓLOGOS DEL OCCIDENTE S.A.";comunicaciones@oncologosdeloccidente.com;www.oncologosdeloccidente.com;"(57) (6) 3310712";"Av Circunvalar 1-46 Colombia, Pereira"
"CLÍNICA ANTIOQUIA";usuario@clinicantioquia.com.co;www.clinicantioquia.com.co;"Conm.: (57) (4) 3222211";"Cl 45 49-02 Itagüí Colombia, Medellín"
"DEJANDO HUELLA FERTILIDAD";Info@dhfertilidad.com;www.dhfertilidad.com;"(57) (4) 2351560";"Cr48 19 A-40 Consult 1308 Colombia, Medellín"
"CEDIMED S.A.";comunicaciones@cedimed.com;www.cedimed.com;"(57) (4) 4440019";"Cl 7 39-290 P-3 Colombia, Medellín"
"ASOCIACIÓN MEDELLÍN DE LUCHA CONTRA EL CÁNCER";medicancer@une.net.co;www.medicancer.org;"(57) (4) 2634411";"Cr51 D 67-60 Colombia, Medellín"
"LABORATORIO CLÍNICO AUTOMATIZADO M.P.R. LTDA.";laboratorioclinicompr@hotmail.com;www.laboratorioclinicompr.com;"(57) (5) 6710183";"Los Ejecutivos Centro Médico Los Ejecutivos L-S-10 Av Pedro de Heredia Colombia, Cartagena"
"CENTRO MÉDICO IMBANACO";mercadeo@imbanaco.com.co;www.imbanaco.com;"(57) (2) 6821000";"Cr38 A 5 A-100 Colombia, Cali"
PREVISER;previser@previser.com.co;;"(57) (2) 2732874";"Cl 29 27-40 Edif Banco de Bogota Colombia, Palmira"
"LABORATORIO CLINICO BIOANDES";laboratoriobioandes@hotmail.es;www.laboratorioclinicobioandes.com;"(57) (1) 4674284";"Av (Cl) 145 91-19 P-3 Consult 2 Colombia, Bogotá"
"FUNDACIÓN HOSPITAL SAN JOSE DE BUGA";administracion@fhsjb.org;www.fhsjb.org;"(57) (2) 2361000";"Cr8 17-52 Colombia, Buga"
"SERVIR SAS";informacion@servisas.com;www.servirsas.com;"(57) (8) 2667929";"Av37 4 H-24 Colombia, Ibagué"
"COOMEVA MEDICINA PREPAGADA S.A.";jeisona_alian@coomeva.com.co;www.medicinaprepagada.coomeva.com.co;"(57) (7) 6571115";"Cl 54 31-151 Colombia, Bucaramanga"
"FUNDACIÓN DE PROFESIONALES FUNDEPRO I.P.S.";glopera@fundaciondeprofesionales.org;;"(57) (8) 2480002";"Cr6 5-06 Colombia, Espinal"
"I.P.S.CENTRO DE DIAGNÓSTICO OCUPACIONAL";sergeintsas@gmail.com;www.ipscdo.com;"(57) (8) 8669763";"Cr6 19-21 Colombia, Neiva"
"CLÍNICA SAN FRANCISCO S.A.";gerencia@clinicasfco.com.co;www.clinicasanfrancisco.com.co;"(57) (2) 2262222";"Cl 26 34-60 Colombia, Tuluá"
"COOMEVA E.P.S.";elsa_barrera@coomeva.com.co;www.eps.coomeva.com;"(57) (7) 6435555";"Cr34 44-80 San Pío Colombia, Bucaramanga"
"CLÍNICA EL PRADO";sandramejia@clinicaelpradofmp.com;www.clinicaelpradofmp.com;"(57) (5) 3678900";"Cl 59 50-10 Colombia, Barranquilla"
"ASISTENCIA Y ASESORÍAS INTEGRALES EN SALUD";agacharnasiso@hotmail.com;www.aisocupacional.com;"(57) (1) 8351007";"Cr8 19-32 Brr. Granada Colombia, Girardot"
"ASISTENCIA MEDICO LABORAL";info@saludocupacional-medicinalaboral.com;www.saludocupacional-medicinalaboral.com;"(57) 3046256936";"Av. Caracas 44-54 Of 402 Colombia, Bogotá"
"CITOFEMME IPS S.A.S.";citofeme@une.net.co;www.citofemme.com;"Telefax: (57) (4) 4485530";"Cr43 A N 15 Sur-15 Of 206 Av El Poblado Colombia, Medellín"
"ASEMECO S.A.S";directorcomercial@asemeco.com.co;www.asemeco.com.co;"(57) (4) 4485951";"Cr81 A 48 A-16 Colombia, Medellín"
"LABORATORIO CLÍNICO ALVARO E. RODRÍGUEZ A. MD";gerencia@labalvarorodriguez.c;www.labalvarorodriguez.com;"(57) (2) 2725768";"Cr31 31-45 Colombia, Palmira"
"COOPERATIVA DE NEFROLOGIA Y MEDICINA NEFROMED LTDA.";nefro_lab@hotmail.com;www.nefromedlimitada.com;"(57) (7) 6384811";"Tr154   N 150-221 Consult 2-5 Colombia, Bucaramanga"
"CENTRO TERAPEUTICO SALUD OCUPACIONAL";centroterapeutico.2009@hotmail.com;www.centroterapeutico.com.co;"(57) 3112158223";"Cl 48 24-19 Brr. Colombia Colombia, Barrancabermeja"
"ASISTENCIA Y ASESORÍAS INTEGRALES EN SALUD OCUPACIONAL";agacharnasiso@hotmail.com;www.aisocupacional.com;"(57) (1) 8351007";"Cr8 No. 19-32 Brr. Granada Colombia, Girardot"
"LABORATORIO CLÍNICO CONTROLAB";controlab@hotmail.com;;"(57) (6) 3334577";"Cr5 18-33 L-4 Colombia, Pereira"
"SALUD RENT S.A.S";saludrent@hotmail.com;;"(57) (4) 3173693150";"Cl 54 Número 45-63 Edif Centro Caracas Of 115 Colombia, Medellín"
"LABORATORIO INMUNOCLÍNICO S.A.S.";inmunoclinico@hotmail.com;www.laboratorioinmunoclinico.com;"(57) (1) 2187627";"Cl 100 11 A-07 Consult 204 Colombia, Bogotá"
"CLÍNICA LOS ANDES S.A.";cliniandes@telecom.com.co;clinicalosandes.com;"(57) (2) 5537503";"Cr39 A 5 D-106 Colombia, Cali"
"PROVIVIR LABORATORIO CLÍNICO E.U.";provivir@yahoo.com;www.grupoprovivir.com;"(57) (2) 4374049";"Cr28 F 72 U-16 Colombia, Cali"
"INTERCONSULTAS LTDA.";interconsultas@une.net.co;www.ipsinterconsultas.com;"(57) (6) 8930350";"Cl 56 24-29 Colombia, Manizales"
"GESTIÓN MÉDICA LABORAL S.A.S.";gerenciagesmed@hotmail.com;www.gestionmedicalaboral.com;"(57) (5) 6607654";"C.C. Getsemani L-2 Pc-2 Piso-2 Colombia, Cartagena"
"SALUD COOMULTRASAN";mercadeo@coomultrasan.com.co;www.coomultrasan.com.co;"(57) (7) 6576150";"Cr34 46-34 San Pío Colombia, Bucaramanga"
"CLÍNICA MATERNO INFANTIL SAN LUIS S.A.";csanluis@clinicasanluis.com.co;www.clinicasanluis.com.co;"(57) (7) 6430026";"Cl 48 25-56 Colombia, Bucaramanga"
"SAN DIEGO SERVICIOS EN SALUD S.A.S";direccion@sandiegoses.com;sandiegoses.com;"(57) (7) 6351618";"Cl 35 21-74 Int 231 Edif Apolo Colombia, Bucaramanga"
"SAFE GROUP S.A.";grupo.safe@hotmail.com;www.gruposafe.com;"(57) (6) 7359204";"Av Bolívar 12 N-31 L-1 Colombia, Armenia"
"PASTEUR LABORATORIOS CLÍNICOS DE COLOMBIA S.A.";info@pasteurlab.com;www.pasteurlab.com;"(57) (5) 3565771";"Cr50 79-172 Colombia, Barranquilla"
"MEDICINA INTEGRAL EN CASA COLOMBIA";sercliente@medicacolombia.com;www.medicacolombia.com;"(57) (2) 6535045";"Av4   N 20   N-10 Colombia, Cali"
"HOSPITAL DEPARTAMENTAL MARIO CORREA RENGIFO";hmariocorrea@emcali.net.co;www.hospitalmariocorrea.org;"(57) (2) 3230090";"Cr78 Oe 2 A-00 Colombia, Cali"
"First Name";"Email Address";Url;Telephone;Address
"MEDICINA INTEGRAL EN CASA COLOMBIA";sercliente@medicacolombia.com;www.medicacolombia.com;"(57) (2) 6535045";"Av4   N 20   N-10 Colombia, Cali"
"HOSPITAL DEPARTAMENTAL MARIO CORREA RENGIFO";hmariocorrea@emcali.net.co;www.hospitalmariocorrea.org;"(57) (2) 3230090";"Cr78 Oe 2 A-00 Colombia, Cali"
"LABORATORIO CLÍNICO MARTHA DUSSÁN Y CÍA. LTDA.";laboratoriodussan@hotmail.com;www.laboratoriodussan.com;"(57) (8) 6624980";"Cl 33 B 36-37 Barzal Colombia, Villavicencio"
"LABORATORIO MICROBIOLÓGICO DRA. MARGIE OJEDA DE SANTAELLA";laboratorioclinicomargieojeda2012@hotmail.com;;"(57) (7) 5717369";"Av0 A 12-05 Consult 215 Edif Ingrid Colombia, Cúcuta"
"PROLAB S.A.S.";contacto@prolab.com.co;www.prolab.com.co;"(57) (4) 5166740";"Cl 19 A 44-25 P-2 Trr Médica Salud y Servicios Colombia, Medellín"
"LABORATORIO MÉDICO NOVOLAB S.A.S.";elenita_felippe@hotmail.com;;"(57) (6) 3335097";"Cr12 Bis 9-22 Brr. Los Rosales Colombia, Pereira"
"LABORATORIO CLÍNICO ANGELA M. VARGAS J.";labclinicoangelavargas@hotmail.com;www.labclinicoangelavargas.com;"(57) (6) 3350998";"Cr6 22-48 Consult 102 Colombia, Pereira"
"LABORATORIO CLÍNICO DARSALUD";laboratoriodarsalud@gmail.com;www.darsalud.com.co;"(57) (6) 3251783";"Cr6 22-07 Colombia, Pereira"
"LABORATORIO CLÍNICO ESPECIALIZADO LTDA.";servicioalcliente@nohemylab;www.laboratorioclinicoespecializado.com;"(57) (2) 7290452";"Cr28 17-39 Centro Colombia, Pasto"
"LABORATORIO CLÍNICO DIAGNOSTICAR";lab_diagnosticar@hotmail.com;;"(57) (8) 2610380";"Cl 9 3-65 Consult 207 Colombia, Ibagué"
"CHYLAB S.A.S.";citylabsas@gmail.com;;"(57) (4) 2768302";"Cl 38   S 39-44 P-2 Envigado Colombia, Medellín"
"I.P.S. CEMOL CENTRO MÉDICO ODONTOLÓGICO EL LIMÓN";cemol45@hotmail.com;;"(57) (5) 3343950";"Cr6 B 33 B-89 Colombia, Barranquilla"
"LABORATORIO MÉDICO LAS AMÉRICAS LTDA.";atencionusuarios@lablasamericas.com.co;www.lablasamericas.com.co;"(57) (4) 4449092";"Dg75 B 2 A-80 Colombia, Medellín"
"UNILAB S.A CENTRAL DE AYUDAS DIAGNÓSTICAS";unilab@unilab.com.co;www.unilab.com.co;"(57) (4) 4444633";"Cl 50 78 A-70 Colombia, Medellín"
"SERVICIO MÉDICO LTDA.";mercadeoclinica.villa.real@gmail.com;clinicavilla-real.com;"(57) (8) 5124385";"Cr2 A 7-141 Vía San Luis Colombia, San Andrés"
SOLAB;florezherrerasolab@hotmail.co;;"(57) (5) 4235858";"Cr3 24-57 El Prado Colombia, Santa Marta"
SERVILAB;servilab19@hotmail.com;;"(57) (4) 4480278";"Cl 49 40-79 Colombia, Medellín"
"ALCOST PHARMACEUTICAL S.A.S.";gerenciageneral@alcost.com.co;www.alcost.com.co;"Nal: (57) (4) 4440411";"Cr65 32 D-35 Colombia, Medellín"
"CLÍNICA PANAMERICANA";mercadeo@clinpanamericana.com;www.clinpanamericana.com;"(57) (4) 8293198";"Zona Franca de Urabá L-101 Colombia, Apartadó"
"HOSPITAL MANUEL URIBE ANGEL";comunicaciones@hospitalmua.com.co;www.hospitalmanueluribeangel.com/;"(57) (4) 2704947";"Dg31 36 A   S-80 Envigado Colombia, Medellín"
"LABORATORIO CLÍNICO BIO-LAB";laboratorioclinicobiolab@yahoo.es;www.biolabips.com.co;"(57) (4) 4116992";"Av33 74 B-202 Colombia, Medellín"
"CLÍNICA VERSALLES";gerencia@clinicaversalles.com.co;www.clinicaversallessa.com.co;"(57) (6) 8879100";"Cl 51 24-50 Versalles Colombia, Manizales"
"LABORATORIO CLÍNICO BIODEX";laboratorioclinicobiodex@gmail.com;;"(57) (1) 2882180";"Av Cra 14-44 54 Consult 302 Colombia, Bogotá"
"BIOTECNOLOGÍA Y GENÉTICA S.A.";biotecgen@gmail.com;www.biotecgen.com.co;"(57) (1) 2145409";"Cl 119 49-26 Colombia, Bogotá"
"LABORATORIO DE ESPECIALIDADES CLINIZAD S.A.S.";calidad@clinizad.com;www.clinizad.com;"(57) (2) 7208535";"Cr32 B 19-02 Esq Palermo Colombia, Pasto"
"CENTRO MÉDICO Y ODONTOLÓGICO GUADALUPE";centromedicoguadalupe@gmail.com;;"(57) (6) 3323341";"Cr15 35-39 Brr. Guadalupe Colombia, Dosquebradas"
"AA ACCESORIOS Y PRENDAS DESECHABLES";aaaccesoriosyprendasdesechables@hotmail.com;www.aaaccesoriosyprendasdesechables.com;"Telefax: (57) (1) 2361748";"Cl 85 A 21-63 Colombia, Bogotá"
"CLÍNICA URGENCIAS PEDIATRICAS S.A. URPEDIAN";urpedian@une.net.co;www.urpedian.com;"(57) (4) 2641979";"Cl 49 B 78 A-40 Colombia, Medellín"
"VACUNAR T Y T SAS";kata_trc@hotmail.com;www.vacunartyt.com;"(57) (7) 3102422431";"Av. Quebraseca 33-94 L-3 Colombia, Bucaramanga"
"LABORATORIO CLINICO VAESKER";;www.laboratoriovaesker.com;"(57) (7) 6429720";"Cr10 Occ 45 A-04 Colombia, Bucaramanga"
"CENTRO MÉDICO CAMES";centromedicocames@gmail.com;www.centromedicocames.com;"(57) (4) 2507575";"Cl 33 A 71 A-127 Colombia, Medellín"
"LIGA CORDOBESA CONTRA EL CÁNCER";licocoelca@gmail.com;www.ligacordobesacontraelcancer.com;"(57) (4) 7833090";"Cr13 22-49 La Julia Colombia, Montería"
"INBIOSER MANTENIMIENTO, CALIBRACIÓN, ALQUILER YSUMINISTRO DE EQUIPOS BIOMÉDICOS";inbioser@gmail.com;www.inbioser.com;"(57) (4) 4634019";"Medellín Colombia, Medellín"
"LAB MESA COCK RICARDO ANIBAL S.A.S.";ranibal@une.net.co;www.labmesacock.com;"(57) (4) 2111263";"Cr50 A 64-65 Consult 402 Colombia, Medellín"
"VETERINARIA GRECIA";kisabos123@yahoo.com;www.veterinariagrecia.com;"(57) (1) 2144663";"Cl 119 11-59 Colombia, Bogotá"
"CENTRO DE DIAGNÓSTICO CLÍNICO S.A.S";2ervicioalcliente@cdclaborato;www.cdclaboratorio.com;"(57) (6) 7492011";"Av Bolívar 14 N-80 L-103 Edif. El Bosque Colombia, Armenia"
"CENTRO MÉDICO PREVENIMOS";prevenimos@hotmail.com;www.centromedicoprevenimos.com;"(57) (6) 3252956";"Cl 10 12 B-11 Circunvalar Colombia, Pereira"
"HEALTHY WORK S.A.S.";healthywork@hotmail.com;www.healthyworksas.com;"(57) (5) 6452625";"San Pedro Manz 15 Lt 3 Colombia, Cartagena"
"LABORATORIO CLÍNICO MABEL OTERO";mabeloterojeronimo@hotmail.com;www.laboratorioclinicomabelotero.com;"(57) (5) 4217148";"Cl 22 18-32 Colombia, Santa Marta"
"SURGILAB LABORATORIO CLÍNICO";surgilab@gmail.com;www.surgilabibague.com;"(57) (8) 3118899897";"Cr6 A 60-19 L 102 Colombia, Ibagué"
"First Name";"Email Address";Url;Telephone;Address
"SURGILAB LABORATORIO CLÍNICO";surgilab@gmail.com;www.surgilabibague.com;"(57) (8) 3118899897";"Cr6 A 60-19 L 102 Colombia, Ibagué"
"EJE SALUD LABORAL S.A.S.";ipsejesaludlaboral@gmail.com;www.ejesaludlaboral.com;"(57) (6) 8843000";"Cr23 23-60 Of 304 Edif Cuellar Colombia, Manizales"
"ECOCARIBE CENTRO MÉDICO LTDA.";ecocaribecentromedico@yahoo.es;;"(57) (5) 3623434";"Cl 45 17-116 Colombia, Barranquilla"
"LABORATORIO CLINICO SANTA LUCIA";lcsl@labsantalucia.net;www.labsantalucia.com.co;"(57) (5) 6424720";"Providencia Centro Médico Sta Lucía L-104 Colombia, Cartagena"
"CLÍNICA SANTILLANA";contacto@clinicasantillana.com;clinicasantillana.com;"(57) (6) 8879830";"Cr24 56-50 Colombia, Manizales"
CDI;gerencia@cdi.net.co;www.cdi.net.co;"(57) (7) 5941367";"Av0 18-34 Brr. Blanco Colombia, Cúcuta"
"LABORATORIO EDUARDO FERNÁNDEZ";contacto@laboratorioeduardofernandez.com;www.laboratorioeduardofernandez.com;"(57) (5) 6642160";"Centro Cr7 36-35 Calle 2 de Badillo Colombia, Cartagena"
"MEDIHOSPITALARIOS S.A.S";medihospitalariossas@hotmail.com;;"(57) (6) 8867290";"Cl 76 A 21-96 Colombia, Manizales"
"CENTRO DE ATENCIÓN Y DIAGNÓSTICO DE ENFERMEDADES INFECCIOSAS C.D.I S.A.";gerencia@cdi.net.co;www.cdi.net.co;"(57) (7) 6431666";"Cr37 51-126 Colombia, Bucaramanga"
"CLINICA DE LA PRESENTACION";asistente.direccion@clinicadelapresentacion.com.co;clinicadelapresentacion.com.co;"(57) (6) 8782800";"Cr23 Cl 46 Esq Colombia, Manizales"
"CORPORACIÓN IPS UNIVERSITARIA DE CALDAS";gerencia@ipsuniversitariadeca;www.ipsuniversitariadcaldas.com.co;"(57) (6) 8859888";"Cr25 A 62-06 Colombia, Manizales"
"LABORATORIO CLÍNICO MARCELA HOYOS RENDÓN S.A.S.";"lab_marcehoyosrendon@hotmail.com        marcehoyosr@yahoo.es";labclinicomarcelahoyos.com;"(57) (6) 8811205";"Centro Médico Plaza 51 Consult. 9-10 Colombia, Manizales"
"HOSPITAL DEPARTAMENTAL UNIVERSITARIO SANTA SOFÍA DE CALDAS";planeacion@santasofia.com.co;www.santasofia.com.co;"(57) (6) 8879200";"Km 2 Salida a Chinchiná Colombia, Manizales"
"LABORATORIO CLÍNICO DE CALDAS IPS";laboratorioclinicocaldas@gmail.com;www.laboratorioclinicodecaldas.com;"Telefax: (57) (6) 8975286";"Cl 21 23-22 P-2 Colombia, Manizales"
"ESCUELA DE MECÁNICA DENTAL DEL VALLE LTDA.";diegoholguin@emdv.edu.co;www.emdv.edu.co;"(57) (2) 2242731";"Cr23 31-37 Colombia, Tuluá"
"LABORATORIO CLÍNICO BACTERIOLÓGICO FLEMING SEDE NORTE";labflemingnorte@gmail.com;;"(57) (5) 6550656";"Bgde Cr1 Cl 15 Esq L-16 Edif Seguros Bolívar Colombia, Cartagena"
"LABORATORIO CLÍNICA UNLAB";gerencia@unlab.org;www.unlab.org;"(57) (4) 8285196";"Cl 103 97-80 Colombia, Apartadó"
"CLÍNICA MEDICADIZ S.A.";coordinacion.admon@medicadiz.com.co;www.medicadiz.com.co;"(57) (8) 2650573";"Cr5 31-114 Edif Medicadiz Colombia, Ibagué"
"LABORATORIO CLÍNICO LABCO";labco2009@gmail.com;;"(57) (8) 6601459";"Cl 7 39-27 Villa Bolivar Colombia, Villavicencio"
"CALIMA SOLUCIONES DIAGNÓSTICAS";centromedicocalima@yahoo.com;www.solucionesdiagnosticas.com;"(57) (2) 6651870";"Cali Colombia, Cali"
"LABORATORIO CLÍNICO LA CASTELLANA S.A.S.";info@lacastellana.co;;"(57) (5) 6612297";"Sta Lucía Cl 31 A 69 52 C.C. Santa Lucía L 14 Colombia, Cartagena"
"PREVENCIÓN OCUPACIONAL S.A.S.";contacto@prevencionocupacional.com;www.prevencionocupacional.com;"(57) (4) 3439083";"Cr75 DA 2 B-S-50 Int 738 Colombia, Medellín"
"CENTRO MÉDICO Y LABORATORIO CLÍNICO POPULAR";laboraclinicopopular@yahoo.es;centromedicoylaboratorioclinicopopular;"(57) (2) 2246196";"Cl 29 27-69 Colombia, Tuluá"
"LABORATORIO T.Q.C. ANÁLYSIS";tqclaboratorio@hotmail.com;www.tqclaboratorio.com;"(57) (7) 6850052";"Cl 54 33-45 Of 201 Colombia, Bucaramanga"
"LABORATORIO OPTICO JIMÉNEZ";lab.opticojimenez@hotmail.com;;"(57) (1) 2834275";"Cl 13 13-31 Of 501 Colombia, Bogotá"
"LABORATORIO BIOCLINICO LUIS E AFANADOR Q.";andresafanador77@hotmail.com;;"(57) (7) 5715375";"Av4 17-62 La Playa Colombia, Cúcuta"
"LABORATORIO CLÍNICO ELIZABETH CÁRDENAS";labclinicoliz@yahoo.es;;"(57) (1) 4180659";"Cr96 DBis 22 G-49 Colombia, Bogotá"
"SALUBRISTAS OCUPACIONALES UNIDOS S.A.S.";info@salubristasocupacionalesunidos.com.co;www.salubristasocupacionalesunidos.com.co;"(57) (5) 3686467";"Cr58 70-129 Consult 205 Colombia, Barranquilla"
"LABORATORIO CLÍNICO Y BACTERIOLÓGICO BARRANQUILLA";vgarciat61@hotmail.com;;"(57) (5) 3579171";"Cr51 B 94-334 L-201 Colombia, Barranquilla"
"LABORATORIO CLÍNICO GLORIA GÓMEZ JARAMILLO";gloriagjaramillo@gmail.com;;"(57) (6) 8851317";"Cl 61 24 A-62 Brr. Estrella Colombia, Manizales"
"LABORATORIO CLÍNICO BELÉN";jorgehdavid@gmail.com;;"(57) (4) 2385946";"Cl 30 A 77-30 Colombia, Medellín"
"LABORATORIO CLINICO DE MARLY DANIEL GAMBOA Y CIA LTDA";labomarlygamboa@etb.net.co;www.laboratoriomarly.com;"(57) (1) 2454906";"Cl 50 9-67 Int 101 Colombia, Bogotá"
"LABORATORIO CLÍNICO YAMIL BAJAIRE VILLA & CÍA. LTDA.";yamilbajairem@hotmail.com;www.yamilbajaire.com;"(57) (5) 6642004";"Centro Cl del Colegio 34-38 Edif Rincón de la Covadonga Colombia, Cartagena"
"LABORATORIO CLÍNICO DRA. ZOIRIA MARÍN";zoiria@hotmail.com;;"(57) (8) 6820599";"Cr13 B 24-21 Olimpico Colombia, Villavicencio"
"E.S.E. HOSPITAL LA MARÍA";lamaria@une.net.co;www.lamaria.com.co;"(57) (4) 4714767";"Cl 92 EE 67-61 Colombia, Medellín"
"HOSPITAL SAN JUAN DE DIOS";hospitalcarmen@une.net.co;;"(57) (4) 5436110";"Cr31 19-58 El Carmen de Viboral Colombia, Medellín"
"SALUD OCUPACIONAL MAHECHA Y ROMERO";somahechayromero@hotmail.com;www.saludocupacionalmyr.com;"(57) (8) 2480200";"Cr6 13-55 Colombia, Espinal"
"LABORATORIO CLINICO CALLE 53 GALERIAS";fabio-olarte@hotmail.com;;"(57) (1) 2115817";"Cr27 A 53-06 Consult 304 Colombia, Bogotá"
"LABORATORIO CLÍNICO DRA. MARISOL MARTÍNEZ M. NE";marimar987@hotmail.com;;"(57) (5) 6673860";"CORALES Manz K LT 58 Colombia, Cartagena"
"CUIDADO DE PACIENTES ANDREA CASTRO";enfermeraseficacesad@gmail.com;;"(57) (1) 6099613";"Cl 71 Bis 87 C-68 Colombia, Bogotá"
"First Name";"Email Address";Url;Telephone;Address
"LABORO SALUD OCUPACIONAL S.A.S.";laboro.salud.ocupacional@gmail.com;www.laborosalud.com;"(57) (4) 7854786";"Dg50 A 7-124 Villa Del Río Colombia, Montería"
"LABORATORIO CLÍNICO MARCELA BETTIN";labmarcebettin@hotmail.com;;"(57) (6) 3332786";"Cl 20 5-07 Edif Centro Médico Colombia, Pereira"
"CALIDAD IPS S.A.S.";calidadips_@hotmail.com;;"(57) (5) 5733337";"Cr19 7 C-23 Colombia, Valledupar"
"ABAD LABORATORIO";labendo@une.net.co;www.abadlaboratorios.com;"(57) (4) 4446628";"Cr48 12   S-70 Of 107 Colombia, Medellín"
"LABORATORIO CLÍNICO BELÉN";jorgehdavid@gmail.com;;"(57) (4) 2385946";"Cl 30 A 77-30 Colombia, Medellín"
"A.Q.L. LABORATORIO CLÍNICO S.A.S.";info@aqllaboratorioclinico.com;www.aqllaboratorioclinico.com;"(57) (6) 8872120";"Cl 66 23 B-03 Colombia, Manizales"
"LABORATORIO CLÍNICO GLORIA GÓMEZ JARAMILLO";gloriagjaramillo@gmail.com;;"(57) (6) 8851317";"Cl 61 24 A-62 Brr. Estrella Colombia, Manizales"
"DIAGNÓSTICOS LABORATORIO CLÍNICO-IPS LTDA.";ceciliagonzalezmartinez@yahoo.com;;"(57) (5) 4211755";"Cr1 C 22-29 L 2 Edif Paulina Colombia, Santa Marta"
"HEMATO ONCÓLOGOS S.A";contacto@hematooncologos.com;www.hematooncologos.com;"(57) (2) 5245839";"Cl 5B5 38-10 Colombia, Cali"
SALULABORAL;salulaboral@gmail.com;www.ipssalulaboral.com;"(57) (5) 6672599";"Nuevo Bosque Tr52 29 E-138 Colombia, Cartagena"
"SALUBRISTAS OCUPACIONALES UNIDOS S.A.S.";info@salubristasocupacionalesunidos.com.co;www.salubristasocupacionalesunidos.com.co;"(57) (5) 3686467";"Cr58 70-129 Consult 205 Colombia, Barranquilla"
"MEDISIS S.A.S.";o.rocha@medisis.com.co;www.medisis.com.co;"(57) (2) 5582855";"Cl 5 38-25 Of 122 Colombia, Cali"
"LABORATORIO CLÍNICO BOTERO SANÍN S.A.S.";david_botero11@hotmail.com;www.laboratorioboterosanin.com;"(57) (4) 4445523";"Cr48 10-45 Consult 504 Colombia, Medellín"
"LABORATORIO CLÍNICO NAIZIR LTDA.";atencionalusuario@laboratorionaizir.com;www.laboratorionaizir.com;"(57) (8) 2643079";"Cl 33 4 A-44 Cádiz Colombia, Ibagué"
"LABORATORIO CLÍNICO DRA. VILMA OROZCO";vilmaoro@yahoo.es;www.vilmaorozco.com;"(57) (7) 5731198";"Av0 A 12-05 Consult 101 Edif Ingrid Colombia, Cúcuta"
"CENTRO MÉDICO CRECER LTDA.";clinicacrecer@clinicacrecer.com;www.clinicacrecer.com;"(57) (5) 6723650";"Prado Cl 30 34-22 Av Pedro de Heredia Colombia, Cartagena"
"LABORATORIO CLINICO CALLE 53 GALERIAS";fabio-olarte@hotmail.com;;"(57) (1) 2115817";"Cr27 A 53-06 Consult 304 Colombia, Bogotá"
"LABORATORIO CLÍNICO BIOLAB";terefuentesc@gmail.com;;"(57) (8) 3157701187";"Av Colombia Edif Star Bay L-102 frente Hotel Mary Land Colombia, San Andrés"
"LABORATORIO CLÍNICO LACID LTDA.";lablacid@hotmail.com;;"(57) (4) 8237459";"Cr78 80-43 Colombia, Carepa"
"LABORATORIO CLÍNICO DRA. OLGA LUCÍA G.DE LONDOÑO";gutierrezlaboratorio@gmail.com;;"(57) (2) 3373185";"Cr44 12-28 Colombia, Cali"
"HOSPITAL SAN JUAN DE DIOS";hospitalcarmen@une.net.co;;"(57) (4) 5436110";"Cr31 19-58 El Carmen de Viboral Colombia, Medellín"
"LABORATORIO CLÍNICO LABCO";labco2009@gmail.com;;"(57) (8) 6601459";"Cl 7 39-27 Villa Bolivar Colombia, Villavicencio"
"CENTRO MÉDICO NUEVA VIDA LTDA.";cmnuevavida@une.net.co;www.ipsnuevavida.com;"(57) (4) 4419292";"Dg85 79 C-38 Colombia, Medellín"
"LABORATORIO CLÍNICO DRA. MARISOL MARTÍNEZ M. NE";marimar987@hotmail.com;;"(57) (5) 6673860";"CORALES Manz K LT 58 Colombia, Cartagena"
"MAXIVIHDA LTDA I.P.S.";maxividaips@hotmail.com;;"(57) (4) 7917082";"Cr14 A 33-27 L-2 El Edén Colombia, Montería"
"LABORATORIO OPTICO JIMÉNEZ";lab.opticojimenez@hotmail.com;;"(57) (1) 2834275";"Cl 13 13-31 Of 501 Colombia, Bogotá"
"LABORATORIO CLÍNICO LEONAL";leonal-bsdg@hotmail.com;;"(57) (7) 6203515";"Cl 50 21-15 Colombia Colombia, Barrancabermeja"
"CENTRO MÉDICO LA SAGRADA FAMILIA I.P.S. S.A.S.";medicosagradafamilia@gmail.com;;"(57) (2) 2277702";"Cl 13 12-45 Colombia, Buga"
"CARLOS CUELLO & CÍA. S. EN C.S.";labcarloscuello@emcali.net.co;laboratoriocarloscuello.com;"(57) (2) 6602563";"Av2 C   N 24   N-120 Colombia, Cali"
"LABORATORÍO CLÍNICO SALUDSERV LTDA.";saludserv900@hotmail.com;;"(57) (2) 2446045";"Cr64 C 11-10 Independencia Colombia, Buenaventura"
"ARCA LABORATORIO CLÍNICO ARIAS CADENA";comercial@arcalaboratorios.com;www.arcalaboratorios.com;"(57) (6) 7458693";"Cr15 15-12 L-4 Colombia, Armenia"
"LABORATORÍO CLINICO ANDINA";labcliandino@hotmail.com;;"(57) (6) 7315834";"Cl 19 15-51 Consult 201 Colombia, Armenia"
"LABORATORIO CLÍNICO CLIMILAB";sonjaliliana@hotmail.com;;"(57) (5) 1000000";"Av Libertador 19-97 L 101 Colombia, Santa Marta"
"CENTRO MÉDICO Y LABORATORIO CLÍNICO LA SAMARITANA S.A.S.";samaritana@geo.net.co;;"(57) (4) 2334576";"Cr45 83-46 Colombia, Medellín"
"LABORATORIO CLÍNICO BACTERIOLÓGICO FLEMING SEDE NORTE";labflemingnorte@gmail.com;;"(57) (5) 6550656";"Bgde Cr1 Cl 15 Esq L-16 Edif Seguros Bolívar Colombia, Cartagena"
"DROGUERÍA EL PORTÓN DE LA SALUD";wbgo1905@hotmail.es;;"(57) (2) 4054595";"Cl 84 23-124 Colombia, Cali"
"LABORATORIO CLINICO BELLO REINA LUZ RIVERA GOMEZ";reinalab@hotmail.com;www.laboratorioclinicoreinaluz.amawebs.com;"(57) (4) 4441869";"Cl 49 49-65 Bello Colombia, Medellín"
"CLÍNICA DE URGENCIAS LA MERCED";clinicauergenciaslamerced@yahoo.es;www.clinicaurgenciaslamerced.com;"(57) (7) 5716061";"Cl 4 3-87 Latino Colombia, Cúcuta"
"CARLOS ALBERTO MEJÍA RAMÍREZ";cabeto7266@hotmail.com;;"(57) (6) 8930353";"Cl 56 24-29 Colombia, Manizales"
"PREVENCIÓN OCUPACIONAL S.A.S.";contacto@prevencionocupacional.com;www.prevencionocupacional.com;"(57) (4) 3439083";"Cr75 DA 2 B-S-50 Int 738 Colombia, Medellín"
"First Name";"Email Address";Url;Telephone;Address
SALULABORAL;salulaboral@gmail.com;www.ipssalulaboral.com;"(57) (5) 6672599";"Nuevo Bosque Tr52 29 E-138 Colombia, Cartagena"
"LABORATORIO CLÍNICO CLIMILAB";sonjaliliana@hotmail.com;;"(57) (5) 1000000";"Av Libertador 19-97 L 101 Colombia, Santa Marta"
"LABORATORIO CLÍNICO LACID LTDA.";lablacid@hotmail.com;;"(57) (4) 8237459";"Cr78 80-43 Colombia, Carepa"
"LABORATORIO CLÍNICO BOTERO SANÍN S.A.S.";david_botero11@hotmail.com;www.laboratorioboterosanin.com;"(57) (4) 4445523";"Cr48 10-45 Consult 504 Colombia, Medellín"
"A.Q.L. LABORATORIO CLÍNICO S.A.S.";info@aqllaboratorioclinico.com;www.aqllaboratorioclinico.com;"(57) (6) 8872120";"Cl 66 23 B-03 Colombia, Manizales"
"DIAGNÓSTICOS LABORATORIO CLÍNICO-IPS LTDA.";ceciliagonzalezmartinez@yahoo.com;;"(57) (5) 4211755";"Cr1 C 22-29 L 2 Edif Paulina Colombia, Santa Marta"
"LABORATORIO CLINICO DE MARLY DANIEL GAMBOA Y CIA LTDA";labomarlygamboa@etb.net.co;www.laboratoriomarly.com;"(57) (1) 2454906";"Cl 50 9-67 Int 101 Colombia, Bogotá"
"LABORATORIO CLÍNICO YAMIL BAJAIRE VILLA & CÍA. LTDA.";yamilbajairem@hotmail.com;www.yamilbajaire.com;"(57) (5) 6642004";"Centro Cl del Colegio 34-38 Edif Rincón de la Covadonga Colombia, Cartagena"
"EXAMINAMOS LABORATORIO CLINICO ESPECIALIZADO";examinamos.labclinico.ocupac@;;"(57) (7) 6913787";"Cl 36 28-13 Int. 3 Colombia, Bucaramanga"
"MEDISIS S.A.S.";o.rocha@medisis.com.co;www.medisis.com.co;"(57) (2) 5582855";"Cl 5 38-25 Of 122 Colombia, Cali"
"LABORATORIO CLÍNICO LEONAL";leonal-bsdg@hotmail.com;;"(57) (7) 6203515";"Cl 50 21-15 Colombia Colombia, Barrancabermeja"
"CALIMA SOLUCIONES DIAGNÓSTICAS";centromedicocalima@yahoo.com;www.solucionesdiagnosticas.com;"(57) (2) 6651870";"Cali Colombia, Cali"
"LABORATORIO CLÍNICO ELIZABETH CÁRDENAS";labclinicoliz@yahoo.es;;"(57) (1) 4180659";"Cr96 DBis 22 G-49 Colombia, Bogotá"
"LAB. DE ELECTROMIOGRAFÍA DRA DIANA MARTINEZ TRUJILLO";electromiografiasdianamartinez@gmail.com;;"(57) (4) 4129697";"Cr80 A 32 EE-72 Consult 1013 Edif Ofix 33 Colombia, Medellín"
"LABORATORIO CLÍNICO ESPECIALIZADO NOHEMY CRUZ O";nohemylab@hotmail.com;www.nohemylab.com;"(57) (2) 6613023";"Av5 A N 17 N-98 L-101 Colombia, Cali"
"LABORATORIO CLÍNICA UNLAB";gerencia@unlab.org;www.unlab.org;"(57) (4) 8285196";"Cl 103 97-80 Colombia, Apartadó"
"CLÍNICA DEL COLON S.A.";clinicadelcolon@gmail.com;www.clinicadelcolon.com;"(57) (2) 5536535";"Cl 5 C 41-43 Colombia, Cali"
"I.P.S. ADILAB-AYUDAS DIAGNÓSTICAS Y LABORATORIOCLÍNCIO S.A.S.";laboratorio@adilab.com.co;www.adilab.com.co;"(57) (4) 4443582";"Cl 49 45-81 P-3 Edif Cataluña Colombia, Medellín"
"GARCÍA Y ROJAS CÍA.";garciayrojas@yahoo.com;;"(57) (1) 6202291";"Cl 125 21 A-54 Consult 203 Colombia, Bogotá"
"EXAMINAR IPS E U";examinaripseu@hotmail.com;;"(57) (1) 4087000";"Cl 27 Sur 19-19 Colombia, Bogotá"
"LABORATORIO CLÍNICO LAS TORRES";;;"(57) (4) 2391234";"Cl 48 42-41 Of 104 Colombia, Medellín"
"LABORATORIO CLÍNICO ESPECIALIZADO DR. JORGE PATERNINA LEÓN";;;"(57) (5) 6646351";"Cr6 34-50 Of 206 Calle del Colegio Colombia, Cartagena"
"GURU TÚ BUSCAS JUNTOS ENCONTRAMOS";;;"Nal: (57) (1) 2254007";"Av 68 75 A-50 Colombia, Bogotá"
"PROASECAL LTDA.";;;"(57) (1) 6216997";"Cll 85 A Bis 28C-27 Colombia, Bogotá"
"GENELAB LTDA.";;;"(57) (1) 6213646";"Cl 98 15-17 Of 201 Colombia, Bogotá"
"LABORATORIO CLÍNICO ISABEL CRISTINA JIMÉNEZ";;;"(57) (6) 7461338";"Cl 13 13-61 Consult 204 Colombia, Armenia"
"VIRREY SOLIS I.P.S. S.A.";;;"(57) (1) 3725000";"Cl 27 S 21 A-19 Colombia, Bogotá"
"LABORATORIO CLÍNICO";;;"(57) (8) 7426398";"Cr9 22-10 Colombia, Tunja"
"LABORATORIOS LOUIS PASTEUR";;;"(57) (2) 7228436";"Cr24 19-33 Of 502 Colombia, Pasto"
"LABORATORIO CLÍNICO DRA. CLAUDIA GUAUQUE";;;"(57) (1) 3512070";"Cr38 BBis A 3-17 L-3 Colombia, Bogotá"
"CLÍNICA MÉDICOS S.A.";;;"(57) (5) 5748320";"Cl 16 B 11-33 Colombia, Valledupar"
"CLÍNICA DEL CESAR";;;"(57) (5) 5748650";"Cl 16 14-90 Colombia, Valledupar"
"LABORATORIO CLÍNICO DRA. SHIRLEY MONTES MARTÍNEZ";;;"(57) (7) 8883844";"Cl 13 14-14 Of 203 Colombia, Tame"
"QUINTERO DUQUE CLARA DEL SOCORRO";;;"(57) (8) 4352673";"Cl 15 12-34 P-2 Centro Colombia, Florencia"
"LABORATORIO CLÍNICO DIAGNOVIDA";;;"(57) 3013773943";"Cl 30 Cr21 Manz 76 Casa 3 Colombia, Santa Marta"
"ALEANDES Y CÍA. LTDA.";;;"(57) (1) 2443630";"Cl 40 25-45 Colombia, Bogotá"
"HISTOTECNÓLOGO S.H. LTDA.";;;"(57) (2) 6616481";"Cl 36 N 2 A-25 Colombia, Cali"
"SERVILAB LABORATORIO CLÍNICO";;;"(57) (2) 4401188";"Cl 72 C 3 B N-62 Colombia, Cali"
"SER OCUPACIONAL LTDA.";;;"(57) (2) 5244350";"Av6 Bis 27 N-39 Colombia, Cali"
"GRUPO MÉDICO SANTA ANA";;;"(57) (2) 2445027";"Av Simón Bolívar Cl 6 Cr 58 Esq Colombia, Buenaventura"
"First Name";"Email Address";Url;Telephone;Address
"CUIDADO DERMATOLÓGICO ESPECIALIZADO LABORATORIOS LTDA.";;;"(57) (1) 6207646";"Cl 111 51-22 Colombia, Bogotá"
"DIAGNÓSTICA BIOLAB DEL CARIBE";;;"(57) (5) 6905756";"Almirante Colón Et 2 Manz O Lt 3 Colombia, Cartagena"
"IPS OMALINA OWKIN DE GONZÁLEZ";;;"(57) (8) 5126903";"Av20 de Julio Esq diagonal Parque Simón Bolívar Colombia, San Andrés"
"LABORATORÍO CLÍNICO HERNÁN JIMÉNEZ PÉREZ";;;"(57) (5) 5745564";"Cl 14 9-78 Colombia, Valledupar"
"LABORATORIO CLÍNICO ESPECIALIZADO NAYIBE CURE";;;"(57) (5) 7288223";"Cr11 14-39 C.M. Ary Acosta Colombia, Riohacha"
"HERMANORTE I.P.S.";;;"(57) 3662287";"Cl 20 21-98 Soledad Colombia, Soledad"
"MEDISALUD GP S.A.S.";;;"(57) (1) 6953653";"Cl 17 A S 5-20 Colombia, Bogotá"
"LABORATORIO CLÍNICO MELBA OSPINA";;;"(57) (2) 2122066";"Cl 8 Bis 3-08 Colombia, Cartago"
"BIO VITAL I.P.S. LTDA.";;;"(57) (5) 4312160";"Cl 23 14-17 Consult. 309-310 C.C. Los Alcázares Colombia, Santa Marta"
"LABORATORIO CLÍNICA VIDA";;;"(57) (2) 5512351";"Cr42 9-33 Colombia, Cali"
"DINAMICA I.P.S.";;;"(57) (2) 5533387";"Cl 5 C 41-25 Colombia, Cali"
"GENOMAS DE COLOMBIA";;;"(57) (2) 6603715";"Cl 23 N 2 N-25 Colombia, Cali"
"LABORATORIO CLÍNICO LUZ STELLA FRANCO PEÑA";;;"(57) (2) 2128555";"Cl 11 2-83 Colombia, Cartago"
"LABORATORIO CLÍNICO DIVINO SALVADOR";;;"(57) (7) 6316704";"Cl 105 25-118 L-116 Colombia, Bucaramanga"
"LABORATORIO CLÍNICO CLAUDIA ARROYAVE PEÑA";;;"(57) (6) 3339507";"Cl 24 6-42 Colombia, Pereira"
"COMPAÑÍA R.S.O. LTDA.";;;"(57) (7) 6210077";"Cl 50 22-21 Colombia, Barrancabermeja"
"LABORATORIO CLINICO DRA CLAUDIA LUCIA ALVARADO";;;"(57) (7) 6943884";"Cr35 54-89 Colombia, Bucaramanga"
"LABORATORIO CLÍNICO TEST";;;"(57) (4) 8254400";"Cr106 Cl 95 Brr. Kennedy Colombia, Chigorodó"
CELSALUD;;;"(57) (4) 6709664";"Cl 24 4-66 Yesca Colombia, Quibdó"
"ANÁLISIS LABORATORIO CLÍNICO ESPECIALIZADO";;;"(57) (2) 7734200";"Cr1 17 A-47 Colombia, Ipiales"
CIPAT;;;"(57) (2) 2108443";"Cl 14 1-51 N Colombia, Cartago"
"CENTRO DE INVESTIGACIONES EN EPILEPSIA LTDA";;;"(57) (1) 3811970";"Av Caracas 1-13 P-3 Telemetría Colombia, Bogotá"
"LABORATORIO CLÍNICO CLAUDIA V. CORREAL";;;"(57) 3108713752";"Cl 9 8-19 Centro Colombia, Espinal"
MEDES;;;"(57) (7) 6432560";"Cr34 44-70 Cabecera del Llano Colombia, Bucaramanga"
"LABORATORIO CLÍNICO DRA NORMA LILIANA SAENZ T.";;;"(57) (8) 8713408";"Cl 11 3-84 Centro Colombia, Neiva"
"PREVENZA IPS S.A.S.";;;"(57) (8) 8714570";"Cl 10 3-27 L-201 Centro Colombia, Neiva"
"LABORATORIO CLÍNICO VALENCIA";;;"(57) (2) 8202278";"Cl 16 N 6-27 Edif Palmares Consult 208 Colombia, Popayán"
"POLICLÍNICO & LABORATORIO DE DIAGNÓSTICO DEL SUR";;;"(57) (2) 5145525";"Cl 5B3 36-45 Colombia, Cali"
"CLÍNICA LOS ROSALES S.A.";;;"(57) (6) 3357454";"Cr9 25-25 Colombia, Pereira"
"GURU TÚ BUSCAS JUNTOS ENCONTRAMOS";;;"Nal: (57) (1) 2254007";"Av 68 75 A-50 Colombia, Bogotá"
"LABORATORIO CLÍNICO CARMEN ELISA VALENCIA";;;"(57) (1) 3365856";"Cr7 17-01 Consult 239 Colombia, Bogotá"
"LABORATORIO CLÍNICO GLORIA TERESA CUARTAS M.";;;"(57) 3128561047";"Cr7 15-29 Caramanta Colombia, Quimbaya"
"LABORATORIO CLÍNICO CENTRAL";;;"(57) (8) 6550122";"Cr6 8-84 Centro Colombia, Restrepo"
"LABORATORIO CLÍNICO SAILAB";;;"(57) (8) 5126820";"Av Providencia Edif Leda L-110 Colombia, San Andrés"
"LABORATORIO CLÍNICO AURIS G. DE NAVARRO S.A.S.";;;"(57) (5) 5711864";"Cl 16 15-05 Colombia, Valledupar"
"LABORATORIO CLÍNICO ISABEL CURIEL S.A.S.";;;"(57) (5) 7273338";"Sede Principal ICr 11 A 13-19 Colombia, Riohacha"
"ZAPATA HOYOS LUZ STELLA";;;"(57) (2) 2126054";"Cl 8 Bis 3-54 Colombia, Cartago"
"LABORATORIO CLINICO DRA. RUTH PRIETO DIAZ";;;"(57) (7) 6851425";"Cl 51 30-65 Colombia, Bucaramanga"
"LABORATORIO CLINICO LABOPAT LTDA.";;;"(57) (1) 5205520";"Cr 13A 96-83 Colombia, Bogotá"
"INSTITUTO DE MICROBIOLOGÍA COLOMBIANO LTDA.";;;"(57) (1) 3461686";"Cl 73 10-10 Consult 301 Colombia, Bogotá"
"First Name";"Email Address";Url;Telephone;Address
"LABORATORIO CLÍNICO PURACÉ";;;"(57) (2) 8220006";"Cr6 6-16 P-2 Colombia, Popayán"
"C.R.C. CENTRO DE RECONOCIMIENTO DE CONDUCTORES";;;"(57) (1) 2756485";"Cr.9B 113-37 Colombia, Bogotá"
"UNIDAD MÉDICA PROGRESEMOS";;;"(57) (2) 4462621";"Cl 44 5-19 Colombia, Cali"
"CONTROLAR SALUD INTEGRAL";;;"(57) (1) 2364279";"CONTROLAR SALUD INTEGRAL Colombia, Bogotá"
"LABORATORIO CLÍNICO LAS TORRES";;;"(57) (4) 2391234";"Cl 48 42-41 Of 104 Colombia, Medellín"
"LABORATORIO CLÍNICO ADM";;;"(57) (7) 6450784";"Cr33 30 A-57 Colombia, Bucaramanga"
"LABORATORIO CLÍNICO FLEMING";;;"(57) 3753566";"Cr20 14-21 L-2 Soledad Colombia, Soledad"
"LABORATORIO CLÍNICO CHACURÍ";;;"(57) (5) 2826335";"Cl 19 22-29 Consult 202 Colombia, Sincelejo"
"CENTRO CLÍNICO QUIRÚRGICO CITOLOGÍAS Y LAB. CLÍNICO MARTHA L. TORRES G.";;;"(57) (2) 8317407";"Cl 5 9-55 Colombia, Popayán"
"CLÍNICA GÁLVEZ";;;"(57) (1) 2915510";"Cl 70 A 90-01 Colombia, Bogotá"
DENTOTAL;;;"(57) (4) 4564205";"Cr50 50-15 Of 322 Bello Colombia, Bello"
"CENTRO INTEGRAL DE REUMATOLOGÍA REUMALAB S.A.S.";;;"(57) (4) 4445901";"Cr48 19 A-40 Consult 901 Colombia, Medellín"
"LABORATORIO CLÍNICO JHADINSON VEGA";;;"(57) (5) 6812331";"La Consolata Sector Los Alcázares Manz J Lt 91-A Colombia, Cartagena"
"LABORATORIO CLÍNICO DRA. NIDIA ESPERANZA VALDÉS VARGAS";;;"(57) (1) 2857709";"Cr22 45 B-38 Consult 604 Colombia, Bogotá"
"IVOLAB LABORATORIO CLÍNICO Y BACTERIOLÓGICO";;;"(57) (8) 7009728";"VÚa Puerto Lµpez Km 25 Vda Alto Pompeya Colombia, Villavicencio"
"GENÉTICA MOLECULAR DE COLOMBIA LTDA.";;;"(57) (1) 2139201";"Cl 119 49-26 Colombia, Bogotá"
"LABORATIRIO DE TOXICOLOGÍA TOXICOL";;;"(57) (1) 2179552";"Cr17 61 A-50 Of 201 Colombia, Bogotá"
"CLÍNICA MÉDICOS S.A.";;;"(57) (5) 5748320";"Cl 16 B 11-33 Colombia, Valledupar"
"LABORATORIO CLÍNICO BIOCLINIC";;;"(57) (5) 5706764";"Cl 16 16-51 L-106 Centro Médico Santana Center Colombia, Valledupar"
"DIPRESALUD IPS";;;"(57) (5) 5705919";"Cr19 16 B-16 Colombia, Valledupar"
"LABORATORIO CLÍNICO FALAB";;;"(57) (5) 3601825";"Cr49 B 79-99 Colombia, Barranquilla"
"UMED LTDA. EL DIVINO NIÑO JESUS";;;"(57) (1) 2785555";"Cr21 26-00 S Colombia, Bogotá"
"JULIO ARRIETA BEATRIZ DEL ROSARIO";;;"(57) (5) 4143163";"Cl 7 8-95 Colombia, Fundación"
"UNISALUD LTDA.";;;"(57) (4) 3719674";"Cr52 80-101 L-1 Colombia, Medellín"
"NURCE E.A.T.";;;"(57) (2) 3289533";"Cr41 C 51-54 Colombia, Cali"
"RAMELLI BOTERO DANIEL";;;"(57) (2) 6613055";"Cl 23 N 6 A N-17 Consult 304 Colombia, Cali"
"CITOLOGÍA Y PATOLOGÍA DR. ANDRÉS RESTREPO";;;"(57) (2) 2738504";"Cl 31 32-23 Consult 5 B Colombia, Palmira"
"AGROANÁLISIS SERVICIOS AGROPECUARIOS";;;"(57) 3125106844";"Km 10 Vía Espinal-Ibagué Colombia, Ibagué"
"LABORATORIO CLÍNICO ESPECIALIZADO CARMEN CECILIA R";;;"(57) (7) 6343362";"Cl 42 35-58 Of 207 Colombia, Bucaramanga"
"LABORATORIO CLÍNICO ANA MILENA MORENO DE PAREDES Y LUZ STELLA MORENO";;;"(57) (2) 2206047";"Cr11 8-75 Colombia, Zarzal"
"LABORATORIO CLÍNICO CLINIDIAGNÓSTICO";;;"(57) (2) 2674282";"Cl 7 11-70 Colombia, Pradera"
"LABORATORIO CLÍNICO DRA. MERCEDES BACCA DE VILLAMIZAR";;;"(57) (7) 5712554";"Av0 12-66 Of 201 Centro Colombia, Cúcuta"
"LABINÁN LABORATORIO CLÍNICO Y PATOLÓGICO";;;"(57) (7) 6437168";"Cl 51 35-28 Int 100 Of 505 Colombia, Bucaramanga"
"LABINÁN DR. CARLOS EDGARDO PÁRAMO LÓPEZ";;;"(57) (7) 6437168";"Cl 51 35-28 Int 100 Of 505 Colombia, Bucaramanga"
"BIO-GENIX LABORATORIO CLINICO";;;"(57) (8) 2642609";"Cr4 C 31-36 Cádiz Colombia, Ibagué"
"LABORATORIO CLÍNICO BACTERIOLÓGICO JAIRO ROJAS B.";;;"(57) (1) 2156187";"Cl 24 5-75 Ap 301 Colombia, Bogotá"
"PINZÓN VILLABONA JAIRO";;;"(57) (7) 6445521";"Plaza Mayor E-Principal L-105 Colombia, Bucaramanga"
"LABORATORIO CLÍNICO PRO-DX";;;"(57) (7) 6445521";"Plaza Mayor E-Principal L-105 Colombia, Bucaramanga"
"DUARTE PLATA NOHORA";;;"(57) (7) 6453167";"Cl 36 23-17 Consult 202 Colombia, Bucaramanga"
"TEST ALCAT TECNOPROMED LTDA.";;;"(57) (1) 6169268";"Cr 13 85-51 Of 503 Colombia, Bogotá"
"First Name";"Email Address";Url;Telephone;Address
"DIPRESALUD IPS";;;"(57) (5) 5705919";"Cr19 16 B-16 Colombia, Valledupar"
"LABORATORIO CLÍNICO ESPECIALIZADO AMPARO RESTREPO DE AVILA";;;"(57) (8) 6629894";"Cr38 35-15 Colombia, Villavicencio"
"UMED LTDA. EL DIVINO NIÑO JESUS";;;"(57) (1) 2785555";"Cr21 26-00 S Colombia, Bogotá"
"LABORATORIO CLÍNICO CLAUDIA MARCELA BETTÍN";;;"(57) (6) 7486329";"Cl 13 14-33 Colombia, Armenia"
"LABORATORIO CLÍNICO DRA. OLGA NÚÑEZ BARÓN";;;"(57) (7) 6750445";"Cr8 3-21 Colombia, Bucaramanga"
"C.I.C. LABORATORIOS S.A.S.";;;"(57) (2) 2392380";"Cr14 1-83 Colombia, Buga"
"LABORATORIO CLÍNICO DRA. LUCY HERNÁNDEZ";;;"(57) (6) 3263049";"Cl 35 5 B-09 P-2 Colombia, Pereira"
"INSTITUTO MÉDICO LA 34";;;"(57) (1) 2457209";"Av Caracas 34-36 Colombia, Bogotá"
"LABORATORIO CLÍNICO DRA. NANCY URIBE NAVARRO";;;"(57) (7) 5720334";"Av3 14-95 Colombia, Cúcuta"
"CENTRO DERMATOLÓGICO FEDERICO LLERAS";;;"(57) (1) 2428160";"Av1 13 A-61 Colombia, Bogotá"
"LABORATORIO CLÍNICO Y ESPECIALIDADES DRA. AMPAR";;;"(57) (7) 6479640";"Cl 48 28-73 Colombia, Bucaramanga"
"COLLAZOS LABORATORIO CLÍNICO";;;"(57) (2) 4031198";"Cr42 5 B-53 Colombia, Cali"
"IPS SALUD";;;"(57) (2) 3363010";"Cl 23 43-37 Colombia, Cali"
"ADRIANA MILLAN";;;"(57) 3104699530";"Cl 5 0-10E Lleras Colombia, Cúcuta"
"LABORATORIO CLÍNICO MARÍA FERNANDA MUÑOZ S.";;;"(57) (28) 1000000";"Cr4 6-75 Colombia, Bolívar"
"DIAGNOSALUD S.A.";;;"(57) (5) 4314892";"Cl 22 13 A-97 Colombia, Santa Marta"
"LÓPEZ QUINTERO MARÍA ISABEL";;;"(57) (1) 2319501";"Cl 74 A 62-67 L-1 Colombia, Bogotá"
"LABORATORIO CLINICO NHORA PEREZ DE MARIÑO";;;"(57) (7) 5719487";"Av0 10-78 Consult 202 Edif Colegio Médico Colombia, Cúcuta"
"ANDREAS ROTHSTEIN Y CÍA. S. EN C.";;;"Telefax: (57) (1) 6912209";"Cr16 A 80-94 Consult 702 Colombia, Bogotá"
"FLÓREZ ARANGO ARNOLDO";;;"(57) (8) 8721305";"Cl 9 7-38 Colombia, Neiva"
"I.P.S. UNIDAD MÉDICA EL BOSQUE S.A.S.";;;"(57) (5) 2826673";"Cl 19 24-53 Brr. 7 de Agosto Colombia, Sincelejo"
"GURU TÚ BUSCAS JUNTOS ENCONTRAMOS";;;"Nal: (57) (1) 2254007";"Av 68 75 A-50 Colombia, Bogotá"
DENTOTAL;;;"(57) (4) 4564205";"Cr50 50-15 Of 322 Bello Colombia, Bello"
"LABORATORIO CLÍNICO DIAMEDICAL LTDA.";;;"(57) (1) 6222445";"Cl 81 19 A-12 Colombia, Bogotá"
"DIAGNÓSTICA BIOLAB DEL CARIBE";;;"(57) (5) 6905756";"Almirante Colón Et 2 Manz O Lt 3 Colombia, Cartagena"
DIAGNOSTICAMOS;;;"(57) (8) 8714977";"Cr11 7-45 Colombia, Neiva"
"LABORATORIO CLÍNICO DRA. MYRIAM MEDELLIN DE CHARRY";;;"(57) (8) 8722217";"Cl 6 A 13-01 Colombia, Neiva"
"LABORATORIO CLÍNICO ANA CONSUELO FONSECA - AUXILIADORA CARRASCAL";;;"(57) (4) 7778538";"Cl 13 12-42 Colombia, Sahagún"
"LABORATORIO CLÍNICO CITO-HISTOLÓGICO DEL CARIBE";;;"(57) (5) 3493200";"Cl 64 53-36 Colombia, Barranquilla"
"LABORATORIO CLÍNICO ESPECIALIZADO NAYIBE CURE";;;"(57) (5) 7288223";"Cr11 14-39 C.M. Ary Acosta Colombia, Riohacha"
PROFAMILIA;;;"(57) (1) 3390900";"Cr15 34-47 Colombia, Bogotá"
"LABORATORIO CLÍNICO ISABEL CURIEL S.A.S.";;;"(57) (5) 7273338";"Sede Principal ICr 11 A 13-19 Colombia, Riohacha"
"LABORATORIO CLÍNICO, CITOLÓGICO Y PATOLOGICO PROSALUD E.U.";;;"(57) (8) 4227585";"Cl 10 20-30 Colombia, Puerto Asís"
"LABORATORIO CLÍNICO DRA. SHIRLEY MONTES MARTÍNEZ";;;"(57) (7) 8883844";"Cl 13 14-14 Of 203 Colombia, Tame"
"FUNDACIÓN CLÍNICA LETICIA";;;"(57) (8) 5927718";"Cr6 6-05 Av Internacional Colombia, Leticia"
"LABORATORIO CLÍNICO LA 51";;;"(57) (4) 2774460";"Cr51 49-09 Colombia, Itagüí"
"SERVILAB LABORATORIO CLÍNICO";;;"(57) (2) 4401188";"Cl 72 C 3 B N-62 Colombia, Cali"
"LABORATORIO CLÍNICO MYRIAM PINEDA";;;"(57) (4) 2701108";"Trv. 33 Sur 39-25 Envigado Colombia, Envigado"
"LABORATORIO CLÍNICO CLINIDIAGNÓSTICO";;;"(57) (2) 2674282";"Cl 7 11-70 Colombia, Pradera"
"LABORATORIO CLINICO SANTA MONICA";;;"(57) (7) 6555067";"Cl 6 6-79 Piedecuesta Colombia, Piedecuesta"
"First Name";"Email Address";Url;Telephone;Address
"LABORATORIO CLÍNICO CELL-LAB";;;"(57) (5) 3566958";"Cl 71 No. 41-46 P-2 Colombia, Barranquilla"
CEMAD;;;"(57) (76) 5651138";"Cl 3 14-23 Colombia, Aguachica"
"LABORATORIOS GRER LTDA.";;;"(57) (5) 3492768";"Cl 43 53-99 Colombia, Barranquilla"
"LABORATORIO CLÍNICO ELIZABETH ARTEAGA PEÑA";;;"(57) (8) 7700203";"Cr12 11-63 Consult 406 Colombia, Sogamoso"
"LABORATORIO CLÍNICO MICRODIAGNOSTIC";;;"(57) (7) 8852304";"Cr20 21-46 P-2 Colombia, Arauca"
"CLÍNICA CENTRAL EMANUEL";;;"(57) (8) 5924007";"Cr8 9-36 Colombia, Leticia"
"LABORATORIO CLÍNICO DRA. CECILIA MONTOYA URIBE";;;"(57) (8) 2746690";"Et 7 Manz 51 Casa 7 Jordán Colombia, Ibagué"
"LABORATORIO CLÍNICO CLINIDIAGNÓSTICO";;;"(57) (2) 2674282";"Cl 7 11-70 Colombia, Pradera"
"LABORATORIO CLÍNICO LUZ STELLA FRANCO PEÑA";;;"(57) (2) 2128555";"Cl 11 2-83 Colombia, Cartago"
"UNIDAD MÉDICA INTEGRAL CLINISUR S.A.S.";;;"(57) (7) 6394358";"Cr11 14-06 Rosales Floridablanca Colombia, Floridablanca"
"LABORATORIO CLÍNICO DIAG - CLINIC";;;"(57) (8) 2648941";"Cr4 Tamaná 32-21 La Francia Colombia, Ibagué"
"LABORATORIO CLÍNICO ELIZABETH PARRA DE CARVAJAL";;;"(57) (1) 8335509";"Cl 20 A 8-45 Colombia, Girardot"
"LABORATORIO DE CITOLOGÍA GLADYS MARÍA GUTIÉRREZ DE MONTEJO";;;"(57) (6) 3346568";"Cl 25 9-24 Consult 332 Colombia, Pereira"
"ESTUDIOS CITOLÓGICOS E.U";;;"(57) (1) 4731628";"Cr11 95-75 Of 304 Colombia, Bogotá"
CIPAT;;;"(57) (2) 2108443";"Cl 14 1-51 N Colombia, Cartago"
"LABORATORIO CLINICO GOMEZESE";;;"(57) (7) 7242597";"Cr9 13-72 Colombia, San Gil"
"CLÍNICA METROPOLITANA DE BUCARAMANGA S.A.";;;"(57) (7) 6432406";"Av González Valencia 55 B-10 Colombia, Bucaramanga"
"SPECIALTY LABORATORIES";;;"(57) (8) 2269859";"Cr5 5-108 Colombia, Natagaima"
"GRUPO ESCANOGRAFICO SAN JOSÉ";;;"(57) (2) 6600212";"Av3 A N 24 N-31 Colombia, Cali"
"LABORATORIO CLÍNICO DRA. CLARA INÉS SAAVEDRA";;;"(57) (2) 2722972";"Cr32 30-85 Edif Liliana L-1 Colombia, Palmira"
"LABORATORIO CLÍNICO ANA MILENA BARONA";;;"(57) (2) 2736917";"Cl 32 29-86 Colombia, Palmira"
BIOSALUD;;;"(57) (4) 5660094";"Cl 42 56-39 Of 218 Colombia, Rionegro"
"DIAGNÓSTICO CITOPATOLÓGICO";;;"(57) (2) 6811033";"Av5 A N 23 N-63 Colombia, Cali"
"LABORATORIO CLÍNICO ANA MARÍA RODRÍGUEZ";;;"(57) (6) 8855530";"Cr23 62-05 Colombia, Manizales"
"LABORATORIOS LISSIA";;;"(57) (1) 4059369";"Cl 21 A 69 B-86 Zona Ind Montevideo Colombia, Bogotá"
"DE LA ROSA PACHECO BELIA";;;"(57) (5) 4213433";"Cl 15 7-97 Colombia, Santa Marta"
"LABORATORIO CLINICO MARIA DEL PILAR CASTRO";;;"(57) (8) 8721158";"Cr5 A 17-21 Quirinal Colombia, Neiva"
"LABORATORIO CLÍNICO DRA. TULIA ELVIRA HURTADO";;;"(57) (2) 8230814";"Cl 1 N 3-35 Colombia, Popayán"
"MEDILAB LABORATORIO CLÍNICO";;;"(57) (5) 4214265";"Cl 21 3-21 Colombia, Santa Marta"
"LABORATORIO CLÍNICO ARAUCA";;;"(57) (7) 8852678";"Cr21 16-43 Colombia, Arauca"
"LABORATORIO CLÍNICO GLADYS RUSSO CAMPO";;;"(57) (5) 4317122";"Cr7 10-35 Colombia, Santa Marta"
"LABORATORIO CLÍNICO OLIMPUS IPS LTDA.";;;"(57) (5) 4316453";"Cr5 26 B-23 Colombia, Santa Marta"
"AFANADOR VILLAMIZAR ANDRÉS";;;"(57) (7) 5715375";"Av4 17-62 La Playa Colombia, Cúcuta"
"MEDILAB LTDA.";;;"(57) (5) 6432890";"Providencia Dg31 A 71-113 Colombia, Cartagena"
"LABORATORIO CLINICO SANTA INES";;;"(57) (4) 2756067";"Cl 47 46-45 Colombia, Medellín"
"LABORATORIO CLINICO AMAGA";;;"(57) (4) 8471601";"Cr51 51-42 Colombia, Amagá"
"CLÍNICA FÁTIMA";;;"(57) (2) 7291125";"Cl 21 26-40 Colombia, Pasto"
"LABORATORIO CLÍNICO VALENCIA";;;"(57) (2) 8202278";"Cl 16 N 6-27 Edif Palmares Consult 208 Colombia, Popayán"
"GENOMAS DE COLOMBIA";;;"(57) (2) 6603715";"Cl 23 N 2 N-25 Colombia, Cali"
"CENTRO MÉDICO SAN VICENTE";;;"(57) (4) 2537417";"Cr109 39 B-19 Colombia, Medellín"
"First Name";"Email Address";Url;Telephone;Address
"SALGAR GALLEGO MARTHA LILIANA";;;"(57) (7) 5722457";"Cl 13 1 Este-44 Consult 205-B Clínica San José Colombia, Cúcuta"
"AMRP DISTRIBUIDORA";;;"(57) (2) 6684386";"Cl 35 N 3 N-82 Colombia, Cali"
"COLLAZOS LABORATORIO CLÍNICO";;;"(57) (2) 4031198";"Cr42 5 B-53 Colombia, Cali"
"CENTRO DE DIAGNÓSTICO DE CITOPATOLOGÍA";;;"(57) (6) 8811857";"Cl 62 23-61 L-102 Trr Plaza 62 Colombia, Manizales"
"GAMMA LABORATORIO CLÍNICO ESPECIALIZADO";;;"(57) (8) 6620303";"Cr40 33 B -34 Colombia, Villavicencio"
"LABORATORIO CLÍNICO GLORIA ORDOÑEZ RAMÍREZ";;;"(57) (1) 2222470";"Cl 57 43-32 Et 2 B-46 Colombia, Bogotá"
"ASOCIADOS EN FERTILIDAD Y REPRODUCCIÓN HUMANA LTDA.";;;"(57) (1) 6274188";"Cl 134 7 B-83 P-7 Colombia, Bogotá"
"LABORATORIO CLÍNICO CRISTIAM GRAM";;;"(57) (5) 5898008";"Tr18 20-94 Consult 110 Colombia, Valledupar"
"LABORATORIO CLÍNICO CENTRAL LTDA.";;;"(57) (4) 8392419";"Cr 3 20-34 Ed. Acapulco Colombia, Caucasia"
"HEMOCENTRO Y UNIDAD DE AFÉRESIS VALLEDUPAR LTDA.";;;"(57) (5) 5843838";"Cr15 14-91 P-3 Colombia, Valledupar"
"DROGUERÍA LINA MARÍA";;;"(57) (2) 4472186";"Cl 44 N 3 N-13 Colombia, Cali"
"ZAPATA HOYOS LUZ STELLA";;;"(57) (2) 2126054";"Cl 8 Bis 3-54 Colombia, Cartago"
"LABORATORIO CLÍNICO CLINIDIAGNÓSTICO";;;"(57) (2) 2674282";"Cl 7 11-70 Colombia, Pradera"
"ESTUDIOS CITOLÓGICOS E.U";;;"(57) (1) 4731628";"Cr11 95-75 Of 304 Colombia, Bogotá"
"DETEKTA S.A.S.";;;"(57) (6) 3356274";"Cr9 22-34 Colombia, Pereira"
"LABORATORIO CLINICO SONIA GOMEZ";;;"(57) (4) 5460461";"Cl 50 47-57 El Santuario Colombia, Medellín"
"CRUZ ROJA COLOMBIANA SECCIONAL BUCARAMANGA";;;"(57) (7) 6330000";"Cl 45 9 B-10 Colombia, Bucaramanga"
"LABORATORIO CLÍNICO NIÑO JESÚS";;;"(57) (2) 3354244";"Cl 27 33 A-27 Colombia, Cali"
"SERVICIOS DE LABORATORIO CLÍNICO LTDA";;;"(57) (2) 2716481";"Cr31 31-34 Colombia, Palmira"
"LABORATORIO DE CITOLOGÍA Y PATOLOGÍA DE GIRARDOT";;;"(57) (1) 8312938";"Cr8 20-35 Conssul 01 Colombia, Girardot"
"LABORATORIO CITOLAB";;;"(57) (7) 6444131";"Plaza Mayor Entrada 4 L-108 Real de Minas Colombia, Bucaramanga"
"GRUPO ESCANOGRAFICO SAN JOSÉ";;;"(57) (2) 6600212";"Av3 A N 24 N-31 Colombia, Cali"
"LABORATORIO REPRESENTACIONES LABIN S.A.S.";;;"(57) (1) 4223235";"Av (Cr) 97 24 C-75 Int 46 Colombia, Bogotá"
"SUÁREZ RODRÍGUEZ ROCÍO I.";;;"(57) (5) 4235858";"Cr3 24-57 Prado Colombia, Santa Marta"
"LABORATORIO CLÍNICO DRA. TULIA ELVIRA HURTADO";;;"(57) (2) 8230814";"Cl 1 N 3-35 Colombia, Popayán"
"LABORATORIO CLÍNICO Y PATOLÓGICO DRA. GLORIA M.";;;"(57) (2) 6610082";"Cl 23 AN 3 N-69 Colombia, Cali"
"LABORATORIO CLÍNICO MAXWELL WINTROBE";;;"(57) (5) 2812755";"Cr16 21-62 Centro Colombia, Sincelejo"
"LABORATORIO CLÍNICO NANCY DIAGNÓSTICA LTDA.";;;"(57) (2) 5585335";"Cr44 5 C-20 Colombia, Cali"
"CLÍNICA MÉDICOS S.A.";;;"(57) (5) 5748320";"Cl 16 B 11-33 Colombia, Valledupar"
"DINAMICA I.P.S.";;;"(57) (2) 5533387";"Cl 5 C 41-25 Colombia, Cali"
"CENTRO MÉDICO MONSERRATE";;;"(57) (7) 6427614";"Cl 33 17-80 Colombia, Bucaramanga"
"INSTITUTO DE MICROBIOLOGÍA COLOMBIANO LTDA.";;;"(57) (1) 3461686";"Cl 73 10-10 Consult 301 Colombia, Bogotá"
"CENTRO DE INVESTIGACIONES EN EPILEPSIA LTDA";;;"(57) (1) 3811970";"Av Caracas 1-13 P-3 Telemetría Colombia, Bogotá"
"UNIDAD MÉDICA PROGRESEMOS";;;"(57) (2) 4462621";"Cl 44 5-19 Colombia, Cali"
"LABORATORIO CLÍNICO MARÍA FERNANDA GARCÍA";;;"(57) (2) 2249775";"Cr26 29-66 Colombia, Tuluá"
"LABORATORIO CLÍNICO NELDA ESTER RAMÍREZ";;;"(57) (7) 5753910";"Edif Tulipán Ap 203 LLeras Restrepo Colombia, Cúcuta"
"SOTOMAYOR OLIVEROS ALFREDO JOSÉ";;;"(57) (7) 5717128";"Av2 E 13-12 Consult 201 Colombia, Cúcuta"
MEDITEST;;;"(57) (8) 7441810";"C.C. Plaza Real Of 234 Centro Histórico Colombia, Tunja"
"LABORATORIOS LISSIA";;;"(57) (1) 4059369";"Cl 21 A 69 B-86 Zona Ind Montevideo Colombia, Bogotá"
"LÓPEZ QUINTERO MARÍA ISABEL";;;"(57) (1) 2319501";"Cl 74 A 62-67 L-1 Colombia, Bogotá"
"First Name";"Email Address";Url;Telephone;Address
"LABORATORIO CLINICO DRA. NAYILENE HERNANDEZ";;;"(57) (72) 7482213";"Cr9 14-46 Colombia, Barbosa"
"PRODUCTOS ROCHE S.A.";;;"(57) (1) 4178860";"Cr44 20-21 Colombia, Bogotá"
"LAB HOME";;;"(57) (7) 5755394";"Av4 Este 6-49 Consult 223 Edif Centro Jurídico Colombia, Cúcuta"
"INSTITUTO DE MICROBIOLOGÍA COLOMBIANO LTDA.";;;"(57) (1) 3461686";"Cl 73 10-10 Consult 301 Colombia, Bogotá"
"ASOCIACIÓN CENTRO MÉDICO PALOGRANDE";;;"(57) (6) 8810355";"Cr23 57-09 Los Rosales Colombia, Manizales"
"LABORATORIO CLÍNICO DINÁMICA";;;"(57) (2) 8230814";"Cl 1 N 3-35 Colombia, Popayán"
"LABORATORIO CLÍNICO COMBEIMA";;;"(57) (8) 2638873";"Cl 11 1-32 Consult 105 Colombia, Ibagué"
"LABORATORIO CLÍNICO ESPECIALIZADO MARÍA REBECA GARCÍA E.";;;"(57) (8) 2485894";"Cr6 11-23 Colombia, Espinal"
"CLÍNICA ODONTÓLOGICA COOPESALUD";;;"(57) (7) 6477672";"Cr33 54-137 Colombia, Bucaramanga"
"LABORATORIO CLÍNICO MARÍA ELENA MARTINEZ J.";;;"(57) (8) 2619660";"Cl 15 5-35 Esq Colombia, Ibagué"
"ESPECIE DIAGNÓSTICO LABORATORIO CLÍNICO E.U.";;;"(57) (2) 5146244";"Cr22 3-42 Colombia, Cali"
"CRITICAL LAB LTDA";;;"(57) (1) 7159084";"Cr28 64-03 S P 3 Colombia, Bogotá"
"LABORATORIO CLÍNICO JOSÉ FRACICA";;;"(57) (6) 8845117";"Cr20 25-40 Centro Colombia, Manizales"
"LABORATORIO CLÍNICO SILVIO ALFONSO MARÍN";;;"(57) (6) 8829194";"Cr23 25-61 L-5 Edif Don Pedro Colombia, Manizales"
"CENTRO MÉDICO CLÍNICO OLAYA";;;"(57) (1) 2397687";"Cr21 23-38 S Colombia, Bogotá"
"LABORATORIO CLÍNICO ESPECIALIZADO SANDRA AVELLA CERÓN";;;"(57) (8) 7702263";"Cr14 13-31 Centro Colombia, Sogamoso"
"QUALITAS BIOQUIMICOS LTDA.";;;"(57) (1) 3178590";"Cr10 67-43 Colombia, Bogotá"
"LABORATORIO CLÍNICO ESPECIALIZADO GONZÁLEZ Y SÁNCHEZ";;;"(57) (1) 8637876";"Cl 9 7-63 P-2 Chía Colombia, Chía"
"LABORATORIO CLÍNICO EL PRADO SANTA MARTA S.A.S.";;;"(57) (5) 4203591";"Cl 26 Cr5 Esq Clínica El Prado Colombia, Santa Marta"
"LABORATORIO CLÍNICO OLIMPUS IPS.LTDA.";;;"(57) (5) 3688864";"Cl 70 48-56 Colombia, Barranquilla"
"GLICOL Y CÍA. SCS";;;"(57) (2) 7313979";"Cr29 19-25 Edif Punto Centro L-104 Colombia, Pasto"
"PATOLOGÍA INTEGRAL S.A.";;;"(57) (4) 3269266";"Cr20 2 S-185 Colombia, Medellín"
"LABORATORIO CLINICO ESPECIALIZADO";;;"(57) (4) 2609677";"Cr65 48 C-117 Colombia, Medellín"
"LABORATORIO CLÍNICO UNIVERSITARIO";;;"(57) (4) 2750868";"Cl 52 50 A-33 Bello Colombia, Bello"
"LABORATORIO CLÍNICO Y PATOLÓGICO DRA. GLORIA M.";;;"(57) (2) 6610082";"Cl 23 AN 3 N-69 Colombia, Cali"
"ESE HOSPITAL DEL SUR GABRIEL JARAMILLO PIEDRAHITA";;;"(57) (4) 4487700";"Cl 33 50 A-25 Itagüí Colombia, Medellín"
GERMANBENT;;;"(57) (2) 5585808";"Cl 5 B 1-36 A-7 Colombia, Cali"
"UNIMÉDICAS LTDA.";;;"(57) (2) 2400203";"Cl 1 6 A-43 Edif Balcones de La Bahía Colombia, Buenaventura"
"LABORATORIOS OCA";;;"(57) (1) 2570722";"Cr47 A 91-85 Colombia, Bogotá"
"CENTRO CLÍNICO QUIRÚRGICO CITOLOGÍAS Y LAB. CLÍNICO MARTHA L. TORRES G.";;;"(57) (2) 8317407";"Cl 5 9-55 Colombia, Popayán"
"LABORATORIO CLÍNICO VITAL DIAGNÓSTICA";;;"(57) (5) 3495107";"Cr53 59-300 Colombia, Barranquilla"
"LABORATORIO DE TOXICOLOGÍA VARGAS MELO LTDA.";;;"(57) (1) 2110575";"Cl 71 10-48 Of 401 Colombia, Bogotá"
"LABORATORIO DE CITOLOGÍAS DEL QUINDÍO";;;"(57) (6) 7461358";"Cl 14 13-61 Consult 206 Colombia, Armenia"
"GENÉTICA MOLECULAR DE COLOMBIA LTDA.";;;"(57) (1) 2139201";"Cl 119 49-26 Colombia, Bogotá"
"MARTÍNEZ ESCORCIA MILDRED CARINA";;;"(57) (5) 3601098";"Cr58 70-129 Consult 307 Colombia, Barranquilla"
"C.M.H. CENTRO MÉDICO HENRIQUEZ";;;"Domic.: (57) (5) 8780014";"Cl 21 13-107 Colombia, Barranquilla"
"LABORATORIO CLÍNICO SAN JUAN BAUTISTA";;;"(57) (1) 3520373";"Cr69 I 67-21 Colombia, Bogotá"
"FUNDACIÓN CLÍNICA LETICIA";;;"(57) (8) 5927718";"Cr6 6-05 Av Internacional Colombia, Leticia"
"LABORATORIO MÉDICO MONTES";;;"(57) (2) 5561550";"Centro Médico San José Consult 101 Colombia, Cali"
"LABORATORÍO CLÍNICO DOCTOR CARLOS PAEZ.";;;"(57) (2) 6636270";"Dg13 71 A-46 Colombia, Cali"
"First Name";"Email Address";Url;Telephone;Address
"LABORATORIO CLÍNICO ESPECIALIZADO MARÍA NYDIA GARZÓN SARMIENTO";;;"(57) (8) 2484243";"Cl 11 5-24 Colombia, Espinal"
"LABORATORIO CLÍNICO ALICIA FERNANDA JARAMILLO";;;"(57) (2) 2872544";"Cl 33 20-06 Colombia, Palmira"
BIOSALUD;;;"(57) (4) 5660094";"Cl 42 56-39 Of 218 Colombia, Rionegro"
"LABORATORIO CLÍNICO ROJAS GÓMEZ LTDA.";;;"(57) (2) 2242134";"Cl 28 25-06 Colombia, Tuluá"
"LABORATORIO CLÍNICO EL FIRME";;;"(57) (2) 2433019";"Cl 3 B 15-71 Of 201 Colombia, Buenaventura"
"SERVICIOS MÉDICOS PROFESIONALES";;;"(57) (2) 8204412";"Cr3 1 A N-47 Colombia, Popayán"
"MEDILAB LTDA.";;;"(57) (5) 6432890";"Providencia Dg31 A 71-113 Colombia, Cartagena"
"CLÍNICA FÁTIMA";;;"(57) (2) 7291125";"Cl 21 26-40 Colombia, Pasto"
"LABORATORIO CLÍNICO PEDIATRICO DE LA COSTA";;;"(57) (5) 6624003";"Bruselas Tr 36 # 36-33 Colombia, Cartagena"
"GAMMA LABORATORIO CLÍNICO ESPECIALIZADO";;;"(57) (8) 6620303";"Cr40 33 B -34 Colombia, Villavicencio"
"LABORATORIOS CLÍNICOS HABEYCH Y CÍA. S. EN C.";;;"(57) (5) 3700430";"Cl 57 23-15 Colombia, Barranquilla"
"ESPINOSA DE LA TORRE NOHORA";;;"(57) (1) 2878503";"Cl 45 C 21 A-33 Consult 105 Colombia, Bogotá"
"LABORATORIO CLÍNICO DRA. NIDIA ESPERANZA VALDÉS VARGAS";;;"(57) (1) 2857709";"Cr22 45 B-38 Consult 604 Colombia, Bogotá"
"INMUNOTECH LABORATORIES LTDA.";;;"(57) (1) 2327310";"Cr9 49-42 Laboratorio 603 Colombia, Bogotá"
"JULIO ARRIETA BEATRIZ DEL ROSARIO";;;"(57) (5) 4143163";"Cl 7 8-95 Colombia, Fundación"
"DINAMICA I.P.S.";;;"(57) (2) 5533387";"Cl 5 C 41-25 Colombia, Cali"
"CRUZ BLANCA E.P.S.";;;"(57) (4) 4122514";"Cr81 37 D-59 Colombia, Medellín"
"CARMEN CECILIA RUEDA A.";;;"(57) (7) 6343362";"Cr36 42-02 Consult 207 Centro Clinico Quirurgico Colombia, Bucaramanga"
"LABORATORIO CLÍNICO DRA. LUCY HERNÁNDEZ";;;"(57) (6) 3263049";"Cl 35 5 B-09 P-2 Colombia, Pereira"
"LABORATORIO CLINICO SANTA MONICA";;;"(57) (7) 6555067";"Cl 6 6-79 Piedecuesta Colombia, Piedecuesta"
"LABORATORIO CLINICO M Y M";;;"(57) (7) 6820615";"Cr9 E 31-06 La Cumbre Colombia, Bucaramanga"
CELSALUD;;;"(57) (4) 6709664";"Cl 24 4-66 Yesca Colombia, Quibdó"
"LABORATORIO PATOLÓGICO Y CITOLÓGICO DR. J. HERNÁN ZÁRATE GALEANO LTDA.";;;"(57) (1) 6109015";"Cr19 C 90-14 Consult 501 Colombia, Bogotá"
"LABORATORIO CLÍNICO ESFATEN";;;"(57) (1) 8257069";"Cr13 14-57 Funza Colombia, Bogotá"
"GLORIA MONTES ANÁLISIS CLINICOS";;;"(57) (2) 3331105";"Cl 14 50-173 Colombia, Cali"
"LABORATORIO CLÍNICO BIOANÁLISIS";;;"(57) (2) 2864631";"Cl 31 31-48 Colombia, Palmira"
"LABORATORIO CLÍNICO FLOREZ";;;"(57) (75) 5630682";"Cr7 3-50 Colombia, Convención"
PRODIAGNÓSTICOS;;;"(57) (7) 5777417";"Av9 Este 4-124 Qta Oriental Colombia, Cúcuta"
"CENTRISALUD I.P.S. LTDA.";;;"(57) (1) 2844808";"Cr8 16-51 Consult 605 Colombia, Bogotá"
"LABORATORIO CLÍNICO DRA NORMA LILIANA SAENZ T.";;;"(57) (8) 8713408";"Cl 11 3-84 Centro Colombia, Neiva"
"LABORATORIO CLÍNICO DE CITOLOGÍA Y PATOLOGÍA S.A.S. RAMELLI LAB S.A.S.";;;"(57) (2) 6613055";"Cl 23 N 6 A N-17 Consult 304 Colombia, Cali"
"ESCOBAR GLORIA MARÍA";;;"(57) (2) 2134583";"Cr4 8-47 Colombia, Cartago"
"LABORATORIO CLÍNICO JULIO RAMÓN RODRÍGUEZ E.U.";;;"(57) (5) 6710251";"Centro Médico Los Ejecutivos Consult 210 Av Pedro de Heredia Colombia, Cartagena"
"LABORATORIO CLÍNICO HEMOLAB";;;"(57) (4) 4562877";"Cr48 46-74 Bello Colombia, Bello"
"REALAB LTDA.";;;"(57) (5) 3681813";"Cl 79 50-71 L-13 Colombia, Barranquilla"
"LABORATORIO CLÍNICO ADB";;;"(57) (5) 3691901";"Cr45 69-165 Colombia Colombia, Barranquilla"
"SISSLAB SALUD OCUPACIONAL";;;"(57) (7) 6226531";"Cr17 50-11 Br Colombia Colombia, Barrancabermeja"
"LABORATORIO DE ANÁLISIS CLÍNICOS INSEMED S.A.S.";;;"(57) (2) 3348255";"Cl 15 33 A-22 Colombia, Cali"
"RAMELLI BOTERO DANIEL";;;"(57) (2) 6613055";"Cl 23 N 6 A N-17 Consult 304 Colombia, Cali"
"CITOLOGÍA Y PATOLOGÍA DR. ANDRÉS RESTREPO";;;"(57) (2) 2738504";"Cl 31 32-23 Consult 5 B Colombia, Palmira"
"First Name";"Email Address";Url;Telephone;Address
"GENELAB LTDA.";;;"(57) (1) 6213646";"Cl 98 15-17 Of 201 Colombia, Bogotá"
"LABORATORIO CLINICO ESPECIALIZADO BIO IMAGEN";;;"(57) (76) 5651614";"Cl 5 32-63 Colombia, Aguachica"
"LABORATORIO CLÍNICO CENTRAL";;;"(57) (8) 6550122";"Cr6 8-84 Centro Colombia, Restrepo"
"LABORATORIO VASCULAR ECOLAB LTDA.";;;"(57) (1) 6100818";"Cr16 84 A-09 Consult 722 Colombia, Bogotá"
"LABORATORIO REY-FALS";;;"(57) (5) 3197777";"Cr44 72-131 Of 201 Colombia, Barranquilla"
"PROMOSALUD DEL SINÚ LTDA.";;;"(57) (4) 7928989";"Cl 25 3-39 Colombia, Montería"
"LABORATORIO CLÍNICO DRA. NIDIA ESPERANZA VALDÉS VARGAS";;;"(57) (1) 2857709";"Cr22 45 B-38 Consult 604 Colombia, Bogotá"
"LABORATORIO CLÍNICO NUBIA LUCIA MARTÍNEZ";;;"(57) (6) 7467748";"Cr14 9-09 Colombia, Armenia"
"LABORATORIO CLÍNICO MARÍA CONSUELO ORTIZ";;;"(57) (8) 6724141";"Cr37 35-17 Colombia, Villavicencio"
"LABORATORIO CLÍNICO CRISTIAM GRAM";;;"(57) (5) 5898008";"Tr18 20-94 Consult 110 Colombia, Valledupar"
"LABORATORIO CLÍNICO MICROBIOLÓGICO E INDUSTRIAL";;;"(57) (5) 5709440";"Cr11 16 A-68 Colombia, Valledupar"
"VALENCIA RAMÍREZ SONIA";;;"(57) (2) 3705097";"Av Pasoancho 44-27 P-2 Colombia, Cali"
"LABORATORIOS DE ANÃLISIS ADB LTDA.";;;"Telefax: (57) (5) 3049911";"Cr45 69-165 Colombia, Barranquilla"
"LABCO S.A.";;;"(57) (4) 8251215";"Cr106 (Cl) 95 Colombia, Chigorodó"
"MONTES MILLÁN GLORIA INÉS";;;"(57) (2) 3331105";"Cl 14 50-173 Colombia, Cali"
"LABORATORIO CLÍNICO DIVINO NIÑO";;;"(57) (7) 8857623";"Cr18 23-09 Córdoba Colombia, Arauca"
"LABORATORIO DE ANATOMÍA PATOLÓGICA";;;"(57) (7) 8857173";"Cl 21 16-81 Cristo Rey Colombia, Arauca"
"CLÍNICA CENTRAL EMANUEL";;;"(57) (8) 5924007";"Cr8 9-36 Colombia, Leticia"
"DROGUERÍA LINA MARÍA";;;"(57) (2) 4472186";"Cl 44 N 3 N-13 Colombia, Cali"
"BURGOS CENTRO MÉDICO CLÍNICA";;;"Nal: (57) (2) 4436580";"Cl 58 8-05 Colombia, Cali"
"CRUZ BLANCA E.P.S.";;;"(57) (4) 4122514";"Cr81 37 D-59 Colombia, Medellín"
"LABORATORIO CLÍNICO DRA. OLGA NÚÑEZ BARÓN";;;"(57) (7) 6750445";"Cr8 3-21 Colombia, Bucaramanga"
"C.I.C. LABORATORIOS S.A.S.";;;"(57) (2) 2392380";"Cr14 1-83 Colombia, Buga"
"UNIRSALUD LTDA.";;;"(57) (6) 8835588";"Cr22 26-12 Colombia, Manizales"
"LABORATORIO CLÍNICO LIZCANO";;;"(57) (7) 6572122";"Cl 52 B 31-92 Colombia, Bucaramanga"
"BIO-GENIX LABORATORIO CLINICO";;;"(57) (8) 2642609";"Cr4 C 31-36 Cádiz Colombia, Ibagué"
"LABORATORIO CLÍNICO EDUARDO RUEDA";;;"(57) (1) 6216693";"Cr16 84 A-09 Consult 312 Colombia, Bogotá"
"PINZÓN VILLABONA JAIRO";;;"(57) (7) 6445521";"Plaza Mayor E-Principal L-105 Colombia, Bucaramanga"
"LABORATORIO CLÍNICO PRO-DX";;;"(57) (7) 6445521";"Plaza Mayor E-Principal L-105 Colombia, Bucaramanga"
"NIÑO MENDEZ GRACIELA";;;"(57) (7) 7242697";"Cl 11 9-19 Consult 202 Colombia, San Gil"
"LABORATORIO CLÍNICO DE AVANZADA TECNOLOGÍA LTDA.";;;"(57) (8) 2651829";"Cr5 40-02 P-2 Colombia, Ibagué"
"RAMÍREZ YÁÑEZ ISABEL TERESA";;;"(57) (7) 5716599";"Av3 8-03 P-2 Colombia, Cúcuta"
"CENTRO POLICLÍNICO DEL OLAYA";;;"(57) (1) 3612888";"Cr21 22-68 S Colombia, Bogotá"
"CRUZ ROJA COLOMBIANA SECCIONAL VALLE DEL CAUCA";;;"(57) (2) 5184200";"Cr38 Bis 5-91 Colombia, Cali"
"CONSULTORIO Y LABORATORIO CLÍNICO ESPECIALIZADO";;;"(57) (1) 7270961";"Cr32 B 11-25 S Colombia, Bogotá"
"LABORATORIO CLÍNICO AVENDAÑO MORALES";;;"(57) (1) 3460578";"Cl 53 B 24-80 Of 715 Colombia, Bogotá"
"PRUEBAS DE PATERNIDAD";;;"(57) (1) 4711167";"Cl 160 14 B-42 Trr 1 Ap 203 Colombia, Bogotá"
"LABORATORIO CLINICO GOMEZESE";;;"(57) (7) 7242597";"Cr9 13-72 Colombia, San Gil"
"CLÍNICA METROPOLITANA DE BUCARAMANGA S.A.";;;"(57) (7) 6432406";"Av González Valencia 55 B-10 Colombia, Bucaramanga"
"LABORATORIO CLÍNICO CÁDIZ";;;"(57) (8) 2700764";"Cr4 C 32-98 Plazoleta Cádiz Colombia, Ibagué"
"First Name";"Email Address";Url;Telephone;Address
"LABORATORIO CLÍNICO EDUARDO RUEDA";;;"(57) (1) 6216693";"Cr16 84 A-09 Consult 312 Colombia, Bogotá"
"LABORATORIO IDIME";;;"(57) (2) 3808010";"Cr44 9 C-58 Colombia, Cali"
"LABORATORIO DENTAL HERNANDO COLLAZOS";;;"(57) (2) 4465218";"Cr2 E 47-11 Colombia, Cali"
"LABORATORIO CITOLAB";;;"(57) (7) 6444131";"Plaza Mayor Entrada 4 L-108 Real de Minas Colombia, Bucaramanga"
"LABORATORIO CLÍNICO ANA MARÍA RODRÍGUEZ";;;"(57) (6) 8855530";"Cr23 62-05 Colombia, Manizales"
"GLICOL Y CÍA. SCS";;;"(57) (2) 7313979";"Cr29 19-25 Edif Punto Centro L-104 Colombia, Pasto"
"LABORATORIO CLÍNICO MYGLO LTDA.";;;"(57) (1) 2850365";"Cr8 49-25 Consult 205 Colombia, Bogotá"
"LABORATORIO CLÍNICO ESPECIALIZADO CARLOS MONTOYA & SUÁREZ S.A.S.";;;"Telefax: (57) (7) 5728879";"Av 0 11-161 Of 103 Colombia, Cúcuta"
"LABORATORIO VASCULAR ECOLAB LTDA.";;;"(57) (1) 6100818";"Cr16 84 A-09 Consult 722 Colombia, Bogotá"
"CLINICA NUEVA";;;"(57) (1) 3274444";"Cl 45 F 16 A 11 Colombia, Bogotá"
"FUNDACIÓN CIENCIA VITAL";;;"Conm.: (57) (4) 4121559";"Cl 33 A 70 A-175 Colombia, Medellín"
"CENTRO INTEGRAL DE MOVIMIENTOS ANORMALES Y DOLOR CIMAD S.A.S.";;;"(57) (1) 7045642";"Cr19 A 82 - 14 Colombia, Bogotá"
"IPS TERAPIAS ALTERNATIVAS SAMECF S.A.S.";;;"(57) (4) 3746163";"Cl 52 49-22 Itagüí Colombia, Itagüí"
"INMUNOTECH LABORATORIES LTDA.";;;"(57) (1) 2327310";"Cr9 49-42 Laboratorio 603 Colombia, Bogotá"
"LABORATORIOS DE ANÃLISIS ADB LTDA.";;;"Telefax: (57) (5) 3049911";"Cr45 69-165 Colombia, Barranquilla"
"LABORATORIO MÉDICO MONTES";;;"(57) (2) 5561550";"Centro Médico San José Consult 101 Colombia, Cali"
"GUILLERMO MONTES & CÍA. S.A.S.";;;"(57) (2) 5568100";"Centro Médico San José Consult 101 Colombia, Cali"
"LABORATORIO CLÍNICO 1 ABAD";;;"(57) (6) 3357772";"Cr6 23-80 Colombia, Pereira"
"ASISTENCIAS MEDICAS POPULAR I.P.S";;;"(57) (7) 6429491";"Cl 42 14-77 Colombia, Bucaramanga"
"MORENO ELSA";;;"(57) (1) 6104624";"Cl 94 B 57-11 Colombia, Bogotá"
"RAMÍREZ YÁÑEZ ISABEL TERESA";;;"(57) (7) 5716599";"Av3 8-03 P-2 Colombia, Cúcuta"
"SERVICIOS DE LABORATORIO CLÍNICO LTDA.";;;"(57) (7) 5710506";"Av1 Este 13-120 Casa 2 Caobos Colombia, Cúcuta"
"LABORATORIO CLÍNICO JERLAB I.P.S.";;;"(57) (4) 7815475";"Cl 27 9-44 Colombia, Montería"
"IPS PRODIAGNOSTICO SAS";;;"(57) (7) 6445521";"Plaza Mayor E-1 L-105 C.R. de Minas Colombia, Bucaramanga"
"LABORATORIO CLÍNICO DRA. CLARA INÉS SAAVEDRA";;;"(57) (2) 2722972";"Cr32 30-85 Edif Liliana L-1 Colombia, Palmira"
"UNIDAD DE SERVICIOS MEDICOS PABLO SEXTO LTDA";;;"(57) (7) 5714135";"Dg Santander Av2 Esq Colombia, Cúcuta"
"LABORATORIO CLÍNICO JOSÉ FRACICA";;;"(57) (6) 8845117";"Cr20 25-40 Centro Colombia, Manizales"
"LABORATORIO CLÍNICO MAGDALENA VENEGAS";;;"(57) (1) 2133526";"Cl 123 7A-32 Colombia, Bogotá"
"SUÁREZ RODRÍGUEZ ROCÍO I.";;;"(57) (5) 4235858";"Cr3 24-57 Prado Colombia, Santa Marta"
"LABORATORIO CLÍNICO BACTERIOLÓGICO ALICIA VIVEROS";;;"(57) (2) 7732180";"Cr7 13-64 P-2 Colombia, Ipiales"
"MORENO ANA BEATRIZ";;;"(57) (1) 6109601";"Cl 90 12-46 Colombia, Bogotá"
"LABORATORIO CLÍNICO MAXWELL WINTROBE";;;"(57) (5) 2812755";"Cr16 21-62 Centro Colombia, Sincelejo"
"LABORATORIO CLÍNICO HEMOLAB";;;"(57) (4) 4562877";"Cr48 46-74 Bello Colombia, Bello"
"LABORATORIO CLÍNICO Y MICROBIOLÓGICO GENOMALAB";;;"(57) (5) 3783414";"Cl 80 49 C-10 Colombia, Barranquilla"
"C.R.C. CENTRO DE RECONOCIMIENTO DE CONDUCTORES";;;"(57) (1) 2756485";"Cr.9B 113-37 Colombia, Bogotá"
"BIOLAB HEALTHCARE DIAGNOSTICS S.A.S.";;;"(57) (2) 8242845";"Cr10 A 8-124 Brr. Las Américas Colombia, Popayán"
"CHÁVEZ MARÍA FERNANDA";;;"(57) (1) 2825712";"Cl 17 12-56 Colombia, Bogotá"
"LABORATORIO CLÍNICO BIOCLINIC";;;"(57) (5) 5706764";"Cl 16 16-51 L-106 Centro Médico Santana Center Colombia, Valledupar"
"LABORATORIO MEDICO LAS AMERICAS";;;"Conm.: (57) (4) 3419092";"Dg75 B 2 A-80 Colombia, Medellín"
"ALEANDES Y CÍA. LTDA.";;;"(57) (1) 2443630";"Cl 40 25-45 Colombia, Bogotá"
"First Name";"Email Address";Url;Telephone;Address
"LABORATORIO REPRESENTACIONES LABIN S.A.S.";;;"(57) (1) 4223235";"Av (Cr) 97 24 C-75 Int 46 Colombia, Bogotá"
"LABORATORIO CLÍNICO MYRIAM SALAZAR";;;"(57) (6) 8400662";"Cl 11 9-23 Colombia, Chinchiná"
"LABORATORIO CLÍNICO SILVIO ALFONSO MARÍN";;;"(57) (6) 8829194";"Cr23 25-61 L-5 Edif Don Pedro Colombia, Manizales"
"PEDRAZA ENRIQUE";;;"(57) (1) 2322322";"Cr13 49-40 Of 525 Colombia, Bogotá"
"LABORATORIO CLÍNICO ESPECIALIZADO SANDRA AVELLA CERÓN";;;"(57) (8) 7702263";"Cr14 13-31 Centro Colombia, Sogamoso"
"LABORATORIO CLÍNICO MARÍA MERCEDES LUGO P.";;;"(57) (6) 8506795";"Cl 11 6-46 Colombia, Chinchiná"
"LABORATORIO CLÍNICO LUZ MARÍA LÓPEZ PAREDES";;;"(57) (2) 8211726";"Cl 5 10-158 Colombia, Popayán"
"SUÁREZ RODRÍGUEZ ROCÍO I.";;;"(57) (5) 4235858";"Cr3 24-57 Prado Colombia, Santa Marta"
"DE LA ROSA PACHECO BELIA";;;"(57) (5) 4213433";"Cl 15 7-97 Colombia, Santa Marta"
"SIGMA IPS MEDICINA ESPECIALIZADA INTEGRAL S.A.S.";;;"(57) (2) 8230060";"Cr3 2 N-15 Colombia, Popayán"
"ECHEVERRÍA RODRÍGUEZ JENNY JOHANNA";;;"(57) (7) 5826485";"Av13 21-47 Alfonso López Colombia, Cúcuta"
"LABORATORIO CLÍNICO BIOVIDA";;;"(57) (2) 7224319";"Cl 13 27-60 San Ignacio Colombia, Pasto"
"PATOLOGÍA INTEGRAL S.A.";;;"(57) (4) 3269266";"Cr20 2 S-185 Colombia, Medellín"
"LABORATORIO CLÍNICO NURY MURILLO";;;"(57) (4) 3723345";"Cl 47 50 A-45 Itagüí Colombia, Itagüí"
"PRODUCTOS ROCHE S.A.";;;"(57) (1) 4178860";"Cr44 20-21 Colombia, Bogotá"
"LABORATORIO CLÍNICO ESPECIALIZADO JACKELINE VOZA MOLINA";;;"(57) (5) 2740860";"Cl 21 15-32 Colombia, Sincelejo"
"LABORATORIO CLÍNICO SINULAB";;;"(57) (4) 7865098";"Cr3 8-33 Colombia, Montería"
"LABORATORIO CLINICO ESPECIALIZADO BIO IMAGEN";;;"(57) (76) 5651614";"Cl 5 32-63 Colombia, Aguachica"
"LABORATORIO CLÍNICO Y DIAGNÓSTICO MAYEDSI PANA";;;"(57) (5) 5847488";"Cra 15 16-80 Centro Medico El Rosario Colombia, Valledupar"
"LABORATORIO CLÍNICO GLORIA TERESA CUARTAS M.";;;"(57) 3128561047";"Cr7 15-29 Caramanta Colombia, Quimbaya"
"CLÍNICA GÁLVEZ";;;"(57) (1) 2915510";"Cl 70 A 90-01 Colombia, Bogotá"
"FUNDACIÓN CIENCIA VITAL";;;"Conm.: (57) (4) 4121559";"Cl 33 A 70 A-175 Colombia, Medellín"
"LABORATORIO REY-FALS";;;"(57) (5) 3197777";"Cr44 72-131 Of 201 Colombia, Barranquilla"
"LABORATORIO CLÍNICO SAN CAYETANO";;;"(57) (4) 2365451";"Cr51 B 90-46 Colombia, Medellín"
"GALA TEST LABORATORIO CLÍNICO";;;"(57) (1) 3459152";"Cl 64 7-72 Colombia, Bogotá"
"ATENCIÓN MÉDICA ESPECIALIZADA S.A.";;;"(57) (1) 6208277";"Cr7 B Bis 124-73 Colombia, Bogotá"
"LABORATORIO CLÍNICO SANDRA PATRICIA LEÓN";;;"(57) (68) 8571645";"Cl 11 4-10 Colombia, La Dorada"
"LABORATORIO CLÍNICO LIGIA INÉS ALZATE V";;;"(57) (6) 7455449";"Cl 11 14-55 Colombia, Armenia"
"CENTRO MÉDICO CRISTO REY";;;"(57) (1) 2398559";"Cr21 26-44 S Colombia, Bogotá"
"LABORATORIO CLÍNICO BACTCLÍNIC";;;"(57) 3744770";"Cr30 27 C-25 Colombia, Soledad"
"CENTRO INTEGRAL DE MOVIMIENTOS ANORMALES Y DOLOR CIMAD S.A.S.";;;"(57) (1) 7045642";"Cr19 A 82 - 14 Colombia, Bogotá"
"LABORATORIO CLÍNICO LIGIA VALENCIA LLANO";;;"(57) (4) 2882788";"Cl 72 S 45-12 Colombia, Sabaneta"
"C.R.C. CENTRO DE RECONOCIMIENTO DE CONDUCTORES";;;"(57) (1) 2756485";"Cr.9B 113-37 Colombia, Bogotá"
"CENTRO MÉDICO SOCIEDAD PARA LA SALUD LTDA.";;;"(57) (2) 8212677";"Cr11 5-75 Colombia, Popayán"
"IPS OMALINA OWKIN DE GONZÁLEZ";;;"(57) (8) 5126903";"Av20 de Julio Esq diagonal Parque Simón Bolívar Colombia, San Andrés"
"CLÍNICA LA MERCED I.P.S.";;;"(57) (5) 3711899";"Cl 60 38-29 Colombia, Barranquilla"
"LABORATORÍO CLÍNICO ESPECIALIZADO DEL CARIBE";;;"(57) (5) 7273549";"Cl 11 A 15-05 Colombia, Riohacha"
"HERMANORTE I.P.S.";;;"(57) 3662287";"Cl 20 21-98 Soledad Colombia, Soledad"
"FUNDACIÓN CLÍNICA LETICIA";;;"(57) (8) 5927718";"Cr6 6-05 Av Internacional Colombia, Leticia"
"LABORATORIO CLINICO LA UNION-CASTILLA";;;"(57) (4) 2371170";"Cr67 94-60 Colombia, Medellín"
"First Name";"Email Address";Url;Telephone;Address
"LABORATORIO CLÍNICO GLORIA ORDOÑEZ RAMÍREZ";;;"(57) (1) 2222470";"Cl 57 43-32 Et 2 B-46 Colombia, Bogotá"
"LABORATORIO CLÍNICO LA 80 CENTRO MÉDICO";;;"(57) (4) 2508751";"Cl 44 82-29 Consult-104 Colombia, Medellín"
"CENTRO MÉDICO CRISTO REY";;;"(57) (1) 2398559";"Cr21 26-44 S Colombia, Bogotá"
"SISSLAB SALUD OCUPACIONAL";;;"(57) (7) 6226531";"Cr17 50-11 Br Colombia Colombia, Barrancabermeja"
"CENTRO MÉDICO SOCIEDAD PARA LA SALUD LTDA.";;;"(57) (2) 8212677";"Cr11 5-75 Colombia, Popayán"
"LABORATORIO CLÍNICO ESPECIALIZADO NAYIBE CURE";;;"(57) (5) 7288223";"Cr11 14-39 C.M. Ary Acosta Colombia, Riohacha"
"LABORATORIO CLINICO FAMILAB SUBA LTDA";;;"(57) (1) 6859545";"Calle 145 # 91-19 Colombia, Bogotá"
"MARTÍNEZ ESCORCIA MILDRED CARINA";;;"(57) (5) 3601098";"Cr58 70-129 Consult 307 Colombia, Barranquilla"
"LABORATORIO CLÍNICO NEWTON";;;"(57) (5) 3601098";"Cr58 70-129 Consult 307 Colombia, Barranquilla"
"LABORATORIOS GRER LTDA.";;;"(57) (5) 3492768";"Cl 43 53-99 Colombia, Barranquilla"
"AGROANÁLISIS SERVICIOS AGROPECUARIOS";;;"(57) 3125106844";"Km 10 Vía Espinal-Ibagué Colombia, Ibagué"
"HEALTH AND LIFE";;;"(57) (8) 2454587";"Cr 27 5-35 Colombia, Melgar"
"CLÍNICA METROPOLITANA DE BUCARAMANGA S.A.";;;"(57) (7) 6432406";"Av González Valencia 55 B-10 Colombia, Bucaramanga"
"LABORATORIO CLÍNICO Y ESPECIALIDADES DRA. AMPAR";;;"(57) (7) 6479640";"Cl 48 28-73 Colombia, Bucaramanga"
"LABORATORIO CLÍNICO ESPECIALIZADO SANDRA AVELLA CERÓN";;;"(57) (8) 7702263";"Cr14 13-31 Centro Colombia, Sogamoso"
"LABORATORIO CLINICO METROLAB LTDA.";;;"(57) (4) 2177012";"Cl 54 43-47 Colombia, Medellín"
"LABORATORIO CLÍNICO ROSMINIA DE ALCALÁ";;;"(57) (5) 2822495";"Cr17 20-48 Colombia, Sincelejo"
"LABORATORIO CLÍNICO SHIRLEY ANGULO";;;"(57) (5) 2825091";"Calle 18 # 22-63 Colombia, Sincelejo"
"LABORATORIO CLÍNICO MYRIAM SABOYÁ G.";;;"(57) (1) 2989109";"Cr102 25-20 Colombia, Bogotá"
"CLÍNICA DEL OCCIDENTE S.A.";;;"(57) (1) 4254620";"Av Américas 71 c-29 Colombia, Bogotá"
"GENELAB LTDA.";;;"(57) (1) 6213646";"Cl 98 15-17 Of 201 Colombia, Bogotá"
"FUNDACIÓN CIENCIA VITAL";;;"Conm.: (57) (4) 4121559";"Cl 33 A 70 A-175 Colombia, Medellín"
"REALAB LTDA.";;;"(57) (5) 3681813";"Cl 79 50-71 L-13 Colombia, Barranquilla"
"LABORATORIO CLÍNICO CARLOS FONSECA HERRERA";;;"(57) (5) 6600045";"Centro Comercial Pasaje Badillo P-2 Of 205-B Colombia, Cartagena"
"LABORATORIO CLÍNICO CITOLÓGICO";;;"(57) (4) 8393916";"Cl 21 3-08 Colombia, Caucasia"
"LABORATORIO CLÍNICO DRA. TAHIS PIZARRO R.";;;"(57) (1) 6303459";"Cl 74 B 69 B-70 P-2 Colombia, Bogotá"
"LABORATORIO CLÍNICO ISABEL CURIEL S.A.S.";;;"(57) (5) 7273338";"Sede Principal ICr 11 A 13-19 Colombia, Riohacha"
"LABORATORIO DE ANÁLISIS CLÍNICOS INSEMED S.A.S.";;;"(57) (2) 3348255";"Cl 15 33 A-22 Colombia, Cali"
"CORPORACIÓN PARA INVESTIGACIONES BIOLÓGICAS";;;"(57) (4) 4035950";"Cr72 A 78 B-141 Colombia, Medellín"
"LABORATORIO CLÍNICO MYRIAM PINEDA";;;"(57) (4) 2701108";"Trv. 33 Sur 39-25 Envigado Colombia, Envigado"
"LABORATORIO CLÍNICO DRA. CECILIA MONTOYA URIBE";;;"(57) (8) 2746690";"Et 7 Manz 51 Casa 7 Jordán Colombia, Ibagué"
"LABORATORIO CLÍNICO LIZCANO";;;"(57) (7) 6572122";"Cl 52 B 31-92 Colombia, Bucaramanga"
"CENTRO MÉDICO PRO-DIAGNÓSTICO";;;"(57) (7) 6445521";"Plaza Mayor E-Principal L-105 Colombia, Bucaramanga"
"LABORATORIO CLÍNICO DRA AMPARO GROSSO";;;"(57) (7) 5731769";"Cl 15 0-19 Consult 2 La Playa Colombia, Cúcuta"
"CENTRO MÉDICO Y LABORATORIO CLÍNICO GAMMA";;;"(57) (5) 4210790";"Cl 17 6-69 Colombia, Santa Marta"
"LABORATORIO CLINICO JUAN PABLO II E.U. I.P.S.";;;"(57) 6637507";"UrB. La Cruz Mz1 Lt1 Colombia, Turbaco"
"LABORATORIO CLÍNICO SINULAB";;;"(57) (4) 7865098";"Cr3 8-33 Colombia, Montería"
"SONIA JATER";;;"(57) (1) 6859234";"Cl 145 91-19 L-8-202 Colombia, Bogotá"
"LABORATORIO CLÍNICO GLORIA TERESA CUARTAS M.";;;"(57) 3128561047";"Cr7 15-29 Caramanta Colombia, Quimbaya"
"LABORATORIO MÁSMEDICAL";;;"(57) (8) 6630154";"Cr37 36-29 Barzal Colombia, Villavicencio"
"First Name";"Email Address";Url;Telephone;Address
"LABORATORIO CLÍNICO SV";;;"(57) (6) 7440438";"Cl 26 Cr15 Esq Colombia, Armenia"
"LABORATORIO CLÍNICO MARÍA FERNANDA GARCÍA";;;"(57) (2) 2249775";"Cr26 29-66 Colombia, Tuluá"
"CENTRO DE DIAGNÓSTICO EN CITOPATOLOGÍA LTDA.";;;"(57) (1) 6361482";"Cl 102 A 45-46 Colombia, Bogotá"
"BIOCIENTÍFICA LTDA.";;;"(57) (1) 6203370";"Cr15 A 121-12 Of 518 Colombia, Bogotá"
MEDITEST;;;"(57) (8) 7441810";"C.C. Plaza Real Of 234 Centro Histórico Colombia, Tunja"
"LABORATÓRIO CLÍNICO ANA LUISA HENRIQUEZ";;;"(57) (6) 3358643";"Cl 24 9-24 Colombia, Pereira"
"LABORATORIO CLÍNICO ANA MARÍA RODRÍGUEZ";;;"(57) (6) 8855530";"Cr23 62-05 Colombia, Manizales"
"LABORATORIO BIOCLÍNICO PASTEUR";;;"(57) (1) 2720373";"Av (Cr) 21 22-40 S Colombia, Bogotá"
"BRADFORD HENRY";;;"(57) (1) 2180847";"Cr13 A 77 A-31 Colombia, Bogotá"
"LABORATORIO CLÍNICO BACTERIOLÓGICO ALICIA VIVEROS";;;"(57) (2) 7732180";"Cr7 13-64 P-2 Colombia, Ipiales"
"GLICOL Y CÍA. SCS";;;"(57) (2) 7313979";"Cr29 19-25 Edif Punto Centro L-104 Colombia, Pasto"
"LABORATORIO CLÍNICO ENMIBACOL LTDA.";;;"(57) (1) 2355641";"Av (Cr) 7 72-86 Int 10 L-10 Colombia, Bogotá"
"LABORATORIO CLINICO AMAGA";;;"(57) (4) 8471601";"Cr51 51-42 Colombia, Amagá"
"LABORATORIO CLÍNICO UNIVERSITARIO";;;"(57) (4) 2750868";"Cl 52 50 A-33 Bello Colombia, Bello"
"LABORATORIO CLÍNICO CARMEN ELISA VALENCIA";;;"(57) (1) 3365856";"Cr7 17-01 Consult 239 Colombia, Bogotá"
"LABORATORIO CLÍNICO JULIO RAMÓN RODRÍGUEZ E.U.";;;"(57) (5) 6710251";"Centro Médico Los Ejecutivos Consult 210 Av Pedro de Heredia Colombia, Cartagena"
"LABORATORIO CLÍNICO PEDIATRICO DE LA COSTA";;;"(57) (5) 6624003";"Bruselas Tr 36 # 36-33 Colombia, Cartagena"
"HOUSE CARE SERVICES";;;"(57) (2) 8204412";"Cr3 1 A N-47 Colombia, Popayán"
"LABORATORIO DE ANÁLISIS BIOCLÍNICO";;;"(57) (5) 3606100";"Cr43 69 E-53 L-104 Colombia, Barranquilla"
"CUIDADO DERMATOLÓGICO ESPECIALIZADO LABORATORIOS LTDA.";;;"(57) (1) 6207646";"Cl 111 51-22 Colombia, Bogotá"
"INGENIERIA Y REGENERACIÒN TISURAL IRT";;;"(57) (1) 6346151";"Cl 98 9A-46 Piso6 Colombia, Bogotá"
"LABORATORIO CLÍNICO HEMOLAB";;;"(57) (4) 4562877";"Cr48 46-74 Bello Colombia, Bello"
"LABORATORIO CLÍNICO ANVID";;;"(57) (7) 6020652";"Av 52 A 34 H-103 1 De Mayo Colombia, Barrancabermeja"
"LABORATORIO CLÍNICO VITAL DIAGNÓSTICA";;;"(57) (5) 3495107";"Cr53 59-300 Colombia, Barranquilla"
"LABORATORIO CLÍNICO DRA. BEATRIZ HUERTAS";;;"(57) (1) 2856830";"Cl 46 13-56 Ap 302 Colombia, Bogotá"
"LABORATORIO DE TOXICOLOGÍA VARGAS MELO LTDA.";;;"(57) (1) 2110575";"Cl 71 10-48 Of 401 Colombia, Bogotá"
"LABORATORIOS LOUIS PASTEUR";;;"(57) (2) 7228436";"Cr24 19-33 Of 502 Colombia, Pasto"
"LABORATORIO QUIPROPHARMA";;;"(57) (2) 6602796";"Av6 N 17-92 Colombia, Cali"
"GENES SERVICIOS MÉDICOS LTDA.";;;"(57) (1) 6123876";"Av15 122-69 Of 310 Colombia, Bogotá"
"LABORATORIO CLÍNICO REMEDIOS";;;"(57) (4) 8304656";"Cl San Antonio 13-45 Colombia, Remedios"
"LABORATORIO CLÍNICO BIOANÁLISIS";;;"(57) (4) 6714460";"Cl 31 5-22 Colombia, Quibdó"
"LABORATORIOS GRER LTDA.";;;"(57) (5) 3492768";"Cl 43 53-99 Colombia, Barranquilla"
"LABORATORIO CLÍNICO DIVINO NIÑO";;;"(57) (7) 8857623";"Cr18 23-09 Córdoba Colombia, Arauca"
"LABORATORIO CLINICO MARIELA OSPINO";;;"(57) (5) 4311206";"Cr15 23-19 Colombia, Santa Marta"
"LABORATORIO CLÍNICO DRA. SHIRLEY MONTES MARTÍNEZ";;;"(57) (7) 8883844";"Cl 13 14-14 Of 203 Colombia, Tame"
"LABORATORIO CLÍNICO MELBA OSPINA";;;"(57) (2) 2122066";"Cl 8 Bis 3-08 Colombia, Cartago"
"LABORATORIO DE CLÍNICA HUMANA GÓMEZ VÁSQUEAZ E.U.";;;"(57) (8) 5927183";"Cl 8 9-99 Colombia, Leticia"
"DINAMICA I.P.S.";;;"(57) (2) 5533387";"Cl 5 C 41-25 Colombia, Cali"
"CRUZ BLANCA E.P.S.";;;"(57) (4) 4122514";"Cr81 37 D-59 Colombia, Medellín"
"HEALTH LABORATORIES S.A.S";;;"(57) (2) 3735843";"Cl 53 N 8 N-26 Colombia, Cali"
"First Name";"Email Address";Url;Telephone;Address
"LABORATORIO CLÍNICO EMPROSALUD";;;"(57) (1) 2189574";"Cr15 99-13 Of 214 Colombia, Bogotá"
"CLÍNICA MEDIESP LTDA.";;;"(57) (5) 3576659";"Cr49 C 84-141 Colombia, Barranquilla"
"LABORATORIO RECTEST";;;"(57) (2) 5570873";"Cl 6 26-61 Colombia, Cali"
"HUMALIB LABORATORIO CLÍNICO ESPECIALIZADO";;;"(57) (4) 7825610";"Cl 22 2-15 Colombia, Montería"
"LABORATORIO CLÍNICO ELIZABETH ARTEAGA PEÑA";;;"(57) (8) 7700203";"Cr12 11-63 Consult 406 Colombia, Sogamoso"
"QUINTERO DUQUE CLARA DEL SOCORRO";;;"(57) (8) 4352673";"Cl 15 12-34 P-2 Centro Colombia, Florencia"
"LABORATORIO QUIMICO CLINICO";;;"(57) (5) 4311834";"Cl 26 Bis 5-36 Colombia, Santa Marta"
"DINAMICA I.P.S.";;;"(57) (2) 5533387";"Cl 5 C 41-25 Colombia, Cali"
"LABORATORIO CLÍNICO GLORIA CIFUENTES";;;"(57) (2) 2207508";"Cl 11 9-34 Colombia, Zarzal"
"LABORATORIO CLÍNICO SAN MARTÍN";;;"(57) (2) 4101111";"Cl 33 D 16 A-50 Colombia, Cali"
"LABORATORIO CLÍNICO DRA. LUCY HERNÁNDEZ";;;"(57) (6) 3263049";"Cl 35 5 B-09 P-2 Colombia, Pereira"
"LABORATORIO CLINICO M Y M";;;"(57) (7) 6820615";"Cr9 E 31-06 La Cumbre Colombia, Bucaramanga"
"INSTITUTO MÉDICO LA 34";;;"(57) (1) 2457209";"Av Caracas 34-36 Colombia, Bogotá"
"TEST ALCAT TECNOPROMED LTDA.";;;"(57) (1) 6169268";"Cr 13 85-51 Of 503 Colombia, Bogotá"
"LABORATORIO CLÍNICO DRA. NANCY URIBE NAVARRO";;;"(57) (7) 5720334";"Av3 14-95 Colombia, Cúcuta"
"FLÓREZ ARANGO ARNOLDO";;;"(57) (8) 8721305";"Cl 9 7-38 Colombia, Neiva"
"LABORATORIO CLÍNICO DRA. LILIANA SATIZÁBAL";;;"(57) (2) 6696040";"Cr5 8-02 Colombia, Yumbo"
"GLORIA MONTES ANÁLISIS CLINICOS";;;"(57) (2) 3331105";"Cl 14 50-173 Colombia, Cali"
"ADRIANA MILLAN";;;"(57) 3104699530";"Cl 5 0-10E Lleras Colombia, Cúcuta"
"LABORATORIO CLÍNICO CLARA INÉS DUARTE";;;"(57) (7) 5713019";"Av0 10-78 Of 701 Colombia, Cúcuta"
"CENTRISALUD I.P.S. LTDA.";;;"(57) (1) 2844808";"Cr8 16-51 Consult 605 Colombia, Bogotá"
"LABORATORIO CLÍNICO OLIMPUS IPS LTDA.";;;"(57) (5) 4316453";"Cr5 26 B-23 Colombia, Santa Marta"
"LABORATORIO CLÍNICO DRA. MARTHA L. GALLARDO";;;"(57) (7) 5721229";"Cl 13 2 E-71 Caobos Colombia, Cúcuta"
"LABORATORIO CLÍNICO CARMEN ALICIA SALDARRIAGA P.";;;"(57) (4) 3113164";"Cr38 10-47 Colombia, Medellín"
"LABORATORIO DE PATOLOGÍA Y CITOLOGÍA LTDA.";;;"(57) (4) 3116138";"Cl 7 39-197 Int 1617 Colombia, Medellín"
"CLINICA SUMMA";;;"(57) (2) 5516464";"Cr44 9 C-58 Colombia, Cali"
"MONSALUD IPS LTDA.";;;"(57) (1) 2551102";"Cl 22 E 42 B-13 Colombia, Bogotá"
"BIOSALUD LTDA.";;;"(57) (4) 4068098";"Cr17 15-13 Barbosa Colombia, Medellín"
"CENTRO DE ANÁLISIS MOLECULAR";;;"(57) (1) 6153629";"Av (Cr) 45 150-10 Colombia, Bogotá"
"SIÓN LABORATORIO";;;"(57) 3103511505";"Cartagena Colombia, Cartagena"
"LABORATORIO CLÍNICO DRA. BEATRIZ HUERTAS";;;"(57) (1) 2856830";"Cl 46 13-56 Ap 302 Colombia, Bogotá"
"LABORATORIO CLÍNICO TERESA ALVAREZ SANGUINO";;;"(57) (75) 5625156";"Cl 10 12-57 L-3 Centro Colombia, Ocaña"
UNILAB;;;"(57) (5) 3601431";"Cl 59 50-17 Colombia, Barranquilla"
"LABORATORÍO CLÍNICO ESPECIALIZADO CENIT RODRÍGUEZ";;;"(57) (5) 5707418";"Cr11 A 13 C-21 Obrero Colombia, Valledupar"
"BIMEDI-DIAGNOSTICA CRITICAL CARE";;;"(57) (2) 6811455";"Cr37 10-303 Acopi Yumbo Colombia, Yumbo"
"LABORATORIO DE ANÁLISIS CLÍNICOS INSEMED S.A.S.";;;"(57) (2) 3348255";"Cl 15 33 A-22 Colombia, Cali"
"SISOMED S.A.S.";;;"(57) (6) 8810908";"Cr23 56-95 Colombia, Manizales"
"ELMER ARBOLEDA Y CIA. S. EN C.S.";;;"(57) (2) 2711964";"Cr31 31-23 P-1 Colombia, Palmira"
"LABORATORIO CLÍNICO FAMISALUD";;;"(57) (7) 7276969";"Cl 10 A 16-38 Colombia, Socorro"
"LABORATORIO CLÍNICO DRA. MERCEDES BACCA DE VILLAMIZAR";;;"(57) (7) 5712554";"Av0 12-66 Of 201 Centro Colombia, Cúcuta"
"First Name";"Email Address";Url;Telephone;Address
"LABCO S.A.";;;"(57) (4) 8251215";"Cr106 (Cl) 95 Colombia, Chigorodó"
"CHÁVEZ MARÍA FERNANDA";;;"(57) (1) 2825712";"Cl 17 12-56 Colombia, Bogotá"
"LABORATORIO CLÍNICO CLARET ARIÑO GARCÍA";;;"(57) (5) 5705449";"Cr18 14-85 Colombia, Valledupar"
"LABORATORIO CLÍNICO YARELIS";;;"(57) (5) 4140777";"Cr9 Cl 7 y 8 Colombia, Fundación"
"LABORATORIO DENTAL ABUNDIO GONZÁLEZ";;;"(57) (7) 6434545";"Cl 65 19-09 La Victoria Colombia, Bucaramanga"
"LABORATORIO CLÍNICO MICRODIAGNOSTIC";;;"(57) (7) 8852304";"Cr20 21-46 P-2 Colombia, Arauca"
"LABORATORIO CLINICO LA UNION-CASTILLA";;;"(57) (4) 2371170";"Cr67 94-60 Colombia, Medellín"
"LABORATORIO CLÍNICO SUSANA ARISTIZÁBAL";;;"(57) (2) 5510408";"Cr42 5 C-66 Colombia, Cali"
"NURCE E.A.T.";;;"(57) (2) 3289533";"Cr41 C 51-54 Colombia, Cali"
"SERVI-MÉDICOS JDI LABORATORIO CLÍNICO";;;"(57) (2) 5166879";"Cl 10 10-61 P-2 Jamundí Colombia, Jamundí"
"LABORATORIO CLÍNICO DRA. OLGA NÚÑEZ BARÓN";;;"(57) (7) 6750445";"Cr8 3-21 Colombia, Bucaramanga"
"LABORATORIO CLINICO ESPERANZA GRAJALES DIAZ";;;"(57) (2) 2136080";"Cl 7 3-70 Colombia, Cartago"
"ARIAS AMAYA RUBY CLEMENCIA";;;"(57) (7) 6426367";"Cr6 28-05 Girardot Colombia, Bucaramanga"
"LABORATORIO CLÍNICO BACTERIOLÓGICO JAIRO ROJAS B.";;;"(57) (1) 2156187";"Cl 24 5-75 Ap 301 Colombia, Bogotá"
"LABORATORIO CLÍNICO G.R.G.";;;"(57) (7) 6573236";"Cr35 A 52-88 Colombia, Bucaramanga"
"HES SANAR IPS";;;"(57) (7) 6433021";"Cr33 51 A-26 P-2 Colombia, Bucaramanga"
"CENTRO DERMATOLÓGICO FEDERICO LLERAS";;;"(57) (1) 2428160";"Av1 13 A-61 Colombia, Bogotá"
"LABORATORIO JOIN-PHARM";;;"(57) (2) 6688190";"Cl 23 D N 5 A-27 Of 201 Colombia, Cali"
"GUARAGNA ORCASITA ALINA";;;"(57) (5) 4213778";"Cr3 18-46 Colombia, Santa Marta"
"CICLUM CONSULTORES";;;"(57) (4) 4487707";"Cra 25 1A Sur 125 El Poblado Colombia, Medellín"
"LABORATORIO CLINICO ZORAIDA PASMINIO";;;"(57) (2) 3277668";"Cr43 39 A-18 Colombia, Cali"
"LABORATORIO CLÍNICO DRA. RUBY CLEMENCIA ARIAS";;;"(57) (7) 6426367";"Cr6 28-05 Colombia, Bucaramanga"
"LABORATORIO CLÍNICO SUSANA GÓMEZ RAMÍREZ";;;"(57) (7) 6479111";"Cr33 54-03 Colombia, Bucaramanga"
"BENT SEFORA BETINA";;;"(57) (8) 5125433";"Av Hell Gate 2-78 Colombia, San Andrés"
"CÉSAR ERNESTO MÉNDEZ SASTOQUE";;;"(57) (7) 6433046";"Cr33 51 A-26 P-2 Colombia, Bucaramanga"
"LABORATORIO ALVAREZ-MEDINA";;;"(57) (2) 6686955";"Av2 N 24 N-31 Colombia, Cali"
"GLORIA MONTES ANÁLISIS CLINICOS";;;"(57) (2) 3331105";"Cl 14 50-173 Colombia, Cali"
"LABORATORIO CLÍNICO LA MERCED";;;"(57) (2) 2726464";"Cl 32 27-50 Colombia, Palmira"
"LABORATORIO CLÍNICO DRA. MARTHA CASTILLO Y DR. ADIEL VÁSQUEZ";;;"(57) (7) 5711462";"Av4 14-89 Centro Colombia, Cúcuta"
"PEDRAZA ENRIQUE";;;"(57) (1) 2322322";"Cr13 49-40 Of 525 Colombia, Bogotá"
"LABORATORIO CLÍNICO DRA. ROSA AMELIA MARTINEZ";;;"(57) (7) 6465646";"Cl 41 23-81 El Poblado Colombia, Girón"
"LABORATORIO CLINICO MARIA DEL PILAR CASTRO";;;"(57) (8) 8721158";"Cr5 A 17-21 Quirinal Colombia, Neiva"
"LABORATORIO CLÍNICO ARAUCA";;;"(57) (7) 8852678";"Cr21 16-43 Colombia, Arauca"
"PREVEN LIFE";;;"(57) (1) 6296832";"Av (Cr) 15 122-45 Of 507 Colombia, Bogotá"
"AFANADOR VILLAMIZAR ANDRÉS";;;"(57) (7) 5715375";"Av4 17-62 La Playa Colombia, Cúcuta"
"MEDILAB LTDA.";;;"(57) (5) 6432890";"Providencia Dg31 A 71-113 Colombia, Cartagena"
"CANCINO MARIELA";;;"(57) (1) 2952165";"Cl 53 73 -58 Colombia, Bogotá"
"LABORATORIO CLINICO AMAGA";;;"(57) (4) 8471601";"Cr51 51-42 Colombia, Amagá"
"LABORATORIO CLÍNICO Y PATOLÓGICO DRA. GLORIA M.";;;"(57) (2) 6610082";"Cl 23 AN 3 N-69 Colombia, Cali"
"LABORATORIO DE HISTOCITOPATOLOGÍA LTDA.";;;"(57) (7) 6458880";"Cr30 40-49 Mejoras Públicas Colombia, Bucaramanga"
"First Name";"Email Address";Url;Telephone;Address
"UNIDAD MÉDICA ATLAS LIMITADA";;;"(57) (5) 3561240";"Cr41 72-37 P-2 Colombia, Barranquilla"
"HERMANORTE I.P.S.";;;"(57) 3662287";"Cl 20 21-98 Soledad Colombia, Soledad"
"LABORATORIO CLÍNICO DRA. SHIRLEY MONTES MARTÍNEZ";;;"(57) (7) 8883844";"Cl 13 14-14 Of 203 Colombia, Tame"
"CEDIMA IPS";;;"(57) (2) 3253128";"Cr46 25 B-88 Colombia, Cali"
"SERVI-MÉDICOS JDI LABORATORIO CLÍNICO";;;"(57) (2) 5166879";"Cl 10 10-61 P-2 Jamundí Colombia, Jamundí"
"LABORATORIO CLÍNICO DRA. CECILIA MONTOYA URIBE";;;"(57) (8) 2746690";"Et 7 Manz 51 Casa 7 Jordán Colombia, Ibagué"
"LABORATORIO ESPECIALISTA";;;"(57) (2) 2274713";"Cl 13 A 9-12 Colombia, Buga"
"VÉLEZ LAB. & CÍA. S.A.";;;"(57) (1) 6205048";"Cr 17 A 119 A-42 Colombia, Bogotá"
"CENTRO DE ANÁLISIS INMUNO CLÍNICO LTDA.";;;"(57) (7) 5834562";"Cl 15 0-43 Colombia, Cúcuta"
"CONSULTORIO MÉDICO VILLALOBOS";;;"(57) (1) 6793248";"Cr46 176-47 P-1 Colombia, Bogotá"
"LABORATORIO CRUZ ROJA COLOMBIANA SECCIONAL VALLE DEL CAUCA";;;"(57) (2) 5184245";"Cr 38 Bis-91 Colombia, Cali"
"LABORATORIO CLÍNICO EL JORDÁN";;;"(57) (2) 3324867";"Cr94 A 2-66 Colombia, Cali"
"LABORATORIO CLÍNICO ANA MILENA BARONA";;;"(57) (2) 2736917";"Cl 32 29-86 Colombia, Palmira"
"LABORATORIO CLINICO BIOS";;;"(57) (2) 6603921";"Cl 23   N 2   N-25 Colombia, Cali"
"LABORATORIO CLÍNICO DRA. MARÍA YINETH GRAFFE";;;"(57) (2) 2564229";"Cl 8 Cr8 Esq Colombia, El Cerrito"
"CENTRO MÉDICO EMANUEL S.A.S.";;;"(57) (6) 8824192";"Cr23 40-110 L-4 Edif Palos Verdes Colombia, Manizales"
"LABORATORIO CLÍNICO SOMELAB";;;"(57) (7) 5802580";"Av10 Manz-25 Lt 3-76 Urb Videlso Los Patios Colombia, Cúcuta"
"LABORATORIOS LISSIA";;;"(57) (1) 4059369";"Cl 21 A 69 B-86 Zona Ind Montevideo Colombia, Bogotá"
"LABORATORIO CLÍNICO DE MARLY";;;"(57) (7) 6472695";"Cr18 46-33 Buenos Aires Colombia, Barrancabermeja"
"LABORATORIO BIOCLÍNICO PASTEUR";;;"(57) (1) 2720373";"Av (Cr) 21 22-40 S Colombia, Bogotá"
"LABORATORIO CLÍNICO ESPECIALIZADO GONZÁLEZ Y SÁNCHEZ";;;"(57) (1) 8637876";"Cl 9 7-63 P-2 Chía Colombia, Chía"
"LABORATORIO CLÍNICO MARIANA CAICEDO";;;"(57) (1) 6161092";"Tr24 85-29 Colombia, Bogotá"
"LABORATORIO CLÍNICO OLIMPUS IPS LTDA.";;;"(57) (5) 4316453";"Cr5 26 B-23 Colombia, Santa Marta"
"PREVEN LIFE";;;"(57) (1) 6296832";"Av (Cr) 15 122-45 Of 507 Colombia, Bogotá"
"LABORATORIO CLÍNICO MÉDICO COLCAN ANDRADE-NARVÁEZ";;;"(57) (1) 7447555";"Cl 49 13-60 Colombia, Bogotá"
"LABORATORIO CLÍNICO ARISMENDI";;;"(57) (4) 4920654";"Cl 41 103-65 Colombia, Medellín"
"JARAMILLO MONTOYA ANGELA MARÍA";;;"(57) (2) 6615445";"Cl 28 N 2 B-19 Colombia, Cali"
"I.P.S. UNIDAD MÉDICA EL BOSQUE S.A.S.";;;"(57) (5) 2826673";"Cl 19 24-53 Brr. 7 de Agosto Colombia, Sincelejo"
"LABORATORIO CLINICO JUAN PABLO II E.U. I.P.S.";;;"(57) 6637507";"UrB. La Cruz Mz1 Lt1 Colombia, Turbaco"
"LABORATORIO CLÍNICO POR SALUD";;;"(57) (5) 2816147";"Cr16 B 29-47 Colombia, Sincelejo"
"PROASECAL LTDA.";;;"(57) (1) 6216997";"Cll 85 A Bis 28C-27 Colombia, Bogotá"
"LABORATORIO CLÍNICO MAXWELL WINTROBE";;;"(57) (5) 2812755";"Cr16 21-62 Centro Colombia, Sincelejo"
"LABORATORIO CLÍNICO ESPECIALIZADO SLEIMAN";;;"(57) (5) 6720330";"Cl 29 D 22-19 P-1 Colombia, Cartagena"
"HOUSE CARE SERVICES";;;"(57) (2) 8204412";"Cr3 1 A N-47 Colombia, Popayán"
"SIÓN LABORATORIO";;;"(57) 3103511505";"Cartagena Colombia, Cartagena"
"DIAGNÓSTICA BIOLAB DEL CARIBE";;;"(57) (5) 6905756";"Almirante Colón Et 2 Manz O Lt 3 Colombia, Cartagena"
"LABORATORIO CLÍNICO SANTA CLARA";;;"(57) (1) 2725442";"Cr21 24-98S Colombia, Bogotá"
"ESPINOSA DE LA TORRE NOHORA";;;"(57) (1) 2878503";"Cl 45 C 21 A-33 Consult 105 Colombia, Bogotá"
"CENTRO INTEGRAL DE MOVIMIENTOS ANORMALES Y DOLOR CIMAD S.A.S.";;;"(57) (1) 7045642";"Cr19 A 82 - 14 Colombia, Bogotá"
"LABORATORIO CLÍNICO Y MICROBIOLÓGICO DROPER";;;"(57) (8) 5120395";"Av 20 de Julio 5-151 diagonal Colegio Cajasai Colombia, San Andrés"
"First Name";"Email Address";Url;Telephone;Address
"BIOTEC DIAGNOSTICO S.A.S.";;;"(57) (8) 7453012";"Cr2 Este 67 B-90 Colombia, Tunja"
"LABORATORIO CLINICO DRA. MARIELA SANCHEZ T.";;;"(57) (7) 6467544";"Cr26 41-26 El Poblado Girón Colombia, Girón"
"LABORATORIO BIOCLÍNICO PASTEUR";;;"(57) (1) 2720373";"Av (Cr) 21 22-40 S Colombia, Bogotá"
"LABORATORIO CLÍNICO ARAUCA";;;"(57) (7) 8852678";"Cr21 16-43 Colombia, Arauca"
"SIGMA IPS MEDICINA ESPECIALIZADA INTEGRAL S.A.S.";;;"(57) (2) 8230060";"Cr3 2 N-15 Colombia, Popayán"
"SIGMA I P S MEDICINA PRIVADA S.A.S.";;;"(57) (2) 8232384";"Cr3 2 N-15 Colombia, Popayán"
"PREVEN LIFE";;;"(57) (1) 6296832";"Av (Cr) 15 122-45 Of 507 Colombia, Bogotá"
SANAR;;;"(57) (2) 3325698";"Cr94 4 D-51 Colombia, Cali"
"LÓPEZ QUINTERO MARÍA ISABEL";;;"(57) (1) 2319501";"Cl 74 A 62-67 L-1 Colombia, Bogotá"
"LABORATORIO CLINICO DEL SUR";;;"(57) (2) 7256253";"Cr1 A 12 A-19 Colombia, Ipiales"
"PREVILABOR S.A.S";;;"(57) (4) 2301810";"Cr64 A 48-37 Consult 105 Colombia, Medellín"
"LABORATORIO BIOCLÍNICO";;;"(57) (2) 2423400";"Cr5 B 2-02 Colombia, Buenaventura"
"GURU TÚ BUSCAS JUNTOS ENCONTRAMOS";;;"Nal: (57) (1) 2254007";"Av 68 75 A-50 Colombia, Bogotá"
"LABORATORIO CLÍNICO CARMEN ELISA VALENCIA";;;"(57) (1) 3365856";"Cr7 17-01 Consult 239 Colombia, Bogotá"
"LABORATORIO CLÍNICO GÉNESIS DEL CARIBE LTDA.";;;"(57) (5) 6644546";"Get C.C. Getsemaní L-2B-01 Colombia, Cartagena"
"LABORATORIO CLÍNICO ESPECIALIZADO SLEIMAN";;;"(57) (5) 6720330";"Cl 29 D 22-19 P-1 Colombia, Cartagena"
"LABORATORIO CLÍNICO MICROBIOLÓGICO";;;"(57) (5) 6513489";"Cr60 31-20 P-2 Unidad Médica Villa Adriana Colombia, Cartagena"
"SANTA CLARA LABORATORIO CLÍNICO";;;"(57) (5) 6624531";"Cr46 30 A-74 diagonal Cruz Roja Colombia, Cartagena"
"LABORATORIO CLÍNICO MARIA DEL PILAR BELTRÁN";;;"(57) (6) 7421883";"Cr26 40-03 Colombia, Calarcá"
"LABORATORIO DE CITOLOGÍA";;;"(57) (2) 8317923";"Cl 5 9-55 Colombia, Popayán"
"MEDQUILABO LTDA.";;;"(57) (1) 2530872";"Cl 97 64-18 Colombia, Bogotá"
"I.P.S CEDXMIC";;;"(57) (4) 8331309";"Cr6 53-21 Colombia, Puerto Berrío"
"LABORATORIOS CLÍNICOS DE COLOMBIA S.A.";;;"(57) (5) 6512198";"Cr71 31-219 L-3-4-5 C.C. Plazuela 21 Colombia, Cartagena"
"LABORATORIOS LOUIS PASTEUR";;;"(57) (2) 7228436";"Cr24 19-33 Of 502 Colombia, Pasto"
"LABORATORIO CLÍNICO HANSEN";;;"(57) (5) 2841130";"Cl 30 24-50 L-3 Colombia, Corozal"
"LABORATORIO CLÍNICO Y MICROBIOLÓGICO GENOMALAB";;;"(57) (5) 3783414";"Cl 80 49 C-10 Colombia, Barranquilla"
"LABORATORIO CLINICO SAN JOSÕ";;;"Telefax: (57) (5) 3760316";"Cr8 12-16 Colombia, Barranquilla"
"CITOPAT DE COLOMBIA S.A.";;;"(57) (1) 6150176";"Cl 127 19 A-28 Consult 305 Colombia, Bogotá"
"BIOLAB HEALTHCARE DIAGNOSTICS S.A.S.";;;"(57) (2) 8242845";"Cr10 A 8-124 Brr. Las Américas Colombia, Popayán"
"G Y L LABORATORIO CLÍNICO INTEGRAL LTDA.";;;"(57) (1) 6068991";"Cl 63 11-45 Consult 103 Colombia, Bogotá"
"LABORATORIO CLÍNICO DRA. TAHIS PIZARRO R.";;;"(57) (1) 6303459";"Cl 74 B 69 B-70 P-2 Colombia, Bogotá"
"LABORATORIO CLÍNICO MARYORY ESCOBAR";;;"(57) (4) 8396495";"Cr2 22-52 Colombia, Caucasia"
"PHARMALAB S.A.";;;"(57) (1) 6215380";"Cl 90 15-29 Of 102 Colombia, Bogotá"
"HERES SALUD LTDA.";;;"(57) (5) 4200800";"Cl 22 17 A-62 Colombia, Santa Marta"
"LABORATORIO CLÍNICO ESPECIALIZADO AMPARO RESTREPO DE AVILA";;;"(57) (8) 6629894";"Cr38 35-15 Colombia, Villavicencio"
"SISOMED S.A.S.";;;"(57) (6) 8810908";"Cr23 56-95 Colombia, Manizales"
"CLÍNICA RENACER LTDA.";;;"(57) (5) 4207686";"Cl 19 # 11 C-66 Colombia, Santa Marta"
"LABORATORIO CLÍNICO FAMISALUD";;;"(57) (7) 7276969";"Cl 10 A 16-38 Colombia, Socorro"
"LABORATORIO CLÍNICO ESPECIALIZADO CARMEN CECILIA R";;;"(57) (7) 6343362";"Cl 42 35-58 Of 207 Colombia, Bucaramanga"
"LABORATORIO CLÍNICO CLINIDIAGNÓSTICO";;;"(57) (2) 2674282";"Cl 7 11-70 Colombia, Pradera"
"First Name";"Email Address";Url;Telephone;Address
"LABORATORIO CLÍNICO LA 51";;;"(57) (4) 2774460";"Cr51 49-09 Colombia, Itagüí"
"HISTOTECNÓLOGO S.H. LTDA.";;;"(57) (2) 6616481";"Cl 36 N 2 A-25 Colombia, Cali"
"LABORATORIO CLÍNICO GLORIA CIFUENTES";;;"(57) (2) 2207508";"Cl 11 9-34 Colombia, Zarzal"
"LABORATORIO CLÍNICO ESPECIALIZADO DEL NORTE";;;"(57) (2) 6685512";"Cl 23 N 6 A N-17 Of 410 Colombia, Cali"
"SERVI-MÉDICOS JDI LABORATORIO CLÍNICO";;;"(57) (2) 5166879";"Cl 10 10-61 P-2 Jamundí Colombia, Jamundí"
"LABORATORIO CLÍNICO DICE S.A.S.";;;"(57) (2) 5521400";"Cl 5 C 40-30 Colombia, Cali"
"ZAPATA HOYOS LUZ STELLA";;;"(57) (2) 2126054";"Cl 8 Bis 3-54 Colombia, Cartago"
"CARMEN CECILIA RUEDA A.";;;"(57) (7) 6343362";"Cr36 42-02 Consult 207 Centro Clinico Quirurgico Colombia, Bucaramanga"
MEDICDENTAL;;;"(57) (2) 3727656";"Cl 3 C 65-07 Colombia, Cali"
"UNIRSALUD LTDA.";;;"(57) (6) 8835588";"Cr22 26-12 Colombia, Manizales"
"MEJÍA ARANGO MIRYAM CECILIA";;;"(57) (8) 2631691";"Cl 11 5-39 Colombia, Ibagué"
"LABORATORIO CLINICO SANTA MONICA";;;"(57) (7) 6555067";"Cl 6 6-79 Piedecuesta Colombia, Piedecuesta"
"LABORATORIO CLÍNICO BIOANÁLISIS IBAGUÉ E.U.";;;"(57) (8) 2657783";"Cr5 39-76 Consult 202 Colombia, Ibagué"
"LABORATORIO CLÍNICO ELIZABETH PARRA DE CARVAJAL";;;"(57) (1) 8335509";"Cl 20 A 8-45 Colombia, Girardot"
"MORENO ELSA";;;"(57) (1) 6104624";"Cl 94 B 57-11 Colombia, Bogotá"
"SOCIEDAD MÉDICA ESPECIALIZADA SAN JUAN";;;"(57) (2) 7311831";"Cl 18 28-84 Of 805 Colombia, Pasto"
"CONSULTORIO Y LABORATORIO CLÍNICO ESPECIALIZADO";;;"(57) (1) 7270961";"Cr32 B 11-25 S Colombia, Bogotá"
"LABORATORIO CLÍNICO COMBEIMA";;;"(57) (8) 2638873";"Cl 11 1-32 Consult 105 Colombia, Ibagué"
"LABORATORIO CITOLAB";;;"(57) (7) 6444131";"Plaza Mayor Entrada 4 L-108 Real de Minas Colombia, Bucaramanga"
"LABORATORIO CLÍNICO MARIO DUQUE MASSO";;;"(57) (2) 2164426";"Cr16 4-52 P-2 Colombia, Caicedonia"
"LABORATORIO CLÍNICO CLAUDIA V. CORREAL";;;"(57) 3108713752";"Cl 9 8-19 Centro Colombia, Espinal"
"LABORATORIO CLÍNICO ESPECIALIZADO MARÍA REBECA GARCÍA E.";;;"(57) (8) 2485894";"Cr6 11-23 Colombia, Espinal"
"LABORATORIO CLÍNICO DRA. CLAUDIA CERQUERA C.";;;"(57) (8) 2484611";"Cl 8 8-33 Colombia, Espinal"
"LABORATORIO CLÍNICO Y ESPECIALIDADES DRA. AMPAR";;;"(57) (7) 6479640";"Cl 48 28-73 Colombia, Bucaramanga"
"GLORIA MONTES ANÁLISIS CLINICOS";;;"(57) (2) 3331105";"Cl 14 50-173 Colombia, Cali"
"LABORATORIO CLÍNICO ANA MILENA BARONA";;;"(57) (2) 2736917";"Cl 32 29-86 Colombia, Palmira"
"LABORATORIO CLÍNICO MARÍA FERNANDA GARCÍA";;;"(57) (2) 2249775";"Cr26 29-66 Colombia, Tuluá"
"PROVIDA E.U.";;;"(57) (2) 6809568";"Cr44 5 B-27 Colombia, Cali"
"LABORATORIO CLÍNICO CLARA INÉS DUARTE";;;"(57) (7) 5713019";"Av0 10-78 Of 701 Colombia, Cúcuta"
"LABORATORIO CLÍNICO YOLANDA CONTRERAS";;;"(57) (75) 5682126";"Cr6 4-17 Centro Pamplona Colombia, Pamplona"
"PADILLA ROJAS DE ELCIRA";;;"(57) (1) 2111691";"Cl 76 16A-39 Consult 202 Colombia, Bogotá"
"LABORATORIO CLÍNICO MYRIAM SALAZAR";;;"(57) (6) 8400662";"Cl 11 9-23 Colombia, Chinchiná"
"LABORATORIO CLÍNICO MARÍA MERCEDES LUGO P.";;;"(57) (6) 8506795";"Cl 11 6-46 Colombia, Chinchiná"
"LABORATORIO CLÍNICO DRA. TULIA ELVIRA HURTADO";;;"(57) (2) 8230814";"Cl 1 N 3-35 Colombia, Popayán"
"MEDILAB LABORATORIO CLÍNICO";;;"(57) (5) 4214265";"Cl 21 3-21 Colombia, Santa Marta"
"LABORATORIO SIB LAB LTDA.";;;"(57) (1) 3100401";"Cl 50 8-24 Consult 307 Colombia, Bogotá"
"SIGMA IPS";;;"(57) (2) 8232384";"Cr3 2 N-15 Antiguo Liceo Colombia, Popayán"
"LABORATORIO CLÍNICO DRA NORMA LILIANA SAENZ T.";;;"(57) (8) 8713408";"Cl 11 3-84 Centro Colombia, Neiva"
"LABORATORIO CLÍNICO CANDELARIA RAMOS PADILLA";;;"(57) (7) 5821853";"Cl 9 16-20 San Miguel Colombia, Cúcuta"
"LABORATORIO CLINICO AMAGA";;;"(57) (4) 8471601";"Cr51 51-42 Colombia, Amagá"
"First Name";"Email Address";Url;Telephone;Address
PROFAMILIA;;;"(57) (1) 3390900";"Cr15 34-47 Colombia, Bogotá"
"MARTÍNEZ ESCORCIA MILDRED CARINA";;;"(57) (5) 3601098";"Cr58 70-129 Consult 307 Colombia, Barranquilla"
"HERES SALUD LTDA.";;;"(57) (5) 4200800";"Cl 22 17 A-62 Colombia, Santa Marta"
"LABORATORIO CLÍNICO FALAB";;;"(57) (5) 3601825";"Cr49 B 79-99 Colombia, Barranquilla"
"HISTOTECNÓLOGO S.H. LTDA.";;;"(57) (2) 6616481";"Cl 36 N 2 A-25 Colombia, Cali"
"LABORATORIO CLÍNICO DRA. OLGA NÚÑEZ BARÓN";;;"(57) (7) 6750445";"Cr8 3-21 Colombia, Bucaramanga"
MEDICDENTAL;;;"(57) (2) 3727656";"Cl 3 C 65-07 Colombia, Cali"
"LABORATORIO CLÍNICO DIVINO SALVADOR";;;"(57) (7) 6316704";"Cl 105 25-118 L-116 Colombia, Bucaramanga"
"BIO-GENIX LABORATORIO CLINICO";;;"(57) (8) 2642609";"Cr4 C 31-36 Cádiz Colombia, Ibagué"
"ASISTENCIAS MEDICAS POPULAR I.P.S";;;"(57) (7) 6429491";"Cl 42 14-77 Colombia, Bucaramanga"
"LABORATORIO CLÍNICO DRA. NANCY URIBE NAVARRO";;;"(57) (7) 5720334";"Av3 14-95 Colombia, Cúcuta"
"LABORATORIO CLÍNICO CÁDIZ";;;"(57) (8) 2700764";"Cr4 C 32-98 Plazoleta Cádiz Colombia, Ibagué"
"SPECIALTY LABORATORIES";;;"(57) (8) 2269859";"Cr5 5-108 Colombia, Natagaima"
"LABORATORIO ALVAREZ-MEDINA";;;"(57) (2) 6686955";"Av2 N 24 N-31 Colombia, Cali"
"LABORATORIO CLÍNICO CLINILAB LTDA";;;"(57) (7) 5755446";"Dg Santander 10-17 Colombia, Cúcuta"
"LABORATORIO CLÚNICO UNIVERSIDAD INDUSTRIAL DE SANTANDER";;;"(57) (7) 6348420";"Cr32 29-31 Colombia, Bucaramanga"
"LABORATORIO REPRESENTACIONES LABIN S.A.S.";;;"(57) (1) 4223235";"Av (Cr) 97 24 C-75 Int 46 Colombia, Bogotá"
"LABORATORIO CLÍNICO ESPECIALIZADO SANDRA AVELLA CERÓN";;;"(57) (8) 7702263";"Cr14 13-31 Centro Colombia, Sogamoso"
"LABORATORIO CLÍNICO ""PIEDAD""";;;"(57) (28) 8282742";"Cr22 16-00 Colombia, Puerto Tejada"
"LABORATORIO CLÍNICO ENMIBACOL LTDA.";;;"(57) (1) 2355641";"Av (Cr) 7 72-86 Int 10 L-10 Colombia, Bogotá"
"LABORATORIO CLÍNICO DRA. MARTHA L. GALLARDO";;;"(57) (7) 5721229";"Cl 13 2 E-71 Caobos Colombia, Cúcuta"
"CLÍNICA FÁTIMA";;;"(57) (2) 7291125";"Cl 21 26-40 Colombia, Pasto"
"GUTIÉRREZ TOBAR GLORIA B.";;;"(57) (1) 2140091";"Cl 108 14-47 Colombia, Bogotá"
"LABORATORIO CLÍNICO DE CITOLOGÍA Y PATOLOGÍA S.A.S. RAMELLI LAB S.A.S.";;;"(57) (2) 6613055";"Cl 23 N 6 A N-17 Consult 304 Colombia, Cali"
"CENTRO MÉDICO DE YUMBO LTDA.";;;"(57) (2) 6692251";"Cl 10 6-09 Yumbo Colombia, Cali"
"UNIMÉDICAS LTDA.";;;"(57) (2) 2400203";"Cl 1 6 A-43 Edif Balcones de La Bahía Colombia, Buenaventura"
"LABORATORIO CLÍNICO SANTA CLARA";;;"(57) (1) 2725442";"Cr21 24-98S Colombia, Bogotá"
"LABORATORIO CLÍNICO DRA. NIDIA ESPERANZA VALDÉS VARGAS";;;"(57) (1) 2857709";"Cr22 45 B-38 Consult 604 Colombia, Bogotá"
"LABORATORIO CLÍNICO JANDER N. OLAYA G.";;;"(57) (4) 8315371";"Cl Real Edif Los Avilas P-02 Colombia, Segovia"
"CHÁVEZ MARÍA FERNANDA";;;"(57) (1) 2825712";"Cl 17 12-56 Colombia, Bogotá"
"FUNDACIÓN CLÍNICA LETICIA";;;"(57) (8) 5927718";"Cr6 6-05 Av Internacional Colombia, Leticia"
"LABORATORIO ESPECIALISTA";;;"(57) (2) 2274713";"Cl 13 A 9-12 Colombia, Buga"
"LABORATORIO CLÍNICO LUZ STELLA FRANCO PEÑA";;;"(57) (2) 2128555";"Cl 11 2-83 Colombia, Cartago"
"LABORATORIO CLÍNICO DRA. SANDRA LILIANA URQUIJO";;;"(57) (8) 2454817";"Cr24 5-50 L-6 Colombia, Melgar"
"LABINÁN LABORATORIO CLÍNICO Y PATOLÓGICO";;;"(57) (7) 6437168";"Cl 51 35-28 Int 100 Of 505 Colombia, Bucaramanga"
"LABINÁN DR. CARLOS EDGARDO PÁRAMO LÓPEZ";;;"(57) (7) 6437168";"Cl 51 35-28 Int 100 Of 505 Colombia, Bucaramanga"
BIOCENTER;;;"(57) (8) 2652249";"Cr5 37-24 Colombia, Ibagué"
"LABORATORIO DIVINO NIÑO JESÚS";;;"(57) (2) 6819336";"Cl 1 Oe 50-62 Colombia, Cali"
"CONSULTORIO Y LABORATORIO CLÍNICO ESPECIALIZADO";;;"(57) (1) 7270961";"Cr32 B 11-25 S Colombia, Bogotá"
"LABORATORIO CLINICO LOPEZ";;;"(57) (2) 2282641";"Cr15 4-79 Colombia, Buga"
"First Name";"Email Address";Url;Telephone;Address
"ANTOLINEZ ARDILA MARCELA";;;"(57) (7) 6423311";"Cl 42 14-101 Colombia, Bucaramanga"
SERVIBACT-MUTIS;;;"(57) (7) 6415789";"Cl 60 3 W-19 Colombia, Bucaramanga"
"BANCO DE SANGRE HIGUERA ESCALANTE & CÍA. LTDA.";;;"(57) (7) 6472011";"Cr32 47-71 Colombia, Bucaramanga"
"GARCÍA MARÍA DEL SAGRARIO";;;"(57) (2) 2206303";"Cr10 8-67 Colombia, Zarzal"
"GLORIA MONTES ANÁLISIS CLINICOS";;;"(57) (2) 3331105";"Cl 14 50-173 Colombia, Cali"
BIOSALUD;;;"(57) (4) 5660094";"Cl 42 56-39 Of 218 Colombia, Rionegro"
ANALICEMOS;;;"(57) (2) 2274343";"Cr15 6-59 Colombia, Buga"
"LABORATORIO CLÍNICO DRA. MARTHA CASTILLO Y DR. ADIEL VÁSQUEZ";;;"(57) (7) 5711462";"Av4 14-89 Centro Colombia, Cúcuta"
"VEGA CARREÑO NANCY COROMOTO";;;"(57) (7) 5715230";"Av0 11-129 Consult 402 Edif Ume Colombia, Cúcuta"
"BIOTEC DIAGNOSTICO S.A.S.";;;"(57) (8) 7453012";"Cr2 Este 67 B-90 Colombia, Tunja"
"CRITICAL LAB LTDA";;;"(57) (1) 7159084";"Cr28 64-03 S P 3 Colombia, Bogotá"
MEDITEST;;;"(57) (8) 7441810";"C.C. Plaza Real Of 234 Centro Histórico Colombia, Tunja"
"LABORATORIOS LISSIA";;;"(57) (1) 4059369";"Cl 21 A 69 B-86 Zona Ind Montevideo Colombia, Bogotá"
"LABORATORIO CLÍNICO ENMIBACOL LTDA.";;;"(57) (1) 2355641";"Av (Cr) 7 72-86 Int 10 L-10 Colombia, Bogotá"
"CENTRO DE DIAGNÓSTICO DE CITOPATOLOGÍA";;;"(57) (6) 8811857";"Cl 62 23-61 L-102 Trr Plaza 62 Colombia, Manizales"
