"First Name";"Email Address";Url;Telephone;Address
"CLÍNICA ODONTOLÓGICA INTEGRAL ODONTOLÁSER S.A.";odontolaserobelisco@hotmail.com;www.odontolaser.com;"(57) (4) 4444453";"Cr74 48-37 Consult 831 Colombia, Medellín"
"HERNAN BOTERO URIBE";hboterouribe@une.net.co;www.hernanbotero.com;"(57) (4) 3126245";"Cl 7 39-290 Consult 507 Colombia, Medellín"
"CLÍNICA ODONTOSUR";clinica@odontosur.com.co;www.odontosur.com.co;"(57) (4) 4445959";"Cr48 25 AA   S-70 L-506 Envigado Colombia, Medellín"
"DIAGNÓSTICO 3D";diagnosticooral3d@hotmail.com;www.diagnosticooral3d.com;"(57) (4) 3138642";"Cl 34 63 B-72 C. Profesional Conquistadores Consult 305 Colombia, Medellín"
"ORAL ESTETIC GROUP S.A.S.";oralestetic@une.net.co;oralstetic.com.co;"(57) (4) 5140079";"Cl 54 46-27 Consult 1205 Colombia, Medellín"
DENTISALUD;gerencia.nqtm@hotmail.com;www.dentisalud.com.co;"(57) (7) 6849877";"Cl 25 Autop Floridablanca Metro El Bosque P-1 L-1-Y L Colombia, Bucaramanga"
CITYDENT;contacto@citydent.com.co;www.citydent.com.co;"(57) (1) 4160316";"Av La Esperanza 69 C-80 Colombia, Bogotá"
"EDGAR GUIZA C - SMILES CENTER";smilescenterbogota@hotmail.com;www.edgarguiza.com;"(57) (1) 6910783";"Cr. 13 N 94 A 25 Consult 314 Colombia, Bogotá"
"CARLOS FERNANDEZ DE CASTRO";dentalxplorer@gmail.com;www.carlosfernandezdecastro.com;"(57) (5) 3737602";"Cl 86 49 C-34 P-2 Colombia, Barranquilla"
"BANCO DE TEJIDOS HUMANOS TISSUE BANK";tissuebank@une.net.co;www.tissuebank.org.co;"(57) (4) 4481383";"Cl 33 76-72 Colombia, Medellín"
"ALVARO RUBIANO SERRANO";alrubiser@hotmail.com;www.alvarorubianosodontoimplantes.com;"(57) (1) 6552606";"Cl 106 56-76 Consult 301 Colombia, Bogotá"
"DENTAL PLAN";info@sonriplan.com.co;www.sonriplan.com;"(57) (5) 3688080";"Cr52 72-152 Colombia, Barranquilla"
"CLÍNICA ODONTOLOGICA SANTA LUCÍA";martanana99@yahoo.es;www.clinicaodontologicasantalucia.com;"(57) (2) 2811563";"Cl 36 25-72 Colombia, Palmira"
"MURILLO CEBALLOS GABRIEL";drmurilloceballos@hotmail.com;www.odontomurillo.com;"(57) (6) 7448798";"Cl 19 14-17 Consult 204 Colombia, Armenia"
"SER CLÍNICA ODONTOLÓGICA";serclinicaodontologica@gmail.com;;"(57) (2) 3720136";"Cr66 11 A-39 Colombia, Cali"
"SMILECENTER VITAL S.A.S.";;www.smilecentervital.com;"(57) (5) 3176392";"Cl 75 45-09 Consult 103 Colombia, Barranquilla"
"ODONTOLOGÍA INTEGRAL DENTICLASS";erikapao76@yahoo.es;www.denticlass.com;"(57) (1) 4170078";"Cr71 D 1-37 Colombia, Bogotá"
"SIMANCA FERNANDEZ SANDY";ciruplasteu@hotmail.com;;"Telefax: (57) (4) 7815457";"Cl 23 1-35 Colombia, Montería"
"CLÍNICA ODONTOLÓGICA ODONTOSTÉTICA";odontostetica@hotmail.com;www.odontostetica.com;"(57) (2) 2712655";"Cl 32 30-10 L-101 Colombia, Palmira"
"CENTRO MÉDICO Y ODONTOLÓGICO GUADALUPE";centromedicoguadalupe@gmail.com;;"(57) (6) 3323341";"Cr15 35-39 Brr. Guadalupe Colombia, Dosquebradas"
"DÍAZ CUBILLOS EDGAR MAURICIO";diazcubillose@gmail.com;;"(57) (6) 8815529";"Cr23 65 A-41 Edif. Parque Médico P-11 Consult 1101 Colombia, Manizales"
"ESTÉTIC DENTAL";camapra@hotmail.com;;"(57) (8) 2656175";"Cl 33 4 D-20 Cádiz Colombia, Ibagué"
"ODONTOLOGÍA ESPECIALIZADA EL ESCOBERO";yamileodonto@une.net.co;www.yamileoe.com;"(57) (4) 4484510";"Cl 36 D Sur 27 A-165 Centro Comercial City Plaza Consult 9752 Colombia, Medellín"
"CENTRO ODONTOLÓGICO SALUD & SONRISA";www.jotaa@hotmail.com;;"(57) (7) 3176607882";"Cr12 23-35 L-1 Brr. Rosales Colombia, Bucaramanga"
"KAMAL ALBERTO ASSIS REVEIZ";Kamalassis@hotmail.com;;"(57) (2) 6592301";"C.C. Chipichape Bdg 11 Consult 207 Colombia, Cali"
"AYARZA ODONTÓLOGOS";denticredito@yahoo.com;www.facebook.com/ayarzaodontologos;"(57) (5) 4233099";"Cr8 28 B-150 Al Lado del CTI de Bavaria Colombia, Santa Marta"
"YIRA PATERNOSTRO CARO";yirapat@hotmail.com;;"(57) (5) 3735459";"Cl 85 50-37 Conslt 603 Colombia, Barranquilla"
"MONICA HADECHNY DENTAL SPA";mhdentalspa@gmail.com;;"(57) (5) 4311583";"Cr12 26 B-75 C.M. Plus Center Colombia, Santa Marta"
"SALUDENT S.A.S.";admon@saludent.com.co;saludent.com.co;"(57) (6) 8856969";"Cr23 56-87 Consult 206 Colombia, Manizales"
DENTINNOVA;juanris1@hotmail.com;;"(57) (8) 2613183";"Cr5 11-24 Of 306 Edif Torre Empresarial Colombia, Ibagué"
"MG SALUD S.A.";calidad@mgsalud.com;www.mgsalud.com;"(57) (4) 4445511";"Cr50 58-68 Colombia, Medellín"
"ODENT 10";odent10@odent10.com;www.odent10.com;"(57) (5) 3784895";"Cr50 86-56 Colombia, Barranquilla"
"IMPLANTDENTS S.A.S";;www.implantdents.wix.com/implantdents;"(57) (7) 3107968074";"Cl 44 29-13 Ofic. 204 Edif. Tempo 2 Parque Las Palmas Colombia, Bucaramanga"
"PROFIMEDIC IPS S.A.S.";profimedic@outlook.com;;"(57) (4) 7811774";"Cl 26 10-73 Colombia, Montería"
"CLÍNICA ODONTOLOGÍCA ORALDENT WHITE";michaelvargasp32@hotmail.com;;"(57) (8) 2662856";"Cr5 32-23 Colombia, Ibagué"
"DENTAL LA 75 DOR";dental_la75@hotmail.com;www.dentalla75dor.com;"(57) (1) 2555129";"Cr24 75-12 Colombia, Bogotá"
"DENTAL MARIA HELENA";dental_maria_helena@hotmail.com;www.depositodentalmariahelena.com;"(57) (1) 2522515";"Cr80 69 A-74 Colombia, Bogotá"
"CLÍNICA DE ORTODONCIA JOSÉ RICARDO VARGAS";vargasmolano@hotmail.com;www.ortodonciajosericardovargas.com;"(57) (2) 5556266";"Cl 5 D 38 A-35 Consult 919 Colombia, Cali"
"ESTHETIC PLUS";estheticplus@hotmail.com;www.estheticplus.com.co;"(57) (2) 7334143";"Cr24 19-23 Edif Pasto Plaza Of 206 Colombia, Pasto"
"SANTIAGO GONZÁLEZ OSSA";doctorsantiagogonzalez@gmail.com;www.doctorsantiagogonzalez.com;"(57) (6) 8871826";"Cr27 A 66-30 L-10-14 C.C. Sancancio Colombia, Manizales"
"First Name";"Email Address";Url;Telephone;Address
"ESTÉTICA DENTAL 24/7";linderman21@hotmail.com;www.esteticadental247.com;"(57) (2) 6614673";"Cl 23   N 6 A   N-17 Of 808 Colombia, Cali"
"CLÍNICA ESPECIALIZADA EN PREVENCIÓN ODONTOLÓGICA S.A.S - PINARES ODONTOLÓGICA";cita@pinaresodontologica.com;www.odontologiapediatricapereira.com;"(57) (6) 3310350";"Cr15 4-61 Of 2 Edif Oceanía Av. Juan B. Gutierrez Colombia, Pereira"
"DR. ANDRES MEJIA VELEZ";dr.mejia.velez@hotmail.com;www.drmejiavelez.com;"(57) (7) 5756999";"C.C Ventura Plaza Consult 3-105 Colombia, Cúcuta"
"CLINIC SMILE";clinicsmile@hotmail.com;www.clinic-smile.com;"(57) (5) 4207090";"Av del Libertador 19 A-57 Colombia, Santa Marta"
DISEÑORAL;catalinac@hotmail.com;www.disenoral.com;"(57) (2) 2256655";"Cl 31 25-05 Colombia, Tuluá"
"ATENCION ODONTOLOGICA SONRILASER";sonrilaser@gmail.com;www.flashdental.com.co;"(57) (7) 5838880";"Av5 Cl 9 L-147 C.C. River Plaza Colombia, Cúcuta"
"ORAL CLINIC PLUS";oralclinicplus@gmail.com;www.oralclinicplus.com;"(57) (5) 2822741";"Cl 23 14-63 Colombia, Sincelejo"
"DIEGO LUIS LOAIZA ARIAS";odontologiaestetica@diegoluisloaiza.com;www.diegoloaiza.com;"(57) (6) 8872299";"Cr23 69 A-60 Camelia Colombia, Manizales"
"MARÍA DEL SOCORRO SANZ SANZ";madesos7@hotmail.com;;"(57) (6) 3351660";"Cr5 22-20 Consult 501 Edif Coeducar Colombia, Pereira"
"CLÍNICA IMPLANTOLÓGICA FRANCISCO JAVIER PELAEZ";franciscopelaezt@gmail.com;www.doctorfranciscopelaez.com;"(57) (6) 8815605";"Av Santander 65 A-41 Edif. Parque Médico Colombia, Manizales"
"O.C.B. ODONTOLOGIA OLGA CELENY BECERRA";recepcion@ocbodontologia.com;ocbodontologia.com;"(57) (6) 8851674";"Cl 55 24-81 Belén Colombia, Manizales"
"GÓMEZ CEBALLOS JAIME ALBERTO";jaimeagomez2@hotmail.com;www.jaimegomezodontologo.com;"(57) (6) 7495770";"Av Bolívar 14 N-80 Consult 203 Colombia, Armenia"
"CLÍNICA ODONTOLÓGICA ODONTOVITAL S.A.S";gerencia@odontovital.com.co;www.odontovital.com.co;"(57) (6) 7443230";"Cr14 18-26 P-2 Colombia, Armenia"
"DENTAL CENTER";contactenos@dentalcenter.com.co;www.dentalcenter.com.co;"(57) (4) 2664487";"Cl 11 30 A-21 Colombia, Medellín"
ITALDENT;ventas@italdeco.com;www.italdeco.com;"(57) (1) 2100277";"Cl63 28-22 Colombia, Bogotá"
"CLÍNICAS ODONTOLÓGICAS DVM";clinicasodontologicasdvm@gmail.com;www.clinicasodontologicasdvm.com;"(57) (8) 6677868";"Cr33 26-119 Maizaro Colombia, Villavicencio"
"CONSULTORIO ODONTOLOGICO INTEGRAL EPCO";nanalunamorales13@gmail.com;;"(57) (2) 4846224";"Cl 76 7 Lbis-30 P-2 Colombia, Cali"
"ORTODONCIA INTEGRAL ESPECIALIZADA";jhonja313@hotmail.com;;"(57) (2) 7360827";"Cr29 A 18-09 Consult 203 Colombia, Pasto"
"BOCAS CLÍNICA ODONTOLÓGICA LTDA.";bocasodontologia@yahoo.com;;"(57) (1) 2214579";"Cl 44 59-12 P-3 Colombia, Bogotá"
"HADENT CLÍNICAS ODONTOLÓGICAS";gerencia@hadentclinicas.com;www.hadentclinicas.com;"(57) (2) 5579889";"Cl 13 23-05 P-2 L-202 Colombia, Cali"
"MANUEL CABRALES MARRUGO";manecabrales@gmail.com;;"(57) (4) 2605741";"Cr74 48-37 Of 803 Colombia, Medellín"
"PALACIOS BRAYAN";palaciosbrayanperio@gmail.com;;"(57) (2) 3216547974";"Cr24 20-58 Cristo Rey Consult 334 Colombia, Pasto"
"CENTRO DE IMPLANTOLOGÍA ORAL DEL CAUCA";fcperiodoncia@hotmail.com;;"(57) (2) 8240155";"Cr8 2-44 Consult 212 Edif Hormaza Colombia, Popayán"
"DONADO CORTES ALVARO (DR)";rehabilitadororaladc@gmail.com;;"(57) (5) 3587816";"Cr46 82-241 L-10 P-2 Clinica Denty Dent Colombia, Barranquilla"
"RODRÍGUEZ ESCOBAR OLGA LUCÍA";olgalrodrigueze@gmail.com;;"(57) (6) 8828052";"Cr11 7 A-83 Chipre Colombia, Manizales"
"ARTE ORAL";arteoral.pr@hotmail.com;;"(57) (6) 3215500";"Megacentro Pinares Cr18 12-75 Trr 1 Consult 11-10 Colombia, Pereira"
"DR. OSCAR ALONSO MEJÍA POSADA";mejiacons@hotmail.com;;"(57) (6) 3254491";"Cl 17 6-42 Consult 3 P 2 Colombia, Pereira"
"BOQUITAS SANAS";boquitassanaspasto@gmail.com;;"(57) (2) 7214765";"Cr13 20-87 Colombia, Pasto"
"CENTRO DE ODONTOLOGIA ESTETICA";yaniris7@hotmail.es;;"(57) (5) 6616044";"Av Pedro de Heredia 67-21 L-2 A C.C.Contadora Colombia, Cartagena"
"CENTRO ODONTOLOGICO NEUROFOCAL";hector.lopeza@hotmail.com;;"(57) (4) 2507736";"Cl 32 80 A-20 Colombia, Medellín"
"VITALDENT CM";vitaldentcm@gmail.com;;"(57) (8) 2681994";"Manz B Casa 25 Entrerios P-2 Colombia, Ibagué"
"ESTILO DENTAL GRANDES SONRISAS";estilodental2011@hotmail.com;;"(57) (2) 4866793";"Cl 5 B 25-33 P-2 Colombia, Cali"
"FELIPE RESTREPO RESTREPO";feliperestreporestrepo@gmail.com;;"(57) (4) 3254490";"Cr48 12   S-70 Trr 1 Consult 201 Colombia, Medellín"
"ELIZABETH GONZALEZ ESPINOSA";elizagonzalez21@hotmail.com;;"(57) (2) 6685431";"Cl 23   N 6 A-17 Consult 903 Colombia, Cali"
"CASTIBLANCO GÓMEZ SONIA";socasti@yahoo.com;www.soniacastiblanco.com;"(57) (2) 3391064";"Cl 11 100-121 Of 312 Colombia, Cali"
"DR. MAURO FERRI";medicina2000ctg@hotmail.com;www.poicolombia.com;"(57) (5) 6468359";"Centro Cl 35 8 B-05 Of 5-G Av Venezuela Colombia, Cartagena"
"IMAGEN ORAL";jddgil@hotmail.com;;"(57) (4) 3344198";"Cl 37   S 43 A-26 Envigado Colombia, Medellín"
"BONILLA RUBIO JULIAN";jbonilla37@hotmail.com;;"(57) (4) 3122085";"Cr43 A 7-50 Consult 406 Colombia, Medellín"
"ORALDEN CENTER";denis2904@hotmail.com;;"(57) (5) 3926514";"Cr30 27 C-35 L-1 Hipódromo Soledad Colombia, Barranquilla"
"ARTE & DENT";oskarcr24@gmail.com;;"(57) (8) 2643214";"Cr5 38-56 C.C. Quinta Av Colombia, Ibagué"
"First Name";"Email Address";Url;Telephone;Address
"DR. MAURO FERRI";medicina2000ctg@hotmail.com;www.poicolombia.com;"(57) (5) 6468359";"Centro Cl 35 8 B-05 Of 5-G Av Venezuela Colombia, Cartagena"
"CLÍNICA DENTAL DE BELLO";clidentb@une.net.co;;"(57) (4) 2174695";"Cr44 48-21 Int 106 Colombia, Medellín"
"CENTRO DE IMPLANTOLOGÍA ORAL DEL CAUCA";fcperiodoncia@hotmail.com;;"(57) (2) 8240155";"Cr8 2-44 Consult 212 Edif Hormaza Colombia, Popayán"
"CENTRO MÉDICO MEDISALUD IPS S.A.S.";centromedicomedisalud@hotmail.com;www.medisaludips.com;"(57) (2) 4471637";"Cr1 D 68-08 Colombia, Cali"
"ESTILO DENTAL GRANDES SONRISAS";estilodental2011@hotmail.com;;"(57) (2) 4866793";"Cl 5 B 25-33 P-2 Colombia, Cali"
"CONSULTORIO Y LABORATORIO DENTAL SAN PABLO";laboratoriodentalsanpablo@gmail.com;;"(57) (4) 2723559";"Cr49 50-52 Of 303 Bello Colombia, Medellín"
"ACRILTEETH EXPRESS DENTAL LAB";jennycol03@yahoo.com;www.saludencolombia.com/cliente/laboratorio-dental.php;"(57) (1) 2475610";"Cl 5 30-13 Colombia, Bogotá"
"ORTODONCIA INTEGRAL ESPECIALIZADA";jhonja313@hotmail.com;;"(57) (2) 7360827";"Cr29 A 18-09 Consult 203 Colombia, Pasto"
"PALACIOS BRAYAN";palaciosbrayanperio@gmail.com;;"(57) (2) 3216547974";"Cr24 20-58 Cristo Rey Consult 334 Colombia, Pasto"
"ARTE & DENT";oskarcr24@gmail.com;;"(57) (8) 2643214";"Cr5 38-56 C.C. Quinta Av Colombia, Ibagué"
"CENTRO ODONTOLOGICO NEUROFOCAL";hector.lopeza@hotmail.com;;"(57) (4) 2507736";"Cl 32 80 A-20 Colombia, Medellín"
"CENTRO ODONTOLOGICO DEL NORTE";angelamaria.1717.@hotmail.com;www.odontonorte.com.co;"(57) (2) 6823690";"Cr1 C  54-28 Colombia, Cali"
"CARDONA RIOS CAROLINA";carocardonar@yahoo.com;;"(57) (6) 8815566";"Cr23 65 A-41 Parque Médico Consult. 902 Colombia, Manizales"
ORTOCOOP;ortocoop@telecom.com.co;www.ortocoopcucuta.com;"(57) (7) 5712318";"Av0 13-31 L-2 Edif El Faraón Caobos Colombia, Cúcuta"
"BOCAS CLÍNICA ODONTOLÓGICA LTDA.";bocasodontologia@yahoo.com;;"(57) (1) 2214579";"Cl 44 59-12 P-3 Colombia, Bogotá"
"MACO DENTAL CARE COLOMBIA S.A.S.";;www.macodentalcare.co;"(57) (2) 4837139";"Av Roosevelt 37 A-23 Colombia, Cali"
"HADENT CLÍNICAS ODONTOLÓGICAS";gerencia@hadentclinicas.com;www.hadentclinicas.com;"(57) (2) 5579889";"Cl 13 23-05 P-2 L-202 Colombia, Cali"
"DONADO CORTES ALVARO (DR)";rehabilitadororaladc@gmail.com;;"(57) (5) 3587816";"Cr46 82-241 L-10 P-2 Clinica Denty Dent Colombia, Barranquilla"
"RAMÍREZ OLGA JANETH";odontologia@hotmail.com;www.alianzablanca.com;"(57) (7) 6476710";"Cr29 47-64 P-2 Sotomayor Colombia, Bucaramanga"
"IMAGEN ORAL";jddgil@hotmail.com;;"(57) (4) 3344198";"Cl 37   S 43 A-26 Envigado Colombia, Medellín"
PERIOCENTER;olgapacheco31@hotmail.com;;"(57) (2) 3315851";"Cl 13 57-06 P-4 Consult 5 Colombia, Cali"
"RODRÍGUEZ ESCOBAR OLGA LUCÍA";olgalrodrigueze@gmail.com;;"(57) (6) 8828052";"Cr11 7 A-83 Chipre Colombia, Manizales"
"DR. OSCAR ALONSO MEJÍA POSADA";mejiacons@hotmail.com;;"(57) (6) 3254491";"Cl 17 6-42 Consult 3 P 2 Colombia, Pereira"
"ESTETIC DENT";vickyha77@hotmail.com;;"(57) (8) 8721175";"Cl 16 6-27 Quirinal Colombia, Neiva"
"CARLOS ALBERTO QUINTERO ORTEGA";calquior70@yahoo.com;;"(57) (7) 5716514";"Av 0 12-66 Of 301 Edif Domus Center Colombia, Cúcuta"
"CIRUMAX CENTRO DE ESPECIALISTAS";info@cirumax.com;www.cirumax.com;"(57) (6) 3215154";"Cl 14 23-52 Colombia, Pereira"
"YDENT CLÍNICA ODONTOLÓGICA";yamileperez10@hotmail.com;;"(57) (8) 2658239";"Cl 39 Av Ferrocarril Colombia, Ibagué"
"CLÍNICA ODONTOLÓGICA PROFESIONAL";toviccortes@hotmail.com;www.carlosalbertoduran.com;"(57) (6) 3253761";"Cr5 19-49 P-2 Colombia, Pereira"
"BONILLA RUBIO JULIAN";jbonilla37@hotmail.com;;"(57) (4) 3122085";"Cr43 A 7-50 Consult 406 Colombia, Medellín"
"CENTRO ODONTOLOGICO LA 56";centro_odontologicola56@hotmail.com;co-la56.com;"(57) (4) 2167370";"Cl 54 42-81 P-2 Colombia, Medellín"
"GADY ODONTOLOGOS";kleoide07@hotmail.com;;"(57) (2) 4009292";"Cr42 5 C-67 Tequendama Colombia, Cali"
EMERDENT;emerdent@hotmail.com;;"(57) (1) 2451002";"Cr22 45 C-44 P-2 Colombia, Bogotá"
"SONRISAS SALUDABLES";luisitapuerto@hotmial.com;;"(57) (1) 7498279";"Cl 77 16-20 Colombia, Bogotá"
"FUNDACION DEL IMPLANTE DENTAL";cquide@fundaciondeimplantedental.com;;"(57) (7) 6470949";"Cl 52 B 31-92 Colombia, Bucaramanga"
DENTISTETIC;carmenroviraortis@yahoo.com;;"(57) (5) 6610015";"Los Angeles Cl 31 B 61-64 Colombia, Cartagena"
"DÍAZ FLÓREZ FREDY";;;"(57) (1) 3460427";"Cl 53 B 24-80 Consult 602 Colombia, Bogotá"
"FERNÁNDEZ DE CASTRO ASSÍS LILIANA";;;"(57) (4) 7821967";"Cl 24 7-24 Colombia, Montería"
"DUQUE DUQUE ANDRES";;;"(57) (4) 4449006";"Cr29 D 6 A-05 Of 202 Colombia, Medellín"
"CENTRO DE IMPLANTOLOGÍA ORAL SERGIO ARUACHÁN ELJACH";;;"(57) (4) 7824753";"Cr2 22-27 Centro Colombia, Montería"
"MORALES VILLA LUIS MIGUEL";;;"(57) (5) 6655388";"Cr3 8-129 Of 503 Edif Centro Ejecutivo Colombia, Cartagena"
"First Name";"Email Address";Url;Telephone;Address
"ACEVEDO T. CARLOS H.";;;"(57) (5) 3775898";"Cl 98 51 B-76 L-208 C.C. Milenium Colombia, Barranquilla"
ODONTOIDEAL;;;"(57) (5) 3775782";"Cl 84 No. 45-31 L-5 Colombia, Barranquilla"
"CENTRO DE SONRISAS";;;"(57) (2) 2258547";"Cl 29 25-37 Colombia, Tuluá"
"PULIDO NELSON";;;"(57) (1) 3400914";"Cr20 45 A-00 Consult 405 Colombia, Bogotá"
"LLANOS ISAZA MYRIAM HELENA";;;"(57) (5) 5710761";"Cl 13 8-35 Consult 203 Colombia, Valledupar"
"GARCÍA CAMACHO GLORIA ISABEL";;;"(57) (2) 5534660";"Cl 5 A 40-26 Colombia, Cali"
"CLINICA ODONTOLÓGICA FRANCISCO MANTILLA";;;"(57) (1) 2147012";"Clínica Odontólogica Francisco Mantilla Colombia, Bogotá"
"CLÍNICA ODONTOLÓGICA MIGUEZ";;;"(57) (1) 2494696";"Av (Cl) 63 11-45 Consult-212 Colombia, Bogotá"
"CLÍNICA DENTAL DEL CARIBE TU BOCA S.A.";;;"(57) (5) 3691888";"Cr53 72-131 Colombia, Barranquilla"
"GÚZMAN VALDERRAMA NANCY";;;"(57) (1) 3482166";"Cl 64 10-12 Colombia, Bogotá"
"CARVAJAL VILLARRUEL LUIS MARIO";;;"(57) (2) 6831275";"Cl 25 N 5 A N-50 Colombia, Cali"
"ALBERTO PRIETO VILLAMIZAR";;;"(57) (7) 6398842";"C.M. Carlos Ardila Lülle Trr B Mód 57 Consult 812 Colombia, Bucaramanga"
"CONTRERAS GERSON IVÁN";;;"(57) (75) 5683469";"Clinica Pamplona Cons 202 Colombia, Pamplona"
"JAVIER DÍAZ";;;"(57) (5) 3782938";"Cr50 88-23 Colombia, Barranquilla"
"OSPINA VÉLEZ OSCAR MAURICIO";;;"(57) (2) 2642858";"Cl 9 19-20 L-4 Colombia, Florida"
"TENJO CORREA CARLOS ALBERTO";;;"(57) (6) 8876611";"Cl 64 A 21-50 Colombia, Manizales"
"DELGADO ECHEVERRI RAMIRO ALBERTO";;;"(57) (2) 8203661";"Cl 16 N 6-27 Consult 403 Centro Médico Palmares Colombia, Popayán"
CLINISALUDORAL;;;"(57) (5) 4200694";"Av del Libertador 20-46 Colombia, Santa Marta"
"SONRISAS FACTORY";;;"(57) (5) 4319202";"Cr8 28 E-24 L-1 Edif San Jorge Bavaria Colombia, Santa Marta"
"HERIBERTO ARREDONDO DAZA";;;"(57) (5) 5708430";"Cl 12 11-62 Colombia, Valledupar"
"ODONTÓLOGOS ESPECIALISTAS";;;"(57) 3145183193";"Cl 31 54-215 Consult 407 Colombia, Cartagena"
"DENTAL CARE";;;"(57) (1) 4009344";"Cl 140 C 94 D-38 Colombia, Bogotá"
"CENTRO ODONTOLÓGICO SAN ANTONIO";;;"(57) (2) 6689621";"Av6 N 14-54 Consult 211 Contiguo Iglesia San Jud Colombia, Cali"
"ORAL MAX CLÍNICA ODONTOLÓGICA LTDA";;;"(57) (1) 6241099";"Av Suba 115-58 Trr A Consul413 Colombia, Bogotá"
"CHARRIS VILLAREAL HERNAN RAFAEL";;;"(57) (5) 3780134";"Cr49 C 80-125 Consult 313 Colombia, Barranquilla"
"CORPORACIÓN ODONTOLÓGICA DE ANTIOQUIA";;;"(57) (4) 5130795";"Cr46 54-89 L-109 Colombia, Medellín"
"ADF ARMONIA DENTO-FACIAL LTDA.";;;"(57) (1) 6369188";"Cr11 A 97-19 Colombia, Bogotá"
"CLÍNICA ODONTOLÓGICA ESPECIALIZADA";;;"(57) (7) 6436972";"C.C. Cabecera Of 202 Cabecera del Llano Colombia, Bucaramanga"
"SMILE ESTUDIO";;;"(57) (5) 3738345";"Cl80 49C-15 Cons 306 Colombia, Barranquilla"
DENTIFUSIÓN;;;"(57) (5) 6551188";"Bgde Cr3 8-38 L-1 Colombia, Cartagena"
"RUEDA OCAMPO CLAUDIA PATRICIA";;;"(57) (2) 6600232";"Av2 C N 24 N-120 Consult 504 Colombia, Cali"
"DENTAL HEALTH";;;"(57) (6) 3353504";"Cl 19 5-47 Consult 6 Colombia, Pereira"
"CONSULTORIO MEDICO";;;"(57) (6) 3353504";"Calle 19 # 5-47 Consult 6 Colombia, Pereira"
COSMOIMAGEN;;;"(57) (2) 7224139";"Cl 18 24-29 C.C. Los Andes L-210 Colombia, Pasto"
"COTE RIVERA LUIS ALBERTO";;;"(57) (75) 5681389";"Cr6 3-74 Consult 103 Somédica Colombia, Pamplona"
"CASELLA SANZ CAROLINA";;;"(57) (2) 2137838";"Cl 8 Bis 3-08 Concilmédicos Colombia, Cartago"
"CHIQUILLO PÉREZ LUIS MAURICIO";;;"(57) (1) 2588507";"Cr7 D 127 C 79 Colombia, Bogotá"
"OSORIO MARÍN FRANCY";;;"(57) (4) 7813544";"Cr5 25-21 Consult 104 Colombia, Montería"
"LEÓN ARCILA MIGUEL E.";;;"(57) (2) 6683502";"Cl 25 2 N-57 Consult 606 Colombia, Cali"
"ENCÍAS SANAS";;;"(57) (2) 6826910";"C.C. Chipichape Trr Parqueaderos P-6 Consult 631 Colombia, Cali"
"First Name";"Email Address";Url;Telephone;Address
"NAVARRETE HERNÁNDEZ GERMÁN";;;"(57) (1) 6182330";"Cl 93 B 17-12 Consult 415 Colombia, Bogotá"
"FERNÁNDEZ DE CASTRO ASSÍS LILIANA";;;"(57) (4) 7821967";"Cl 24 7-24 Colombia, Montería"
"CORONADO GREY MENA DE";;;"(57) (4) 7821967";"Cl 24 7-24 Colombia, Montería"
"ROJAS BENAVIDES BERNARDO";;;"(57) (1) 2156030";"Cl 134 D 46-36 Colombia, Bogotá"
"QUINTERO TAMAYO HÉCTOR ANDRÉS";;;"(57) (6) 7499595";"Cr14 14 N-80 Consult 205 Edif El Bosque Colombia, Armenia"
"DUQUE DUQUE ANDRES";;;"(57) (4) 4449006";"Cr29 D 6 A-05 Of 202 Colombia, Medellín"
"LEYVA BELTRÁN JORGE E.";;;"(57) (5) 3783857";"Cr50 82-168 Consult 1002 Colombia, Barranquilla"
"GOMEZ SNACHEZ GERMAN";;;"(57) (1) 6200777";"Av15 118-41 Colombia, Bogotá"
"MONTOYA GAZABÓN JAIRO A.";;;"(57) (5) 6653063";"Bgde Cl 11 1-19 Edif Don Pedro de Heredia Colombia, Cartagena"
"DR.FRANCISCO ZULUAGA - WHITE";;;"(57) (1) 6222293";"Cr15 99-13 Colombia, Bogotá"
"ALBA URECHE ODONTOLOGÍA ESPECIALIZADA";;;"(57) (5) 7275757";"Cl 7 11-112 Colombia, Riohacha"
"GONZÁLEZ GUTIÉRREZ FERNEY";;;"(57) (5) 3602056";"Cr44 70-37 L-1 Colombia, Barranquilla"
"FADIPARTES E.U.";;;"(57) (1) 2908258";"Av (Cr) 68 3-80 P-2 Colombia, Bogotá"
"CLINICA ODONTOLÓGICA FRANCISCO MANTILLA";;;"(57) (1) 2147012";"Clínica Odontólogica Francisco Mantilla Colombia, Bogotá"
"GÚZMAN VALDERRAMA NANCY";;;"(57) (1) 3482166";"Cl 64 10-12 Colombia, Bogotá"
"ESTHETIC FACIAL HOLDING";;;"(57) (1) 6103955";"Cl 90 14-16 Consult 314 Colombia, Bogotá"
"BOLAÑOS MAFLA CARLOS ALBERTO";;;"(57) (2) 2756123";"Cl 31 31-63 Consult 211 Colombia, Palmira"
"PEÑA BOTERO ALVARO";;;"(57) (8) 2650818";"Cr5 38-14 Colombia, Ibagué"
"GÓMEZ ARANGO VÍCTOR MANUEL";;;"(57) (6) 3256044";"Cr6 22-57 Consult 207 Colombia, Pereira"
"S.I.E.O. CLÍNICA ODONTOLÓGICA";;;"(57) (5) 3783138";"Cl 98 No. 51 B-76 L-201 Colombia, Barranquilla"
COSMOIMAGEN;;;"(57) (2) 7224139";"Cl 18 24-29 C.C. Los Andes L-210 Colombia, Pasto"
"CONTRERAS GERSON IVÁN";;;"(57) (75) 5683469";"Clinica Pamplona Cons 202 Colombia, Pamplona"
"RUBIANO CARDENAS OSMAR ODONTOLOGO ESTETICO";;;"(57) (1) 2130612";"Av15 124-91 Consult 310 Colombia, Bogotá"
"JAVIER DÍAZ";;;"(57) (5) 3782938";"Cr50 88-23 Colombia, Barranquilla"
"CLÍNICA BELLA SONRISA";;;"(57) (2) 2737813";"Cr27 35-28 Colombia, Palmira"
"GRUPO ESTETICO DENTO-FACIAL";;;"(57) (7) 6437981";"Cl 54 33-45 Consult 505 Colombia, Bucaramanga"
"CLAVIJO PUYANA ROBERTO";;;"(57) (7) 6437085";"Cl 54 33-45 Consult 502 Colombia, Bucaramanga"
"LABORATORIO DENTAL ALONSO SERRANO FLOREZ";;;"(57) (7) 6499801";"Cl 196 A 29-09 Villa de San Francisco Floridablan Colombia, Bucaramanga"
"TRUJILLO MÓNICA";;;"(57) (2) 8233007";"Cl 15 N 7-20 Colombia, Popayán"
"DIDENT BUITRAGO";;;"(57) (1) 2950844";"Av Boyacá 50-68 Colombia, Bogotá"
"CLÍNICA DE ORTODONCIA ORTHO-RIDENT";;;"(57) (2) 8236723";"Cr9 18 N-65 Av Panamericana Colombia, Popayán"
"VÁSQUEZ MAURICIO";;;"(57) (1) 6121339";"Cl 116 22-54 Consult 101 Colombia, Bogotá"
"ODENTIS I.P.S.";;;"(57) (2) 7226071";"Cl 12 21-61 Av Boyacá Colombia, Pasto"
"OSORIO MOSQUERA CESAR AUGUSTO";;;"(57) (8) 8758309";"Cl 12 7-12 L-9 Edif La Plazuela Colombia, Neiva"
"ASISTENCIA CLINICA DE IMPLANTES DENTALES DEL SUR";;;"(57) (4) 3344499";"Cr43 37 S-77 Int 203 Envigado Colombia, Medellín"
"DUQUE GARCÉS FRANCISCO JOSÉ";;;"(57) (2) 6618051";"Cl 23 N 5-42 Of 102 Colombia, Cali"
"CENTRO DE CIRUGÍA LASER FACIAL HUGO RAFAEL NAVARRO PALENCIA";;;"(57) (8) 4357545";"Cr11 9 A-76 Frente A La Policia Colombia, Florencia"
"DENTAL MEDICAL CLINIC";;;"(57) (5) 3595234";"Cl 93 43-52 Colombia, Barranquilla"
"BERNAL VÉLEZ CAMILO";;;"(57) (1) 6248639";"Cr64 100-55 Colombia, Bogotá"
"OLARTE DEL RÍO CÉSAR AUGUSTO";;;"(57) (8) 7441851";"Cl 21 A 10-57 Consult 103 Tunja Colombia, Tunja"
"First Name";"Email Address";Url;Telephone;Address
"UNIDAD DE IMPLANTES DENTALES DEL HUILA";;;"(57) (8) 8722758";"Cl 12 4-16 Colombia, Neiva"
"CLÍNICA ODONTOLÓGICA ODONTOSTÉTICA";;;"(57) (2) 2241777";"Cr34 26-67 Colombia, Tuluá"
"INTEGRAL ODONTOLOGIA AVANZADA";;;"(57) (1) 6014858";"Cr17 106-16 Colombia, Bogotá"
"DORAIDA KARINA IBAÑEZ FERNANDEZ";;;"(57) (5) 5749407";"Cr11 A 14-39 Of 204 Edif Carrillo Molina Colombia, Valledupar"
"BH SALUD S.A.";;;"(57) (4) 3321062";"Cr43 A 27 A S-86 Int 127 Envigado Colombia, Medellín"
"CENTRO DE IMPLANTOLOGÍA ORAL SERGIO ARUACHÁN ELJACH";;;"(57) (4) 7824753";"Cr2 22-27 Centro Colombia, Montería"
"LOAIZA V. EDUARDO";;;"(57) (1) 2182615";"Cr19 A 79-18 Consult 310 Colombia, Bogotá"
"ALBERTO RODRIGUEZ";;;"(57) (7) 5713265";"Av0 19-82 Brr. Blanco Colombia, Cúcuta"
"BERMEO MAYA JUAN MANUEL";;;"(57) (2) 8231564";"Cl 16 N 6-27 Edif Palmares Consult 305 Colombia, Popayán"
"ACADEMIA COLOMBIANA DE OSEOINTEGACIÓN";;;"(57) (1) 6192013";"Cr18 106-21 Ap 306 Colombia, Bogotá"
"GARCÍA CAMACHO GLORIA ISABEL";;;"(57) (2) 5534660";"Cl 5 A 40-26 Colombia, Cali"
"ORDÓÑEZ DAZA MANUEL ARCESIO";;;"(57) (2) 5517558";"Cl 5 B 43 A-45 Colombia, Cali"
"OLARTE DEL RÍO CÉSAR AUGUSTO";;;"(57) (8) 7441851";"Cl 21 A 10-57 Consult 103 Tunja Colombia, Tunja"
"BOLAÑOS MAFLA CARLOS ALBERTO";;;"(57) (2) 2756123";"Cl 31 31-63 Consult 211 Colombia, Palmira"
"UNIDAD DE IMPLANTOLOGIA Y CIRUGIA ORAL";;;"(57) (72) 7486273";"Cl 10 9-30 Colombia, Barbosa"
"JAIRO ALBERTO NIÑO CARDENAS";;;"(57) (7) 6351384";"Cl 42 35-20 Colombia, Bucaramanga"
"NUÑEZ GÓMEZ DANIEL FERNANDO";;;"(57) (7) 6457912";"Cl 43 34-31 Colombia, Bucaramanga"
"STETIC DENTAL CENTER";;;"(57) (7) 6555093";"Cr7 7-35 Piedecuesta Colombia, Piedecuesta"
"ENRIQUE MANTILA GOMEZ";;;"(57) (7) 6342987";"Cl 42 35-58 Consult 407 Colombia, Bucaramanga"
ODONTOCAL;;;"(57) (7) 6781870";"C.M. Carlos Ardila Lulle Trr B P-10 Mód 63 Colombia, Bucaramanga"
"MAURICIO PEÑA CASTILLO";;;"(57) (7) 6457912";"Víaoral: Cl 43 34-31 Colombia, Bucaramanga"
"CLAVIJO PUYANA ROBERTO";;;"(57) (7) 6437085";"Cl 54 33-45 Consult 502 Colombia, Bucaramanga"
"LEÓN SALGADO ELEONORA";;;"(57) (2) 2321625";"Cl 26 Cr36 Esq Edif Vitta Consult 306 Colombia, Tuluá"
"RODRÍGUEZ LÓPEZ JORGE";;;"(57) (2) 3320482";"Trade Center Trr Valle del Lili Consult 802 Colombia, Cali"
"JAIMES JAVIER E.";;;"(57) 3142986261";"Cl 13 1 E-44 Consult 301-B Colombia, Cúcuta"
"FONRODONA PUYANA JORGE";;;"(57) (1) 2133019";"Av (Cl) 116 14 B-34 Consult 101 Colombia, Bogotá"
"CASTILLO BERNAL ALBERTO";;;"(57) (8) 7431610";"Tr11 30-65 Consult 405 Colombia, Tunja"
"ORAL TEC";;;"(57) (4) 2502440";"Cr74 43-13 Colombia, Medellín"
"BETANCOURT RODRÍGUEZ JUAN";;;"(57) (1) 2116461";"Cl 53 4 A-54 Consult 203 Colombia, Bogotá"
"BOTERO BOTERO AUGUSTO";;;"(57) (6) 3337841";"Cr6 17-21 Consult 4 Colombia, Pereira"
"CAMARGO LUNA JULIO CESAR";;;"(57) (1) 4005570";"Cr13 119-60 Colombia, Bogotá"
"DIDENT BUITRAGO";;;"(57) (1) 2950844";"Av Boyacá 50-68 Colombia, Bogotá"
"MANRIQUE GÓMEZ JESÚS A.";;;"(57) (5) 4207901";"Cr12 No. 18-45 P-2 Colombia, Santa Marta"
"JAIMES OCHOA GLEIDYS ELVIRA";;;"(57) (7) 5717763";"Av 1 17-93 Consult 302 Colombia, Cúcuta"
"MORALES GARCÉS CYBILL";;;"(57) (4) 7820530";"Cr6 24-36 Colombia, Montería"
"CLÍNICA COLOMBIANA DE IMPLANTES DENTALES S.A EN";;;"(57) (4) 2504262";"Tr34 72-160 Colombia, Medellín"
"ARTEAGA ESCOBAR GONZALO";;;"(57) (1) 2365390";"Cr7 82-66 Consult 223 Colombia, Bogotá"
"AGUILAR MARIN DIEGO ALEJANDRO";;;"(57) (6) 7458672";"Cr14 8 N-63 L-3 Edif Cañaveral Colombia, Armenia"
"ODONTOLGIA MARLON BECERRA";;;"(57) (8) 6825800";"Cr40 26 C-93 Colombia, Villavicencio"
"OLARTE DEL RÍO CÉSAR AUGUSTO";;;"(57) (8) 7441851";"Cl 21 A 10-57 Consult 103 Tunja Colombia, Tunja"
"First Name";"Email Address";Url;Telephone;Address
"DENTAL WORLD";;;"(57) (7) 6944419";"Cl 38 34-33 Colombia, Bucaramanga"
"CADENA ODONTOLÓGICA DE BUCARAMANGA";;;"(57) (7) 6318986";"Cl 63 A 1-75 Sauces Ciudadela Colombia, Bucaramanga"
"VALDIRI RODRIGO";;;"(57) (2) 5523160";"Cl 5 45-20 Of 57 Colombia, Cali"
ODONTOCAUCA;;;"(57) (2) 8236060";"Cr9 16 N-30 Colombia, Popayán"
ORTOCOSMÉTICA;;;"(57) (1) 2571495";"Cr15 85-42 Of 404 Colombia, Bogotá"
"LµPEZ ALVAREZ ARY ALFONSO";;;"(57) (5) 6643258";"Edif City Bank Consult 7 E Colombia, Cartagena"
"AVILA RUIZ HAROLD FERNANDO";;;"(57) (5) 2825622";"Cr17 15-26 Consult 101 Cruz de Mayo Colombia, Sincelejo"
"MARTIN G. MARÍA TERESA";;;"(57) (4) 7812305";"Cr5 25-14 Consult 207-A Colombia, Montería"
"DÍAZ TAMARA CLAUDIA";;;"(57) (1) 6107180";"Cr14 98-95 Of 313 Colombia, Bogotá"
"ZULUAGA JEMAY";;;"(57) (6) 7454910";"Cr13 8 N-16 Consult 301 Edif Monteverde Colombia, Armenia"
"CLÍNICA DE IMPLANTES DENTALES IN NOVUS";;;"(57) (4) 2313997";"Cl 54 46-27 Consult 1106 Colombia, Medellín"
"BERMÚDEZ MAURICIO";;;"(57) (4) 7810374";"Cl 24 6-115 Centro Colombia, Montería"
"IANNINI OBREGÓN MAURICIO ENRIQUE";;;"(57) (1) 2124450";"Cr9 65-60 Consult 109 Colombia, Bogotá"
"LOAIZA V. EDUARDO";;;"(57) (1) 2182615";"Cr19 A 79-18 Consult 310 Colombia, Bogotá"
ODONTOLASER;;;"(57) (8) 8710698";"Cl 10 3-63 Colombia, Neiva"
VITALDENT;;;"(57) (4) 8283030";"Cl 98 103-111 Consult 103 Colombia, Apartadó"
"RUEDA OCAMPO CLAUDIA PATRICIA";;;"(57) (2) 6600232";"Av2 C N 24 N-120 Consult 504 Colombia, Cali"
"CLINICA DE IMPLANTES ORALES";;;"(57) (2) 8323344";"Cl 18 N 4-17 Consult 201 Colombia, Popayán"
"BOLAÑOS MAFLA CARLOS ALBERTO";;;"(57) (2) 2756123";"Cl 31 31-63 Consult 211 Colombia, Palmira"
CEODENT;;;"(57) (2) 2253300";"Cr25 27-50 Consult 210 Colombia, Tuluá"
"JAIRO ALBERTO NIÑO CARDENAS";;;"(57) (7) 6351384";"Cl 42 35-20 Colombia, Bucaramanga"
"GONZÁLEZ PERTUZ JOAQUÍN - DENTAL WORLD";;;"(57) (7) 6944419";"Cl 38 34-33 Colombia, Bucaramanga"
"REY GAMBOA SAMUEL";;;"(57) (7) 6476677";"Cl 48 32-14 Consult 504 Tempo I Colombia, Bucaramanga"
"AYALA MUÑOZ GERMÁN";;;"(57) (1) 6167796";"Cr16 76-42 Consult 701 Colombia, Bogotá"
ODONTHOPLUS;;;"(57) (2) 7310352";"Cl 19 28-72 Of 202 Edif Camacol Colombia, Pasto"
"CANDELA GONZALEZ ANTONIO JOSE";;;"(57) (7) 6346488";"Cl 42 35-58 Consult 503 Colombia, Bucaramanga"
IMPLANTES;;;"(57) (6) 8852094";"Cr24 56-86 Colombia, Manizales"
"BOTERO BOTERO AUGUSTO";;;"(57) (6) 3337841";"Cr6 17-21 Consult 4 Colombia, Pereira"
"ALZATE VÉLEZ GERMÁN ALBERTO";;;"(57) (6) 8811840";"Edif Plaza 51 Consult 306 Colombia, Manizales"
"CORREA URIBE CAMILO";;;"(57) (4) 3217114";"Cl 7 39-197 Consult 1702 Colombia, Medellín"
"UNIDAD DE ORTODONCIA ESPECIALIZADA";;;"(57) (2) 2756061";"Cl 18 28 A-03 Colombia, Palmira"
ZIMPLANT;;;"(57) (4) 2660371";"Cr74 48-37 Of 1014 Colombia, Medellín"
"CENTRO ODONTOLÓGICO VELASCO";;;"(57) (2) 8233495";"Cr9 15 N-32 Colombia, Popayán"
"SCHUTT INSIGNARES JAIME";;;"(57) (5) 3533195";"Cr58 70-129 Consult 301 Colombia, Barranquilla"
"CLÍNICAS DENTALES SONRIA";;;"(57) (8) 8718187";"Cr7 10-26/30 Neiva Colombia, Neiva"
"SMILE ESTUDIO";;;"(57) (5) 3738345";"Cl80 49C-15 Cons 306 Colombia, Barranquilla"
"MUÑOZ REYES CLAUDIA L";;;"(57) (2) 8233495";"Cr9 15 N-32 Colombia, Popayán"
"PULIDO NELSON";;;"(57) (1) 3400914";"Cr20 45 A-00 Consult 405 Colombia, Bogotá"
"CEDENT CLÍNICA DE ESPECIALIDADES ODONTOLÓGICAS";;;"(57) (76) 5650589";"Cl 3 14-43 Of 103 Colombia, Aguachica"
"JUAN QUINTANA ODONTO-IMPLANTES";;;"(57) (5) 7274761";"Cl 7 6-57 L-204 C.C. Olimpia Colombia, Riohacha"
"First Name";"Email Address";Url;Telephone;Address
"DENTAL SALUD";;;"(57) (7) 6572025";"Cr33 52-36 2 PISO Colombia, Bucaramanga"
ODONTOCAL;;;"(57) (7) 6781870";"C.M. Carlos Ardila Lulle Trr B P-10 Mód 63 Colombia, Bucaramanga"
"CLÍNICAS ODONTOLÓGICAS BUITRAGO";;;"(57) (1) 3466003";"Cr27 4 A-13 Colombia, Bogotá"
"CALLEJAS BERNAL JAIRO ALBERTO";;;"(57) (7) 6457912";"Cl 43 34-31 Colombia, Bucaramanga"
"URREA BOTERO MIGUEL ALBERTO";;;"(57) (6) 3254215";"Cr6 22-57 Consult 209 Colombia, Pereira"
"RAMÍREZ ESPAÑA JORGE ADOLFO";;;"(57) (6) 3441700";"Cl 14 23-52 Colombia, Pereira"
"ARBOLEDA CARRERA RICARDO";;;"(57) (2) 5533854";"Cl 5 A 41-46 Colombia, Cali"
"KARAM GEORGE KARAM";;;"(57) (2) 6831550";"Clínica Farallones Consult 607 Colombia, Cali"
"CASTRO VELASCO EDISON";;;"(57) (2) 8806968";"Cr8 9-68 Consult 302 Colombia, Cali"
"PALACIOS RAMÍREZ DIANA CAROLINA";;;"(57) (2) 3308833";"Cr65 A 5-156 Consult. 204 Colombia, Cali"
ODONTOPROFESIONAL;;;"(57) (6) 7499081";"Cl 18 N 14-47 Colombia, Armenia"
"CENTRO DE IMPLANTOLOGÍA ORAL";;;"(57) (5) 3493317";"Cl 64 # 53-36 Consult 301-302 Colombia, Barranquilla"
"CLÍNICA DE ORTODONCIA FAMILIAR";;;"(57) (5) 5703968";"Cl 15 14-33 Of 106 Edif Portal Del Valle Colombia, Valledupar"
"LLANOS ISAZA MYRIAM HELENA";;;"(57) (5) 5710761";"Cl 13 8-35 Consult 203 Colombia, Valledupar"
"HARKER MARTÍN ARTURO";;;"(57) (1) 6212702";"Tr18 77-18 Consult 509 Colombia, Bogotá"
"ZUÑIGA JANNETH";;;"(57) (2) 5240909";"Cr34 3-47 P-2 Colombia, Cali"
"ESTHETIC PERFECCIONAMIENTO DENTAL";;;"(57) (2) 3304889";"C.C. Holguines Trade Center Of 414 Colombia, Cali"
"ESTETI & DENT";;;"(57) (7) 6454743";"Cl 32 33B-17 Ed. María Angélica Colombia, Bucaramanga"
"BETANCOURT RODRÍGUEZ JUAN";;;"(57) (1) 2116461";"Cl 53 4 A-54 Consult 203 Colombia, Bogotá"
"VÁSQUEZ MAURICIO";;;"(57) (1) 6121339";"Cl 116 22-54 Consult 101 Colombia, Bogotá"
"CLÍNICA IMPLANTOLÓGICA SWEET SMILE";;;"(57) (8) 4343546";"Cr10 6-76 Las Avenidas Colombia, Florencia"
"AVILA RUIZ HAROLD FERNANDO";;;"(57) (5) 2825622";"Cr17 15-26 Consult 101 Cruz de Mayo Colombia, Sincelejo"
"MEJÍA GALLEGO ANDREA";;;"(57) (6) 7451702";"Cr12 0-75 Consult 417 Colombia, Armenia"
"CORPORACIÓN ODONTOLÓGICA DE ANTIOQUIA";;;"(57) (4) 5130795";"Cr46 54-89 L-109 Colombia, Medellín"
"TAPIA CURE LUIS DAVID";;;"(57) (5) 3574034";"Cr64 B 86-132 Colombia, Barranquilla"
"RODRÍGUEZ ANA MILENA";;;"(57) (5) 6431290";"Cr17 26-19 L-103 Edif Balcones de Segovia Colombia, Cartagena"
"JORGE IVÁN CARVAJAL G.";;;"(57) (6) 3447760";"Cl 14 15-68 L-4 Edif Dian Colombia, Pereira"
"BOHÓRQUEZ CÁRDENAS ANGELA JULIET";;;"(57) (8) 7436436";"Cl 21 A 10-57 Consult 107 Colombia, Tunja"
"CLÍNICA ODONTOLÓGICA ADI";;;"(57) (8) 6679120";"Cl 32 36-63 L-2-3 Colombia, Villavicencio"
"IMAGEN Y SONRISAS REALES";;;"(57) (5) 3126072650";"Cr45 B 93-45 Colombia, Barranquilla"
"HOYOS Q. LUISA FERNANDA";;;"(57) (2) 5548164";"Cr39 5 B-22 Consult 405 Colombia, Cali"
"MORA OJEDA GABRIEL MAURICIO";;;"Domic.: (57) (7) 6907029";"Cr31 51-74 Consult 507 Edif Torre de Mardel Colombia, Bucaramanga"
"CENTRO DE ASISTENCIA ODONTOLÓGICA PULPODENT";;;"(57) (7) 6348180";"Cl 30 30-60 Colombia, Bucaramanga"
"CLÍNICA ODONTOLÓGICA VIA ORAL";;;"(57) (7) 6457912";"Cl 43 34-31 Colombia, Bucaramanga"
"VARGAS CORREA DIANA";;;"(57) (6) 3353225";"Cr6 17-21 Consult 13 Colombia, Pereira"
"CASTAÑO ALVAREZ GINA PAOLA";;;"(57) (6) 3263874";"Cr7 26-50 Colombia, Pereira"
"OCHOA CÉSAR AUGUSTO";;;"Conm.: (57) (2) 5546517";"Cr44 6 B-57 Colombia, Cali"
"LASPRILLA M CARLOS ANDRÉS";;;"(57) (2) 2203769";"Cr5 5-29 Colombia, La Victoria"
"DELGADO ECHEVERRI RAMIRO ALBERTO";;;"(57) (2) 8203661";"Cl 16 N 6-27 Consult 403 Centro Médico Palmares Colombia, Popayán"
"TRUJILLO MÓNICA";;;"(57) (2) 8233007";"Cl 15 N 7-20 Colombia, Popayán"
"First Name";"Email Address";Url;Telephone;Address
"CENTRO DE ODONTÓLOGOS ESPECIALISTAS LTDA.";;;"(57) (2) 6530303";"Cl 24 N 2 N-20 Colombia, Cali"
"ARTDENT PLUSS";;;"(57) (4) 7920742";"Cr7 26-34 Centro Colombia, Montería"
"TALLERES DE SONRISAS";;;"(57) (5) 3567211";"Cr49 C 79-187 Colombia, Barranquilla"
"CLÍNICA DE ORTODONCIA FAMILIAR";;;"(57) (5) 5703968";"Cl 15 14-33 Of 106 Edif Portal Del Valle Colombia, Valledupar"
"RONDÓN MOSCARELLA JUAN FELIPE";;;"(57) (5) 3776248";"Cr49 C 80-55 Consult 301 Colombia, Barranquilla"
"ARANGO HERNÁNDEZ GLORIA NANCY";;;"(57) (4) 2664796";"Cr43 A 1 A S-143 Consult 202 Colombia, Medellín"
"HOYOS Q. LUISA FERNANDA";;;"(57) (2) 5548164";"Cr39 5 B-22 Consult 405 Colombia, Cali"
"GIL CÁRDENAS FÉLIX ANTONIO";;;"(57) (4) 2502467";"Cq 3 70-18 Consult 304 Colombia, Medellín"
"UNIDAD DE IMPLANTOLOGIA Y CIRUGIA ORAL";;;"(57) (72) 7486273";"Cl 10 9-30 Colombia, Barbosa"
"RAMIEZ MUTIS JUAN PABLO";;;"(57) (6) 3211990";"Cr19 15 50 Torre-01 Consult 407 Colombia, Pereira"
MEGAESTETIC;;;"(57) (6) 3446434";"Cr18 12-75 Megacentro Pinares Trr 2 Consult 601 Colombia, Pereira"
"CÁRDENAS RAMÍREZ ANDRÉS";;;"(57) (6) 8813131";"Cr23 63-15 Consult. 10 Edif El Castillo Colombia, Manizales"
DENTALHEALTH;;;"(57) (5) 4201388";"Cl 20 11-75 P-2 L-6 C.C. Acuarium Colombia, Santa Marta"
"CASTILLO BERNAL ALBERTO";;;"(57) (8) 7431610";"Tr11 30-65 Consult 405 Colombia, Tunja"
"LABORATORIO DENTAL ALONSO SERRANO FLOREZ";;;"(57) (7) 6499801";"Cl 196 A 29-09 Villa de San Francisco Floridablan Colombia, Bucaramanga"
"ALZATE VÉLEZ GERMÁN ALBERTO";;;"(57) (6) 8811840";"Edif Plaza 51 Consult 306 Colombia, Manizales"
"BERNAL DULCEY GUILLERMO";;;"(57) (1) 6185614";"Cr13 A 89-38 Of 510 Colombia, Bogotá"
"ROA HUERTAS DANIEL";;;"(57) (2) 5527552";"Cr39 5-44 P-2 Colombia, Cali"
"MEJÍA S. ANGELA MARÍA";;;"(57) (8) 8713256";"Cr5 10-49 Consult 501 Edif Plaza Real Colombia, Neiva"
ODONTOPROFESIONAL;;;"(57) (6) 7499081";"Cl 18 N 14-47 Colombia, Armenia"
"NICOLÁS SABBAG N.";;;"(57) (5) 3737602";"Cl 86 49 C-34 P-2 Colombia, Barranquilla"
"BARRERA LOPEZ GUILLERMO";;;"(57) (8) 8721682";"Cl 10 6-90 Colombia, Neiva"
"ACEVEDO T. CARLOS H.";;;"(57) (5) 3775898";"Cl 98 51 B-76 L-208 C.C. Milenium Colombia, Barranquilla"
"OCHOA BARRIGA JORGE ALEXÁNDER";;;"(57) (7) 5723631";"Av1 17-93 Consult 213 Cento Médico Norte Colombia, Cúcuta"
"DENTI SONRIA";;;"(57) (8) 5131003";"Av Hell Gate Tr2 Colombia, San Andrés"
"CLÍNICA TASCÓN ODONTOLOGÍA SAS";;;"(57) (2) 6804038";"Cl 5 C 40-69 Colombia, Cali"
"ESQUIVEL LOZADA GUILLERMO";;;"(57) (2) 6672699";"Av6 N 17-92 Of 601 Colombia, Cali"
"ODONTO PROFESIONAL";;;"(57) (6) 7496254";"Cl 18 N 14-47 Colombia, Armenia"
"CASTAÑO ALVAREZ GINA PAOLA";;;"(57) (6) 3263874";"Cr7 26-50 Colombia, Pereira"
"CLÍNICA BELLA SONRISA";;;"(57) (2) 2737813";"Cr27 35-28 Colombia, Palmira"
"FORERO SÁNCHEZ FABIÁN ARTURO";;;"(57) (2) 5583742";"Cl 5B5 37 A-61 Colombia, Cali"
"CENTRO DE IMPLANTOLOGÍA Y REHABILITACIÓN ORAL";;;"(57) (8) 2610224";"Cr3 14-21 P-2 Colombia, Ibagué"
SMILEFABRIK;;;"(57) (2) 2386807";"Cl 7 10-02 Colombia, Buga"
"GARCÍA JARAMILLO JAIME EDUARDO";;;"(57) (6) 8845298";"Cr22 26-03 Consult 305 Colombia, Manizales"
"INNOVACIÓN ODONTOLÓGICA";;;"(57) (2) 8205445";"Cl 6 12-43 Colombia, Popayán"
"MANRIQUE GÓMEZ JESÚS A.";;;"(57) (5) 4207901";"Cr12 No. 18-45 P-2 Colombia, Santa Marta"
"INTERDENTAL GROUP S.A.S";;;"(57) (4) 3217905";"Cl 7 39-197 Consult 1404 Colombia, Medellín"
"ORTHO GROUP";;;"(57) (4) 3327731";"Cl 37 S 37-18 Int 104 Envigado Colombia, Envigado"
"DENTAL CARE";;;"(57) (1) 4009344";"Cl 140 C 94 D-38 Colombia, Bogotá"
"CENTRO DE ESPECIALIDADES ODONTOLOGICAS";;;"(57) (1) 6234690";"Cl 100 17 A-12 Consult 102 Colombia, Bogotá"
"First Name";"Email Address";Url;Telephone;Address
"ARIZA GÓMEZ JUAN CARLOS";;;"(57) (2) 3157980";"Cl 13 57-06 Colombia, Cali"
"DUQUE DUQUE ANDRES";;;"(57) (4) 4449006";"Cr29 D 6 A-05 Of 202 Colombia, Medellín"
"DORAIDA KARINA IBAÑEZ FERNANDEZ";;;"(57) (5) 5749407";"Cr11 A 14-39 Of 204 Edif Carrillo Molina Colombia, Valledupar"
"CENTRO ODONTOLÓGICO SAN ANTONIO";;;"(57) (2) 6689621";"Av6 N 14-54 Consult 211 Contiguo Iglesia San Jud Colombia, Cali"
"NICOLÁS SABBAG N.";;;"(57) (5) 3737602";"Cl 86 49 C-34 P-2 Colombia, Barranquilla"
"BERMÚDEZ MAURICIO";;;"(57) (4) 7810374";"Cl 24 6-115 Centro Colombia, Montería"
ORTOCOSMÉTICA;;;"(57) (1) 2571495";"Cr15 85-42 Of 404 Colombia, Bogotá"
"CLINICA ESTÉTICA DENTAL 24 HORAS";;;"(57) (1) 4814348";"Cl 93 19 B-66 Consult 101 Colombia, Bogotá"
"CLÍNICAS DENTALES SONRIA";;;"(57) (8) 8718187";"Cr7 10-26/30 Neiva Colombia, Neiva"
"MONTOYA GAZABÓN JAIRO A.";;;"(57) (5) 6653063";"Bgde Cl 11 1-19 Edif Don Pedro de Heredia Colombia, Cartagena"
ODONTOIDEAL;;;"(57) (5) 3775782";"Cl 84 No. 45-31 L-5 Colombia, Barranquilla"
"OLARTE DEL RÍO CESAR AUGUSTO";;;"(57) (1) 6196463";"Cr23 124-70 Consult 504 Colombia, Bogotá"
"ALBA URECHE ODONTOLOGÍA ESPECIALIZADA";;;"(57) (5) 7275757";"Cl 7 11-112 Colombia, Riohacha"
"BAHAMÓN DENTAL CENTER";;;"(57) (1) 2158772";"Av (Cr) 15 118-03 Consult 404 Colombia, Bogotá"
"ESTHETIC FACIAL HOLDING";;;"(57) (1) 6103955";"Cl 90 14-16 Consult 314 Colombia, Bogotá"
"MÓNICA MARÍA CEBALLOS CALLE";;;"(57) (4) 3416054";"Cl 27 8l-06 Colombia, Medellín"
"SALAZAR LÓPEZ EDUARDO";;;"(57) (4) 2702539";"Cl 39 S 45-30 Envigado Colombia, Envigado"
"GLORIA ISABEL GARCÍA CAMACHO";;;"(57) (2) 4054523";"Cl 5 A 40-26 Colombia, Cali"
"MANTILLA GOMEZ SERGIO";;;"(57) (7) 6342485";"Cr31 35-12 Of 401 Edif Concasa Colombia, Bucaramanga"
"UNIDAD DE IMPLANTOLOGIA Y CIRUGIA ORAL";;;"(57) (72) 7486273";"Cl 10 9-30 Colombia, Barbosa"
"HERNÁNDEZ CADENA ANDRÉS YEZID";;;"(57) (2) 2724441";"Cl 31 32-23 Consult 7 B Colombia, Palmira"
"CHRISTIAN SALAZAR";;;"(57) (1) 6216643";"Cl 94 A 13-8 Of. 205 Colombia, Bogotá"
"CLÍNICAS DENTALES SONRIA";;;"(57) (2) 2738912";"Cr28 33-52 Colombia, Palmira"
"ZULUAGA GIRALDO LUISA FERNANDA";;;"(57) (6) 8871333";"Cr23 A 70 A-06 Camelia Colombia, Manizales"
"GRANDAS GRANDAS NATALIA";;;"(57) (7) 6850060";"Cl 54 33-45 Consult 806 Colombia, Bucaramanga"
"LORA GIACOMETTO JOSÉ";;;"(57) (5) 3047575";"Cr43 84-170 L-2 Colombia, Barranquilla"
"KARAM GEORGE KARAM";;;"(57) (2) 6831550";"Clínica Farallones Consult 607 Colombia, Cali"
"CAMPO GARRIDO MARIO GERMÁN";;;"(57) (2) 5546233";"Cr39 5 B-22 Of 301 Colombia, Cali"
"OCHOA CÉSAR AUGUSTO";;;"Conm.: (57) (2) 5546517";"Cr44 6 B-57 Colombia, Cali"
"MULTISONRISAS CLÍNICA DE ESTÉTICA DENTAL IMPLANTE Y ORTODONCIA";;;"(57) (2) 5539666";"Cl 10 9-11 P-2 Colombia, Cali"
"CLÍNICA ODONTOLÓGICA A UNO";;;"(57) (1) 2220297";"Av (Cl) 53 59-71 Colombia, Bogotá"
"ODONTOSALUD INTEGRAL";;;"(57) (8) 4353070";"Cl 21 12-84 La Consolata Colombia, Florencia"
"IMETI S.A.S";;;"(57) (1) 5203480";"Cl 134 D 46-36 Colombia, Bogotá"
"ASISTENCIA CLINICA DE IMPLANTES DENTALES DEL SUR";;;"(57) (4) 3344499";"Cr43 37 S-77 Int 203 Envigado Colombia, Medellín"
"MIS IMPLANTS S.A.S.";;;"(57) (6) 3212331";"Cl 14 27-25 Colombia, Pereira"
ODONTOLAB-X;;;"(57) (2) 3396050";"Cl 10 65 A-63 Colombia, Cali"
"QUINTANA SABOGAL JUAN D.";;;"(57) (5) 2750262";"Cl 19 20-20 Edif Eduardo V Centro Colombia, Sincelejo"
"ESTRADA HERNÁNDEZ CATALINA";;;"(57) (7) 5834445";"Av1 15-43 Consult 505 Edif Jericò Colombia, Cúcuta"
"AVILA RUIZ HAROLD FERNANDO";;;"(57) (5) 2825622";"Cr17 15-26 Consult 101 Cruz de Mayo Colombia, Sincelejo"
"ORTHO CENTER S.A.S";;;"(57) (1) 6183822";"Cl 104 14 A-45 Consult 203 Colombia, Bogotá"
"First Name";"Email Address";Url;Telephone;Address
CREARDENT;;;"(57) (8) 8360062";"Cr1 B 4-69 Colombia, Pitalito"
MEGAESTETIC;;;"(57) (6) 3446434";"Cr18 12-75 Megacentro Pinares Trr 2 Consult 601 Colombia, Pereira"
"ZULUAGA GIRALDO LUISA FERNANDA";;;"(57) (6) 8871333";"Cr23 A 70 A-06 Camelia Colombia, Manizales"
ORTHOCLINIC;;;"(57) (7) 5831602";"Cl 13 1 E-44 Consult 307-B Colombia, Cúcuta"
"GARCÍA JARAMILLO JAIME EDUARDO";;;"(57) (6) 8845298";"Cr22 26-03 Consult 305 Colombia, Manizales"
"GÓMEZ VILLEGAS CONSTANZA";;;"(57) (6) 8814562";"Cr23 61-04 Colombia, Manizales"
"ALZATE VÉLEZ GERMÁN ALBERTO";;;"(57) (6) 8811840";"Edif Plaza 51 Consult 306 Colombia, Manizales"
"CLÍNICA ODONTOLÓGICA DENTICARIBE";;;"(57) (5) 4202772";"Cr19 12-37 P-1 L-3 y 4 Colombia, Santa Marta"
"BUSTAMANTE VILLAMIZAR JOHN FELIPE";;;"(57) (7) 5711410";"Av0 13-183 Caobos Colombia, Cúcuta"
"CLÍNICA IMPLANTOLÓGICA SWEET SMILE";;;"(57) (8) 4343546";"Cr10 6-76 Las Avenidas Colombia, Florencia"
"IMETI S.A.S";;;"(57) (1) 5203480";"Cl 134 D 46-36 Colombia, Bogotá"
"ORTHO GROUP";;;"(57) (4) 3327731";"Cl 37 S 37-18 Int 104 Envigado Colombia, Envigado"
ORAL-TEAM;;;"(57) (1) 6008505";"Cr16 A 82-46 Consult 508 Colombia, Bogotá"
"LµPEZ ALVAREZ ARY ALFONSO";;;"(57) (5) 6643258";"Edif City Bank Consult 7 E Colombia, Cartagena"
"CLÍNICA COLOMBIANA DE IMPLANTES DENTALES S.A EN";;;"(57) (4) 2504262";"Tr34 72-160 Colombia, Medellín"
"ORAL MAX CLÍNICA ODONTOLÓGICA LTDA";;;"(57) (1) 6241099";"Av Suba 115-58 Trr A Consul413 Colombia, Bogotá"
"CLÍNICA ODONTOLÓGICA DE ESPECIALISTAS VITALDENT";;;"(57) (8) 4359000";"Cl 10 9 A-76 La Cooperativa Colombia, Florencia"
"CLINICA ODONTOLOGICA IMPLANTES DENTALES";;;"(57) (4) 2702539";"Cl 39 S 45-30 Envigado Colombia, Envigado"
"ARTDENT PLUSS";;;"(57) (4) 7920742";"Cr7 26-34 Centro Colombia, Montería"
"NICOLÁS SABBAG N.";;;"(57) (5) 3737602";"Cl 86 49 C-34 P-2 Colombia, Barranquilla"
"BERMÚDEZ MAURICIO";;;"(57) (4) 7810374";"Cl 24 6-115 Centro Colombia, Montería"
"ANA MARÍA ESPINOSA LACOUTURE";;;"(57) (5) 3584985";"Cr49 C 80-125 Cons 711 Continental Medical Center Colombia, Barranquilla"
"1RAL CENTER";;;"(57) (8) 8740124";"Av26 5-131 Esq. Colombia, Neiva"
"PUELLO DEL RÍO EDWIN DE J.";;;"(57) (5) 6641854";"Edif Araújo P-5 Of 503 Colombia, Cartagena"
"GÓMEZ JOSÉ ALBERTO";;;"(57) (1) 2594786";"Cl 127 20-78 Consult 330 Colombia, Bogotá"
"MAZA ANGULO RAFAEL";;;"(57) 3016967705";"Centro de Salud y Negocios Ronda Real Consult 407 Colombia, Cartagena"
"CLÍNICAS ODONTOLÓGICAS ODONTO STUDIO LTDA.";;;"(57) (8) 6701190";"Cr40 33 B-18 Colombia, Villavicencio"
"CLÍNICA ODONTOLÓGICA SIEO";;;"(57) (5) 3783138";"Cl 98 51 B-76 L-201 C.C. Milennium Colombia, Barranquilla"
ODONTOSALUD;;;"(57) (5) 3686432";"Cl 70 B No. 39-105 L-103 Colombia, Barranquilla"
"FERNANDO VIAÑA BERMUDEZ";;;"(57) (5) 3789305";"Cr 68 80-135 Colombia, Barranquilla"
"OSORIO CORTINA ANA MILENA";;;"(57) (5) 6655530";"Bgde Cr3 8-06 Of 301 Edif Montelíbano Colombia, Cartagena"
"JORGE IVÁN CARVAJAL G.";;;"(57) (6) 3447760";"Cl 14 15-68 L-4 Edif Dian Colombia, Pereira"
"GONZÁLEZ BORREGO KAREN";;;"(57) (5) 4234596";"C.C. Plazuela 23 P-2 L-30 Colombia, Santa Marta"
"KABALÁN RACHED ADRIANA";;;"(57) (2) 6594058";"Av6 ABis 35 N-100 Of 705 Colombia, Cali"
"UNIDONSA LTDA.";;;"(57) (7) 6573649";"Cr35 A 46-92 Colombia, Bucaramanga"
"CENTRO DE ASISTENCIA ODONTOLÓGICA PULPODENT";;;"(57) (7) 6348180";"Cl 30 30-60 Colombia, Bucaramanga"
"SÁNCHEZ ARANGO JORGE EDUARDO";;;"(57) (6) 3314692";"Cr13 3 B-34 Colombia, Pereira"
"GÓMEZ ARANGO VÍCTOR MANUEL";;;"(57) (6) 3256044";"Cr6 22-57 Consult 207 Colombia, Pereira"
"PUERTA RAMÍREZ NÉSTOR";;;"(57) (6) 3216130";"Cr18 12-75 Trr 1 Consult 7 Colombia, Pereira"
"PÉREZ SERRANO EILER ALFONSO";;;"(57) (75) 5624576";"Cl 11 13-21 Consult 210 Edif La Guaca Colombia, Ocaña"
"First Name";"Email Address";Url;Telephone;Address
"ORTIZ MARTÍNEZ ANA MARÍA";;;"(57) (7) 6343680";"Cr33 30 A-77 Colombia, Bucaramanga"
"PUERTA RAMÍREZ NÉSTOR";;;"(57) (6) 3216130";"Cr18 12-75 Trr 1 Consult 7 Colombia, Pereira"
"PÉREZ SERRANO EILER ALFONSO";;;"(57) (75) 5624576";"Cl 11 13-21 Consult 210 Edif La Guaca Colombia, Ocaña"
"FORERO SÁNCHEZ FABIÁN ARTURO";;;"(57) (2) 5583742";"Cl 5B5 37 A-61 Colombia, Cali"
DENTALHEALTH;;;"(57) (5) 4201388";"Cl 20 11-75 P-2 L-6 C.C. Acuarium Colombia, Santa Marta"
"ARISTIZÁBAL MEJÍA EDGAR";;;"(57) (2) 3316060";"C.C. Holguines Consult 204 Colombia, Cali"
ODONTOCARITAS;;;"(57) (2) 8234703";"Cl 15 N 6-18 Colombia, Popayán"
"CASTAÑO GRANADA CATALINA";;;"(57) (4) 3662386";"Cr48 19 A-40 Consult 1706 Colombia, Medellín"
ODONTOLAB-X;;;"(57) (2) 3396050";"Cl 10 65 A-63 Colombia, Cali"
"ORAL-DENT LTDA.";;;"(57) (5) 2814341";"Cl 20 24-35 Centro Colombia, Sincelejo"
"CENTRO DE IMPLANTES Y CIRUGÍA MAXILOFACIAL";;;"(57) (8) 7402541";"Cr10 21-15 Consult 1206 Edif Camol Colombia, Tunja"
"CORONADO GREY MENA DE";;;"(57) (4) 7821967";"Cl 24 7-24 Colombia, Montería"
"CENTRO DE IMPLANTES Y CIRUGÍA MAXILOFACIAL";;;"(57) (8) 7703680";"Cl 22 11 A-73 Consult 319 Colombia, Sogamoso"
"VELASCO MELO GUILLERMO";;;"(57) (2) 8233495";"Cr9 15 N-32 Colombia, Popayán"
DENTIFUSIÓN;;;"(57) (5) 6551188";"Bgde Cr3 8-38 L-1 Colombia, Cartagena"
"HARKER MARTÍN ARTURO";;;"(57) (1) 6212702";"Tr18 77-18 Consult 509 Colombia, Bogotá"
"ARANGO HERNÁNDEZ GLORIA NANCY";;;"(57) (4) 2664796";"Cr43 A 1 A S-143 Consult 202 Colombia, Medellín"
"CLÍNICA TASCÓN ODONTOLOGÍA SAS";;;"(57) (2) 6804038";"Cl 5 C 40-69 Colombia, Cali"
"NIETO ALVARO ENRIQUE";;;"(57) (2) 3374756";"Cr70 2-01 Colombia, Cali"
"PEÑA BOTERO ALVARO";;;"(57) (8) 2650818";"Cr5 38-14 Colombia, Ibagué"
"HERNÁNDEZ CADENA ANDRÉS YEZID";;;"(57) (2) 2724441";"Cl 31 32-23 Consult 7 B Colombia, Palmira"
"GRUPO ESTETICO DENTO-FACIAL";;;"(57) (7) 6437981";"Cl 54 33-45 Consult 505 Colombia, Bucaramanga"
"GUILLERMO VELASCO MELO";;;"(57) (2) 8231221";"Cr 9 15N-32 Colombia, Popayán"
"CLÍNICA DE IMPLANTOLOGÍA ORAL";;;"(57) (2) 6612303";"Cl 23 N 6 A N-17 P-7 Colombia, Cali"
"ALZATE VÉLEZ GERMÁN ALBERTO";;;"(57) (6) 8811840";"Edif Plaza 51 Consult 306 Colombia, Manizales"
"DELGADO ECHEVERRI RAMIRO ALBERTO";;;"(57) (2) 8203661";"Cl 16 N 6-27 Consult 403 Centro Médico Palmares Colombia, Popayán"
"JAIMES OCHOA GLEIDYS ELVIRA";;;"(57) (7) 5717763";"Av 1 17-93 Consult 302 Colombia, Cúcuta"
"MEJÍA S. ANGELA MARÍA";;;"(57) (8) 8713256";"Cr5 10-49 Consult 501 Edif Plaza Real Colombia, Neiva"
"FERNÁNDEZ DE CASTRO ASSÍS LILIANA";;;"(57) (4) 7821967";"Cl 24 7-24 Colombia, Montería"
"MIS TECHNOLOGIES S.A.";;;"(57) (1) 6203800";"Av. 9 No. 103 A-36 Of. 301 Colombia, Bogotá"
"DUQUE DUQUE ANDRES";;;"(57) (4) 4449006";"Cr29 D 6 A-05 Of 202 Colombia, Medellín"
"BH SALUD S.A.";;;"(57) (4) 3321062";"Cr43 A 27 A S-86 Int 127 Envigado Colombia, Medellín"
"RÍE GRUPO ODONTOLÓGICO";;;"(57) (2) 2246969";"Cr23 23-16 Colombia, Tuluá"
"ANA MARÍA ESPINOSA LACOUTURE";;;"(57) (5) 3584985";"Cr49 C 80-125 Cons 711 Continental Medical Center Colombia, Barranquilla"
"BOCAS ODONTOLOGÍA ESPECIALIZADA";;;"(57) (6) 3242122";"Cr 14 # 12-21 Colombia, Pereira"
"CENTRO DE IMPLANTOLOGÍA ORAL";;;"(57) (5) 3493317";"Cl 64 # 53-36 Consult 301-302 Colombia, Barranquilla"
"SMILE ESTUDIO";;;"(57) (5) 3738345";"Cl80 49C-15 Cons 306 Colombia, Barranquilla"
"ORDÓÑEZ DAZA MANUEL ARCESIO";;;"(57) (2) 5517558";"Cl 5 B 43 A-45 Colombia, Cali"
"NORIEGA FRONTADO LUIS ANTONIO";;;"(57) (1) 2187268";"Cl 85 14-62 Consult 203 Colombia, Bogotá"
"GONZÁLEZ MÉNDEZ JHONY";;;"(57) (1) 6160669";"Cl 83 19-36 Of 302 Colombia, Bogotá"
"First Name";"Email Address";Url;Telephone;Address
"CASTILLO GARCÍA JUAN MANUEL";;;"(57) (2) 5565992";"Cl 5 D 38 A-35 Trr I Consult 625 Colombia, Cali"
"DÍAZ JAIMES FANNY STELLA";;;"(57) (2) 5581376";"Cl 5 38-25 Consult 512 Colombia, Cali"
"CASTRO VELASCO EDISON";;;"(57) (2) 8806968";"Cr8 9-68 Consult 302 Colombia, Cali"
"GARCÍA JARAMILLO JAIME EDUARDO";;;"(57) (6) 8845298";"Cr22 26-03 Consult 305 Colombia, Manizales"
"BOTERO BOTERO AUGUSTO";;;"(57) (6) 3337841";"Cr6 17-21 Consult 4 Colombia, Pereira"
IRIARTE;;;"Nal: (57) (1) 6155615";"Tr14 126 A-10 Consult 406 Colombia, Bogotá"
"BURBANO MUÑOZ ALVARO JAVIER";;;"(57) (2) 7312973";"Cr36 18-115 Palermo Colombia, Pasto"
"CPID IPS S.A.S.";;;"(57) (4) 4484490";"Cr43 A 1-50 Consult 853 Colombia, Medellín"
"ORTHO GROUP";;;"(57) (4) 3327731";"Cl 37 S 37-18 Int 104 Envigado Colombia, Envigado"
"SALUD ORAL ESPECIALIZADA";;;"(57) (4) 3458599";"Dg 75 B 2 A-80 P-1 Colombia, Medellín"
ODONTOCAUCA;;;"(57) (2) 8236060";"Cr9 16 N-30 Colombia, Popayán"
"IGLESIAS IVÁN";;;"(57) (4) 7817525";"Cl 30 9-45 Colombia, Montería"
"ORTHO CENTER S.A.S";;;"(57) (1) 6183822";"Cl 104 14 A-45 Consult 203 Colombia, Bogotá"
"BERNAL VÉLEZ CAMILO";;;"(57) (1) 6248639";"Cr64 100-55 Colombia, Bogotá"
"DORAIDA KARINA IBAÑEZ FERNANDEZ";;;"(57) (5) 5749407";"Cr11 A 14-39 Of 204 Edif Carrillo Molina Colombia, Valledupar"
"CENTRO ODONTOLÓGICO SAN ANTONIO";;;"(57) (2) 6689621";"Av6 N 14-54 Consult 211 Contiguo Iglesia San Jud Colombia, Cali"
"CHARRIS VILLAREAL HERNAN RAFAEL";;;"(57) (5) 3780134";"Cr49 C 80-125 Consult 313 Colombia, Barranquilla"
"CENTRO DE IMPLANTES Y PERIODONCIA GLORAL";;;"(57) (8) 8721742";"Cl 13 4-71 L-1 Colombia, Neiva"
"ACEVEDO T. CARLOS H.";;;"(57) (5) 3775898";"Cl 98 51 B-76 L-208 C.C. Milenium Colombia, Barranquilla"
"DR.FRANCISCO ZULUAGA - WHITE";;;"(57) (1) 6222293";"Cr15 99-13 Colombia, Bogotá"
"CABRERA TOVAR DYDIER";;;"(57) (1) 2149929";"Cl 125 20-70 Consult 303 Colombia, Bogotá"
"SMILE CENTER COROE LTDA.";;;"(57) (5) 3488251";"Cl 84 50-10 L-204 Colombia, Barranquilla"
"UNISALUD LTDA.";;;"(57) (4) 3719674";"Cr52 80-101 L-1 Colombia, Medellín"
"MANTILLA GOMEZ SERGIO";;;"(57) (7) 6342485";"Cr31 35-12 Of 401 Edif Concasa Colombia, Bucaramanga"
SONRISA;;;"(57) (2) 2282001";"Cr15 6-77 Parque Cabal Colombia, Buga"
"CLÍNICAS ODONTOLÓGICAS BUITRAGO";;;"(57) (1) 3466003";"Cr27 4 A-13 Colombia, Bogotá"
"CLINICA ODONTOLÓGICA DEL META";;;"(57) (8) 6469005";"Cl 14 18-33 P-2 Colombia, Acacías"
"DRA. ANGÉLICA MARÍA VALLEJO";;;"(57) (6) 3355800";"Cl 7 14-58 P-2 Colombia, Pereira"
"CHRISTIAN SALAZAR";;;"(57) (1) 6216643";"Cl 94 A 13-8 Of. 205 Colombia, Bogotá"
"AYALA MUÑOZ GERMÁN";;;"(57) (1) 6167796";"Cr16 76-42 Consult 701 Colombia, Bogotá"
"ODONTO PLANET";;;"(57) (2) 7228102";"Cr25 15-62 L-110 C.C. Zaguán del Lago Colombia, Pasto"
"CASTAÑO ALVAREZ GINA PAOLA";;;"(57) (6) 3263874";"Cr7 26-50 Colombia, Pereira"
"POSADA GAVIRIA ALEJANDRO";;;"(57) (2) 6612303";"Cl 23 N 6 A N-17 P-7 Colombia, Cali"
"JAIMES JAVIER E.";;;"(57) 3142986261";"Cl 13 1 E-44 Consult 301-B Colombia, Cúcuta"
"LABORATORIO DENTAL ALONSO SERRANO FLOREZ";;;"(57) (7) 6499801";"Cl 196 A 29-09 Villa de San Francisco Floridablan Colombia, Bucaramanga"
"NARVÁEZ MÁRQUEZ LUIS E.";;;"(57) (1) 2154380";"Av (Cr) 15 104-76 Colombia, Bogotá"
"HURTADO PERALTA JOSÉ ANTONIO";;;"(57) (1) 3271615";"Dg46 20-60 Colombia, Bogotá"
"OSORIO MOSQUERA CESAR AUGUSTO";;;"(57) (8) 8758309";"Cl 12 7-12 L-9 Edif La Plazuela Colombia, Neiva"
"PÉREZ GIRALDO JHON JAIRO";;;"(57) (4) 3260456";"Cr43 A 1-50 Int 458 Colombia, Medellín"
"LAS AMERICAS UNIDAD ODONTOLÓGICA";;;"(57) (4) 3458599";"Dg75 B 2 A-80 P-1 Colombia, Medellín"
"First Name";"Email Address";Url;Telephone;Address
BOCCA;;;"(57) (7) 6416904";"c.c. acropolis L-121 Colombia, Bucaramanga"
"IMAGEN Y SONRISAS REALES";;;"(57) (5) 3126072650";"Cr45 B 93-45 Colombia, Barranquilla"
"ARIZA TRIANA GUILLERMO";;;"(57) (7) 6479381";"Cr36 54-86 Colombia, Bucaramanga"
"FERNÁNDEZ TULIO";;;"(57) (2) 5131961";"Cr43 A 5 A-90 Colombia, Cali"
"CLÍNICA ODONTOLÓGICA ESTÉTICA ORAL";;;"(57) (7) 6343680";"Cr33 30 A-77 Colombia, Bucaramanga"
"PARRA RODRÍGUEZ MARCELA I.";;;"(57) (2) 2368474";"Cl 3 13-69 Colombia, Buga"
"CENTRO DE IMPLANTOLOGÍA Y REHABILITACIÓN ORAL";;;"(57) (8) 2610224";"Cr3 14-21 P-2 Colombia, Ibagué"
"VALDERRAMA RAMÍREZ CARLOS JOSÉ";;;"(57) (7) 5711410";"Av0 13-183 Caobos Colombia, Cúcuta"
"INNOVACIÓN ODONTOLÓGICA";;;"(57) (2) 8205445";"Cl 6 12-43 Colombia, Popayán"
"MARULANDA LAURA ISABEL";;;"(57) (2) 8236835";"Centro de Especialistas Valle de Pubenza Consult 309 Colombia, Popayán"
"VÁSQUEZ MAURICIO";;;"(57) (1) 6121339";"Cl 116 22-54 Consult 101 Colombia, Bogotá"
"ARIZA GÓMEZ JUAN CARLOS";;;"(57) (2) 3157980";"Cl 13 57-06 Consult 46 Colombia, Cali"
ORAL-TEAM;;;"(57) (1) 6008505";"Cr16 A 82-46 Consult 508 Colombia, Bogotá"
"GONZÁLEZ M. HÉCTOR J.";;;"(57) (1) 2717065";"Cr64 100-29 Consult 201 Colombia, Bogotá"
"ODONTOLGIA MARLON BECERRA";;;"(57) (8) 6825800";"Cr40 26 C-93 Colombia, Villavicencio"
"LLANO SMILE";;;"(57) (8) 6732665";"Cr42 34-18 Barzal Alto Colombia, Villavicencio"
"DUQUE DUQUE ANDRES";;;"(57) (4) 4449006";"Cr29 D 6 A-05 Of 202 Colombia, Medellín"
"NICOLÁS SABBAG N.";;;"(57) (5) 3737602";"Cl 86 49 C-34 P-2 Colombia, Barranquilla"
"CLÍNICA DE IMPLANTOLOGÍA Y CIRUGÍA MAXILOFACIAL";;;"(57) (1) 6120691";"Av7 119-14 Consult 204 Colombia, Bogotá"
"MAZA ANGULO RAFAEL";;;"(57) 3016967705";"Centro de Salud y Negocios Ronda Real Consult 407 Colombia, Cartagena"
"UNIDAD ODONTOLÓGICA DR. JULIO CESAR LEGUIZAMÓN";;;"(57) (1) 2336526";"Cr22 9 A-15 S Colombia, Bogotá"
"UNISALUD LTDA.";;;"(57) (4) 3719674";"Cr52 80-101 L-1 Colombia, Medellín"
"KABALÁN RACHED ADRIANA";;;"(57) (2) 6594058";"Av6 ABis 35 N-100 Of 705 Colombia, Cali"
"BOLAÑOS MAFLA CARLOS ALBERTO";;;"(57) (2) 2756123";"Cl 31 31-63 Consult 211 Colombia, Palmira"
"TAREK EL REDA GACHAN";;;"(57) (5) 3574496";"Cr51 84-184 L 106 Colombia, Barranquilla"
"ORTIZ MARTÍNEZ ANA MARÍA";;;"(57) (7) 6343680";"Cr33 30 A-77 Colombia, Bucaramanga"
"DRA. ANGÉLICA MARÍA VALLEJO";;;"(57) (6) 3355800";"Cl 7 14-58 P-2 Colombia, Pereira"
IRIARTE;;;"Nal: (57) (1) 6155615";"Tr14 126 A-10 Consult 406 Colombia, Bogotá"
"IMETI S.A.S";;;"(57) (1) 5203480";"Cl 134 D 46-36 Colombia, Bogotá"
"VALDIRI RODRIGO";;;"(57) (2) 5523160";"Cl 5 45-20 Of 57 Colombia, Cali"
"AGUILAR MARIN DIEGO ALEJANDRO";;;"(57) (6) 7458672";"Cr14 8 N-63 L-3 Edif Cañaveral Colombia, Armenia"
"PUELLO DEL RÍO EDWIN DE J.";;;"(57) (5) 6641854";"Edif Araújo P-5 Of 503 Colombia, Cartagena"
"DÍAZ CABALLERO ANTONIO JOSÉ";;;"(57) (5) 6609725";"Cl 25 19-71 P-1 Edif Manga Señorial Colombia, Cartagena"
"VITAL PLUS";;;"(57) (5) 3784858";"Cl 96 A 49 C-50 Colombia, Barranquilla"
"CENTRO DE CIRUGÍA E IMPLANTOLOGÍA ORAL CHEDIAK";;;"(57) (1) 6190068";"Cr 21 A 124-55 Consut 402 Colombia, Bogotá"
"CENTRO ESTÉTICO ODONTOLÓGICO ARTIDENT";;;"(57) (6) 3355449";"Cr6 22-57 L-100 Colombia, Pereira"
"GÚZMAN VALDERRAMA NANCY";;;"(57) (1) 3482166";"Cl 64 10-12 Colombia, Bogotá"
"CLÍNICA ODONTOLÓGICA ADI";;;"(57) (8) 6679120";"Cl 32 36-63 L-2-3 Colombia, Villavicencio"
"ADVANCE ESTÉTICA DENTAL";;;"(57) (8) 2633480";"Cr5 10-43 Centenario Colombia, Ibagué"
"CLINICA ODONTOLÓGICA DEL META";;;"(57) (8) 6469005";"Cl 14 18-33 P-2 Colombia, Acacías"
"First Name";"Email Address";Url;Telephone;Address
"CENTRO DE IMPLANTOLOGÍA ORAL SERGIO ARUACHÁN ELJACH";;;"(57) (4) 7824753";"Cr2 22-27 Centro Colombia, Montería"
"IANNINI OBREGÓN MAURICIO ENRIQUE";;;"(57) (1) 2124450";"Cr9 65-60 Consult 109 Colombia, Bogotá"
"MONTEJO TARAZONA JAVIER";;;"(57) (8) 8721282";"Clínica Central de Especialistas Consult 505 Colombia, Neiva"
"RAFAEL MILANÉS VERGARA";;;"(57) (5) 3531433";"Cr49 C 80-125 Consult 312 Colombia, Barranquilla"
"ALBA URECHE ODONTOLOGÍA ESPECIALIZADA";;;"(57) (5) 7275757";"Cl 7 11-112 Colombia, Riohacha"
"RODRÍGUEZ ANA MILENA";;;"(57) (5) 6431290";"Cr17 26-19 L-103 Edif Balcones de Segovia Colombia, Cartagena"
DENTISALUD;;;"(57) (5) 3738787";"Cr49 C 82-101 Colombia, Barranquilla"
"ASESORÍA SONRÍA";;;"(57) (4) 7827600";"Cr2 27-25 Colombia, Montería"
"HOYOS Q. LUISA FERNANDA";;;"(57) (2) 5548164";"Cr39 5 B-22 Consult 405 Colombia, Cali"
"ASISTENCIA DR CESAR MALDONADO";;;"Conm.: (57) (4) 4444006";"Cr74 48-37 Of 821 Colombia, Medellín"
"MARÍN MUÑOZ JAIME - DENTAL WORLD";;;"(57) (7) 6944419";"Cl 38 34-33 Colombia, Bucaramanga"
ODONTOCAL;;;"(57) (7) 6781870";"C.M. Carlos Ardila Lulle Trr B P-10 Mód 63 Colombia, Bucaramanga"
"ARISTIZÁBAL HOYOS JUAN ALBERTO";;;"(57) (6) 8860854";"Centro Odontológico Plaza 51 Consult 203 Colombia, Manizales"
GIMPLANT;;;"(57) (2) 2140128";"Cr3 11-99 Conslt 301 Colombia, Cartago"
"MULTISONRISAS CLÍNICA DE ESTÉTICA DENTAL IMPLANTE Y ORTODONCIA";;;"(57) (2) 5539666";"Cl 10 9-11 P-2 Colombia, Cali"
"PALACIOS RAMÍREZ DIANA CAROLINA";;;"(57) (2) 3308833";"Cr65 A 5-156 Consult. 204 Colombia, Cali"
"CLINICA DE PERIODONCIA";;;"(57) (1) 4900111";"Cl 80 C 94-06 P-2 Colombia, Bogotá"
"HURTADO PERALTA JOSÉ ANTONIO";;;"(57) (1) 3271615";"Dg46 20-60 Colombia, Bogotá"
"CLÍNICA IMPLANTOLÓGICA SWEET SMILE";;;"(57) (8) 4343546";"Cr10 6-76 Las Avenidas Colombia, Florencia"
ORALMAXI;;;"(57) (6) 7450059";"Cl 1 N 12-17 Consult 9 Colombia, Armenia"
"LUZ OFELIA OBANDO GALLEGO";;;"(57) (4) 2389904";"Cr78 B 32 A-32 P-2 Colombia, Medellín"
"ARTEAGA CHAMORRO BEATRIZ CAROLINA";;;"(57) (2) 8232353";"Cr9 10 N-32 Colombia, Popayán"
"ESTHETIC FACIAL HOLDING";;;"(57) (1) 6103955";"Cl 90 14-16 Consult 314 Colombia, Bogotá"
"LOZADA MUÑOZ HENRY";;;"(57) (7) 6572025";"Cr33 52-36 Colombia, Bucaramanga"
"DENTAL SALUD CLÍNICA ESTÉTICA ORAL";;;"(57) (7) 6475563";"Cr33 52-36 Colombia, Bucaramanga"
"DENTAL SALUD";;;"(57) (7) 6572025";"Cr33 52-36 2 PISO Colombia, Bucaramanga"
"CENTRO DE IMPLANTOLOGÍA Y REHABILITACIÓN ORAL";;;"(57) (8) 2610224";"Cr3 14-21 P-2 Colombia, Ibagué"
"DÍAZ JAIMES FANNY STELLA";;;"(57) (2) 5581376";"Cl 5 38-25 Consult 512 Colombia, Cali"
"ARISTIZÁBAL MEJÍA EDGAR";;;"(57) (2) 3316060";"C.C. Holguines Consult 204 Colombia, Cali"
ORTHOCLINIC;;;"(57) (7) 5831602";"Cl 13 1 E-44 Consult 307-B Colombia, Cúcuta"
"MORALES VELÁSQUEZ JORGE ANDRÉS";;;"(57) (6) 3250926";"Cl 17 6-42 Consult 5 Colombia, Pereira"
ODONTOIMÁGEN;;;"(57) (6) 3290552";"Av30 de Agosto 32-40 Colombia, Pereira"
"GÓMEZ VILLEGAS CONSTANZA";;;"(57) (6) 8814562";"Cr23 61-04 Colombia, Manizales"
"ALZATE VÉLEZ GERMÁN ALBERTO";;;"(57) (6) 8811840";"Edif Plaza 51 Consult 306 Colombia, Manizales"
"DIDENT BUITRAGO";;;"(57) (1) 2950844";"Av Boyacá 50-68 Colombia, Bogotá"
"AMAYA SÁNCHEZ SANDRA";;;"(57) (2) 5533957";"Av Roosevelt 39-15 Consult 601 Colombia, Cali"
"ARTEAGA ESCOBAR GONZALO";;;"(57) (1) 2365390";"Cr7 82-66 Consult 223 Colombia, Bogotá"
"ESQUIVIA FERNÁNDEZ TATIANA";;;"(57) (5) 5848379";"Cl 13 C 16-29 Consult 202 Edif Los Angeles Colombia, Valledupar"
"CLÍNICA DE ESPECIALIDADES ODONTOLÓGICAS ORTOSALUD";;;"(57) (5) 4212323";"Cr5 27-41 Colombia, Santa Marta"
"INTEGRAL ODONTOLOGIA AVANZADA";;;"(57) (1) 6014858";"Cr17 106-16 Colombia, Bogotá"
"First Name";"Email Address";Url;Telephone;Address
"AGUILAR MARIN DIEGO ALEJANDRO";;;"(57) (6) 7458672";"Cr14 8 N-63 L-3 Edif Cañaveral Colombia, Armenia"
"IMPLANTOLOGÍA RECONSTRUCTIVA DENTAL SPA";;;"(57) (1) 6218107";"Cl 97 23-37 Consult 721 Colombia, Bogotá"
"CLÍNICA ODONTOLÓGICA ODONTOSTÉTICA";;;"(57) (2) 2241777";"Cr34 26-67 Colombia, Tuluá"
"MEJÍA GALLEGO ANDREA";;;"(57) (6) 7451702";"Cr12 0-75 Consult 417 Colombia, Armenia"
"QUINTERO TAMAYO HÉCTOR ANDRÉS";;;"(57) (6) 7499595";"Cr14 14 N-80 Consult 205 Edif El Bosque Colombia, Armenia"
"CLINICA ODONTOLOGICA IMPLANTES DENTALES";;;"(57) (4) 2702539";"Cl 39 S 45-30 Envigado Colombia, Envigado"
"SILVA BERNAL JUAN CARLOS";;;"(57) (5) 4201865";"Cl 22 15-95 Colombia, Santa Marta"
"ANA MARÍA ESPINOSA LACOUTURE";;;"(57) (5) 3584985";"Cr49 C 80-125 Cons 711 Continental Medical Center Colombia, Barranquilla"
"CENTRO ESTÉTICO ODONTOLÓGICO ARTIDENT";;;"(57) (6) 3355449";"Cr6 22-57 L-100 Colombia, Pereira"
"CLINISOLDÍA LTDA.";;;"(57) (5) 4201865";"Cl 22 15-95 Colombia, Santa Marta"
"GUTIÉRREZ SANTOS EUGENIA";;;"(57) (1) 5208759";"Cr17 A 119 A-09 Colombia, Bogotá"
"LIAN BARRERA XIMENA";;;"(57) (1) 6225929";"Cr14 93 B-29 Colombia, Bogotá"
"LLANOS ISAZA MYRIAM HELENA";;;"(57) (5) 5710761";"Cl 13 8-35 Consult 203 Colombia, Valledupar"
"SMILE CENTER COROE LTDA.";;;"(57) (5) 3488251";"Cl 84 50-10 L-204 Colombia, Barranquilla"
"ACADEMIA COLOMBIANA DE OSEOINTEGACIÓN";;;"(57) (1) 6192013";"Cr18 106-21 Ap 306 Colombia, Bogotá"
"MAGDEN S.A.S.";;;"(57) (2) 8839067";"Cl 6 N 2 N-36 Of 533 Colombia, Cali"
"LATORRE MUÑOZ CARLOS MARIO";;;"(57) (4) 3138083";"Cl 7 S 42-70 Consult 515 Colombia, Medellín"
"ALBERTO PRIETO VILLAMIZAR";;;"(57) (7) 6398842";"C.M. Carlos Ardila Lülle Trr B Mód 57 Consult 812 Colombia, Bucaramanga"
"BAUTISTA GARCIA ALFREDO";;;"(57) (7) 5730007";"Av0 10-78 Edif Colegio Médico Consult 603 Colombia, Cúcuta"
"UNIDAD ODONTOLÓGICA ESPECIALIZADA";;;"(57) (2) 7311438";"Cr29 A 18-22 Colombia, Pasto"
"CLÍNICA BELLA SONRISA";;;"(57) (2) 2737813";"Cr27 35-28 Colombia, Palmira"
"GUILLERMO VELASCO MELO";;;"(57) (2) 8231221";"Cr 9 15N-32 Colombia, Popayán"
"KARAM GEORGE KARAM";;;"(57) (2) 6831550";"Clínica Farallones Consult 607 Colombia, Cali"
"DÍAZ JAIMES FANNY STELLA";;;"(57) (2) 5581376";"Cl 5 38-25 Consult 512 Colombia, Cali"
"CONSULTORIO ODONTOLÓGICO MANUEL FELIPE SÁNCHEZ";;;"(57) (2) 2165094";"Cl 9 14-08 Colombia, Caicedonia"
"TENJO CORREA CARLOS ALBERTO";;;"(57) (6) 8876611";"Cl 64 A 21-50 Colombia, Manizales"
"HURTADO PERALTA JOSÉ ANTONIO";;;"(57) (1) 3271615";"Dg46 20-60 Colombia, Bogotá"
"UNIDAD COLOMBIANA DE ESTÉTICA DENTAL";;;"(57) (4) 3120223";"Cl 52 45-44 Consult 201 Colombia, Medellín"
"CALLE LEMOS JAIRO";;;"(57) (4) 3118155";"Cl 1 A S 43 A-49 Consultorio 212 Colombia, Medellín"
"CORREA URIBE CAMILO";;;"(57) (4) 3217114";"Cl 7 39-197 Consult 1702 Colombia, Medellín"
"ROA HUERTAS DANIEL";;;"(57) (2) 5527552";"Cr39 5-44 P-2 Colombia, Cali"
"MERCHÁN GONZÁLEZ DIEGO";;;"(57) (2) 3312298";"C.C. Holguines Trade Center Consult 619 trr Faral Colombia, Cali"
"AMAYA SÁNCHEZ SANDRA";;;"(57) (2) 5533957";"Av Roosevelt 39-15 Consult 601 Colombia, Cali"
"MUÑOZ PINO CARLOS ARTURO";;;"(57) (2) 8236835";"Cr3 Bis 15 A N-12 Consult 309 Colombia, Popayán"
DENTISALUD;;;"(57) (5) 3738787";"Cr49 C 82-101 Colombia, Barranquilla"
"RENGIFO BERNARDI JORGE ALONSO";;;"(57) (2) 6814586";"Cl 5B5 37 A-61 Colombia, Cali"

"MONTAÑA HOYOS DIEGO LEONARDO";;;"(57) (2) 5533439";"Cl 6 39-25 Consult 506 Colombia, Cali"
"UNIDAD DE ORTODONCIA ESPECIALIZADA";;;"(57) (2) 2756061";"Cl 18 28 A-03 Colombia, Palmira"
