"First Name";"Email Address";Url;Telephone;Address
"LABORATORIO PEÑA";info@laboratoriopena.com;www.laboratoriopena.com;"(57) (4) 5126745";"Cr45 50-39 Of 107 Colombia, Medellín"
"AVISOS PEÑA PEÑA";;;"(57) (2) 8389813";"Cr17 7 B-30 Colombia, Popayán"
"PEÑA PEÑA MARCO ABEL";;;"(57) (2) 5133768";"Cl 9 C 50-25 Consult 301 Colombia, Cali"
"CLÍNICA DEL DUELO DRA. PATRICIA CARVAJAL";cliniduelo@clinicadelduelo.com;www.clinicadelduelo.com;"(57) (2) 3813266";"Cr45 # 5 A-54 Colombia, Cali"
"LUBRIREPUESTOS PEÑA";;;"(57) (2) 4002895";"Cl 70 27-23 Colombia, Cali"
"PEÑA FLORENTINO";;;"(57) (1) 2638292";"Cl 53 68-72 Colombia, Bogotá"
"GRÁFICAS PEÑA";;;"(57) (1) 2521452";"Cl 63 D 70 D 10 Colombia, Bogotá"
"PEÑA ORLANDO";;;"(57) (2) 8388482";"Cl 1 14-47 Av El Cadillal Colombia, Popayán"
"PEÑA IRMA";;;"(57) (1) 7821979";"Cr80 M 74 A-15 S Bosa Colombia, Bogotá"
"GRUAS PEÑA";;;"(57) (8) 6607541";"Cl 15 5-50 Av. Maracos Colombia, Villavicencio"
"INMOBILIARIA PEÑA";;;"(57) (8) 8361206";"Cl 4 4-64 P-2 Colombia, Pitalito"
"PEÑA & IMPORTACIONES";;;"(57) (1) 6310217";"Cl 63 26-54 E Colombia, Bogotá"
"DENTALES PEÑA";;;"(57) (8) 8712476";"Cl 11 3-05 Colombia, Neiva"
"CURVACOL PEÑA";curvadosdecolombia@hotmail.com;www.curvacol.com;"(57) (1) 2312539";"Cr27 68-78 Colombia, Bogotá"
"PEÑA EULISES";;;"(57) (1) 2470084";"Cl 7 28-53 Colombia, Bogotá"
"AGUA DE LA PEÑA";;;"(57) (4) 8494956";"Km 3 Vereda San Luis Colombia, Támesis"
"PEÑA ALBERTO";;;"(57) (1) 6074670";"Cr13 74-92 Colombia, Bogotá"
"MULTISERVICIOS PEÑA";;;"(57) (1) 6068756";"Cr29 C 72-24 Colombia, Bogotá"
"COMERCIALIZADORA PEÑA";;;"(57) (8) 8702029";"Surabastos Bdg A L-124 Colombia, Neiva"
"PEÑA MAGDALENA";;;"(57) (2) 3308110";"Cr60 11 B-80 Ap 201 A Colombia, Cali"
"PEÑA Y ASESORES";;;"(57) (2) 4473631";"Cr2 A 57-03 Colombia, Cali"
"PEÑA YOLANDA";;;"(57) (2) 6802900";"Cl 5 A 42-56 Colombia, Cali"
"MERCADOS LA PEÑA";;;"(57) (4) 2380365";"Cr79 2 S-155 Colombia, Medellín"
"CALZADO PEÑA";;;"(57) (7) 6426800";"Dg15 Cl 56 P-1 L-609 Ricaurte Colombia, Bucaramanga"
"PEÑA TOUR";;;"(57) (1) 8422601";"Cl 5 3-79 Facatativ Colombia, Bogotá"
"PEÑA MARGARITA";;;"(57) (1) 2818306";"Cl 16 8-96 Colombia, Bogotá"
"PEÑA JESÚS";;;"(57) (1) 3345324";"Cr13 11-80 Colombia, Bogotá"
"SERVICIOS PEÑA";;;"(57) (1) 3110553";"Cl 72 57-17 Colombia, Bogotá"
"PEÑA JEISON";;;"(57) (5) 3044747";"Cl 47 43-70 Colombia, Barranquilla"
"PEÑA HERNANDO";;;"(57) (1) 2350209";"Cl 72 20 B-15 Colombia, Bogotá"
"DISTRIADORNOS PEÑA";;;"(57) (1) 2810026";"Cl 11 11-27 L-272 Colombia, Bogotá"
"PEÑA METALES";;;"(57) (7) 6330011";"Cr18 34-43 L-305 C.C. Páez Colombia, Bucaramanga"
"PEÑAS COMPRAVENTA";;;"(57) (7) 6717122";"Cl 15 21-70 Colombia, Bucaramanga"
"SERVIELECTRICO PEÑA";;;"(57) (7) 6563756";"Cl 10 9-58 Centro Piedecuesta Colombia, Piedecuesta"
"PEÑA MEDARDO";;;"(57) (1) 2771208";"Cr18 B 6 B-15 Colombia, Bogotá"
"PEÑA CEFERINO";;;"(57) (1) 2539389";"Ac (Cl) 116 70 H-07 Colombia, Bogotá"
"DE LA PEÑA GLORIA";;;"(57) (1) 4834644";"Av Suba 105-51 Colombia, Bogotá"
"TROQUELADOS PEÑA";;;"(57) (1) 2694104";"Cr26 22 C-73 Colombia, Bogotá"
"PAVIMENTOS PEÑA";henru.pena@hotmail.com;www.pavimentospena.com;"(57) (1) 6859076";"Cl 125 C 84 A-05 Colombia, Bogotá"
"VIDRIOS PEÑA";;;"(57) (28) 1000000";"Cl Pricipal Colombia, El Tambo"
"First Name";"Email Address";Url;Telephone;Address
"PEÑA COMPRESORES";;;"(57) (1) 4084756";"Cr24 6-36 Colombia, Bogotá"
"PEÑA ALBEIRO";;;"(57) (1) 4462406";"Cl 8 S 68-18 Colombia, Bogotá"
"PEÑA LEONARDO";;;"(57) (1) 2271470";"Cl 71 B 100 A-04 Colombia, Bogotá"
"PEÑA LUIS";;;"(57) (1) 2258943";"Cl 65 27 B 08 Colombia, Bogotá"
"BANQUETES PEÑA";germanpe510@hotmail.com;www.banquetespena.com;"(57) (1) 2510355";"Av Boyacá 75 A-29 Colombia, Bogotá"
"SUPERMERCADO PEÑA";;;"(57) (8) 8771366";"Cl 19 47-33 Colombia, Neiva"
"FOTOVIDEO PEÑA";;;"(57) (2) 5573664";"Cr18 Oe 3-76 Colombia, Cali"
"DIESEL PEÑA";;;"(57) (8) 8736435";"Av Circunvalar Cr4 4-21 Colombia, Neiva"
"TAMBORES DE ELLEGUA";tambores.ellegua@gmail.com;myspace.com/tamboresellegua;"(57) (1) 4734309";"Cr20 53-57 Colombia, Bogotá"
"M.A.P.P. MIGUEL A. PEÑA PEÑA Y CIA.S. EN C.";;;"(57) (1) 2121620";"Cl 73 (Av Caracas) 20-10 Colombia, Bogotá"
"PEÑA PAYARES JOSÉ FRANCISCO";;;"(57) (4) 7825171";"Cl 44 14 A-19 Colombia, Montería"
"VIRGÜEZ PEÑA LUCERO";;;"(57) (1) 6084678";"Cr 9 9-35 L-108 Colombia, Bogotá"
"PEÑA SUÁREZ ALCIDES";;;"(57) 3004522658";"Manz I Lt 12 Colombia, Cartagena"
"PEÑA LUIS ALBERTO";;;"(57) (1) 2958374";"Cl 25 F 84 B-10 Colombia, Bogotá"
"CARLOS PEÑA Y SU GRUPO";;;"(57) (1) 2267729";"Cl 119 A 53 A-37 Ap 102 Colombia, Bogotá"
"HERNÁNDEZ PEÑA EDUARDO";;;"(57) (5) 6550849";"Bgde C.C. Bocagrande Of 302 Colombia, Cartagena"
"PEÑA RODRÍGUEZ JAVIER ORLANDO";;;"(57) (1) 6143105";"Tr28 A 139-07 Ap 107 Colombia, Bogotá"
"PEÑA ARDILA YOLANDA";;;"(57) (1) 8007209";"Cr26 51-21 Colombia, Bogotá"
"DUSSAN PEÑA GERARDO";;;"(57) (8) 8365753";"Cr5 6-59 Of 208 Colombia, Pitalito"
"VALENZUELA PEÑA PATRICIA";;;"(57) (1) 2142002";"Cr11 D 120-15 Consult 102 Colombia, Bogotá"
"PEÑA SANDRA MILENA";;;"(57) (1) 4100022";"Cl 25 B 85 B-15 P-1 Colombia, Bogotá"
"MORENO PEÑA ROOSVELT ALEXÁNDER";;;"(57) (1) 4549082";"Cr87 D 39 A-21 S Colombia, Bogotá"
"PEÑA JOSÉ GILBERTO";;;"(57) (1) 7192492";"Cl 65 B S 81 F-35 Colombia, Bogotá"
"ECO PARQUE PEÑAS BLANCAS";;;"(57) 3006587163";"Vía Calarcá-La Virginia Colombia, Armenia"
"PEÑA QUINTERO PEDRO ANTONIO";;;"(57) (1) 2679973";"Cr 94 22-38 Colombia, Bogotá"
"PEÑA KUPERMAN MARCO TULIO";;;"(57) (5) 6641531";"Centro Edif City Bank P-13 Of 13-F Colombia, Cartagena"
"PEÑA ROBLES BLANCA N.";;;"(57) (1) 2288907";"Cl 80 DBis 94 J-10 Colombia, Bogotá"
"HERNANDO RODRIGUEZ PEÑA ""PROSOPLAS""";prosoplas@gmail.com;www.prosoplas.com;"Telefax: (57) (1) 7104629";"Cl 31 Sur 68 I-44 Colombia, Bogotá"
"PEÑA BOCANEGRA NESTOR";;;"(57) (1) 5709040";"Av La Esperanza Cr68 Consult-1022 Colombia, Bogotá"
"PEÑA GRISALES JOSUÉ";;;"(57) (6) 7451702";"Cr12 0-75 Consult 417 Colombia, Armenia"
"ARANGO PEÑA CAMILO";;;"(57) (4) 4449006";"Cr29 D 6 A-05 Of 202 Colombia, Medellín"
"SUPERMERCADO PEÑA VERDE";;;"(57) (4) 2759394";"Cr54 25-71 Colombia, Medellín"
"FAJARDO PEÑA DE ILDA";;;"(57) (1) 4818552";"Av Boyacá 74 A-04 P-2 Colombia, Bogotá"
"AUDIO CAR PEÑA";;;"(57) (1) 2774345";"Cr 26 6-24 Colombia, Bogotá"
"PEÑA ARISTIZÁBAL PAULA ANDREA";;;"(57) 3013566455";"Cr6 2-56 Consult 302 Colombia, Armenia"
"PEÑA ACERO NELSON ALEJANDRO";;;"(57) (1) 2280148";"Cl 82 114-25 Int 5 Ap 103 Colombia, Bogotá"
"PEREIRA PEÑA CARLOS";;;"(57) (4) 4962133";"Cl 34 86 A-67 B-3 Ap 522 Colombia, Medellín"
"PEÑA ZAPATA BLANCA";;;"(57) (5) 6655750";"Bgde Cr2 14-85 L-14 Edif Seguros Bolívar Colombia, Cartagena"
"PEÑA LINA PATRICIA";;;"(57) (4) 2880881";"Cl 43 A 61 S-84 Sabaneta Colombia, Sabaneta"
"PEÑA HALL MARELVY";;;"(57) (5) 6663991";"Cr1 46-50 Av Santander Colombia, Cartagena"
"First Name";"Email Address";Url;Telephone;Address
"BLANCO PEÑA MARTHA CECILIA";;;"(57) (5) 3569112";"Cr53 70-112 L-1C Colombia, Barranquilla"
"MEJÍA PEÑA CRISTIAN IVÁN";;;"(57) (1) 6797800";"Cl 185 A 55 B-34 Colombia, Bogotá"
"PEÑA MANCERO ABOGADOS S.A.S.";;;"(57) (1) 6401355";"Cl 77 13-47 Of 409 Colombia, Bogotá"
"PEÑA DEL TORO FERNANDO";;;"(57) (5) 6662541";"Cl 29 D 21 A-06 Camino Arriba Colombia, Cartagena"
"MECANIZADOS DÍAZ Y PEÑA LTDA.";;;"(57) (1) 2408584";"Cl 74 A 27-25 Colombia, Bogotá"
"ALMACÉN PACHO PEÑA";;;"(57) (4) 7826333";"Cl 36 2-22 Colombia, Montería"
"ALMACÉN Y TALABARTERÍA PACHITO PEÑA";;;"(57) (4) 7918719";"Av1 34-46 L-2 Colombia, Montería"
"CRUZ PEÑA ALEJANDRO";;;"(57) (1) 6557040";"Cr16 A 82-46 Consult 507 Colombia, Bogotá"
"PEÑA SIERRA NATALIA";;;"(57) (4) 2668821";"Cl 14 40 A-269 Int 111 Colombia, Medellín"
"PEÑA LUIS EDUARDO";;;"(57) (1) 2434329";"Cl 13 13-89 Colombia, Bogotá"
"RODRÍGUEZ PEÑA DARÍO JUSTINO";;;"(57) (1) 2556528";"Cr16 A 57-12 Colombia, Bogotá"
"ARDILA PEÑA FERNANDO";;;"(57) (8) 8710621";"Cr5 11-08 Of 204 Colombia, Neiva"
"PEÑA SANTOFIMIO NATALIA ANDREA";;;"(57) (8) 8766273";"Cr7 45-71 Colombia, Neiva"
"PEÑA GUTIÉRREZ & CÍA.";;;"(57) (5) 6642399";"Centro Edif Gánem Of 412 Calle de la Universidad Colombia, Cartagena"
"MUÑOZ PEÑA MACEDONIO";;;"(57) (1) 3118603";"Cr66 70-69 P-2 Colombia, Bogotá"
"PEÑA GUTIÉRREZ URIEL";;;"(57) (1) 4810138";"Cl 66 12-20 Colombia, Bogotá"
"COLEGIO VIRGEN DE LA PEÑA";;;"(57) (1) 4358742";"Cl 70 C 107 C-41 Colombia, Bogotá"
"CÓRDOBA PEÑA ELIZABETH";;;"(57) (2) 5567066";"Cr37 8-37 Colombia, Cali"
"SÁNCHEZ PEÑA SANDRA PATRICIA";;;"(57) (8) 6625962";"Cl 33 B 36-37 Consult 204 Barzal Alto Colombia, Villavicencio"
"PEÑA HERAZO ALEX ENRIQUE";;;"(57) (7) 6472695";"Cr36 51-96 Colombia, Bucaramanga"
"PEÑA ZAPATA CARLOS ARTURO";;;"(57) (5) 6662541";"Cl 29 D 21 A-06 Camino Arriba Colombia, Cartagena"
"PEÑA ALBARRACÍN ALBA LUCY";;;"(57) (1) 2848445";"Cl 19 5-51 Of 607 Colombia, Bogotá"
"LIZARAZU SOSA Y PEÑA ABOGADOS";;;"(57) (1) 6362350";"Cl87 15-23 Colombia, Bogotá"
"ALAPE PEÑA JINETH DE JESÚS";;;"(57) (8) 8362320";"Cr2 2-21 Colombia, Pitalito"
"JIMÉNEZ PEÑA SANDRA ISABEL";;;"(57) (6) 7497610";"Av Bolívar 12 N-39 Colombia, Armenia"
"DE LA OSSA PEÑA NUBIA";;;"(57) (5) 3418673";"Cl 40 43-101 Of 202 Colombia, Barranquilla"
"JÁCOME DE LA PEÑA CONSULTORES ASOCIADOS";;;"(57) (5) 3584908";"Cr52 76-167 Of 506 Edif Atlantis Center Alto Prado Colombia, Barranquilla"
"PEÑA ARIZA RÉGULO RAFAEL";;;"(57) (5) 3467356";"Cl 53 19 B-42 Colombia, Barranquilla"
"ANGEL'S BY LISSETTE PEÑA";;;"(57) (5) 3691638";"Cl 79 49 C-38 L-3 Colombia, Barranquilla"
"IGLESIAS PEÑA VICTOR TEODORO";;;"(57) (5) 3534899";"Cl 77 73-73 Colombia, Barranquilla"
"PLANOS Y DESENGLOBES ALCIDES PEÑA";;;"(57) (4) 4664619";"Av50 A 51-67 Of 203 Bello Colombia, Bello"
"LUIS CARLOS PEÑA MARIN";;;"(57) (4) 2663397";"Cr43 A 1-85 Of 706 Colombia, Medellín"
"PEÑA ALMARIO JOSÉ LUIS";;;"(57) (1) 2580681";"Av Cl 127 19 A-28 Consult 607 Colombia, Bogotá"
"SALAZAR PEÑA VICTOR HUGO";;;"(57) (1) 3700323";"Cr38 9 -63 Ofc 626 Colombia, Bogotá"
"ZONA PEÑA LUIS ALFREDO";;;"(57) (1) 3520811";"Tr6 27-10 Of 203-B Colombia, Bogotá"
"PEÑA MOJICA LORENZO";;;"(57) (1) 2811077";"Cl 24 9-51 Colombia, Bogotá"
"PEÑA HENRY ARMANDO";arpena1101@gmail.com;;"(57) (8) 5126805";"Cl 6 19-118 Sarie Bay Colombia, San Andrés"
"BASILIO PEÑA MARILUZ";;;"(57) (1) 3638771";"Cr3 A E 29-28 S Colombia, Bogotá"
"CUÉLLAR & PEÑA INGENIEROS";;;"(57) (1) 3513782";"Dg5 A 37 B-60 Int 9 Ap 303 Colombia, Bogotá"
"PEÑA SALAS JORGE HENRY";;;"(57) (1) 5357695";"Cl 128 86 B-51 Manz 5 Int 9 Colombia, Bogotá"
"First Name";"Email Address";Url;Telephone;Address
"PEÑA SALAZAR JAVIER JESÚS";;;"(57) (2) 8243864";"Cl 8 7-60 Of 201 Colombia, Popayán"
"PEÑA DÍAZ JOSÉ OSWALDO";;;"(57) (1) 2019017";"Cl 7 30-11 Colombia, Bogotá"
"PEÑA MORENO AUGUSTO";;;"Conm.: (57) (1) 6103260";"Cr19 C 90-14 P-3 Colombia, Bogotá"
"JOSÉ LUIS PEÑA";;;"(57) (1) 2580681";"Av Cl 127 19 A-28 Consult 607 Colombia, Bogotá"
"PEÑA GÓNZALEZ & ASOCIADOS ABOGADOS";;;"(57) (1) 6127919";"Cr 14 B 112-18 Colombia, Bogotá"
"MOTO GUADAÑAS PEÑA";;;"(57) (4) 8392620";"Cr2 21-69 Colombia, Caucasia"
"J. PEÑA INDUSTRIA DEL MUEBLE";;;"(57) (1) 2254007";"Av (Cr) 68 75 A-50 P-2 Colombia, Bogotá"
"JULIO PEÑA B.";;;"(57) (5) 3781331";"Cr56 82-12 Colombia, Barranquilla"
"PEÑA LÒPEZ & CIA. LTDA.";;;"(57) (5) 3568650";"Cr44 69-163 América Colombia, Barranquilla"
"PEÑA GUTIÉRREZ LUIS HUMBERTO";;;"(57) (1) 3601827";"Cr 26 6-34 Colombia, Bogotá"
"PEÑA CARVAJAL GLORIA SOFÍA";;;"(57) (1) 2811700";"Av (Cl) 13 9-17 L-217 Colombia, Bogotá"
"AGUILERA PEÑA ORFA";;;"(57) (1) 7839771";"Cr82 B 63 A-36 Ap 101 Colombia, Bogotá"
"PEÑA PULIDO JAIME ERNESTO";;;"(57) (1) 4517121";"Cr77 V 50-30 S Colombia, Bogotá"
"CARVAJAL PEÑA MARTHA LILIANA";;;"(57) (5) 3454967";"Cr49 C 80-125 Consult 313 Colombia, Barranquilla"
"OSPINO PEÑA CARLOS ALBERTO";;;"(57) (5) 5852568";"Cr15 14-75 Consult 301 P-3 Brr. Alfonso López Colombia, Valledupar"
"CACTUS SCHUTTMAN Y PEÑA S.A.S.";;;"(57) (5) 3583702";"Cl 84 50-45 Of 7 Colombia, Barranquilla"
"PEÑA CH. JAVIER LEONARDO";;;"(57) (1) 6705453";"Cl 166 21-22 Colombia, Bogotá"
"PEÑA GRAJALES CRISTIAN";;;"(57) (1) 4310003";"Cr95 IBis 91 A-48 Colombia, Bogotá"
"FERRETERÍA Y ELÉCTRICOS PEÑA";;;"(57) (2) 8328646";"Cl 60 N 9 A-60 Colombia, Popayán"
"MORÓN PEÑA JORGE";;;"(57) (5) 4140277";"Cr9 6-05 Colombia, Fundación"
"PEÑA BARRERA CARLOS M.";;;"(57) (1) 2229298";"Dg41 48-63 Colombia, Bogotá"
"DE LA PEÑA OSPINO JOAQUÍN";;;"(57) (5) 4201010";"Cl 17 22-151 Colombia, Santa Marta"
"PEÑA CASTILLO ALBA CENETH";;;"(57) (1) 5606396";"Cl 17 S 8 A-21 Colombia, Bogotá"
"PEÑA DÍAZ JHON DÍDIER";;;"(57) (5) 1000000";"Cl 14 7-22 Colombia, Santa Marta"
"IZQUIERDO PEÑA ANA ISABEL";;;"(57) (1) 2176685";"Reservas en Bogotá Colombia, Bogotá"
"PEÑA NOSSA LISANDRO";;;"(57) (1) 6104193";"Cl 103 17-41 Ap 101 Colombia, Bogotá"
"PEÑA GARZÓN NESTOR O.";;;"(57) (1) 8003946";"Cl 106 56-62 Of 514 Colombia, Bogotá"
"PEÑA PAOLA JAIME";;;"(57) (5) 4202724";"Cl 18 21-50 Colombia, Santa Marta"
"MUDANZAS PEÑA TRASTEOS";info@mudanzaspena.com;www.mudanzaspena.com;"(57) (5) 3702289";"Cl 50 39-34 Colombia, Barranquilla"
"PEÑA CAÑON CARLOS ALFONSO";;;"(57) (1) 6252171";"Cl127 21-60 Consult 401 Colombia, Bogotá"
"CENTRO DE ESTÉTICA JOHANA PEÑA";;;"(57) (2) 6696712";"Cr5 8-22 Yumbo Colombia, Yumbo"
"PEÑA CASTAÑO GILBERTO";;;"(57) (1) 2568306";"Cl 93 60 A-53 Colombia, Bogotá"
"PEÑA MARIO FELINO";;;"(57) (2) 8831845";"Cl 10 5-17 Colombia, Cali"
"PEÑA SAAVEDRA LUIS EDUARDO";;;"(57) (2) 4878084";"Cl 9 C 50-25 Consult 1108 Colombia, Cali"
"PEÑA BARRIOS LAUREANO";;;"(57) (2) 6631328";"Pasaje 7 F Bis 64-14 Colombia, Cali"
"PEÑA TORRES IMPRESORES LTDA.";;;"(57) (2) 6655842";"Cl 10 36 A-04 Acopi Yumbo Colombia, Yumbo"
"DECORACIONES PEÑA E.U.";;;"Telefax: (57) (1) 5384272";"Cr139 142 C-03 Colombia, Bogotá"
"PEÑA CHAVES S.A.S";;;"(57) (2) 5551260";"Cl 10 A 125-71 P-1 Colombia, Cali"
"MEJÍA DE LA PEÑA GUSTAVO ADOLFO";;;"(57) (2) 6674172";"Cl 23 N 3-33 Of 401 Colombia, Cali"
"PEÑA HERNÁNDEZ EDGAR";;;"(57) (4) 5124596";"Cl 50 53-44 Int 511 Colombia, Medellín"
"First Name";"Email Address";Url;Telephone;Address
"PEÑA NAVARRO JULIO CÉSAR";;;"(57) (2) 8807484";"Cr7 10-02 Colombia, Cali"
"PEÑA SANTAMARÍA FEDERICO ERNESTO";;;"(57) (4) 4514432";"Cl 54 46-27 Consult 509 Colombia, Medellín"
"ACOSTA PEÑA WILLIAM";;;"(57) (2) 6908174";"Cl 6 N 7-23 Yumbo Colombia, Yumbo"
"AMADEO PEÑA Y COMPAÑÍA LTDA.";;;"(57) (2) 5510045";"Cl 19 Oe 55-150 Colombia, Cali"
"BIBLIOTECA PÚBLICA LA PEÑA";;;"(57) (1) 3281142";"Carrera 7 Este No. 5-57 Colombia, Bogotá"
"PEÑA MARTINEZ JORGE LEOPOLDO";;;"(57) (7) 6479298";"Cr29 47-108 P-3 SOMES Colombia, Bucaramanga"
"MUÑOZ PEÑA ELSSY YOLANDA";;;"(57) (2) 2730408";"Cl 34 41-05 Colombia, Palmira"
"PEÑA VELANDIA LIDA MARICEL";;;"(57) (8) 2638424";"Cl 9 3-65 Consult 102 Unimedit Colombia, Ibagué"
"PEÑA BOTERO ALVARO";;;"(57) (8) 2650818";"Cr5 38-14 Colombia, Ibagué"
"BIBLIOTECA PÚBLICA LA PEÑA-BOGOTÁ";;;"(57) (1) 3281142";"Cr7 E 5-57 Colombia, Bogotá"
"PEÑA QUINTERO HAROLD";;;"(57) (2) 2755709";"Cl 29 20-50 Colombia, Palmira"
"IDÁRRAGA PEÑA MARITZA";;;"(57) (6) 3422157";"Cl 35 14-30 Colombia, Dosquebradas"
"LONDOÑO PEÑA JORGE";;;"(57) (2) 3721349";"Cr38 N 2 A N-95 Colombia, Cali"
"FUNDACIÓN PEÑA DE HOREB";;;"(57) (2) 2277447";"Manantial Vía Quebrada Seca Casa 57 Colombia, Buga"
"ALMACÉN Y COMPRAVENTA LA PEÑA";;;"(57) (2) 2146263";"Cl 11 7-45 Colombia, Cartago"
"PEÑA ROMÁN FABIÁN";;;"(57) (2) 2712525";"Cl 30 22-76 Colombia, Palmira"
"FLAMENCOLATINO JAVIER PEÑA";;;"(57) (1) 2538222";"Cl 126 52 A-92 Int 4 Ap 307 Colombia, Bogotá"
"PEÑA YEPES JOSÉ DIOSELÍN";;;"(57) (8) 2637671";"Cr4 16-94 Colombia, Ibagué"
"HOTEL PEÑA'S BOUTIQUE";;;"(57) (5) 6566147";"Cr9 46-20 La Boquilla Colombia, Cartagena"
"DE LA PEÑA VARGAS OSCAR";;;"(57) (5) 3780050";"Cr51 B 86-48 Colombia, Barranquilla"
"PEÑA HINCAPIÉ AMPARO";;;"(57) (6) 3347326";"Cl 14 8-47 Colombia, Pereira"
"PENA RAMIREZ LUIS FRANCISCO";;;"(57) (6) 3342244";"Cr8 23-09 Of 803 Edif Camara de Comercio Colombia, Pereira"
"HERNÁNDEZ PEÑA DE MARÍA NINI";;;"(57) (1) 5227691";"Cl 116 19-56 Colombia, Bogotá"
"PEÑA QUIROGA NELLY CONSUELO";;;"(57) (1) 6062066";"Cl 71 12-73 P-1 Colombia, Bogotá"
"VEGA PEÑA MARCO ALONSO";;;"(57) (1) 2628224";"Cr62 8 A-48 Colombia, Bogotá"
"PEÑA ARIZA RODRIGO ALBERTO";;;"(57) (1) 2019604";"Cl 2 A 38 A-65 B-O Ap 405 Colombia, Bogotá"
"PEÑA MARÍA CECILIA";;;"(57) (7) 6405479";"B-12 Ap 502 Colseguros Norte Colombia, Bucaramanga"
"JUAN CARLOS SILVA PEÑA";;;"(57) (7) 6431208";"Cl 43 34-31 Colombia, Bucaramanga"
"VÁSQUEZ PEÑA ALVARO";;;"(57) (1) 6331223";"Cl 152 53 A-20 Int 9 Ap 102 Colombia, Bogotá"
"PEÑA GERARDO ANDRÉS";;;"(57) (2) 8369069";"Cl 53 N 13-72 Int 15 Colombia, Popayán"
"PEÑA RIVERA JAIRO";;;"(57) (8) 2656694";"Cl 43 4-26 Centro Médico Javeriano Consult 203 Colombia, Ibagué"
"ESPINOSA PEÑA XIMENA DEL ROCÍO";;;"(57) (8) 2704544";"Av37 8-40 Colombia, Ibagué"
"ACARREOS - MUDANZAS PEÑA";;;"(57) (7) 6378695";"Dg105 104 E-196 Trr 20 Ap 101 Colombia, Bucaramanga"
"PEÑA ARANGO ABOGADOS";;;"(57) (7) 6472513";"Cr33 42-73 Colombia, Bucaramanga"
"PEÑA OSMAN JERLEY";;;"(57) (1) 2629677";"Cr56 5 B-14 Colombia, Bogotá"
"MAURICIO PEÑA CASTILLO";;;"(57) (7) 6457912";"Víaoral: Cl 43 34-31 Colombia, Bucaramanga"
"BIBLIOTECA PÚBLICA LA PEÑA";;;"(57) (1) 3281142";"Carrera 7 Este No. 5-57 Colombia, Bogotá"
"MENDOZA PEÑA GILBERTO";;;"(57) (7) 6303474";"Cl 35 12-31 Of 40 Colombia, Bucaramanga"
"PEÑA ATARA CARLOS ARTURO";;;"(57) (1) 2947561";"Cr102 A 25 H-45 Colombia, Bogotá"
"PEDRO ALFREDO PEÑA";;;"(57) (2) 2374288";"Cl 2 S 9-81 Colombia, Buga"
"First Name";"Email Address";Url;Telephone;Address
"PEÑA PACHECO EDUARDO ALEXANDER";;;"(57) (1) 2851464";"Cr22 45B-38 Consult 501 Colombia, Bogotá"
"DE LA PEÑA VARGAS JAIRO";;;"(57) (1) 2875748";"Cr23 47-51 P-3 Colombia, Bogotá"
"GONZÁLEZ PEÑA JENNY";;;"(57) (1) 6601549";"Cl 63 F 27-03 Colombia, Bogotá"
"PEÑA S. HÉCTOR";;;"Nal: (57) (7) 5950328";"Cl 7 9 E-95 Apto 801 Edif Murano Colsag Colombia, Cúcuta"
"PEÑUELA PEÑA JAIR A.";;;"(57) 3006371968";"Cl 29 19 C-43 Colombia, Santa Marta"
"BEDOYA PEÑA FERNEY";;;"(57) (1) 3415295";"Cr10 12-58 Of 501 Colombia, Bogotá"
"PADILLA PEÑA AICARDO";;;"(57) (1) 2701280";"Tr33 48-18 S Colombia, Bogotá"
"INMOBILIARIA PEÑA & CASTRO CÍA.LTDA.";;;"(57) (1) 3384803";"Cl 45 7-12 Of 201 Colombia, Bogotá"
"PEÑA HERNÁNDEZ OSWALDO";;;"(57) (2) 7313526";"Cl 19 A 31 C-49 Las Cuadras Colombia, Pasto"
"PEÑA M. CAROLINA";;;"(57) (7) 5725540";"Av0 11-161 Edif Negomón Consult 206 Colombia, Cúcuta"
"SANCHEZ PEÑA DIANA DAMARYS";;;"(57) (8) 8715915";"Edif Megacentro Cl 9 3-50 Of 506 Colombia, Neiva"
"AIRES GERMÁN PEÑA MORENO";;;"(57) (7) 6348754";"Cr50 A 26-52 P-1 Albania Colombia, Bucaramanga"
"PEÑA QUINTANA HUGO JAVIER";;;"(57) (8) 8776089";"Cl 15 40-22 Colombia, Neiva"
"GARCÍA PEÑA DE REBECA";;;"(57) (8) 8717373";"Cl 4 1 E-38 L-102 Colombia, Neiva"
"ALMACEN RADIO TV PEÑA";;;"(57) (8) 7423624";"Cr9 20-24 Colombia, Tunja"
"PEÑA LÓPEZ OSCAR MANUEL";;;"(57) (1) 2567930";"Cr60 94 B-87 Colombia, Bogotá"
"PEÑA GÓMEZ LUZ M.";;;"(57) (1) 6153025";"Cr10 134-07 Consult 302 Colombia, Bogotá"
"ACUÑA PEÑA LUIS E.";;;"(57) (1) 2847977";"Cl 21 4-78 Int 1 Colombia, Bogotá"
"TIPOGRAFÍA SARA PEÑA";;;"(57) (2) 8206143";"Cl 6 7-71 P-2 Colombia, Popayán"
"PEÑA GONZÁLEZ FERNANDO";;;"(57) (1) 6217271";"Cr16 84 A-09 Consult 411 Colombia, Bogotá"
"CORREA PEÑA ERNESTO";;;"(57) (1) 6379241";"Av (Cr)19 118-95 Consult 403 Colombia, Bogotá"
"IGLESIA NUESTRA SEÑORA DE LA PEÑA BOGOTA";;;"(57) (1) 2465937";"Cr7 ABis E 6-26 Colombia, Bogotá"
"PEÑA CABRERA MARGARITA MARÍA";;;"(57) (2) 2298543";"Cl 8 8-16 Colombia, Roldanillo"
"SANABRIA PEÑA CLAUDIA LILIANA";;;"(57) (7) 6436124";"Cr29 47-108 Consult 6 Somes Colombia, Bucaramanga"
"MORALES PEÑA ARNULFO";;;"(57) (7) 6567484";"Cr10 12-15 Lebrija Centro Colombia, Bucaramanga"
"PEÑA JOSÉ ANTONIO";;;"(57) (7) 6703969";"Cl 46 3 Occ-53 Campohermoso Colombia, Bucaramanga"
"GODOY PEÑA JULIO CÉSAR";;;"Conm.: (57) (1) 8352865";"Cl 24 8 A-22 Santander Colombia, Girardot"
"ROVIRO PEÑA PÉREZ";;;"(57) (2) 2759900";"Cr26 31-52 Colombia, Palmira"
"PEÑA DUQUE SERGIO ALBERTO";;;"(57) (1) 5435263";"Cr110 A 64-69 Colombia, Bogotá"
"CLAUDIA SANMIGUEL PEÑA";;;"(57) (7) 7235975";"Cl 12 8-35 L-105 Colombia, San Gil"
"PAOLA CAROLINA ROYO PEÑA";draroyo@hotmail.com;www.ginecologapaolaroyo.com;"(57) (5) 3781812";"Cr51 B 94-334 Colombia, Barranquilla"
"PEÑA SARMIENTO JAVIER MAURICIO";;;"(57) (7) 6224277";"Cr23 49-34 Colombia Colombia, Barrancabermeja"
"PEÑA NORIEGA EDWIN ALEX";;;"(57) (7) 6421109";"Cr14 35-26 Of 203-B Colombia, Bucaramanga"
"LA CASITA DEL ASEO PEÑA RODRÍGUEZ";;;"(57) (1) 5407573";"Cl 59 9-57 L-161 Colombia, Bogotá"
"JAIME TORO PEÑA";;;"(57) (2) 2724711";"Cl 30 22-08 Colombia, Palmira"
"BELALCÁZAR PEÑA MARÍA ELENA";;;"(57) (2) 2758722";"Cl 29 27-40 Of 402-A Colombia, Palmira"
"ERASMO PEÑA ARANDA";;;"(57) (2) 8802831";"Cr4 # 11-33 Of 504 Colombia, Cali"
"PEÑA LUZ NUBIA";;;"(57) (1) 2436062";"Cr6 A 14-43 Of 312 Colombia, Bogotá"
"PEÑA MOJICA ALBERTO";;;"(57) (1) 5664052";"Cl 20 9-09 Colombia, Bogotá"
"PEÑA HINCAPIÉ CONSUELO";;;"(57) (6) 3347385";"Cr7 10-41 Colombia, Pereira"
"First Name";"Email Address";Url;Telephone;Address
"IVAN MAURICIO PEÑA CASTELLANOS";;;"(57) (7) 6383805";"Cr30 31-35 C.Médico Ardila Lulle Consult.403 Colombia, Bucaramanga"
"LACHE PEÑA JOHN C.";;;"(57) (1) 4031521";"Cr73 C 36-41 S Colombia, Bogotá"
"MUEBLES DE ESTILO CARLOS E. PEÑA";;;"(57) (1) 2494644";"Cl 67 11-84 Colombia, Bogotá"
"PEÑA CHACÓN ROSA HELENA";;;"(57) (1) 2815662";"Cl 12 6-69 Colombia, Bogotá"
"CONSUELO PEÑA DENTAL SPLENDOR";;;"(57) (6) 3347385";"Cr7 10-41 Colombia, Pereira"
"PEÑA A. E HIJOS LTDA. EDUARDO";;;"(57) (1) 6360575";"Cl 96 12-05 Colombia, Bogotá"
"RAÚL PEÑA Y ASOCIADOS S.A.S.";;;"Telefax: (57) (1) 8129269";"Cr13 136-71 Colombia, Bogotá"
"SALGADO PEÑA HERIBERTO";;;"(57) (2) 8326168";"Cl 8 10 A-29 P-2 Colombia, Popayán"
"CAFETERÍA PEÑA BLANCA";;;"(57) (2) 8240862";"Cr7 6-85 Colombia, Popayán"
"EDUARDO PÉREZ PEÑA LUMINOSO";;;"(57) (1) 6099828";"Cr12 15-36 P-1 Colombia, Bogotá"
"PEÑA URIBE ELBA CRISTINA";;;"(57) (1) 6171666";"Cl 82 18-24 Of 605 Colombia, Bogotá"
"PEÑA NELSÓN EMILIO";;;"(57) (1) 6263074";"Cr50 136-44 Colombia, Bogotá"
"PEÑA RODRÍGUEZ & ASOCIADOS S.A.S.";;;"Telefax: (57) (1) 3215030";"Cl 71 6 - 21 Of 401 Colombia, Bogotá"
"CABAS PEÑA RAÚL";;;"(57) (5) 4202466";"Cr16 21 A-40 Los Alcázares Colombia, Santa Marta"
"COMERCIALIZADORA MUÑOZ PEÑA S.A.S.";;;"Telefax: (57) (1) 3007347";"Cl 72 74 A - 30 Colombia, Bogotá"
"GURESSO PEÑA JORGE LUIS";;;"(57) (5) 4310084";"Cr6 23-52 Of 404 Edif Temis Colombia, Santa Marta"
"SALGADO PEÑA ADRIANA JIMENA";;;"(57) (1) 6063065";"Cl 78 36-17 Colombia, Bogotá"
"RAMÍREZ PEÑA JORGE";;;"(57) (4) 3533081";"Cr82 A 26-37 Int 908 Colombia, Medellín"
"PEÑA ORIZAGA ASOCIADOS LTDA.";;;"(57) (1) 2367683";"Cl 92 15-62 Ap 506 Colombia, Bogotá"
"BARÓN PEÑA CARLOS ALBERTO";;;"(57) (2) 6671006";"Av6 N 15-66 Colombia, Cali"
"PEÑA MOSQUERA KATHERINE";;;"(57) (7) 5725540";"Av0 11-161 Edif.Negomon Colombia, Cúcuta"
"SÁNCHEZ PEÑA GERARDO";;;"(57) (8) 8333295";"Cl 8 11-74 78 Colombia, Garzón"
"PEÑA PÁEZ GUILLERMO";;;"(57) (1) 2848445";"Cl 19 5-51 Of 607 Colombia, Bogotá"
"CAICEDO PEÑA GERMÁN A.";;;"(57) (1) 6104494";"Cr10 96-79 Consult 403 Colombia, Bogotá"
"PEÑA ANGULO EDGAR FERNANDO";;;"(57) (7) 5718413";"Av4 9-23 Colombia, Cúcuta"
"FERRETERÍA PEÑA P. F.";;;"(57) (1) 2842748";"Cl 12 15-10 Colombia, Bogotá"
"PEÑA CEDIEL ABOGADOS S.A.S.";;;"(57) (1) 6292704";"Cl 113 7-45 Trr B Of 504 Colombia, Bogotá"
"PEÑA QUIÑONES GERMÁN";;;"(57) (1) 2150341";"Av9 116-20 Consult 417 Colombia, Bogotá"
"HERMIDA PEÑA GUILLERMO";;;"(57) (1) 2576590";"Cl 77 16-20 Consult 201 Colombia, Bogotá"
"DELGADO PEÑA HENRY";;;"(57) (7) 5834345";"Av8 10-72 Colombia, Cúcuta"
"LEÓN PEÑA LUZ MARINA";;;"(57) (1) 2852489";"Cr19 39-55 Colombia, Bogotá"
"PEÑA GUTIÉRREZ ROSA AMPARO";;;"(57) (1) 2740504";"Cr47 145 B-39 Colombia, Bogotá"
"PEÑA MARTÍNEZ CLAUDIA";;;"(57) (2) 7334748";"Cl 20 24-37 Consult 403 Colombia, Pasto"
"TALLER INDUSTRIAL RAUL PEÑA";;;"(57) (4) 2124230";"Cr50 87-62 Colombia, Medellín"
"PEÑA QUINTERO ANDRÉS MAURICIO";ampqb@hotmail.com;doctorandrespena.com;"(57) (4) 4448248";"Cl 34 63 B-72 Consult 302 Colombia, Medellín"
"PISOS RUBÉN PEÑA";;;"(57) (4) 2622456";"Cr43 25 A-112 Int 501 Colombia, Medellín"
"CENTRO EDUCATIVO RURAL PEÑAS";;;"Telefax: (57) (4) 8621061";"Vda Peþas Colombia, Santo Domingo"
"PEÑA ECHAVARRIA LUZ MARINA";;;"(57) (4) 3416775";"Cl 28 A 81-15 Colombia, Medellín"
"PEÑA JORGE ARMANDO";;;"(57) (4) 2686099";"Cl 2 S 46-55 Clinica las Vegas fase 2 Colombia, Medellín"
"PEÑA MARTÍNEZ ALFONSO";;;"(57) (1) 2459228";"Av Caracas 31 B-15 Consult 201 Colombia, Bogotá"
"First Name";"Email Address";Url;Telephone;Address
"PEÑA SUÁREZ GUSTAVO";;;"(57) 3108567018";"Cr14 7-27 Colombia, Neiva"
"PEÑA TOBAR MARÍA DEL PILAR";;;"(57) (8) 8722619";"Cr7 24-23 Colombia, Neiva"
"CADENA PEÑA JOSÉ JULIÁN";;;"(57) (2) 2724441";"Cl 31 32-23 Consult 7-B Colombia, Palmira"
"CARO PEÑA CLAUDIA PATRICIA";;;"(57) (1) 3609243";"Cr19 12-60 Pto 9 Colombia, Bogotá"
"CONSULTORIO DENTAL HÉCTOR TORO PEÑA";;;"(57) (6) 7453660";"Cl 14 15-50 Colombia, Armenia"
"ACADEMIA DE DANZAS GACHO & GLORIA PEÑA";;;"(57) (5) 3533847";"Cr59 75-63 Colombia, Barranquilla"
"FREDDY PEÑA STUDIO EVENTOS MUSICOS";;;"(57) (2) 4279133";"Cr 29B # 46-81 Colombia, Cali"
"FERRETERÍA DUEÑAS & PEÑA CIA. LTDA.";;;"(57) (1) 5721452";"Cl 43 S 80 H-23 Colombia, Bogotá"
"GRUPO FLAMA LA PEÑA GARCÍA LTDA.";;;"(57) (4) 2661634";"Cl 5 A 35-86 Int 2004 Colombia, Medellín"
"PEÑA ANGULO ABOGADOS ASOCIADOS LTDA.";abogados@pabogadosasociados.com;;"(57) (1) 2839511";"Cr6 14-98 Of 1401 Colombia, Bogotá"
"PLATERÍA HÉCTOR A. PEÑA E. HIJOS LTDA.";;;"(57) (1) 6377942";"Cl 121 11 D-29 Colombia, Bogotá"
"LABORATORIO CLÍNICO ELIZABETH ARTEAGA PEÑA";;;"(57) (8) 7700203";"Cr12 11-63 Consult 406 Colombia, Sogamoso"
"JAIME GRANADOS PEÑA & ASOCIADOS LTDA";;;"(57) (1) 5300640";"Cr19 A 82-40 P-2 Colombia, Bogotá"
"MARÍA FERNANDA PEÑA / FRESH ICE";;;"(57) (2) 6816138";"Cl 13 (Cr) 38 Esq Acopi Colombia, Cali"
"CONSULTORIO DEL DR. HAROLD PEÑA QUINTERO";;;"(57) (2) 2728602";"Cl 31 31-63 Colombia, Palmira"
"INSTITUCIÓN EDUCATIVA ROSA SARATE DE PEÑA";;;"(57) (2) 2462094";"La Bocana Colombia, La Bocana"
"LABORATORIO CLÍNICO CLAUDIA ARROYAVE PEÑA";;;"(57) (6) 3339507";"Cl 24 6-42 Colombia, Pereira"
"J. PEÑA INDUSTRIA DEL MUEBLE Y LA MADERA";;;"(57) (7) 6718747";"Cl 18 15-42 Colombia, Bucaramanga"
"PRE-ICFES JOSÉ ALFREDO PEÑA";;;"(57) (2) 7310353";"Cl 20 28 A-10 Colombia, Pasto"
"INSTITUCIÓN EDUCARIVA ROSA ZARATE DE PEÑA";;;"(57) (2) 5508088";"Vereda Rincón Dapa Yumbo Colombia, Yumbo"
"ALQUILER DE MAQUINARIA PARA CONSTRUCCION OSCAR PEÑA";oscarpena.63@hotmail.com;;"(57) (1) 2708193";"Cl 53 A   S 32-61 Colombia, Bogotá"
"ODONTOLOGIA ESTETICA ROCIO M. PEÑA";;;"(57) 3155298535";"Cl 57 N 10-96 Brr. Villa del Viento Colombia, Popayán"
"ASESORES DE SEGUROS GILBERTO PEÑA Y CÍA.";;;"(57) (1) 6722605";"Cr57 172-10 Colombia, Bogotá"
"CENTRO EDUCATIVO RURAL PEÑAS AZULES";;;"Telefax: (57) (4) 8656846";"Vda Peþas Azules Colombia, San Roque"
"PEÑA M. JOSÉ ISIDRO - PAPELERÍA";;;"(57) (1) 2845701";"Cr13 # 13-24 Of. 315 Colombia, Bogotá"
"JUZGADO 11 DE EJECUCIÓN DE PENAS Y MEDIDAS DE SEGURIDAD";;;"(57) (1) 2847287";"Cl 11 9 A-24 P-8 Colombia, Bogotá"
"JUZGADO 6 DE EJECUCIÓN DE PENAS Y MEDIDAS DE SEGURIDAD";;;"(57) (1) 2846497";"Cl 11 9-24 P-9 Colombia, Bogotá"
"JUZGADO 5 DE EJECUCIÓN DE PENAS Y MEDIDAS DE SEGURIDAD PERMANENTE";;;"(57) (1) 2847313";"Cl 11 9 A-24 P-9 Colombia, Bogotá"
"JUZGADO 10 DE EJECUCIÓN DE PENAS Y MEDIDAS DE SEGURIDAD";;;"(57) (1) 2847266";"Cl 11 9 A-24 P-8 Colombia, Bogotá"
"JUZGADO 4 DE EJECUCIÓN DE PENAS Y MEDIDAS DE SEGURIDAD PERMANENTE";;;"(57) (1) 2847265";"Cl 11 9-24 P-9 Colombia, Bogotá"
"PEÑA ASESORES EN SALUD OCUPACIONAL PASO LTDA.";pasomonteria@telecom.com.co;www.pasoltda.com;"(57) (4) 7867591";"Cr14 16-28 Br. Urbina Circunvalar Colombia, Montería"
"JUZGADO 2 DE EJECUCIÓN DE PENAS Y MEDIDAS DE SEGURIDAD";;;"(57) (1) 2847237";"Cl 11 9 A-24 P-9 Colombia, Bogotá"
"JUZGADO 12 DE EJECUCIÓN DE PENAS Y MEDIDAS DE SEGURIDAD";;;"(57) (1) 2848711";"Cl 14 7-36 P-21 Colombia, Bogotá"
"JUZGADO 1 DE EJECUCIÓN DE PENAS Y MEDIDAS DE SEGURIDAD";;;"(57) (1) 2846489";"Cl 11 9 A-24 P-19 Colombia, Bogotá"
"JUZGADO 9 DE EJECUCIÓN DE PENAS Y MEDIDAS DE SEGURIDAD";;;"(57) (1) 2864542";"Cl 11 9 A-24 P-8 Colombia, Bogotá"
"JUZGADO 7 DE EJECUCIÓN DE PENAS Y MEDIDAS DE SEGURIDAD";;;"(57) (1) 2846527";"Cl 11 9 A-24 P-8 Colombia, Bogotá"
"MUÑOZ PEÑA & CÍA. LTDA. JULIO ENRIQUE";;;"(57) (1) 4306956";"Dg66 A 80 A-21 P-1 Colombia, Bogotá"
"PEÑA MANCERO S.A.S. O PM ABOGADOS S.A.S.";;;"Telefax: (57) (1) 3000223";"Cl 94 A 11 A - 66 Of 301 Colombia, Bogotá"
"PEÑA CARLOS ALBERTO / SOLUCIONES C A P 23";;;"(57) (2) 3346669";"Cl 14 C 49-16 Colombia, Cali"
"LABORATORIO CLÍNICO LUZ STELLA FRANCO PEÑA";;;"(57) (2) 2128555";"Cl 11 2-83 Colombia, Cartago"
"First Name";"Email Address";Url;Telephone;Address
"FÁBRICA DE BLOQUES LUIS EDUARDO RODRÍGUEZ PEÑA";;;"(57) (6) 8777668";"E-A Villamaría Fundemos Colombia, Manizales"
"CENTRO DE SERVICIOS ADMINISTRATIVOS DE LOS JUZGADOS DE EJECUCIÓN DE PENAS Y MEDIDAS DE SEGURIDAD";;;"(57) (8) 6621126";"Cr29 33 B-79 T-A Of 109 Colombia, Villavicencio"
