"First Name";"Email Address";Url;Telephone;Address
"PRODUCTOS QUÍMICOS PANAMERICANOS S.A.";natalia.moreno@pqp.com.co;www.pqp.com.co;"(57) (4) 2685000";"Cl 5 A 39-93 Trr 1 Edif Corfín Colombia, Medellín"
"INDUSALCA LTDA.";atencionalcliente@indusalca.com.co;www.indusalca.com.co;"(57) (5) 3822922";"Av. Circunvalar No. 10-427 Bdg 28 Colombia, Barranquilla"
"AMBIENTE COMÚN INGENIERÍA S.A.S.";juanb@ambientecomun.com;www.ambientecomun.com;"(57) (2) 6655325";"Av4   N 40   N-60 Colombia, Cali"
"INGENIERÍA EN PLÁSTICOS REFORZADOS S.A.S.";info@ipr.com.co;www.ipr.com.co;"(57) (2) 3816260";"Cr10 42-50 Bdg 103 Colombia, Cali"
"FARMACIA HOMEOPATICA DEL DR. PINZON";contacto@farmaciadrpinzon.com;www.farmaciadrpinzon.com;"(57) (1) 2148480";"Cl 125 20-70 Consult 405 Colombia, Bogotá"
"QUÍMICOS DEL EJE S.A.S";ventas@quimicosdeleje.com;www.quimicosdeleje.com;"(57) (6) 7312323";"Cr19 39-33 Frente A La Bomba Boyacá Colombia, Armenia"
"AGROPUNTO LA FINCA";agropuntolafinca@msm.com;www.agropuntolafinca.com.co;"(57) (8) 6702998";"Cl 26 40-39 Brr. 7 de Agosto Colombia, Villavicencio"
"MIELES EL TRAPICHE LTDA.";trapiche1@une.net.co;;"(57) (4) 2304426";"Cl 66 74 C-72 Colombia, Medellín"
"ALIANZA INTERAMERICANA DE COMERCIO S.A.S";aicomercialsas@hotmail.com;aicsas.com.co;"(57) (4) 3229095";"Cr57 30 A-20 Colombia, Medellín"
"COMERCIALIZADORA DE SALES EL TITAN S.A.S.";info@depositodesaleseltitan.com;www.depositodesaleseltitan.com;"(57) (1) 2432340";"Cr17 9-70 Colombia, Bogotá"
"MONTEMAR S.A.S.";salmontemarsa@une.net.co;www.salmontemar.com;"(57) (4) 2629545";"Cr43 A 19 A-87 Of 204 Colombia, Medellín"
CHORINSUMOS;julian.adolfo@hotmail.com;chorinsumos.com;"(57) (2) 2322968";"Cr21 30 A-37 Colombia, Tuluá"
"TIGRILLO FELPIAMOS";rube_echavarria@hotmail.com;;"(57) (4) 2624751";"Cl 40 53-61 Colombia, Medellín"
"DISTRIBUIDORA LA COLMENA Y SALES";melazacolmena@gmail.com;;"(57) (7) 6715620";"Cr16 16-24 Colombia, Bucaramanga"
"LONDOÑO HERMANOS LTDA.";londonohermanos@emcali.net.co;;"(57) (2) 8843279";"Cr17 21-46 Colombia, Cali"
"QUESERA Y SALSAMENTARIA ESPAÑA";luan.monpol@hotmail.com;;"(57) (2) 4416242";"Cl 33 A Tr30-71 Colombia, Cali"
"BOYPAN MATERIA PRIMA PARA PANADERIAS";boypan@boypan.com.co;www.boypan.com.co;"(57) (1) 6743775";"Cl 156 7 D-17 Colombia, Bogotá"
"SALES DEL CAMPO";;;"(57) (8) 8679294";"Surabastos Bdg G-103 Colombia, Neiva"
"EL PORTAL DEL AGRO";;;"(57) (8) 6624478";"Cl 35 27-107 San Isidro Colombia, Villavicencio"
"AGRODISTRISALES LTDA";;;"(57) (1) 2771030";"Cr32 8-39 P-2 Colombia, Bogotá"
CENTROPAÑALES;;;"(57) (8) 2636513";"Cr1 15-87 Colombia, Ibagué"
"GRANERO EL CARMEN";;;"(57) (7) 6342923";"Cr23 12 A-13 Colombia, Bucaramanga"
"DEPOSITO DE SALES MANAURE";;;"(57) (8) 8722699";"Cl 7 1-43 Colombia, Neiva"
"PINZÓN GARCÍA RAMÓN";;;"(57) (1) 2950129";"Dg22 81-36 Colombia, Bogotá"
"DISTRIBUIDORA RAZU E.U.";;;"(57) 7267287";"Cl 14 16-71 Colombia, Maicao"
"DISTRIBUIDORA DE SALES LA YE";;;"(57) (2) 4412475";"Tr31 17 F-77 Colombia, Cali"
"COMERCIALIZADORA DE SAL ORO BLANCO";;;"(57) (7) 6717323";"Cl 18 18-13 San Francisco Colombia, Bucaramanga"
"BRINSA S.A.";;;"(57) (1) 4846000";"Cl 98 # 94-46 Colombia, Bogotá"
"MOLINO DE SAL EL GUAJIRO";;;"(57) (1) 2797610";"Molino de Sal El Guajiro Colombia, Bogotá"
"GRANISAL LTDA.";;;"(57) (2) 5246060";"Cr17 F Dg21-19 Colombia, Cali"
"SALES DEL PACÍFICO";;;"(57) (2) 4414074";"Tr31 17 F-82 Colombia, Cali"
"ALMASALES DE OCCIDENTE S.A.S.";;;"(57) (2) 4423593";"Cr17 F 32 B-35 Colombia, Cali"
"DISTRIBUIDORA DE MELAZA Y SALES CAÑISALES";;;"(57) (7) 6710766";"Cr19 14-57 San Francisco Colombia, Bucaramanga"
"DISTRIBUIDORA DE SAL ESTRELLA DORADA";;;"(57) (7) 6711886";"Cr17 15-46 San Francisco Colombia, Bucaramanga"
"RAZÚ REYNA BLANCA";;;"(57) (54) 7177711";"Km1 Zona Industrial Vía a Manaure Colombia, Uribia"
"QUIMICAMPO LTDA.";;;"(57) (1) 7811593";"Cr11 A 13 A S-45 Soacha Colombia, Bogotá"
"GIRÓN GIRALDO NORA ELENA";;;"(57) (1) 5658631";"Cr17 10-68 Colombia, Bogotá"
AGRODISTRISALES;;;"(57) (7) 6707936";"Cl 28 17 A-19 Centro Colombia, Bucaramanga"
"PRODUCTOS BASE COOK S.A.";;;"(57) (4) 4447211";"Cl 57   S 48-89 Sabaneta Colombia, Medellín"
"ABC CENTRAL DE SALES";;;"(57) (1) 3423023";"Cr17 9-44 Colombia, Bogotá"
"First Name";"Email Address";Url;Telephone;Address
"EL PORTAL DEL AGRO";;;"(57) (8) 6624478";"Cl 35 27-107 San Isidro Colombia, Villavicencio"
"BRINSA S.A.";;;"(57) (1) 4846000";"Cl 98 # 94-46 Colombia, Bogotá"
"PRODUCTOS BASE COOK S.A.";;;"(57) (4) 4447211";"Cl 57   S 48-89 Sabaneta Colombia, Medellín"
"DISTRIBUIDORA PANIFIQUEMOS";;;"(57) (8) 2661831";"Cl 27 4 B-31 Colombia, Ibagué"
AGRODISTRISALES;;;"(57) (7) 6707936";"Cl 28 17 A-19 Centro Colombia, Bucaramanga"
"AGRODISTRISALES LTDA";;;"(57) (1) 2771030";"Cr32 8-39 P-2 Colombia, Bogotá"
"RAZÚ REYNA BLANCA";;;"(57) (54) 7177711";"Km1 Zona Industrial Vía a Manaure Colombia, Uribia"
SALPAGAN;;;"(57) (1) 6718160";"Cl 161 22 A-48 Colombia, Bogotá"
