"First Name";"Email Address";Url;Telephone;Address
"IBIZA MOTEL LOUNGE";gerencia@motelibiza.com;www.motelibiza.com;"(57) (4) 4484969";"Cr42 79-39 Autop Sur Itagüí Colombia, Medellín"
"HOTEL CASTELLANA 100";mialternativacomercial@hotmail.com;www.hotelesbogotacastellana100.com;"(57) (1) 4673763";"Cl 96 45 A-19 Colombia, Bogotá"
"APARTAMENTOS EMPRESARIALES VIAGGIO";reservas@viaggio.com.co;www.viaggio.com.co;"Telefax: (57) (1) 6358843";"Cr11 86-60 Of 101 Colombia, Bogotá"
"MOTEL JARDÍN DEL AMOR HOSTAL.";ggarcia@une.net.co;www.jardindelamor.co;"(57) (4) 2110202";"Cr51 73-90 Colombia, Medellín"
"APARTAHOTEL LA PRIMAVERA";sugerencias@dondeflorecelapasion.com;www.dondeflorecelapasion.com;"(57) (8) 2659294";"Cr2 Cl 26 Esq Colombia, Ibagué"
"MY LOVE STORE";ventas@mylovestore.co;www.mylovestore.co;"(57) (2) 4878972";"Cr80 10 A-07 L-14 Colombia, Cali"
"HOSTAL EL MARQUEZ";hostalelmarquezpavas@hotmail.com;www.hostalelmarquez.com;"(57) (2) 6534816";"Pavas-La Cumbre Valle Colombia, Cali"
"CORA SUITES";coraapartasuitescali@hotmail.com;www.corasuitescali.com;"(57) (2) 6678594";"Av9   N 17   N-31 Colombia, Cali"
"INMOBILIARÍA AREA NUEVA S.A.S.";augusto@areanueva.co;www.areanueva.co;"(57) (4) 4440884";"Cr43 B 14-19 L-1 Edif Alcalá Colombia, Medellín"
"REY DE CORAZONES S.A.S.";reydecorazones@emcali.net.co;www.motelreydecorazones.com;"(57) (2) 5552449";"Vía Cali-Jamundí Km 7 Colombia, Cali"
"MOTEL REY DE CORAZONES";reydecorazones@emcali.net.co;www.motelreydecorazones.com;"(57) (2) 5552449";"Vía Cali-Jamundí Km 7 Colombia, Cali"
"ADBIENES LTDA.";adbienesltda@une.net.co;www.adbienes.com;"(57) (4) 4488790";"Av74 B 39 B-68 L-101 Colombia, Medellín"
"MOTEL PARAISO ROMANO";magcali@hotmail.com;www.elparaisoromano.com;"Telefax: (57) (2) 6654274";"Cr35 10-33 Antigua Carrt A Yumbo Colombia, Cali"
"APARTAHOTEL CIUDAD DE CALI";apartahotelciudadcali@hotmail.com;www.apartahotelciudadcali.com;"(57) (2) 4483254";"Dg26 K 73-16 Marroquín II Colombia, Cali"
"MOTEL DESEOS";dianamecheverryc@gmail.com;www.deseos.com.co;"(57) (2) 4383975";"Cr8 41-38 Colombia, Cali"
"APARTAHOTEL ECLIPSE";contacto@apartahoteleclipse.com;www.eclipsecali.com;"(57) (2) 5248777";"Cr22 58-77 El Trebol Colombia, Cali"
"AMARTE SUITE";amartesuite@gmail.com;www.amartesuite.com;"(57) (1) 2558420";"Cl 62 14-19 Colombia, Bogotá"
"MOTEL UNICORNIO";palacioj30@solarhoteles.com;www.motelunicornio.blogspot.com;"(57) (4) 3095050";"Cl 79   S 49-150 La Estrella Colombia, Medellín"
"HABITA ESTUDIOS TAMAITÍ";habitaestudiostamaiti@gmail.com;www.tamaiti.com;"(57) (4) 2534549";"Cr85 C 34-56 Colombia, Medellín"
"APARTA HOTEL SOL & LUNA";contacto@solylunacali.com;www.solylunacali.com;"(57) (2) 5240408";"Cl 36 42-73 Colombia, Cali"
"HOTEL CAYENAS";abeljosecueto@gmail.com;www.cayenashotel.com;"(57) (5) 3706912";"Cl 43 44-136 Colombia, Barranquilla"
"APARTAHOTEL CASA SION";apartahotelcasadesion@hotmail.com;www.apartahotelcasadesion.com;"(57) (1) 6125978";"Cr14 B 111-19 Colombia, Bogotá"
"APARTAMENTOS AMOBLADOS JM";apartamentosamobladosjm@hotmail.com;www.apartaloft.com.co;"(57) (4) 4442409";"Cl 27 D   S 27 C-50 Int 612 Envigado Colombia, Medellín"
"MOTEL EL CASTILLO DEL EDÉN";info@motelelcastillodeleden.com;www.motelelcastillodeleden.com;"(57) (7) 6464972";"Cl 37 34-42 Girón Km 1 Vía al Aeropuert Colombia, Bucaramanga"
"CAÑAVERAL PLAZA HOTEL";administracion@hotelesmanizales.net;www.hotelesmanizales.net;"(57) (6) 8900887";"Cr22 15-17 Colombia, Manizales"
"HOTEL PALMERAS DE MARIANA";h_palmerasdemariana@hotmail.c;www.hotelpalmerasdemariana.com;"(57) (7) 6440200";"Cr17 55-33 Ricaurte Colombia, Bucaramanga"
"MOTEL AVALOS";motelavalos@yahoo.com;www.motelavalos.com;"(57) (2) 2106677";"Cl 4 A 21-34 Colombia, Cartago"
"APARTAHOTEL LAS VIOLETAS";hotellasvioletas@hotmail.com;www.hotelresidenciaslasvioletas.com;"(57) (2) 4419502";"Cr15 43 A-03 Colombia, Cali"
CASACOL;info@casacol.co;www.casacol.co;"(57) (4) 3016248936";"Cl 3   S 38-125 Int 505 Colombia, Medellín"
"HOTEL NUEVO SAMARITANO";hnsamaritano@hotmail.com;www.hotelnuevosamaritano.net;"(57) (4) 2513362";"Cr45 45-25 Colombia, Medellín"
"HOTEL EMBAJADOR";hotelemba37@gmail.com;www.hotelembajadorbucaramanga.com;"(57) (7) 6304027";"Cl 37 17-18 P-2 Colombia, Bucaramanga"
"HOTEL D LEONI";fantasi251@hotmail.com;;"(57) (4) 4481608";"Cr45 49-38 Colombia, Medellín"
"HOTEL PARQUE PLAZA";reservas@hotelparqueplaza.com;hotelparqueplaza.com;"(57) (4) 4483464";"Cr43 B 9-15 Colombia, Medellín"
"MOTEL CALIFORNIA";mauriciof3000@yahoo.com;www.motelcaliforniacali.com;"(57) (2) 6664977";"Cl 10 30-155 Km 4 Acopi Arroyohondo Colombia, Cali"
"HOTEL COUNTRY MEDELLÍN";;;"(57) (4) 5130707";"Cr47 52-160 Colombia, Medellín"
"HOTEL MONARCA";hotelmonarca@yahoo.com.co;;"(57) (4) 2856964";"Cr50 A 83 A-31 Itagüí Colombia, Medellín"
"APARTAMENTO AMOBLADO CALI";david.teran@apartamentoamobladocali.com;www.apartamentoamobladocali.com.co;"(57) 3162850687";". Colombia, Cali"
"RESIDENCIAS LAS AMÉRICAS";claudialigelly@outlook.com;www.residenciaslasamericas.com;"(57) (2) 8834303";"Cl 25 2   N-31 Colombia, Cali"
"HOTEL SWITE REAL";serranoplazahotel@hotmail.com;www.hotelswitereal.com;"(57) (7) 3012293527";"Cl 55 17 A-17 P-2 Colombia, Bucaramanga"
"MOTEL LOS PIRINEOS";hotellospirineos@hotmail.com;www.motellospirineos.com;"(57) (7) 6459728";"Km 4 Vía Pamplona E-Brr. Buenavista Colombia, Bucaramanga"
"First Name";"Email Address";Url;Telephone;Address
"HOTEL FORTUNA";hotelfortunataraza@gmail.com;www.hotelfortunataraza.com;"(57) (4) 8365035";"Cr29 30-51 Tarazá-Antioquía Colombia, Tarazá"
"RESIDENCIAS LAS AMÉRICAS";claudialigelly@outlook.com;www.residenciaslasamericas.com;"(57) (2) 8834303";"Cl 25 2   N-31 Colombia, Cali"
"HOTELES ALCAYATAS";alcayatahotel@gmail.com;www.hotelesalcayatas.com;"(57) (2) 8243228";"Cl 4 N° 10-35 Colombia, Popayán"
"HOTEL BOLIVAR";reservas@hotel-bolivar.com;www.hotelbolivarmanizales.com;"(57) (6) 8844066";"Cr20 23-09 Colombia, Manizales"
"MOTEL EXTASIS";m.extasis@hotmail.com;www.motelextasis.co;"(57) (7) 6532114";"Km 11 Vía A Lebrija Colombia, Bucaramanga"
"HOTEL EL VIAJERO";hotelviajero@gmail.com;www.hotelelviajero.com;"(57) (5) 6643289";"Centro Cr6 35-68 Calle del Porvenir Colombia, Cartagena"
"HOTEL NUEVO MARAZUL";hotelmarazulbd@hotmail.com;www.hotelnuevomarazul.com;"(57) (7) 6410705";"Cl 55 17 A-120 Colombia, Bucaramanga"
"HOTEL PLAZA CENTRO";hotelplazacentro@hotmail.com;;"(57) (6) 3168474980";"Cl 23 21-13 Plaza de Bolívar Colombia, Manizales"
"HOTEL CASA REAL";hcasarealarmenia@hotmail.com;;"(57) (6) 7340606";"Cr18 18-36 Colombia, Armenia"
"MOTEL MOMENTOS";maluci@hotmail.com;;"(57) (4) 8206144";"Currulao Salida Hacia Turbo 1 Km Colombia, Turbo"
"HOTEL LOS ALMENDROS";h.losalmendros@hotmail.com;www.hotel-losalmendros.com;"(57) (4) 4129002";"Cl 41 A 70-78 Colombia, Medellín"
"FUN FACTORY COLOMBIA SEX-SHOP";info@funfactory-colombia.com;www.funfactory-colombia.com;"(57) (1) 2232831";"Cr92 64 C-59 Colombia, Bogotá"
"HOTEL DORADO";angelapatriciama@une.net.co;;"(57) (4) 5312030";"Cr50 C 46-124 Rionegro Colombia, Medellín"
"RESIDENCIA CAYENA REAL";beatrizevelasquezr@hotmail.com;;"(57) (5) 3706956";"Cl 42 44-109 Colombia, Barranquilla"
"HOTEL GUADALUPE";hotelguadalupe@hotmail.com;hotelguadalupedecartago.com;"(57) (2) 2138100";"Cr4 6-26 Colombia, Cartago"
"HOTEL GAUDI";hotelgaudimedellin@hotmail.com;www.hotelgaudimedellin.co;"(57) (4) 4341379";"Cr70 C 5-38 Colombia, Medellín"
"HOTEL TONE SDH";hotel_tone@yahoo.com;www.hoteltone.weebly.com;"(57) (2) 4463783";"Cr2   N 46 A   N-21 Colombia, Cali"
"HOTEL 44";hotel44cartago@hotmail.com;www.hotel44cartago.mundow.com;"(57) (2) 2131617";"Cl 4 4-25 Colombia, Cartago"
"CASA DE HUÉSPEDES LA CASONA";casadehuespedes1@gmail.com;;"(57) (4) 4165116";"Cl 33 A 70 A-06 Colombia, Medellín"
"HOSTAS LAS PIRAMIDES";winston7600@hotmail.com;;"(57) (2) 2814412";"Cr22 A 41-28 Colombia, Palmira"
"HOTEL TORRE IDEAL";hoteltorreideal@latinmail.com;;"(57) (2) 7214410";"Cl 18 A 6-20 Av. Idema Colombia, Pasto"
"HOTEL OLD PROVIDENCE";grecy06@hotmail.com;;"(57) (8) 5148691";"Sta Isabel Dg a la Alcaldía Colombia, Providencia"
"HOSTAL EL REY";hostalelrey@hotmail.com;hostalelrey.co;"(57) (5) 6431359";"Los Corales Cr56 B Manz F Lt 16 Colombia, Cartagena"
"HOTEL PLAZA CALARCA";safary8@latinmail.com;www.hotelplazacalarca.com;"(57) (6) 7421885";"Cl 39 27-24 Colombia, Calarcá"
"HOTEL UNIVERSO PLAZA";juanjosenino@hotmail.com;;"(57) (4) 2314170";"Cl 50 53-41 Colombia, Medellín"
"HOTEL AMBAR";hotel-ambar@hotmail.com;www.hotelambar.co;"(57) (4) 4119895";"Cq 5 70-25 Colombia, Medellín"
"HOTEL BUENA VISTA";reservas@buenavistahotel.net;www.buenavistahotel.net;"(57) (7) 6809100";"Cl 34 32-34 Mejoras Públicas Colombia, Bucaramanga"
"MOTEL NUEVO MERIDIAN";alexdavid900@hotmail.com;;"(57) (1) 2351545";"Cl 59 A 13 A-40 Colombia, Bogotá"
"MOTEL METROPOLIS";motelmetrpolis@hotmail.com;;"(57) (4) 2337394";"Cl 71 51-61 Colombia, Medellín"
"MOTEL LAS VEGAS";tata270965@hotmail.com;www.motelasvegas.com;"(57) (2) 2139066";"Av Circunvalar 14-50 Colombia, Cartago"
"MOTEL MOMENTOS SUITES";momentossuites@gmail.com;www.motelmomentossuites.com;"(57) (4) 2510946";"Cr49 46-33 Colombia, Medellín"
"HOTEL CASTILLO REAL";hotelcastilloreal@hotmail.com;www.hotelcastillorealcartago.amawebs.com;"(57) (2) 2123676";"Cr8 12-26 Colombia, Cartago"
"HOTEL CASA ARAGÓN";hotelcasaaragon@hotmail.com;www.hotelcasaaragon.com;"(57) (2) 2124423";"Cl 12 8-36 Colombia, Cartago"
"MOTEL EL FARO";catamar80@hotmail.com;;"(57) (5) 3788425";"Cl 79 73-458 Colombia, Barranquilla"
"SANICONTROL S.A.S.";fernandoserna@sanicontrol.com;www.sanicontrol.com;"(57) (2) 3930248";"Cr15 49-44 Colombia, Cali"
"HOTEL CALI";marioferandoe@yahoo.es;;"(57) (2) 7364043";"Cl 15 A 10-77 LAS LUNAS Colombia, Pasto"
"HOTEL EL CARRETERO";reservas@hotelcarretero.com;;"(57) (4) 4417159";"Cl 75 A 64 C-40 Colombia, Medellín"
"RESIDENCIAS LOS LLANOS";;;"(57) (7) 6229155";"Av36 14-47 Zona Industrial Colombia, Barrancabermeja"
"RESIDENCIAS MIRAMAR";;;"(57) (5) 3518584";"Cr35 37-01 Colombia, Barranquilla"
"MOTEL 1A";;;"(57) (2) 6654455";"Cr38 9-121 Menga Yumbo Colombia, Yumbo"
"First Name";"Email Address";Url;Telephone;Address
"HOTEL DON MARCOS";;;"(57) (2) 8205095";"Cl 5 A 15-96 Colombia, Popayán"
"GUIA HOTELERA PAGS. VERDES";;;"Conm.: (57) (8) 6625050";"Cr31 40-06 Of 8 Centro Colombia, Villavicencio"
"RESIDENCIAS CAPRI";;;"(57) (7) 6586594";"Cl 33 15-11 P-3 Colombia, Bucaramanga"
"HOTEL DONAIRES";;;"(57) (4) 5133132";"Cl 53 54-114 Colombia, Medellín"
"HOTEL OBAMA";;;"(57) (7) 6444319";"Cr17 B 54-26 Colombia, Bucaramanga"
"RESIDENCIAS TASCALA";;;"(57) (7) 6426098";"Cl 30 16-34 Colombia, Bucaramanga"
"RESIDENCIAS ALABAMA";;;"(57) (7) 6345557";"Cl 33 24-43 Colombia, Bucaramanga"
"HOTEL CLUB CENTRAL";;;"(57) (4) 2162998";"Cl 55 # 43-75 Colombia, Medellín"
"RESIDENCIAS CARACAS";;;"(57) (7) 6427368";"Av Quebrada Seca 18-71 Ap 201 Colombia, Bucaramanga"
"APARTAMENTOS UNICENTRO";;;"(57) (1) 2152040";"Cr14 B 119-83 Colombia, Bogotá"
"RESIDENCIAS SAN FERNANDO";;;"(57) (2) 7326064";"Cr4 E 20-80 Sta Bárbara Colombia, Pasto"
"RESIDENCIAS GÉNESIS";;;"(57) (2) 2708275";"Cr35 37-73 Colombia, Palmira"
"RESIDENCIAS VIENA";;;"(57) (2) 7214508";"Cr19 B 18-39 Centro Colombia, Pasto"
"HOTEL AMÉRICA";;;"(57) (4) 2759881";"Cr49 47-19 Bello Colombia, Medellín"
"HOTEL BELLO PLAZA";;;"(57) (4) 2721195";"Cr49 52-16 Bello Colombia, Medellín"
"RESIDENCIAS WALKIRIA";;;"(57) (5) 3444300";"Cr 53 61 35 Colombia, Barranquilla"
"HOTEL RESIDENCIAS K3";;;"(57) (2) 8960300";"Cr 12 21-10 Colombia, Cali"
"MOTELES GEISHA";;;"(57) (2) 5551331";"Cl 25 122-349 Vía Jamundí Colombia, Jamundí"
"RESIDENCIAS MANZANITA";;;"(57) (7) 6424866";"Av Quebrada Seca 20-18 Colombia, Bucaramanga"
"RESIDENCIAS EL REPOSO";;;"(57) (7) 6304362";"Cl 28 # 17 A-16 Colombia, Bucaramanga"
"CITY HALL";;;"(57) (7) 5726962";"Av6 14-38 Centro Colombia, Cúcuta"
"RESIDENCIAS ESMERALDA";;;"(57) (7) 6452888";"Cl 32 21-49 Colombia, Bucaramanga"
"RESIDENCIA LA CASCADA";;;"(57) (7) 6337236";"Cr18 24-16 Colombia, Bucaramanga"
"TABERNA Y AMOBLADOS CASANOVA S.A.S.";;;"(57) (5) 3690003";"Cr45 70-40 Colombia Colombia, Barranquilla"
"AMOBLADO NUEVO TEQUENDAMA";;;"(57) (2) 3356363";"Cr30 19-90 Colombia, Cali"
"ROJAS JACKELINE";;;"(57) (5) 3406234";"Cl 50 35-85 Colombia, Barranquilla"
"RESIDENCIAS LA MARQUESA";;;"(57) (6) 8844844";"Cl 17 22-30 Colombia, Manizales"
"RESIDENCIA LA PALMA";;;"(57) (4) 2319707";"Cl 45 50-93 Colombia, Medellín"
"RESIDENCIAS FLORIDA";;;"(57) (4) 8273531";"Cl 13 99A- 56 Colombia, Turbo"
"HOTEL RESIDENCIAS BUCARAMANGA";;;"(57) (2) 8841355";"Cl 22 7 A-20 Colombia, Cali"
"MOTEL EL REFUGIO";;;"(57) (8) 8759596";"Km 1 Vía Palermo Colombia, Neiva"
"APARTA HOTEL ARCO IRIS";;;"(57) (2) 6628285";"Cl70 7 M-41 Colombia, Cali"
"RESIDENCIAS PARIS";;;"(57) (2) 8804071";"Cr2 N 24 A-19 Colombia, Cali"
"HOTEL LÍDER";;;"(57) (2) 8362985";"Cr6 4 N-70 Colombia, Popayán"
"RESIDENCIAS CRISTAL PALACÉ";;;"(57) (2) 8804489";"Cl 21 4-41 Colombia, Cali"
"RESIDENCIAS MADDONA";;;"(57) (7) 6203336";"Cl 50 4-06 Colombia, Barrancabermeja"
"AMOBLADOS TIFANNY";;;"(57) (2) 8857252";"Cl 21 14-35 Colombia, Cali"
"APARTA HOTEL LAS AVENIDAS";;;"(57) (2) 4369411";"Cr28 D 72 S-39 Colombia, Cali"
"HOTEL LISBOA CENTER";;;"(57) (8) 8720914";"Cr3 4-49 Colombia, Neiva"
"RESIDENCIAS EL SUEÑO";;;"(57) (7) 6421738";"Cl 31 20-32 Colombia, Bucaramanga"
"First Name";"Email Address";Url;Telephone;Address
"RESIDENCIAS PRIMAVER A";;;"(57) (4) 5129440";"Cl 51 53-100 Colombia, Medellín"
"MADISON PLAZA RESIDENCIAL";;;"(57) (7) 6429610";"Cr20 33-09 Colombia, Bucaramanga"
"HOSPEDAJE MAR ADENTRO";;;"(57) (2) 2434729";"Cl 6 5 A-86 Sector F-8 Colombia, Buenaventura"
"RESIDENCIAS MORENO";;;"(57) (7) 6222724";"Cl 49 3-52 Sector Comercial Colombia, Barrancabermeja"
"MOTEL ATLANTYS";;;"(57) (7) 6575691";"Cr18 54-57 Colombia, Bucaramanga"
"RESIDENCIAS LA VEGA";;;"(57) (7) 6428577";"CL 29 16-41 Colombia, Bucaramanga"
"RESIDENCIAS LA VICTORIA";;;"(57) (7) 5821434";"Cl 1 8-55 Carorá Colombia, Cúcuta"
"RESIDENCIAS JASMÍN";;;"(57) (7) 6454615";"Cr22 30-29 Antonia Santos Colombia, Bucaramanga"
"RESIDENCIAS CAPRI";;;"(57) (7) 6586594";"Cl 33 15-11 P-3 Colombia, Bucaramanga"
"RESIDENCIAS MARLY";;;"(57) (5) 4213164";"Cr4 10 C-36 Colombia, Santa Marta"
"RESIDENCIAS SAN FERNANDO";;;"(57) (2) 7326064";"Cr4 E 20-80 Sta Bárbara Colombia, Pasto"
"HOTEL HARBY";;;"(57) (4) 5124400";"Cl 54 50-48 Colombia, Medellín"
"RESIDENCIAS EL DIAMANTE";;;"(57) (1) 3459781";"Cl 67 21-12 Colombia, Bogotá"
"APARTAMENTOS UNICENTRO";;;"(57) (1) 2152040";"Cr14 B 119-83 Colombia, Bogotá"
"HOTEL EL DORADO";;;"(57) (4) 8455618";"Cr4 8-52 Jardín Colombia, Jardín"
"RESIDENCIAS EL NIDO";;;"(57) (5) 3460984";"Cr27 # 38-33 Colombia, Barranquilla"
"POSADA BRISTON";;;"(57) (1) 3429875";"Cl 24 13 A-25 Colombia, Bogotá"
"First Name";"Email Address";Url;Telephone;Address
"RESIDENCIAS LOS CRISTALES 2";;;"(57) (2) 8821054";"Cr7 A 22 A-40 Colombia, Cali"
"HOTEL DANNY";;;"(57) (4) 5128258";"Cr 53 51 56 Colombia, Medellín"
"RESIDENCIAS GEMINIS";;;"(57) (8) 6633915";"Cl 35 33-24 Barzal Colombia, Villavicencio"
"RESIDENCIAS EL DIAMANTE";;;"(57) (1) 3459781";"Cl 67 21-12 Colombia, Bogotá"
"HOTEL RESIDENCIAS ACAPULCO NO. 2";;;"(57) (4) 5120050";"Cl 60 52-54 Colombia, Medellín"
"HOTEL COSTA BELLA";;;"(57) (5) 6566129";"Marbella Cr3 48-39 Av del Lago Colombia, Cartagena"
"HOTEL RESIDENCIAS YARIMA";;;"(57) (4) 5132958";"Cr50 45-104 Colombia, Medellín"
"RESIDENCIAS PALMETTO";;;"(57) (2) 8852973";"Cl 25 9-36 Colombia, Cali"
"HOSTAL CALIPSO";;;"(57) (5) 4235825";"Cr1 B 26-61 Bellavista Colombia, Santa Marta"
"APARTAMENTOS FAMILIARES ELITE";;;"(57) (2) 8931179";"Cr2 Oe 13-98 Ap 102 Colombia, Cali"
"MOTEL EL MORICHAL";;;"(57) (2) 3263578";"Cr29 A 25-15 Colombia, Cali"
"CASTRO BOLAÑOS JOSÉ EDELBERTO";;;"(57) (2) 8891259";"Cr7 14-72 P-2 Colombia, Cali"
"MOTEL SUNRISE";;;"(57) (2) 6630047";"Cr8 93-05 Colombia, Cali"
"HOSPEDAJE EL NUEVO REY";;;"(57) (7) 6700981";"Cl 23 17-11 Alarcón Colombia, Bucaramanga"
"MOTEL LA MANSIÓN";;;"(57) (7) 5808014";"Av10 34-30 Los Patios Colombia, Cúcuta"
"RESIDENCIAS MADEIRA";;;"(57) (7) 6337463";"C32 14-25 Colombia, Bucaramanga"
"RESIDENCIAS MORENO";;;"(57) (7) 6222724";"Cl 49 3-52 Sector Comercial Colombia, Barrancabermeja"
"RESIDENCIA LA CASCADA";;;"(57) (7) 6337236";"Cr18 24-16 Colombia, Bucaramanga"
"RESIDENCIAS GARSILIA";;;"(57) (7) 6304702";"Cr19 30-12 Colombia, Bucaramanga"
"HOTEL DON MARINO";;;"(57) (2) 2722380";"Cl 32 30-80 Colombia, Palmira"
"RESIDENCIAS TEXANO";;;"(57) (7) 6424874";"Cr20 31-101 Colombia, Bucaramanga"
"RESIDENCIA BRETAÑA";;;"(57) (2) 5541886";"Cr22 9 E-109 Colombia, Cali"
"RESIDENCIAS SAN JORGE";;;"(57) (5) 4311293";"Cl 10 C 2-62 Colombia, Santa Marta"
"APARTAHOTEL SABORES";;;"(57) (2) 3264116";"Cr29 A 1 12 B-173 Colombia, Cali"
"RESIDENCIAS EL HOGAR";;;"(57) (5) 4213853";"Cl 12 2-58 Colombia, Santa Marta"
"RESIDENCIAS BOYACÁ";;;"(57) (4) 5131655";"Cl 51 54-62 Colombia, Medellín"
"RESIDENCIAS ACUARIO";;;"(57) (2) 2756829";"Cr33 30-95 Colombia, Palmira"
"HOTEL Y RESIDENCIA EL DEPORTISTA";;;"(57) (4) 2394890";"Cl 46 43-98 Colombia, Medellín"
"GIRALDO GARCÍA LUIS EVELIO";;;"(57) (2) 6644555";"Cl 70 N 2 A-130 Yumbo Colombia, Cali"
"RESIDENCIAS I LOVE YOU";;;"(57) (2) 4431339";"Cl 33 A 15-71 Colombia, Cali"
"APARTA HOTEL FANTASÍAS";;;"(57) (2) 3345409";"Cr30 A 35 E-42 Colombia, Cali"
"RESIDENCIAS LA DIOSA DEL AMOR";;;"(57) (2) 8807468";"Cr4 C 61-58 Colombia, Cali"
"APARTA HOTEL SECRETOS";;;"(57) (2) 4341940";"Cl70 1 A 11-39 Colombia, Cali"
"RESIDENCIAS PARIS";;;"(57) (2) 8804071";"Cr2 N 24 A-19 Colombia, Cali"
"HOTEL OBAMA";;;"(57) (7) 6444319";"Cr17 B 54-26 Colombia, Bucaramanga"
"RESIDENCIAS TEQUENDAMA";;;"(57) (7) 6428756";"Av Quebrada Seca 14-50 Colombia, Bucaramanga"
"HOSPEDAJE MAR ADENTRO";;;"(57) (2) 2434729";"Cl 6 5 A-86 Sector F-8 Colombia, Buenaventura"
"MOTEL MENGA";;;"(57) (2) 6644555";"Cl 10 38-104 Acopi Yumbo Colombia, Yumbo"
"MOTEL KISS ME";;;"(57) (2) 4861616";"Cl 29 15-38 Colombia, Cali"
"RESIDENCIAS BUENOS AIRES";;;"(57) (7) 6714572";"Cr22 10-45 Colombia, Bucaramanga"
"APARTAHOTEL EL PARAÍSO";;;"(57) (2) 4457018";"Tr29 28-121 Colombia, Cali"
"HOTEL TERRAZA CLUB";;;"(57) (2) 8390488";"Cl 5 19-53 Colombia, Popayán"
"RESIDENCIAS LA 14";;;"(57) (7) 5725022";"Cl 14 5-64 Colombia, Cúcuta"
"RESIDENCIAS VIENA";;;"(57) (2) 7214508";"Cr19 B 18-39 Centro Colombia, Pasto"
"HOTEL LUZ";;;"(57) (2) 8836987";"Cl 24 3-13 Colombia, Cali"
"RESIDENCIAS EL ENSUEÑO";;;"(57) (2) 7203725";"Cr19 20-38 P-2 Colombia, Pasto"
"HOTEL BELMONTE";;;"(57) (4) 5130309";"Cl 54 52-38 Colombia, Medellín"
"RESIDENCIAS DALLAS";;;"(57) (7) 6425718";"Cr20 31-109 Colombia, Bucaramanga"
"RESIDENCIAS ALADÍN";;;"(57) (5) 3704295";"Cl 36 44-85 Colombia, Barranquilla"
"POSADA BRISTON";;;"(57) (1) 3429875";"Cl 24 13 A-25 Colombia, Bogotá"
"RESIDENCIA POSECIÓN";;;"(57) (7) 5714107";"Cl 10 8-37 Centro Colombia, Cúcuta"
"RESIDENCIAS EL PODER DE LOS SUEÑOS";;;"(57) (2) 8804203";"Cr1 24-140 Colombia, Cali"
"HOTEL RESIDENCIAS ACAPULCO NO. 2";;;"(57) (4) 5120050";"Cl 60 52-54 Colombia, Medellín"
"RESIDENCIAS JES";;;"(57) (7) 5834017";"Cl 14 5-16 Centro Colombia, Cúcuta"
"HOTEL DON MARCOS";;;"(57) (2) 8205095";"Cl 5 A 15-96 Colombia, Popayán"
"APARTAHOTEL MANABI";;;"(57) (2) 8959756";"Cr11 24-53 Colombia, Cali"
"RESIDENCIAS MI OFICINA";;;"(57) (7) 6433216";"Cr18 54-83 La Concordia Centro Colombia, Bucaramanga"
"NOCHES DE AVENTURA";;;"(57) (2) 8964085";"Cl 5 12-55 Colombia, Cali"
"AMOBLADOS MONTERREY";;;"(57) (2) 8836630";"Cr3 16-29 Colombia, Cali"
"HOTEL Y RESIDENCIAS MODERNA";;;"(57) (5) 2817875";"Cl 21 21-94 P-2 Colombia, Sincelejo"
"RESIDENCIAS MARBY";;;"(57) (8) 6580879";"Cl 17 13-42 Colombia, Granada"
"HOTEL RESIDENCIAS YARIMA";;;"(57) (4) 5132958";"Cr50 45-104 Colombia, Medellín"
"RESIDENCIAS CLAUDIA";;;"(57) (72) 7486110";"Cl 6 8-10 Centro Colombia, Barbosa"
"First Name";"Email Address";Url;Telephone;Address
"RESIDENCIAS SUIZA";;;"(57) (2) 7213514";"Cr21 19-15 Colombia, Pasto"
"RESIDENCIA LA CASCADA";;;"(57) (7) 6337236";"Cr18 24-16 Colombia, Bucaramanga"
"RESIDENCIA ZAPATA";;;"(57) (2) 3359565";"Cr29 A 19-117 P-2 Colombia, Cali"
"RESIDENCIAS JASMÍN";;;"(57) (7) 6454615";"Cr22 30-29 Antonia Santos Colombia, Bucaramanga"
"RESIDENCIAS SAN FERNANDO";;;"(57) (2) 7326064";"Cr4 E 20-80 Sta Bárbara Colombia, Pasto"
"HOTEL LÍDER";;;"(57) (2) 8362985";"Cr6 4 N-70 Colombia, Popayán"
"HOTEL Y RESIDENCIA EL DEPORTISTA";;;"(57) (4) 2394890";"Cl 46 43-98 Colombia, Medellín"
"CLAVIJO OVALLES JORGE";;;"(57) (5) 3400686";"Cl 42 44-47 Colombia, Barranquilla"
"HOTEL EL DORADO";;;"(57) (4) 8455618";"Cr4 8-52 Jardín Colombia, Jardín"
REMITES;;;"(57) (7) 6472695";"Cr36 51-96 Colombia, Bucaramanga"
"RESIDENCIAS BARRANQUILLA LINDA";;;"(57) (5) 3402102";"Cl 41 43-35 Colombia, Barranquilla"
"HOTEL AVENIDA 85";;;"(57) (4) 2853848";"Cl 85 50 A-89 Colombia, Itagüí"
"HOTEL RESIDENCIAS K3";;;"(57) (2) 8960300";"Cr 12 21-10 Colombia, Cali"
"RESIDENCIAS DON CHEPE";;;"(57) (7) 6330058";"Cr17 24-45 Colombia, Bucaramanga"
"RESIDENCIAS GLADYS";;;"(57) (7) 6422179";"Cr17 A 28-46 Colombia, Bucaramanga"
"RESIDENCIAS MORENO";;;"(57) (7) 6222724";"Cl 49 3-52 Sector Comercial Colombia, Barrancabermeja"
"RESIDENCIAS MONTERREY";;;"(57) (2) 8892272";"Cl 17 15-23 Colombia, Cali"
"RESIDENCIAS EL GRECO";;;"(57) (2) 4480639";"Cl 33 A 12-43 Colombia, Cali"
"RESIDENCIAS MADRID SUR";;;"(57) (7) 5723726";"Av8 3-43 El Callejón Colombia, Cúcuta"
"APARTA HOTEL LA 24";;;"(57) (1) 2462990";"Cr24 2-46 Colombia, Bogotá"
"RESIDENCIAS TAMINAKA";;;"(57) (5) 4214894";"Cl 24 8-19 Colombia, Santa Marta"
"RESIDENCIAS EL HOGAR";;;"(57) (5) 4213853";"Cl 12 2-58 Colombia, Santa Marta"
"HOTEL Y RESIDENCIAS MODERNA";;;"(57) (5) 2817875";"Cl 21 21-94 P-2 Colombia, Sincelejo"
"HOTEL Y RESIDENCIAS TROPICANA";;;"(57) (5) 2880869";"Cl 10 10 E-394 Sector Isla Gallinazo Coveñas Colombia, Coveñas"
"CABAÑAS Y CASTILLOS DEL LAGO";;;"(57) (4) 3315986";"U-Km Antes de la Piedra del Peñol Colombia, Guatapé"
"HOTEL AMÉRICA";;;"(57) (4) 2759881";"Cr49 47-19 Bello Colombia, Medellín"
"RESIDENCIAS ALADÍN";;;"(57) (5) 3704295";"Cl 36 44-85 Colombia, Barranquilla"
"POSADA BRISTON";;;"(57) (1) 3429875";"Cl 24 13 A-25 Colombia, Bogotá"
"APARTA HOTEL ARCO IRIS";;;"(57) (2) 6628285";"Cl70 7 M-41 Colombia, Cali"
"HOSPEDAJE EL SILENCIO";;;"(57) (4) 4414975";"Cr64 B 75 A-19 Colombia, Medellín"
"RÍOS QUICENO CLAUDIA LIGELLY";;;"(57) (2) 8894476";"Cr4 15-46 Colombia, Cali"
"HOTEL EL ENCUENTRO";;;"(57) (4) 5126234";"Cl 53 54-432 Colombia, Medellín"
"HOTEL RESIDENCIAS BUCARAMANGA";;;"(57) (2) 8841355";"Cl 22 7 A-20 Colombia, Cali"
"HOTEL RESIDENCIAS CALDAS";;;"(57) (4) 5131677";"Cr46 50 -39 Colombia, Medellín"
"MOTEL EXTASIS";;;"(57) (2) 2814245";"Cr22 A 41-44 Colombia, Palmira"
"HOSPEDAJE EL NUEVO REY";;;"(57) (7) 6700981";"Cl 23 17-11 Alarcón Colombia, Bucaramanga"
"First Name";"Email Address";Url;Telephone;Address
"RESIDENCIAS MADDONA";;;"(57) (7) 6203336";"Cl 50 4-06 Colombia, Barrancabermeja"
"RESIDENCIAS MANZANITA";;;"(57) (7) 6424866";"Av Quebrada Seca 20-18 Colombia, Bucaramanga"
"RESIDENCIA ORIENTAL";;;"(57) (7) 6452836";"Cr25 33-55 Colombia, Bucaramanga"
"MOTEL PANAMERICANO";;;"(57) (2) 3390959";"Cl 4 70-04 Colombia, Cali"
"CABAÑAS Y CASTILLOS DEL LAGO";;;"(57) (4) 3315986";"U-Km Antes de la Piedra del Peñol Colombia, Guatapé"
"RESIDENCIAS ESMERALDA";;;"(57) (7) 6452888";"Cl 32 21-49 Colombia, Bucaramanga"
"ROJAS JACKELINE";;;"(57) (5) 3406234";"Cl 50 35-85 Colombia, Barranquilla"
"MOTEL CUPIDO EL REY DEL AMOR";;;"(57) (7) 6738045";"Vía Rionegro Km 6 Café Madrid Colombia, Bucaramanga"
"RESIDENCIAS BRISAS DE AMOR";;;"(57) (2) 8841990";"Cl 18 7-39 Colombia, Cali"
"RESIDENCIAS PATRIX";;;"(57) (2) 8890059";"Cl 21 11 B-46 Colombia, Cali"
"RESIDENCIAS YAPURANIA";;;"(57) (8) 4358176";"Cl 16 Cr12 Esq Colombia, Florencia"
"MOTEL ATLANTYS";;;"(57) (7) 6575691";"Cr18 54-57 Colombia, Bucaramanga"
"RESIDENCIAS LA CABAÑA";;;"(57) (7) 6429921";"Cr17 24-13 Colombia, Bucaramanga"
"RESIDENCIAS CARACAS";;;"(57) (7) 6427368";"Av Quebrada Seca 18-71 Ap 201 Colombia, Bucaramanga"
"RESIDENCIAS CORDILLERA";;;"(57) (2) 3264117";"Cl 23 29-23 Colombia, Cali"
"HOTEL RIZ";;;"(57) (7) 6428865";"Cr15 33-34 Colombia, Bucaramanga"
"RESIDENCIAS TEXANO";;;"(57) (7) 6424874";"Cr20 31-101 Colombia, Bucaramanga"
"APARTA HOTEL LA 24";;;"(57) (1) 2462990";"Cr24 2-46 Colombia, Bogotá"
"EL GIGANTE";;;"(57) (1) 2814891";"Cr16 24-97 Colombia, Bogotá"
"HOTEL HERNÁNDEZ";;;"(57) (7) 5780967";"Av6 A 0-65 Colombia, Cúcuta"
"HOTEL LOS DOS AMIGOS";;;"(57) (2) 8830217";"Cl 24 1 N-34 Colombia, Cali"
"RESIDENCIAS EL DIAMANTE";;;"(57) (1) 3459781";"Cl 67 21-12 Colombia, Bogotá"
"RESIDENCIAS LAS VEGAS CALI";;;"(57) (2) 4482218";"Cr15 42-06 Colombia, Cali"
"HOTEL DONAIRES";;;"(57) (4) 5133132";"Cl 53 54-114 Colombia, Medellín"
"TABERNA Y AMOBLADOS CASANOVA S.A.S.";;;"(57) (5) 3690003";"Cr45 70-40 Colombia Colombia, Barranquilla"
"RESIDENCIA VENECIA";;;"Telefax: (57) (5) 3517907";"Cl 44 39-30 Colombia, Barranquilla"
"POSADA BRISTON";;;"(57) (1) 3429875";"Cl 24 13 A-25 Colombia, Bogotá"
"RESIDENCIAS CHARLOT";;;"(57) (7) 6944360";"Cr18 54-63 La Concordia Colombia, Bucaramanga"
"RESIDENCIAS EL PODER DE LOS SUEÑOS";;;"(57) (2) 8804203";"Cr1 24-140 Colombia, Cali"
"HOTEL AVENIDA 85";;;"(57) (4) 2853848";"Cl 85 50 A-89 Colombia, Itagüí"
"AMOBLADOS EL FORTIN";;;"(57) (2) 8851748";"Cl 19 11 D-19 Colombia, Cali"
"RESIDENCIAS LA DIOSA DEL AMOR";;;"(57) (2) 8807468";"Cr4 C 61-58 Colombia, Cali"
"HOTEL RESIDENCIAS CALDAS";;;"(57) (4) 5131677";"Cr46 50 -39 Colombia, Medellín"
"RESIDENCIAS GLADYS";;;"(57) (7) 6422179";"Cr17 A 28-46 Colombia, Bucaramanga"
"RESIDENCIAS MANZANITA";;;"(57) (7) 6424866";"Av Quebrada Seca 20-18 Colombia, Bucaramanga"
"RESIDENCIAS MARGARITA";;;"(57) (8) 8370916";"Cr5 5-40 Colombia, La Plata"
"MOTEL LA MANSIÓN";;;"(57) (7) 5808014";"Av10 34-30 Los Patios Colombia, Cúcuta"
"MOTEL SPARCIMIENTO'S";;;"(57) (2) 2137999";"Cr22 8-71 Colombia, Cartago"
"RESIDENCIAS LOS ARBOLITOS";;;"(57) (7) 6339931";"Cl 22 17-21 Colombia, Bucaramanga"
"MODERNA RESIDENCIAS";;;"(57) (2) 2244237";"Cl 28 23-36 Colombia, Tuluá"
"CITY HALL";;;"(57) (7) 5726962";"Av6 14-38 Centro Colombia, Cúcuta"
"First Name";"Email Address";Url;Telephone;Address
"RESIDENCIAS FLORIDA";;;"(57) (4) 8273531";"Cl 13 99A- 56 Colombia, Turbo"
"HOTEL BELLO PLAZA";;;"(57) (4) 2721195";"Cr49 52-16 Bello Colombia, Medellín"
"HOTEL COLOMBIA REAL";;;"(57) (4) 2601660";"Cl 50 68-14 Colombia, Medellín"
"MOTEL PARADOR";;;"(57) (5) 6637574";"Turbaco Plan Parejo Cr15 29-108 Colombia, Cartagena"
"MOTEL CASA BLANCA";;;"(57) (2) 4359014";"Km. 3 Vía Candelaria (Juanchito) Colombia, Cali"
"HOTEL Y RESIDENCIAS MODERNA";;;"(57) (5) 2817875";"Cl 21 21-94 P-2 Colombia, Sincelejo"
"RESIDENCIAS LOS LLANOS";;;"(57) (7) 6229155";"Av36 14-47 Zona Industrial Colombia, Barrancabermeja"
"RESIDENCIA LA CUNA DE VENUS";;;"(57) (5) 3790205";"Cl 40 39-54 Colombia, Barranquilla"
"ROJAS JACKELINE";;;"(57) (5) 3406234";"Cl 50 35-85 Colombia, Barranquilla"
"HOTEL EL DORADO";;;"(57) (4) 8455618";"Cr4 8-52 Jardín Colombia, Jardín"
REMITES;;;"(57) (7) 6472695";"Cr36 51-96 Colombia, Bucaramanga"
"RESIDENCIAS ALADÍN";;;"(57) (5) 3704295";"Cl 36 44-85 Colombia, Barranquilla"
"POSADA BRISTON";;;"(57) (1) 3429875";"Cl 24 13 A-25 Colombia, Bogotá"
"RESIDENCIAS MIRABAR";;;"(57) (2) 8806747";"Cl 18 14-46 Colombia, Cali"
"RESIDENCIAS KARONI";;;"(57) (4) 5116474";"Cr50 A 47-11 Ap 200 Colombia, Medellín"
"HOTEL EL ENCUENTRO";;;"(57) (4) 5126234";"Cl 53 54-432 Colombia, Medellín"
"HOTEL RESIDENCIAS CALDAS";;;"(57) (4) 5131677";"Cr46 50 -39 Colombia, Medellín"
"RESIDENCIAS PARIS";;;"(57) (2) 8804071";"Cr2 N 24 A-19 Colombia, Cali"
"RESIDENCIAS GEMINIS";;;"(57) (8) 6633915";"Cl 35 33-24 Barzal Colombia, Villavicencio"
"RESIDENCIAS MONTECARLO";;;"(57) (7) 6422463";"Cr14 33-75 Colombia, Bucaramanga"
"RESIDENCIAS MONTERREY";;;"(57) (2) 8892272";"Cl 17 15-23 Colombia, Cali"
"RESIDENCIAS CAPRI";;;"(57) (7) 6586594";"Cl 33 15-11 P-3 Colombia, Bucaramanga"
"HOTEL BELMONTE";;;"(57) (4) 5130309";"Cl 54 52-38 Colombia, Medellín"
"RESIDENCIAS ORIENTALES";;;"(57) (2) 7202357";"Cl 16 B 15-20 Colombia, Pasto"
"RESIDENCIAS COSTA AZUL";;;"(57) (2) 8845101";"Cr8 A 24-38 Colombia, Cali"
"HOTEL PUERTO MANGO";;;"(57) (2) 3359357";"Cr30 18-84 Colombia, Cali"
"CABAÑAS Y CASTILLOS DEL LAGO";;;"(57) (4) 3315986";"U-Km Antes de la Piedra del Peñol Colombia, Guatapé"
"CORTÉS MEZA RUBEN DARIO";;;"(57) (2) 4442224";"Cr2 35-05 Colombia, Cali"
"HOTEL BALCONES DEL PARQUE";;;"(57) (4) 8456844";"Cl 9 2-75 Colombia, Jardín"
"HERNÁNDEZ SUÁREZ CARMEN";;;"(57) (2) 4419502";"Cr15 43 A-03 Colombia, Cali"
"RESIDENCIAS CHARLOT";;;"(57) (7) 6944360";"Cr18 54-63 La Concordia Colombia, Bucaramanga"
"RESIDENCIAS EL PODER DE LOS SUEÑOS";;;"(57) (2) 8804203";"Cr1 24-140 Colombia, Cali"
"APARTA HOTEL ARCO IRIS";;;"(57) (2) 6628285";"Cl70 7 M-41 Colombia, Cali"
"APARTAMENTOS FAMILIARES ELITE";;;"(57) (2) 8931179";"Cr2 Oe 13-98 Ap 102 Colombia, Cali"
"MOTEL 1A";;;"(57) (2) 6654455";"Cr38 9-121 Menga Yumbo Colombia, Yumbo"
"APARTA HOTEL MILENIUM";;;"Nal: (57) (2) 4417735";"Cr15 31A-27 Colombia, Cali"
"AMOBLADOS EL FORTIN";;;"(57) (2) 8851748";"Cl 19 11 D-19 Colombia, Cali"
"RESIDENCIAS MADEIRA";;;"(57) (7) 6337463";"C32 14-25 Colombia, Bucaramanga"
"RESIDENCIAS D`MILAN";;;"(57) (7) 6322130";"Cr32 34-25 Colombia, Bucaramanga"
"RESIDENCIAS LOS GERANEOS";;;"(57) (2) 2814861";"Cl 31 32-51 Colombia, Palmira"
"RESIDENCIAS DON CHEPE";;;"(57) (7) 6330058";"Cr17 24-45 Colombia, Bucaramanga"
"MADISON PLAZA RESIDENCIAL";;;"(57) (7) 6429610";"Cr20 33-09 Colombia, Bucaramanga"
"RESIDENCIAS ROYAL";;;"(57) (7) 6423578";"Cl 37 15-16 Colombia, Bucaramanga"
"First Name";"Email Address";Url;Telephone;Address
"RESIDENCIA LAS PALMAS";;;"(57) (1) 2126335";"Cl 62 14-31 Colombia, Bogotá"
"CASA DE HUESPEDES COOTRANSUNIDOS";;;"(57) (7) 6452822";"Cl 32 21-65 Colombia, Bucaramanga"
"RESIDENCIAS LA VICTORIA";;;"(57) (7) 5821434";"Cl 1 8-55 Carorá Colombia, Cúcuta"
"RESIDENCIA EL EMBAJADOR";;;"(57) (7) 5713203";"Av9 10-56 El Llano Colombia, Cúcuta"
"RESIDENCIAS LUSITANIA";;;"(57) (7) 6429433";"Av Quebrada Seca 16-62 Colombia, Bucaramanga"
"RESIDENCIAS LA LLAVE";;;"(57) (7) 6300245";"Cl 24 # 17 A-16 Colombia, Bucaramanga"
"RESIDENCIAS LA 14";;;"(57) (7) 5725022";"Cl 14 5-64 Colombia, Cúcuta"
"RESIDENCIAS MONTEBLANCO";;;"(57) (7) 6425753";"Cr18 29-24 Colombia, Bucaramanga"
"HOTEL Y RESIDENCIAS TROPICANA";;;"(57) (5) 2880869";"Cl 10 10 E-394 Sector Isla Gallinazo Coveñas Colombia, Coveñas"
"RESIDENCIAS ESMERALDA";;;"(57) (7) 6452888";"Cl 32 21-49 Colombia, Bucaramanga"
"BESABE ZABALA DE MARÍA DOLORES";;;"(57) (5) 3406103";"Cr41 42-40 Colombia, Barranquilla"
"GUIA HOTELERA PAGS. VERDES";;;"Conm.: (57) (8) 6625050";"Cr31 40-06 Of 8 Centro Colombia, Villavicencio"
"HOSPEDAJE EL SILENCIO";;;"(57) (4) 4414975";"Cr64 B 75 A-19 Colombia, Medellín"
"RESIDENCIAS MIRABAR";;;"(57) (2) 8806747";"Cl 18 14-46 Colombia, Cali"
"HOTEL RESIDENCIAS REY";;;"(57) (2) 8830780";"Cl 21 7 A 28 Colombia, Cali"
"CASTRO BOLAÑOS JOSÉ EDELBERTO";;;"(57) (2) 8891259";"Cr7 14-72 P-2 Colombia, Cali"
"HOTEL RESIDENCIAS CALDAS";;;"(57) (4) 5131677";"Cr46 50 -39 Colombia, Medellín"
"HOTEL Y RESIDENCIAS TARDES DE PARIS NO 2";;;"(57) (2) 8822183";"Cl 25 Cr9 Esq Colombia, Cali"
"RESIDENCIAS MANHATTAN";;;"(57) (4) 2313120";"Cl 53 54-31 P-2 Colombia, Medellín"
"RESIDENCIAS MI RECUERDO";;;"(57) (7) 6526163";"Cl 31 21-73 Colombia, Bucaramanga"
"First Name";"Email Address";Url;Telephone;Address
"RESIDENCIAS LOS GERANEOS";;;"(57) (2) 2814861";"Cl 31 32-51 Colombia, Palmira"
"RESIDENCIAS GLADYS";;;"(57) (7) 6422179";"Cr17 A 28-46 Colombia, Bucaramanga"
"AMOBLADOS EL FORTIN";;;"(57) (2) 8851748";"Cl 19 11 D-19 Colombia, Cali"
"RESIDENCIAS MORENO";;;"(57) (7) 6222724";"Cl 49 3-52 Sector Comercial Colombia, Barrancabermeja"
"GUACANEME LUIS";;;"(57) (1) 3470476";"Cl 57 9-49 Colombia, Bogotá"
"MOTEL PARADOR";;;"(57) (5) 6637574";"Turbaco Plan Parejo Cr15 29-108 Colombia, Cartagena"
"HABITACIONES SAN FERNANDO";;;"(57) (5) 4229836";"Cl 8 15 B-23 Vía El Rodadero Colombia, Santa Marta"
"APARTAHOTEL MANABI";;;"(57) (2) 8959756";"Cr11 24-53 Colombia, Cali"
"RESIDENCIAS MARLY";;;"(57) (5) 4213164";"Cr4 10 C-36 Colombia, Santa Marta"
"HOTEL MARCO DELICIAS";;;"(57) (4) 2851008";"Cl 85 50 A-13 Colombia, Itagüí"
"HOSTAL DANATO";;;"(57) (2) 4383845";"Cr6 28-04 Colombia, Cali"
"RESIDENCIAS PARA ESTUDIANTES LEMA";;;"(57) (4) 2172534";"Cl 51 39-35 Colombia, Medellín"
"RESIDENCIAS ITALIA";;;"(57) (7) 6429388";"Cl 23 17-50 Colombia, Bucaramanga"
"RESIDENCIA CONTRAPUNTO";;;"(57) (7) 6222822";"Cr5 6-02 Colombia, Barrancabermeja"
"RESIDENCIAS MI RECUERDO";;;"(57) (7) 6526163";"Cl 31 21-73 Colombia, Bucaramanga"
"LA PALMA";;;"(57) (1) 2493834";"Av. Caracas N 52-59 Colombia, Bogotá"
"RESIDENCIAS ORIENTALES";;;"(57) (2) 7202357";"Cl 16 B 15-20 Colombia, Pasto"
"HOSTAL LAS PALMAS";;;"(57) (1) 2493834";"Av Caracas 52-59 Colombia, Bogotá"
"RESINDENCIAS PALMIRA";;;"(57) (7) 6202239";"Cr32 11 A-43 Palmira Colombia, Barrancabermeja"
"LA PALMA";;;"(57) (1) 2493834";"Av. Caracas N 52-59 Colombia, Bogotá"
"HOTEL LÍDER";;;"(57) (2) 8362985";"Cr6 4 N-70 Colombia, Popayán"
"NOCHES DE AVENTURA";;;"(57) (2) 8964085";"Cl 5 12-55 Colombia, Cali"
"HOSTAL LAS PALMAS";;;"(57) (1) 2493834";"Av Caracas 52-59 Colombia, Bogotá"
"MOTELES GEISHA";;;"(57) (2) 5551331";"Cl 25 122-349 Vía Jamundí Colombia, Jamundí"
"RESIDENCIA BRETAÑA";;;"(57) (2) 5541886";"Cr22 9 E-109 Colombia, Cali"
"RESIDENCIAS COSTA AZUL";;;"(57) (2) 8845101";"Cr8 A 24-38 Colombia, Cali"
"RESIDENCIAS F-8";;;"(57) (7) 6423098";"Cl 30 18-22 Centro Colombia, Bucaramanga"
"RESIDENCIAS PARA ESTUDIANTES LEMA";;;"(57) (4) 2172534";"Cl 51 39-35 Colombia, Medellín"
"RESIDENCIAS BRISAS DE AMOR";;;"(57) (2) 8841990";"Cl 18 7-39 Colombia, Cali"
"RESIDENCIAS LOS GERANEOS";;;"(57) (2) 2814861";"Cl 31 32-51 Colombia, Palmira"
"HOTEL LISBOA CENTER";;;"(57) (8) 8720914";"Cr3 4-49 Colombia, Neiva"
"HOTEL EL ENCUENTRO";;;"(57) (4) 5126234";"Cl 53 54-432 Colombia, Medellín"
"RESIDENCIAS SUIZA";;;"(57) (2) 7213514";"Cr21 19-15 Colombia, Pasto"
"RESIDENCIAS BUENOS AIRES";;;"(57) (7) 6714572";"Cr22 10-45 Colombia, Bucaramanga"
"HOTEL EL TURISTA";;;"(57) (7) 6222670";"Cr3 48-60 La Campana Colombia, Barrancabermeja"
"MOTEL EXTASIS";;;"(57) (2) 2814245";"Cr22 A 41-44 Colombia, Palmira"
"HOSTAL PRINCESS";;;"Nal: (57) (1) 2730689";"Cr73 D 38-09 S Colombia, Bogotá"
"RESIDENCIAS MARBY";;;"(57) (8) 6580879";"Cl 17 13-42 Colombia, Granada"
"RESIDENCIAS PRIMAVER A";;;"(57) (4) 5129440";"Cl 51 53-100 Colombia, Medellín"
"RESIDENCIAS ORIENTALES";;;"(57) (2) 7202357";"Cl 16 B 15-20 Colombia, Pasto"
"HOTEL BALCONES DEL PARQUE";;;"(57) (4) 8456844";"Cl 9 2-75 Colombia, Jardín"
"RESIDENCIAS CLAUDIA";;;"(57) (72) 7486110";"Cl 6 8-10 Centro Colombia, Barbosa"
"RESIDENCIAS MADISON PLAZA";;;"Nal: (57) (7) 6429610";"Cr20 33-09 Colombia, San Gil"
"HOTEL Y RESIDENCIAS TARDES DE PARIS NO 2";;;"(57) (2) 8822183";"Cl 25 Cr9 Esq Colombia, Cali"
"RESIDENCIAS SAN JORGE";;;"(57) (5) 4311293";"Cl 10 C 2-62 Colombia, Santa Marta"
"HERNÁNDEZ SUÁREZ CARMEN";;;"(57) (2) 4419502";"Cr15 43 A-03 Colombia, Cali"
"MADISON PLAZA RESIDENCIAL";;;"(57) (7) 6429610";"Cr20 33-09 Colombia, Bucaramanga"
"RESIDENCIAS SAN FERNANDO";;;"(57) (2) 7326064";"Cr4 E 20-80 Sta Bárbara Colombia, Pasto"
"RESIDENCIAS VIENA";;;"(57) (2) 7214508";"Cr19 B 18-39 Centro Colombia, Pasto"
"RESIDENCIAS LA CALETA";;;"(57) (5) 4231454";"Cr1 B 26-25 Bellavista Colombia, Santa Marta"
"RESIDENCIAS MADEIRA";;;"(57) (7) 6337463";"C32 14-25 Colombia, Bucaramanga"
"RESIDENCIAS EL HOGAR";;;"(57) (5) 4213853";"Cl 12 2-58 Colombia, Santa Marta"
"RESIDENCIAS ARAGUANEY";;;"(57) (2) 2750593";"Cr35 37-80 Colombia, Palmira"
"HOTEL RESIDENCIAS ACAPULCO NO. 2";;;"(57) (4) 5120050";"Cl 60 52-54 Colombia, Medellín"
"HOTEL AMÉRICA";;;"(57) (4) 2759881";"Cr49 47-19 Bello Colombia, Medellín"
"HOTEL BELLO PLAZA";;;"(57) (4) 2721195";"Cr49 52-16 Bello Colombia, Medellín"
"APARTA HOTEL MILENIUM";;;"Nal: (57) (2) 4417735";"Cr15 31A-27 Colombia, Cali"
"RESIDENCIAS KARONI";;;"(57) (4) 5116474";"Cr50 A 47-11 Ap 200 Colombia, Medellín"
"HOTEL BELMONTE";;;"(57) (4) 5130309";"Cl 54 52-38 Colombia, Medellín"
"RESIDENCIAS PALMETTO";;;"(57) (2) 8852973";"Cl 25 9-36 Colombia, Cali"
"First Name";"Email Address";Url;Telephone;Address
"HOTEL LUZ";;;"(57) (2) 8836987";"Cl 24 3-13 Colombia, Cali"
"HOTEL PUERTO MANGO";;;"(57) (2) 3359357";"Cr30 18-84 Colombia, Cali"
"HOTEL BELLO PLAZA";;;"(57) (4) 2721195";"Cr49 52-16 Bello Colombia, Medellín"
"RESIDENCIAS EL DIAMANTE";;;"(57) (1) 3459781";"Cl 67 21-12 Colombia, Bogotá"
"HOTEL Y RESIDENCIAS TROPICANA";;;"(57) (5) 2880869";"Cl 10 10 E-394 Sector Isla Gallinazo Coveñas Colombia, Coveñas"
"CABAÑAS Y CASTILLOS DEL LAGO";;;"(57) (4) 3315986";"U-Km Antes de la Piedra del Peñol Colombia, Guatapé"
"HOTEL RESIDENCIAS YARIMA";;;"(57) (4) 5132958";"Cr50 45-104 Colombia, Medellín"
"CORTÉS MEZA RUBEN DARIO";;;"(57) (2) 4442224";"Cr2 35-05 Colombia, Cali"
"RESIDENCIA EL EDEN";;;"(57) (5) 3518616";"Cl 35 33-225 Colombia, Barranquilla"
"HOSTAL MARANATHA";;;"(57) (5) 4235882";"Cl 11 4-48 Colombia, Santa Marta"
"First Name";"Email Address";Url;Telephone;Address
"AMOBLADOS EL FORTIN";;;"(57) (2) 8851748";"Cl 19 11 D-19 Colombia, Cali"
"RESIDENCIAS ITALIA";;;"(57) (7) 6429388";"Cl 23 17-50 Colombia, Bucaramanga"
"APARTA HOTEL FANTASÍAS";;;"(57) (2) 3345409";"Cr30 A 35 E-42 Colombia, Cali"
"RESIDENCIAS MANTILLA";;;"(57) (7) 6304337";"Cr17 31-52 Colombia, Bucaramanga"
"RESIDENCIAS JEAN PIERRE";;;"(57) (7) 6423621";"Cl 31 17-43 Colombia, Bucaramanga"
"RESIDENCIAS BUENOS AIRES";;;"(57) (7) 6714572";"Cr22 10-45 Colombia, Bucaramanga"
"EVENTOS CAPORAL";;;"(57) (8) 6823875";"Cl 21 22-40 San Cristobal Colombia, Villavicencio"
"RESIDENCIAS ARAGUANEY";;;"(57) (2) 2750593";"Cr35 37-80 Colombia, Palmira"
"HOSPEDAJE MAR ADENTRO";;;"(57) (2) 2434729";"Cl 6 5 A-86 Sector F-8 Colombia, Buenaventura"
"HOTEL DON MARCOS";;;"(57) (2) 8205095";"Cl 5 A 15-96 Colombia, Popayán"
"RESIDENCIAS CAPORAL";;;"(57) 3203480043";"Tr29 N. 40-51 Emporio Colombia, Villavicencio"
"RESIDENCIAS MORENO";;;"(57) (7) 6222724";"Cl 49 3-52 Sector Comercial Colombia, Barrancabermeja"
"RESIDENCIAS MI OFICINA";;;"(57) (7) 6433216";"Cr18 54-83 La Concordia Centro Colombia, Bucaramanga"
"RESIDENCIAS LA 11";;;"(57) (8) 4356881";"Cr11 15-59 Colombia, Florencia"
"MOTEL KISS ME";;;"(57) (2) 4861616";"Cl 29 15-38 Colombia, Cali"
"RESIDENCIAS MONTERREY";;;"(57) (2) 8892272";"Cl 17 15-23 Colombia, Cali"
"HOTEL RESIDENCIAS RIOMAR";;;"(57) (5) 4232877";"Cr2 22-106 Colombia, Santa Marta"
"RESIDENCIAS NUEVO CHALET";;;"(57) (1) 2494330";"Cr 15 61-62 Colombia, Bogotá"
"HOTEL TERRAZA CLUB";;;"(57) (2) 8390488";"Cl 5 19-53 Colombia, Popayán"
"RESIDENCIA PANAMERICANA";;;"(57) (2) 8242557";"Cl 6 15-101 Colombia, Popayán"
"MOTEL CUPIDO EL REY DEL AMOR";;;"(57) (7) 6738045";"Vía Rionegro Km 6 Café Madrid Colombia, Bucaramanga"
"HOTEL HERNÁNDEZ";;;"(57) (7) 5780967";"Av6 A 0-65 Colombia, Cúcuta"
"RESIDENCIA LA PALMA";;;"(57) (4) 2319707";"Cl 45 50-93 Colombia, Medellín"
"RESIDENCIAS PARAISO";;;"(57) (7) 6222048";"Cr12 49 A-16 Colombia Colombia, Barrancabermeja"
"RESIDENCIAS LA DIOSA DEL AMOR";;;"(57) (2) 8807468";"Cr4 C 61-58 Colombia, Cali"
"BESABE ZABALA DE MARÍA DOLORES";;;"(57) (5) 3406103";"Cr41 42-40 Colombia, Barranquilla"
"INVERSIONES CMJ LTDA.";;;"(57) (1) 3149200";"Cl 64 14-72 Colombia, Bogotá"
"RESIDENCIAS LAS VEGAS";;;"(57) (4) 8280349";"Cr97 96-27 Colombia, Apartadó"
"RESIDENCIAS MANHATTAN";;;"(57) (4) 2313120";"Cl 53 54-31 P-2 Colombia, Medellín"
"GÓMEZ SÁNCHEZ ALIS MARÍA";;;"(57) (5) 4142207";"Cl 4 7 A-18 Colombia, Fundación"
"POSADA BRISTON";;;"(57) (1) 3429875";"Cl 24 13 A-25 Colombia, Bogotá"
"AMOBLADO NUEVO TEQUENDAMA";;;"(57) (2) 3356363";"Cr30 19-90 Colombia, Cali"
"MOTEL EXTASIS";;;"(57) (2) 2814245";"Cr22 A 41-44 Colombia, Palmira"
"HOTEL RESIDENCIAS TRAVESURAS";;;"(57) (2) 8801924";"Cr7 22-76 Colombia, Cali"
"RESIDENCIAS MIRABAR";;;"(57) (2) 8806747";"Cl 18 14-46 Colombia, Cali"
"APARTAHOTEL SABORES";;;"(57) (2) 3264116";"Cr29 A 1 12 B-173 Colombia, Cali"
"HOTEL RESIDENCIAS TARDES DE PARIS NO. 1";;;"(57) (2) 8801401";"Cr1 17-26 Colombia, Cali"
"HOTEL RESIDENCIAS PEACE AND LOVE";;;"(57) (2) 8890840";"Cr17 C 23-06 Colombia, Cali"
"RESIDENCIAS MADISON PLAZA";;;"Nal: (57) (7) 6429610";"Cr20 33-09 Colombia, San Gil"
"RESIDENCIAS ATALAYA";;;"(57) (7) 6802882";"Cl 32 21-57 Colombia, Bucaramanga"
"RESIDENCIAS MADISON PLAZA";;;"Nal: (57) (7) 6429610";"Cr20 33-09 Colombia, San Gil"
"RESIDENCIAS EL REPOSO";;;"(57) (7) 6304362";"Cl 28 # 17 A-16 Colombia, Bucaramanga"
"RESIDENCIAS EL DORADO";;;"(57) (2) 7210490";"Cl 19 19 B-08 Plaza de Carnaval Colombia, Pasto"
"RESIDENCIAS SUIZA";;;"(57) (2) 7213514";"Cr21 19-15 Colombia, Pasto"
"RESIDENCIA LAS PALMAS";;;"(57) (1) 2126335";"Cl 62 14-31 Colombia, Bogotá"
"RESIDENCIAS EL SUEÑO";;;"(57) (7) 6421738";"Cl 31 20-32 Colombia, Bucaramanga"
"HOTEL RESIDENCIAS MI FANTASIA";;;"(57) (7) 6334628";"Cl 39 19-100 Colombia, Bucaramanga"
"RESIDENCIA LOS DOS SANTANDERES";;;"(57) (7) 5723879";"Cl 1 9-49 Colombia, Cúcuta"
"RESIDENCIAS LUSITANIA";;;"(57) (7) 6429433";"Av Quebrada Seca 16-62 Colombia, Bucaramanga"
"RESIDENCIAS COSTA AZUL";;;"(57) (2) 8845101";"Cr8 A 24-38 Colombia, Cali"
"MOTEL LOS COLORES";;;"(57) (4) 2115252";"Cl 71 51-46 Colombia, Medellín"
"CORTÉS MEZA RUBEN DARIO";;;"(57) (2) 4442224";"Cr2 35-05 Colombia, Cali"
"HOTEL DONAIRES";;;"(57) (4) 5133132";"Cl 53 54-114 Colombia, Medellín"
"RESIDENCIAS LAS VEGAS";;;"(57) (4) 8280349";"Cr97 96-27 Colombia, Apartadó"
"HERNÁNDEZ SUÁREZ CARMEN";;;"(57) (2) 4419502";"Cr15 43 A-03 Colombia, Cali"
"HOSTAL CALIPSO";;;"(57) (5) 4235825";"Cr1 B 26-61 Bellavista Colombia, Santa Marta"
"HOTEL RESIDENSIAL LYON";;;"(57) (2) 5577786";"Cl 8 23-09 Colombia, Cali"
"HOSPEDAJE EL SILENCIO";;;"(57) (4) 4414975";"Cr64 B 75 A-19 Colombia, Medellín"
"HOTEL RESIDENCIAS TARDES DE PARIS NO. 1";;;"(57) (2) 8801401";"Cr1 17-26 Colombia, Cali"
"RESIDENCIAS RAMIREZ";;;"(57) (2) 8811397";"Cr7 A 23-43 Colombia, Cali"
"RESIDENCIAS GLADYS";;;"(57) (7) 6422179";"Cr17 A 28-46 Colombia, Bucaramanga"
"RESIDENCIAS LATIN LOVE";;;"(57) (2) 4443206";"Cr23 36 A-50 P-2 Colombia, Cali"
"RESIDENCIAS LA VEGA";;;"(57) (7) 6428577";"CL 29 16-41 Colombia, Bucaramanga"
"RESIDENCIAS LA LLAVE";;;"(57) (7) 6300245";"Cl 24 # 17 A-16 Colombia, Bucaramanga"
"HOTEL PUERTO MANGO";;;"(57) (2) 3359357";"Cr30 18-84 Colombia, Cali"
"RESIDENCIAS PARAISO";;;"(57) (7) 6222048";"Cr12 49 A-16 Colombia Colombia, Barrancabermeja"
"HOTEL TRANQUILANDIA";;;"(57) (2) 4442224";"Cr 2 35-05 Colombia, Cali"
"RESIDENCIAS ITALIA";;;"(57) (7) 6429388";"Cl 23 17-50 Colombia, Bucaramanga"
"APARTA HOTEL FANTASÍAS";;;"(57) (2) 3345409";"Cr30 A 35 E-42 Colombia, Cali"
"RESIDENCIAS MONTERREY";;;"(57) (2) 8892272";"Cl 17 15-23 Colombia, Cali"
"First Name";"Email Address";Url;Telephone;Address
"MOTEL 1A";;;"(57) (2) 6654455";"Cr38 9-121 Menga Yumbo Colombia, Yumbo"
"LA PALMA";;;"(57) (1) 2493834";"Av. Caracas N 52-59 Colombia, Bogotá"
"HOSTAL LAS PALMAS";;;"(57) (1) 2493834";"Av Caracas 52-59 Colombia, Bogotá"
"RESIDENCIAS WALKIRIA";;;"(57) (5) 3444300";"Cr 53 61 35 Colombia, Barranquilla"
"HOTEL DONAIRES";;;"(57) (4) 5133132";"Cl 53 54-114 Colombia, Medellín"
"RESIDENCIAS PALMETTO";;;"(57) (2) 8852973";"Cl 25 9-36 Colombia, Cali"
"MOTEL CONDORICOSAS";;;"(57) (2) 4861622";"Cr8 24-46 Colombia, Cali"
"RESIDENCIAS MANHATTAN";;;"(57) (4) 2313120";"Cl 53 54-31 P-2 Colombia, Medellín"
"HOSPEDAJE EL NUEVO REY";;;"(57) (7) 6700981";"Cl 23 17-11 Alarcón Colombia, Bucaramanga"
"RESIDENCIAS ROYAL";;;"(57) (7) 6423578";"Cl 37 15-16 Colombia, Bucaramanga"
"RESIDENCIAS LUSITANIA";;;"(57) (7) 6429433";"Av Quebrada Seca 16-62 Colombia, Bucaramanga"
"RESIDENCIAS LA 11";;;"(57) (8) 4356881";"Cr11 15-59 Colombia, Florencia"
"RESIDENCIAS LA CALETA";;;"(57) (5) 4231454";"Cr1 B 26-25 Bellavista Colombia, Santa Marta"
"RESIDENCIAS ITALIA";;;"(57) (7) 6429388";"Cl 23 17-50 Colombia, Bucaramanga"
"RESIDENCIAS TEXANO";;;"(57) (7) 6424874";"Cr20 31-101 Colombia, Bucaramanga"
"RESIDENCIAS I LOVE YOU";;;"(57) (2) 4431339";"Cl 33 A 15-71 Colombia, Cali"
"RESIDENCIAS PATRIX";;;"(57) (2) 8890059";"Cl 21 11 B-46 Colombia, Cali"
"RESIDENCIA LOS DOS SANTANDERES";;;"(57) (7) 5723879";"Cl 1 9-49 Colombia, Cúcuta"
"RESIDENCIAS DINASTÍA";;;"(57) (2) 8890923";"Cr13 11-36 Colombia, Cali"
"RESIDENCIAS MI OFICINA";;;"(57) (7) 6433216";"Cr18 54-83 La Concordia Centro Colombia, Bucaramanga"
"RESIDENCIAS EL HOGAR";;;"(57) (5) 4213853";"Cl 12 2-58 Colombia, Santa Marta"
"RESIDENCIAS ESMERALDA";;;"(57) (7) 6452888";"Cl 32 21-49 Colombia, Bucaramanga"
"RESIDENCIAS SAN FERNANDO";;;"(57) (2) 7326064";"Cr4 E 20-80 Sta Bárbara Colombia, Pasto"
"HOTEL RESIDENCIAS YARIMA";;;"(57) (4) 5132958";"Cr50 45-104 Colombia, Medellín"
"APARTAHOTEL LA 21";;;"(57) (2) 8800011";"Cl 21 15-55 Colombia, Cali"
"RESIDENCIAS MI RECUERDO";;;"(57) (7) 6526163";"Cl 31 21-73 Colombia, Bucaramanga"
"RESIDENCIAS CARUSSO";;;"(57) (4) 5130704";"Cr53 49 -77 Colombia, Medellín"
"RESIDENCIAS EL DORADO";;;"(57) (2) 7210490";"Cl 19 19 B-08 Plaza de Carnaval Colombia, Pasto"
"RESIDENCIAS CAPRI";;;"(57) (7) 6586594";"Cl 33 15-11 P-3 Colombia, Bucaramanga"
"RESIDENCIAS VIENA";;;"(57) (2) 7214508";"Cr19 B 18-39 Centro Colombia, Pasto"
"First Name";"Email Address";Url;Telephone;Address
"HOTEL EL DORADO";;;"(57) (4) 8455618";"Cr4 8-52 Jardín Colombia, Jardín"
"RESIDENCIAS TEQUENDAMA";;;"(57) (7) 6428756";"Av Quebrada Seca 14-50 Colombia, Bucaramanga"
"RESIDENCIAS ZIPA";;;"(57) (7) 6423589";"Cr20 31-27 Colombia, Bucaramanga"
"RESIDENCIA LA PALMA";;;"(57) (4) 2319707";"Cl 45 50-93 Colombia, Medellín"
"RESIDENCIAS AVENIDA";;;"(57) (7) 6423277";"Cr19 30-23 Colombia, Bucaramanga"
"APARTAHOTEL CALIMIO";;;"(57) (2) 6671516";"Av2 Bis 31 N-24 Colombia, Cali"
"GREEN HAUSE RESIDENCIAS";;;"(57) (1) 3460461";"Av Caracas 55-52 Colombia, Bogotá"
"GIRALDO GARCÍA LUIS EVELIO";;;"(57) (2) 6644555";"Cl 70 N 2 A-130 Yumbo Colombia, Cali"
"RESIDENCIAS MANTILLA";;;"(57) (7) 6304337";"Cr17 31-52 Colombia, Bucaramanga"
"RESIDENCIAS KARONI";;;"(57) (4) 5116474";"Cr50 A 47-11 Ap 200 Colombia, Medellín"
"RESIDENCIAS ITALIA";;;"(57) (7) 6429388";"Cl 23 17-50 Colombia, Bucaramanga"
"RESIDENCIAS D`MILAN";;;"(57) (7) 6322130";"Cr32 34-25 Colombia, Bucaramanga"
"RESIDENCIAS EL GRECO";;;"(57) (2) 4480639";"Cl 33 A 12-43 Colombia, Cali"
"HABITACIONES SAN FERNANDO";;;"(57) (5) 4229836";"Cl 8 15 B-23 Vía El Rodadero Colombia, Santa Marta"
"RESIDENCIAS ALADÍN";;;"(57) (5) 3704295";"Cl 36 44-85 Colombia, Barranquilla"
"RESIDENCIAS I LOVE YOU";;;"(57) (2) 4431339";"Cl 33 A 15-71 Colombia, Cali"
"HOTEL EL REMANSO";;;"(57) (7) 6429893";"Cl 42 19-64 Centro Colombia, Bucaramanga"
"MOTEL CONDORICOSAS";;;"(57) (2) 4861622";"Cr8 24-46 Colombia, Cali"
"HOTEL DONAIRES";;;"(57) (4) 5133132";"Cl 53 54-114 Colombia, Medellín"
"RESIDENCIAS MI RECUERDO";;;"(57) (7) 6526163";"Cl 31 21-73 Colombia, Bucaramanga"
"MOTEL EXTASIS";;;"(57) (2) 2814245";"Cr22 A 41-44 Colombia, Palmira"
"MODERNA RESIDENCIAS";;;"(57) (2) 2244237";"Cl 28 23-36 Colombia, Tuluá"
"RESIDENCIAS SEÑORIAL";;;"(57) (2) 4879687";"Cr29 19-116 Colombia, Cali"
"RESIDENCIAS LAS VEGAS CALI";;;"(57) (2) 4482218";"Cr15 42-06 Colombia, Cali"
"HOTEL RESIDENCIAS PEACE AND LOVE";;;"(57) (2) 8890840";"Cr17 C 23-06 Colombia, Cali"
"HOTEL GUATATUR E.U.";;;"(57) (4) 8611212";"Cl 31 31-04 Colombia, Guatapé"
"RESIDENCIAS EL PODER DE LOS SUEÑOS";;;"(57) (2) 8804203";"Cr1 24-140 Colombia, Cali"
"NOCHES DE AVENTURA";;;"(57) (2) 8964085";"Cl 5 12-55 Colombia, Cali"
"HOSTAL DANATO";;;"(57) (2) 4383845";"Cr6 28-04 Colombia, Cali"
"HOTEL COLOMBIA REAL";;;"(57) (4) 2601660";"Cl 50 68-14 Colombia, Medellín"
"HOTEL RESIDENCIAS ACAPULCO NO. 2";;;"(57) (4) 5120050";"Cl 60 52-54 Colombia, Medellín"
"HOSPEDAJE EL NUEVO REY";;;"(57) (7) 6700981";"Cl 23 17-11 Alarcón Colombia, Bucaramanga"
"RESIDENCIAS MADRID SUR";;;"(57) (7) 5723726";"Av8 3-43 El Callejón Colombia, Cúcuta"
"HOTEL TROPICAL";;;"(57) (4) 5121633";"Cl 56 49-105 Colombia, Medellín"
"RESIDENCIAS ROYAL";;;"(57) (7) 6423578";"Cl 37 15-16 Colombia, Bucaramanga"
"RESIDENCIA LA CASCADA";;;"(57) (7) 6337236";"Cr18 24-16 Colombia, Bucaramanga"
"HOTEL RESIDENCIAS MI FANTASIA";;;"(57) (7) 6334628";"Cl 39 19-100 Colombia, Bucaramanga"
"RESIDENCIAS MADDONA";;;"(57) (7) 6203336";"Cl 50 4-06 Colombia, Barrancabermeja"
"RESIDENCIA BRETAÑA";;;"(57) (2) 5541886";"Cr22 9 E-109 Colombia, Cali"
"RESIDENCIA EL EMBAJADOR";;;"(57) (7) 5713203";"Av9 10-56 El Llano Colombia, Cúcuta"
"First Name";"Email Address";Url;Telephone;Address
"RESIDENCIAS FLORIDA";;;"(57) (4) 8273531";"Cl 13 99A- 56 Colombia, Turbo"
"HOTEL Y RESIDENCIA EL DEPORTISTA";;;"(57) (4) 2394890";"Cl 46 43-98 Colombia, Medellín"
"ROJAS JACKELINE";;;"(57) (5) 3406234";"Cl 50 35-85 Colombia, Barranquilla"
"RESIDENCIAS NUEVO CHALET";;;"(57) (1) 2494330";"Cr 15 61-62 Colombia, Bogotá"
"HERNÁNDEZ SUÁREZ CARMEN";;;"(57) (2) 4419502";"Cr15 43 A-03 Colombia, Cali"
"HOTEL MI TIERRA";;;"(57) (2) 6616214";"Av8 N 10-104 Colombia, Cali"
"HOTEL RESIDENCIAS TRAVESURAS";;;"(57) (2) 8801924";"Cr7 22-76 Colombia, Cali"
"HOSPEDAJE EL SILENCIO";;;"(57) (4) 4414975";"Cr64 B 75 A-19 Colombia, Medellín"
"HOTEL RESIDENCIAS PEACE AND LOVE";;;"(57) (2) 8890840";"Cr17 C 23-06 Colombia, Cali"
"HOSPEDAJE EL NUEVO REY";;;"(57) (7) 6700981";"Cl 23 17-11 Alarcón Colombia, Bucaramanga"
"HOSPEDAJE GOMEZ PLATA";;;"(57) (7) 6116372";"Cl 49 5-23 Colombia, Barrancabermeja"
"HOTEL MI PALERMO";;;"(57) (7) 6444957";"Cr17 55-55 Colombia, Bucaramanga"
"RESIDENCIAS F-8";;;"(57) (7) 6423098";"Cl 30 18-22 Centro Colombia, Bucaramanga"
"HOSTAL DANATO";;;"(57) (2) 4383845";"Cr6 28-04 Colombia, Cali"
"RESIDENCIAS PLATINO";;;"(57) (2) 8842485";"Cl 20 7 A 18 Colombia, Cali"
"HOTEL TERRAZA CLUB";;;"(57) (2) 8390488";"Cl 5 19-53 Colombia, Popayán"
"RESIDENCIAS MARLY";;;"(57) (5) 4213164";"Cr4 10 C-36 Colombia, Santa Marta"
"HOTEL BELMONTE";;;"(57) (4) 5130309";"Cl 54 52-38 Colombia, Medellín"
"RESIDENCIAS LA 14";;;"(57) (7) 5725022";"Cl 14 5-64 Colombia, Cúcuta"
"RESIDENCIAS VIENA";;;"(57) (2) 7214508";"Cr19 B 18-39 Centro Colombia, Pasto"
"HOTEL LA GRAN AVENIDA";;;"(57) (4) 3529759";"Cr49 47-39 Itagüí Colombia, Itagüí"
"HOTEL PUERTO MANGO";;;"(57) (2) 3359357";"Cr30 18-84 Colombia, Cali"
"MOTEL PARADOR";;;"(57) (5) 6637574";"Turbaco Plan Parejo Cr15 29-108 Colombia, Cartagena"
"RESIDENCIAS WALKIRIA";;;"(57) (5) 3444300";"Cr 53 61 35 Colombia, Barranquilla"
"CABAÑAS Y CASTILLOS DEL LAGO";;;"(57) (4) 3315986";"U-Km Antes de la Piedra del Peñol Colombia, Guatapé"
"CORTÉS MEZA RUBEN DARIO";;;"(57) (2) 4442224";"Cr2 35-05 Colombia, Cali"
"RESIDENCIA VENECIA";;;"Telefax: (57) (5) 3517907";"Cl 44 39-30 Colombia, Barranquilla"
"APARTAMENTOS UNICENTRO";;;"(57) (1) 2152040";"Cr14 B 119-83 Colombia, Bogotá"
"RESIDENCIAS EL NIDO";;;"(57) (5) 3460984";"Cr27 # 38-33 Colombia, Barranquilla"
"APARTA HOTEL MILENIUM";;;"Nal: (57) (2) 4417735";"Cr15 31A-27 Colombia, Cali"
"HOTEL MARCO DELICIAS";;;"(57) (4) 2851008";"Cl 85 50 A-13 Colombia, Itagüí"
"AMOBLADOS TIFANNY";;;"(57) (2) 8857252";"Cl 21 14-35 Colombia, Cali"
"HOTEL RESIDENCIAS BUCARAMANGA";;;"(57) (2) 8841355";"Cl 22 7 A-20 Colombia, Cali"
"RESIDENCIAS LA DIOSA DEL AMOR";;;"(57) (2) 8807468";"Cr4 C 61-58 Colombia, Cali"
"HOTEL TRANQUILANDIA";;;"(57) (2) 4442224";"Cr 2 35-05 Colombia, Cali"
"RESIDENCIAS PATRIX";;;"(57) (2) 8890059";"Cl 21 11 B-46 Colombia, Cali"
"RESIDENCIAS MADEIRA";;;"(57) (7) 6337463";"C32 14-25 Colombia, Bucaramanga"
"APARTAHOTEL SABORES";;;"(57) (2) 3264116";"Cr29 A 1 12 B-173 Colombia, Cali"
"RESIDENCIAS ACUARIO";;;"(57) (2) 2756829";"Cr33 30-95 Colombia, Palmira"
"RESIDENCIAS EL REPOSO";;;"(57) (7) 6304362";"Cl 28 # 17 A-16 Colombia, Bucaramanga"
"First Name";"Email Address";Url;Telephone;Address
"RESIDENCIA ORIENTAL";;;"(57) (7) 6452836";"Cr25 33-55 Colombia, Bucaramanga"
"RESIDENCIAS SUIZA";;;"(57) (2) 7213514";"Cr21 19-15 Colombia, Pasto"
"MOTEL SPARCIMIENTO'S";;;"(57) (2) 2137999";"Cr22 8-71 Colombia, Cartago"
"RESIDENCIAS ZIPA";;;"(57) (7) 6423589";"Cr20 31-27 Colombia, Bucaramanga"
"APARTAHOTEL CALIMIO";;;"(57) (2) 6671516";"Av2 Bis 31 N-24 Colombia, Cali"
"RESIDENCIA LOS DOS SANTANDERES";;;"(57) (7) 5723879";"Cl 1 9-49 Colombia, Cúcuta"
"RESIDENCIAS LA LLAVE";;;"(57) (7) 6300245";"Cl 24 # 17 A-16 Colombia, Bucaramanga"
"HOTEL TERRAZA CLUB";;;"(57) (2) 8390488";"Cl 5 19-53 Colombia, Popayán"
"HOTEL LUZ";;;"(57) (2) 8836987";"Cl 24 3-13 Colombia, Cali"
"HOTEL Y RESIDENCIAS MODERNA";;;"(57) (5) 2817875";"Cl 21 21-94 P-2 Colombia, Sincelejo"
"RESIDENCIAS WALKIRIA";;;"(57) (5) 3444300";"Cr 53 61 35 Colombia, Barranquilla"
"EVENTOS CAPORAL";;;"(57) (8) 6823875";"Cl 21 22-40 San Cristobal Colombia, Villavicencio"
"RESIDENCIAS CAPORAL";;;"(57) 3203480043";"Tr29 N. 40-51 Emporio Colombia, Villavicencio"
"RESIDENCIAS LA CALETA";;;"(57) (5) 4231454";"Cr1 B 26-25 Bellavista Colombia, Santa Marta"
"HOSTAL MARANATHA";;;"(57) (5) 4235882";"Cl 11 4-48 Colombia, Santa Marta"
"RESIDENCIAS EL PODER DE LOS SUEÑOS";;;"(57) (2) 8804203";"Cr1 24-140 Colombia, Cali"
"MOTEL 1A";;;"(57) (2) 6654455";"Cr38 9-121 Menga Yumbo Colombia, Yumbo"
"RESIDENCIAS I LOVE YOU";;;"(57) (2) 4431339";"Cl 33 A 15-71 Colombia, Cali"
"RESIDENCIAS KARONI";;;"(57) (4) 5116474";"Cr50 A 47-11 Ap 200 Colombia, Medellín"
"RESIDENCIAS DINASTÍA";;;"(57) (2) 8890923";"Cr13 11-36 Colombia, Cali"
"RESIDENCIAS CARIBE";;;"(57) (2) 8843227";"Cr11 11-66 Colombia, Cali"
"RESIDENCIAS MADDONA";;;"(57) (7) 6203336";"Cl 50 4-06 Colombia, Barrancabermeja"
"RESIDENCIAS MANTILLA";;;"(57) (7) 6304337";"Cr17 31-52 Colombia, Bucaramanga"
"HOTEL MI PALERMO";;;"(57) (7) 6444957";"Cr17 55-55 Colombia, Bucaramanga"
"RESIDENCIAS YAPURANIA";;;"(57) (8) 4358176";"Cl 16 Cr12 Esq Colombia, Florencia"
"RESIDENCIAS LA FORTUNA";;;"(57) (7) 6420086";"Cl 31 14-70 Colombia, Bucaramanga"
"LAS PALMAS";;;"(57) (2) 8852912";"Cr11 24-48 Colombia, Cali"
"RESIDENCIAS MARLY";;;"(57) (5) 4213164";"Cr4 10 C-36 Colombia, Santa Marta"
"RESIDENCIAS LONDRES";;;"(57) (2) 7200316";"Cr20 18-56 Colombia, Pasto"
"HOTEL LA GRAN AVENIDA";;;"(57) (4) 3529759";"Cr49 47-39 Itagüí Colombia, Itagüí"
