"First Name";"Email Address";Url;Telephone;Address
"SOS INGENIERIA Y TELECOMUNICACIONES S.A.S";gerencia@sos-ingenieria.com;www.sos-ingenieria.com;"(57) (2) 6140880";"Cl 36   N 2 BN-132 Colombia, Cali"
ACCESAR;afernandez@accesar.com;www.accesar.com;"(57) (5) 3680368";"Cl 76 47-26 Colombia, Barranquilla"
"NEWTEC INGENIERÍA";andresnextcom@hotmail.com;www.newtecingenieria.com;"(57) (2) 3725195";"Cr17F1 Dg18 A-41 Colombia, Cali"
"CASA DE SOFTWARE PROSOF S.A.S.";prosof@prosof.com;www.prosof.co;"(57) (6) 3151990";"Cl 4 15-11 Los Cámbulos-Circunvalar Colombia, Pereira"
AVANSIS;administracion@avansis.com.co;www.avansis.com.co;"(57) (6) 3330621";"Cl 19 9-50 Of 1305 Colombia, Pereira"
"COMPUSERVICIO ALFA & OMEGA LTDA.";contactenos@compualfaomega.com.co;www.compuservicioalfayomega.com;"(57) (1) 6484112";"Cl 142 23-05 P-1 Colombia, Bogotá"
"TIENDA Q S.A.S.";leonardogil@tiendaq.com;www.tiendaq.com;"(57) (4) 4034350";"Cr48 10-45 L-2-y L-384 C.C. Monterrey Colombia, Medellín"
"LOS ORGANIZADORES";losorganizadorescolombia@gmail.com;www.losorganizadorescolombia.com;"(57) (4) 3529578";"Medellín Colombia, Medellín"
"TELSYS GROUP";ventas@telsysgroup.com.co;www.telsysgroup.com.co;"(57) (1) 5921823";"Cl 124 No. 7-35 Of 701 Colombia, Bogotá"
"APOLO INGENIERÍA S.A.";pereira@apolosoft.com;apolosoft.com;"(57) (6) 3261309";"Cr11 Bis 40-25 Frente a Cataluña Colombia, Pereira"
"CORAL ACCESSORY";gerencia@coralac.com.co;www.bodegadelpc.com;"(57) (4) 4442107";"Cr78 45 E-115 Colombia, Medellín"
"DIREMA MAQUINARIA Y TECNOLOGIA S.A.S";administracion@direma.co;www.direma.co;"(57) (4) 4482685";"Dg32 Tr33 A Sur-49 Envigado B. La Magnolia Colombia, Medellín"
COMPUADVANCE;dayronvelasquez@hotmail.com;www.compuadvance.com.co;"(57) (4) 5206464";"C.C. Monterrey L-394 Colombia, Medellín"
"IT & SECURITY CONSULTORES LTDA.";gerencia.comercial@its-consultores.com;www.its-consultores.com;"(57) (4) 4102370";"Cl 37 79-17 Of 201 Colombia, Medellín"
"COMPURENT S.A.S.";info@compurent.com.co;www.compurent.com.co;"(57) (4) 4485100";"Cl 10   S 48 A-55 Colombia, Medellín"
"J Y P INFORMÁTICA";;www.jypinformatica.com;"(57) (4) 2586287";"Cr46 C 98 A-38 Colombia, Medellín"
"DATAFLUX S.A.S.";info@dataflux.com.co;www.dataflux.com.co;"(57) (5) 3185188";"Barranquilla Colombia, Barranquilla"
"NOVATECH SOLUCIONES LTDA.";info@novatech.com.co;www.novatech.com.co;"(57) (5) 3606281";"Cr50 74-103 L-4 Colombia, Barranquilla"
"SOLUCIONES EN SEGURIDAD INFORMATICA S.A.S.";info@tuseguridadinformatica.com;www.tuseguridadinformatica.com;"(57) (4) 4445088";"Cr79 A 53 B-116 Int 101 Colombia, Medellín"
"ITA INFRAESTRUCTURA TECNOLÓGICA APLICADA";info@infraestructura.com.co;www.infraestructura.com.co;"(57) (4) 4487457";"Cl 29 41-105 Edif Soho Of 501 Colombia, Medellín"
"ACCESORIOS COMPUTADORES TECNYCOM";tecnycom@une.net.co;www.tecnycom.com.co;"(57) (4) 4444864";"Cr76 32 BB-38 Colombia, Medellín"
"INGENIERIA TELEMÁTICA S.A.S";2omercial@ingenieriatelematic;www.ingenieriatelematica.com.co;"(57) (6) 3347444";"Cl 14 16-47 Pinares Colombia, Pereira"
SERTECOMPU;emma10nuel@hotmail.com;www.reparaciondecomputadorescali.com.co;"(57) (2) 3853426";"Cl 83 D# 5   N-48 Colombia, Cali"
"TRIANGULO DIGITAL";triangulodigital@hotmail.com;;"(57) (4) 2684801";"Cr48 10-45 Int 147 Colombia, Medellín"
"LINK TECNOLÓGICO S.A.S";fespana@linktecnologico.com.co;www.linktecnologico.com.co;"(57) (4) 4488517";"Cr80 44-73 Colombia, Medellín"
ECOPRINTERS;ecoprinters@hotmail.com;;"(57) (2) 2177656";"Cr5 15-60 Colombia, Cartago"
"COMPU MANTENIMIENTO";correocompumantenimiento@gmail.com;;"(57) (5) 3020051";"Cl 85 42 D-40 Colombia, Barranquilla"
"SOLUTECSIS MEDELLÍN";c.henao@solutecsis.com;www.solutecsis.com;"(57) (4) 4480030";"Cl 42 76-25 Colombia, Medellín"
"TECNO NACHO";aquitodo@hotmail.com;www.tecnonacho.com;"(57) (5) 3458177";"Cl 84 47-30 L-4 El Porvenir Colombia, Barranquilla"
"LEON - PC";leonficher@hotmail.com;leonficher.wix.com/leon-pc;"(57) (1) 7146483";"Dg46 Sur 13 J-52 Colombia, Bogotá"
"ANTIVIRUS ESPECIALISTS - REAL TIME SOLUTIONS LTDA.";comercialrts@rtsolutions.net;www.rtsolutions.net;"(57) (1) 2154477";"Cl 114 A 45-32 Of 302 Colombia, Bogotá"
"SISTEMAS MIG S.A.S.";ventas@sistemasmig.net;www.sistemasmig.net;"(57) (4) 4123899";"Cl 47 D 72-183 Of 103 Colombia, Medellín"
"ALPHA COMPUTER";compualpha@gmail.com;www.compualpha.com;"(57) (1) 6401720";"Cl 63 10-87 C.C Lourdes L-2014 Colombia, Bogotá"
"COMPUMUNDO BARRANQUILLA";compumundob@hotmail.com;;"(57) (5) 3702370";"Cr43 50-12 L-118 Colombia, Barranquilla"
"ECOMIL S.A.S.";;;"(57) (4) 4182595";"Cl 26 39-70 Int 2110 Colombia, Medellín"
"ALEMSYS S.A.";;;"(57) (5) 3603172";"Cr47 74-35 P-2 L-206 Colombia, Barranquilla"
"MCAFEE COLOMBIA LTDA.";;;"(57) (1) 5111700";"Av (Cr) 45 108-27 Trr 2 Colombia, Bogotá"
"SERVICE TECHNOLOGY S.A.S";;;"(57) (5) 3049829";"Cl 46 29-15 L-302-B Colombia, Barranquilla"
"ABADERNA A DOMICILIO";;;"(57) 3125532141";"Cr15 80-05 Of 67 A Colombia, Bogotá"
"INPHOENIXTY SYSTEMS DE COLOMBIA LTDA.";;;"(57) (5) 3587524";"Cr48 72-40 Of 307 Colombia, Barranquilla"
"First Name";"Email Address";Url;Telephone;Address
"DELL A ABADERNA A DOMICILIO ANTIVIRUS PORTÁTILES MONITORES";;;"(57) (1) 5300491";"Cr15 80-05 Of 67-A Colombia, Bogotá"
"LM COMPUTERS";;;"(57) (5) 3461977";"Cl 48 27-88 Colombia, Barranquilla"
"MICROCOL LTDA.";;;"(57) (1) 8050961";"Cr 65 13-50 P-1 Colombia, Bogotá"
COMPUSISCA;;;"(57) (5) 3604627";"Cr54 72-147 L-307 Colombia, Barranquilla"
"KONTROL SYSTEM";;;"(57) (5) 2809503";"Cr15 16-112 Colombia, Sincelejo"
"APLICACIONES INDUSTRIALES ESPECIALES";;;"(57) (5) 6610708";"Socorro Manz. 28 Lote 6 plan 500 A Colombia, Cartagena"
"OPEN SERVICE SOLUTION LTDA.";;;"(57) (5) 3583638";"Cr57 72-25 Of 501 Colombia, Barranquilla"
"AJ-SUMINISTROS-BLUES COMPUTERS";;;"(57) (4) 5810125";"Cr73 30 A-60 Int 203 Colombia, Medellín"
"ECOMIL S.A.S.";;;"(57) (4) 4182595";"Cl 26 39-70 Int 2110 Colombia, Medellín"
"CJT&T INGENIERÍA DE SOFTWARE LTDA.";;;"(57) (2) 7292330";"Cr26 19-07 Of 402 Edif Futuro Colombia, Pasto"
"MCAFEE COLOMBIA LTDA.";;;"(57) (1) 5111700";"Av (Cr) 45 108-27 Trr 2 Colombia, Bogotá"
