"First Name";"Email Address";Url;Telephone;Address
"HOTEL PALMA REAL";reservas@hotmail.com;www.hotelpalmarealcolombia.com;"(57) (2) 3247031";"Ladrilleros Colombia, Ladrilleros"
"CASA LOZANO HOTEL";reservas@hotelcasalozano.com;www.hotelcasalozano.com;"(57) (1) 2693118";"Cr44 A 24 C-07 Colombia, Bogotá"
"HOTEL PALMA 70";hotelpalma70@gmail.com;www.hotelpalma70.com;"(57) (4) 4091020";"Cq 5 70-37 Colombia, Medellín"
"VILLA LUNA AZUL HOTEL MELGAR";infoventas@hotmail.com;www.villaslunazul.com;"(57) (8) 2457988";"Cr6 7-123 Colombia, Melgar"
"HOSTERIA Y HOSTAL GUARACU";hguaracu@une.net.co;www.guaracu.com.co;"(57) (4) 2505007";"San Jerónimo Colombia, San Jerónimo"
"CENTRO RECREACIONAL Y VACACIONAL LOS ARRAYANES";arrayanes@losarrayanesrecreacional.com;www.losarrayanesrecreacional.com;"(57) (2) 5550883";"Vda la Vorágine Vía Pance Colombia, Cali"
"HABITA ESTUDIOS TAMAITÍ";habitaestudiostamaiti@gmail.com;www.tamaiti.com;"(57) (4) 2534549";"Cr85 C 34-56 Colombia, Medellín"
"APARTAMENTOS AMOBLADOS ALCÁZARES";arquitectos_pineda@hotmail.com;www.apartamentoslosalcazares.com;"Telefax: (57) (1) 6305425";"Cr27 C 70-65 Colombia, Bogotá"
"HOTEL NEIVA PLAZA";asisgerencia@hotelneivaplaza.com;www.hotelneivaplaza.com;"(57) (1) 2362769";"Cr21 100-20 Of 401 Colombia, Bogotá"
"HOTEL CAMPESTRE VILLA MONACO";villamonaco.hotelcampestre@gmail.com;www.villamonacohotelcampestre.com;"(57) (6) 3299027";"Vía Marsella Km 6 Colombia, Pereira"
"HOTEL OCÉANO";h-oceano@hotmail.com;www.h-oceano.com;"(57) (5) 6749052";"Bosque Dg21 45-35 Colombia, Cartagena"
"HOTEL PINARES PLAZA";reservas@hotelpinaresplaza.com.co;www.hotelpinaresplaza.com.co;"(57) (6) 3353285";"Av Ricaurte 9-20 Pinares Colombia, Pereira"
"HOTEL CENTER";info@hotelcenteribague.com;www.hotelcenteribague.com;"(57) (8) 2637322";"Cr4 12-52 Colombia, Ibagué"
"HOTEL URBAN ROYAL 93B";recepcionub@urbanroyal93.com;www.urbanroyal93.com;"(57) (1) 6380808";"Cl 93 B 18-42 Colombia, Bogotá"
"HOTEL CHICO IMPERIAL";;chicoimperialsuites.com.co;"(57) (1) 6108003";"Cr19 C 91-63 Colombia, Bogotá"
"AGENCIA DE VIAJES CIBELES TOURS";info@cibelestours.com;www.cibelestours.com;"(57) (4) 4442628";"C.C. Obelisco L-225 Colombia, Medellín"
"HOGAR SANTA INÉS";direccion@hogarsantaines.com;www.hogarsantaines.com;"(57) (2) 5246318";"Cl 7 29-43 Colombia, Cali"
"CASA DE EJERCICIOS Y ENCUENTROS SANTA MARIA DE LOS ÁNGELES";crsantamariadelosangeles@hotmail.com;www.santamariadelosangeles.amawebs.com;"(57) (6) 3143201";"Parque Industrial Parte Alta Pereira Colombia, Pereira"
"HOTEL CONQUISTADORES";hotelconquistadores@gmail.com;www.hotel-conquistadores.com.co;"(57) (4) 5123232";"Cr54 49-31 Colombia, Medellín"
"EL TESORO HOTEL Y CENTRO DE CONVENCIONES S.A.";mercadeo@hoteleltesoro.com.co;www.hoteleltesoro.com.co;"(57) (4) 8582054";"San Jerónimo Colombia, San Jerónimo"
"INVERSIONES BEHE S.A.";info@zionehotels.com;www.zionehotels.com;"(57) (6) 3171300";"Cr13 12-28 Colombia, Pereira"
"CABAÑAS EL MANANTIAL";cabanaselmanatial@gmail.com;www.elmanantialcabanas.com;"(57) (2) 3321314";"Cl 28 78-05 Colombia, Cali"
"HOTEL SANTA CRUZ CORFERÍAS";hotelsantracruzcorferias@hotmail.com;www.hotelsantacruzcorferias.com/;"(57) (1) 4646010";"Cl 22 Bis 43 B-05 Quinta Paredes Colombia, Bogotá"
"ZUANA BEACH RESORT";edna.farfan@constructorabolivar.com;www.zuana.com.co;"(57) (4) 3131678";"Cl 5 A 43 B-25 Of 805 Colombia, Medellín"
"APARTAMENTOS AMOBLADOS MALIBÚ";apartamentosmalibu@gmail.com;apartamentosmalibu.es.tl;"(57) (4) 4144570";"Cl 33 A 72-08 Colombia, Medellín"
"DIEZ HOTEL CATEGORIA COLOMBIA";administrativa@diezhotel.com;www.diezhotel.com;"(57) (4) 4481034";"Cl 10 A 34-11 Colombia, Medellín"
"HOTEL PLAZUELA SAN IGNACIO";hotelsanignacio@une.net.co;www.hotelplazuelasanignacio.com;"(57) (4) 2170222";"Cl 48 43-25 Colombia, Medellín"
"HOTEL ANDINO";hotelandino-cucuta@hotmail.com;www.hotelandino.com.co;"(57) (7) 6303319";"Cl 34 18-44 Colombia, Bucaramanga"
MARARENA;turismocontur@une.net.co;www.hotelmararena.com;"(57) (4) 4488996";"Cl 36 D   S 27 A-105 Of 9748 Envigado Colombia, Medellín"
"ALOJAMIENTO IN HOUSE THE HOTEL S.A.S.";info@inhousethehotel.com;inhousethehotel.com;"(57) (4) 3111786";"Cr34 7-109 Colombia, Medellín"
"HOTEL RESTAURANTE & PIZZERIA ASTURIAS";andreaflorez@hotelciudadbonit;hotelasturias.com.co;"(57) (7) 6457565";"Cr22 35-01 Colombia, Bucaramanga"
"HOTEL OBELISCO";reservas@hotelobeliscocali.com;www.hotelobeliscocali.com;"(57) (2) 8933019";"Av Colombia 4 Oeste-49 Colombia, Cali"
"HOSTERÍA LAS 2 PALMAS";hosteriadospalmas@une.net.co;www.hosterialasdospalmas.com;"Telefax: (57) (4) 3510001";"Cl 42 A 63 C-175 Colombia, Medellín"
"HOTEL MI COLOMBIA";kattyladino@hotmail.com;www.hotelmicolombia.com.co;"(57) (4) 4489408";"Cl 50 46-14 P-3 Colombia, Medellín"
"APARTAMENTOS AMOBLADOS ADRIANA";apartamentosadrianabogota@gmail.com;www.apartamentosadriana.com;"(57) (1) 5464286";"Cl 22 B 40-52 Colombia, Bogotá"
"HOTEL JARDINES DE LA ALHAMBRA";adrianaossaortiz@gmail.com;www.hoteljardinesdelaalhambra.com;"Conm.: (57) (6) 3164828892";"Cr14 H 23-61 Colombia, Pereira"
"VIAJES ELITE";info@viajesyhoteles.com.co;www.viajeselite.travel;"(57) (4) 2620009";"Cl 34 43-66 C.C. San Diego L-2242 Colombia, Medellín"
"HOTEL BUSINESS CENTER";reservas@businesscenterhotel.com;www.businesscenterhotel.com;"(57) (1) 2691148";"Av (Cr) 40 25-05 Colombia, Bogotá"
"HOTEL PLATINO PLAZA";hotelplatinoplaza-@hotmail.com;www.hotelplatinoplaza.com;"(57) (6) 3423451";"Av Simón Bolívar Cr16-41 -25 Buenos Aires Dosq Colombia, Pereira"
"CASA GERONTOLOGICA SAN PATRICIO";info@hogarsanpatricio.com;www.hogarsanpatricio.com;"(57) (1) 6192715";"Cl 106 A 19 A-77 Colombia, Bogotá"
"First Name";"Email Address";Url;Telephone;Address
"HOTEL MONTERREY";caroljoana@hotmail.com;;"(57) (4) 2859497";"Cl 85 50 A-51 Itagüí Colombia, Medellín"
"DELIRIO HOTEL";controlinterno@bdbacata.com;deliriohotel.com;"(57) (5) 6602404";"Centro Cr4 35-27 Calle de la Iglesia Colombia, Cartagena"
"APARTAHOTEL TORRE DEL PRADO";mercadeo@torredelprado.com;www.torredelprado.com;"(57) (5) 3692413";"Cr59 70-137 Colombia, Barranquilla"
"HOTEL LA SERRANIA CASA DE HUESPEDES";laserraniacasadehuespedes@hotmail.com;laserraniahotel.com;"(57) (7) 6917539";"Cl 33 30-26 Colombia, Bucaramanga"
"HOTEL PRÍNCIPE BUCARAMANGA";hotelprincipebucaramanga@gmail.com;www.hotel-principe.net;"(57) (7) 6304317";"Cr17 37-69 Colombia, Bucaramanga"
"HOTEL PALONEGRO";gerencia@hotelpalonegro.com;www.hotelpalonegro.com;"(57) (7) 6570042";"Cl 51 31-106 Cabecera Colombia, Bucaramanga"
"PROYECTOS HOTELEROS Y TURISTICOS DE COLOMBIA.";reservas@hotelpalmerareal.com;www.hotelpalmerareal.com;"(57) (7) 6378000";"Tr Central Metropolitana Junto al Módulo 1 del Terminal de Transportes de Bucaramanga Colombia, Bucaramanga"
"HOTEL RODADERO PLAZA";administracion@rodaderoplaza.com;www.rodaderoplaza.com;"(57) (5) 4220220";"Cl 19 1 B-64 El Rodadero Colombia, Santa Marta"
"HOTEL TERMALES EL OTOÑO";info@termaleselotono.com;www.termaleselotono.com;"(57) (6) 8743094";"Km 5 Antigua Vía al Nevado Colombia, Manizales"
"HOTEL CASA DEL ARZOBISPADO";gerencia@hotelcasadelarzobispado.com;www.hotelcasadelarzobispado.com;"(57) (5) 6644162";"Centro Cr5 34-52 Calle del Arzobispado Colombia, Cartagena"
"HOTEL RIVIERA PLAZA";rivieraplaza@hotmail.com;www.hotelrivieraplaza.com;"Conm.: (57) (7) 6454582";"Cl 33 32-92 Colombia, Bucaramanga"
"HOSTAL TERRANOVA";macom-ltda@hotmail.com;www.hostalterranova.com.co;"(57) (8) 6687660";"Cl 22 36-45 San Benito Colombia, Villavicencio"
"HOTEL CAYENAS";abeljosecueto@gmail.com;www.cayenashotel.com;"(57) (5) 3706912";"Cl 43 44-136 Colombia, Barranquilla"
"HOTEL CONFORTEL";confortel-armenia@hotmail.com;www.hotelconfortelarmenia.com;"(57) (6) 7414852";"Cl 22 17-30 Colombia, Armenia"
"FINCA LOS GIRASOLES";marbor21@gmail.com;www.fincalosgirasoles.co;"(57) (2) 2849580";"Sector Tocota Km. 23 Vía Cali-Buenaventura Colombia, Cali"
"HOTEL VILLA DEL MAR";hotelvilladelmar@hotmail.com;www.hotelvilladelmarbucaramanga.com;"(57) (7) 6427026";"Cl 31 21-34 Antonia Santos Colombia, Bucaramanga"
"HOTEL CENTENARIO CARTAGENA";hchotelcentenario@gmail.com;www.hotelcentenariocartagena.com;"(57) (5) 6648276";"Centro Av Centenario Cr9 30-40 Colombia, Cartagena"
"APARTAHOTEL CASA SION";apartahotelcasadesion@hotmail.com;www.apartahotelcasadesion.com;"(57) (1) 6125978";"Cr14 B 111-19 Colombia, Bogotá"
"HOTEL GAVÁN";hotelgavan@gmail.com;www.hotelgavan.com;"(57) (1) 2350762";"Av Caracas 51-39 Colombia, Bogotá"
"HOTEL MAROEL";hotelmaroel@gmail.com;www.hotelmaroel.com;"(57) (5) 6649279";"Centro, Getsemani Cl de las Tortugas 31-12 Colombia, Cartagena"
"HOSTAL COLONIAL PALMIRA ALOJAMIENTO";hostalcolonialpalmira@hotmail.com;www.hotelcolonialpalmira.com;"(57) (2) 2722113";"Cl 30 22-35 Colombia, Palmira"
"HOTEL DAVINCI";ninragu1977@hotmail.com;www.hoteldavincicalarca.com;"(57) (6) 7432352";"Cr27 39-22 Colombia, Calarcá"
"HOTEL DAMAR";damarhotel@hotmail.com;www.hoteldamar.com;"(57) (5) 5709671";"Cr9 19-94 Colombia, Valledupar"
"HOTELES SANTA ELENA NORTE";maryluzpa@hotmail.com;www.hotelessantaelena.com;"(57) (8) 7457193";"Av Norte 54-5 Colombia, Tunja"
"ARRIENDOS CARTAGENA GLORIA SAMUR";gloriasamure@gmail.com;www.arriendoscartagenasamure.com;"(57) (5) 6651649";"Edif. Morros Epic, Cra. 9 34-122 Zona Norte Apto. 211 Colombia, Cartagena"
"HOTEL SOLAR";hotelsolar1@hotmail.com;www.hotelsolarbuga.com;"(57) (2) 2386914";"Cr15 5-44 A Dos Cuadras de La Basilica Colombia, Buga"
"HOTEL BARILOCHE BARRANQUILLA";hotelbariloche1@hotmail.com;www.hotelbarilochebarranquilla.com;"(57) (5) 3792202";"Cl 45 35-38 Chiquinquirá Colombia, Barranquilla"
"HOTEL ESTRELLA PALMIRA";hotelestrellapalmira@gmail.com;www.hotelestrellapalmira.com;"(57) (2) 2706161";"Cr33 31-29 Colombia, Palmira"
"APARTAMENTOS AMOBLADOS JM";apartamentosamobladosjm@hotmail.com;www.apartaloft.com.co;"(57) (4) 4442409";"Cl 27 D   S 27 C-50 Int 612 Envigado Colombia, Medellín"
"HOTEL BQUIN PLAZA";reservas@hotelbquinplaza.com;www.hotelbquinplaza.com;"(57) (7) 5837412";"Cl 10 0 E-142 Centro Colombia, Cúcuta"
"HOTEL EL FARO BUGA";hotelelfarobuga@hotmail.com;www.hotelelfarobuga.com;"(57) (2) 2374310";"Cl 1 17-08 Colombia, Buga"
"CAÑAVERAL PLAZA HOTEL";administracion@hotelesmanizales.net;www.hotelesmanizales.net;"(57) (6) 8900887";"Cr22 15-17 Colombia, Manizales"
"HOTEL EL PARAISO DE LAS GEMELAS";reservas@hotelparaisodelasgemelas.com;www.hotelelparaisodelasgemelas.com;"(57) (6) 7535157";"Cr5 23-56 B.Goretty Colombia, Montenegro"
"HOTEL CABAÑAS MEDELLÍN";cabanasmedellin@hotmail.com;www.hotelcabanasmedellin.com;"(57) (2) 4445403";"Ladrilleros Colombia, Ladrilleros"
"AGENCIA SOL Y ARENA TURISMO";apartamentosasa@hotmail.com;www.apartamentosalquiloya.com;"(57) (2) 6677222";"CL 26 N 6 BN-9 OF 1 Colombia, Cali"
"APARTAMENTOS AMOBLADOS EDIFICIOS SAN ANDRÉS CARTAGENA SANTA MARTA";apartamentosasa@hotmail.com;www.apartamentosalquiloya.com;"(57) (2) 6677222";"CL 26 N 6 BN-9 OF 1 Colombia, Cali"
"HOTEL PALMERAS DE MARIANA";h_palmerasdemariana@hotmail.c;www.hotelpalmerasdemariana.com;"(57) (7) 6440200";"Cr17 55-33 Ricaurte Colombia, Bucaramanga"
"HOTEL MEDITERRANEO";info@mediterraneomedellin.com;www.mediterraneomedellin.com;"(57) (4) 4102510";"Cr70 Circular 5-23 Colombia, Medellín"
"HOTEL LA RIVIERA";hrivierasm@hotmail.com;www.hotelariviera.com;"(57) (5) 4227090";"Cr2 5-42 El Rodadero Colombia, Santa Marta"
"HOTEL ABADÍA PLAZA GHL";Reservas.abadiaplaza@ghlhoteles.com;www.ghlhoteles.com;"Telefax: (57) (6) 3358398";"Cr8 21-67 Colombia, Pereira"
"First Name";"Email Address";Url;Telephone;Address
"HOTEL ABADÍA PLAZA GHL";Reservas.abadiaplaza@ghlhoteles.com;www.ghlhoteles.com;"Telefax: (57) (6) 3358398";"Cr8 21-67 Colombia, Pereira"
"HOTEL CAJASAN MUNDO GUARIGUA";bibina.guacaneme@cajasan.com;www.cajasan.com;"(57) (7) 7237700";"Km 3 Vía San Gil-Socorro Colombia, San Gil"
"APARTAHOTEL LAS VIOLETAS";hotellasvioletas@hotmail.com;www.hotelresidenciaslasvioletas.com;"(57) (2) 4419502";"Cr15 43 A-03 Colombia, Cali"
"HOTEL SANTAMARIA PLAZA";info.cali@santamariahoteles.com;www.santamariahoteles.com;"(57) (2) 3969661";"Cl 5 59 A-43 Colombia, Cali"
"HOTEL PRIMAVERA PLAZA";info.cali@santamariahoteles.com;www.santamariahoteles.com;"(57) (4) 4400900";"Cr80 49 A-134 Colombia, Medellín"
"CENTRAL DE RESERVAS DE TURISMO POR COLOMBIA S.A.S.";deturismo2@deturismoporelmundo.com;www.deturismoporelmundo.com;"(57) (6) 3147727844";"Cr8 23-09 Of. 1302 Edif. Camara De Comercio Colombia, Pereira"
"HOTEL PRIMAVERA PLAZA";info.cali@santamariahoteles.com;www.santamariahoteles.com;"(57) (4) 4400900";"Cr80 49 A-134 Colombia, Medellín"
"HOTEL VITTA PARK";vittaparkhotel@une.net.co;;"(57) (4) 2303042";"Cl 46 B 69-21 Colombia, Medellín"
"HOTEL BOUTIQUE CASA LAS PALMAS";laspalmasboutique@gmail.com;www.facebook.com/casa-las-palmas-hotel-boutique-san-andres-islas;"(57) (8) 5120408";"Sound Bay Sector Elsy Bar Colombia, San Andrés"
"HOTEL DANN CARLTON";reservas@danncarltonbaq.co;www.hotelesdanncali.com.co;"(57) (2) 8862000";"Av Colombia No. 1-40 Colombia, Cali"
"LAURA MARTÍNEZ BODAS & EVENTOS";info@lauramartinez.com.co;www.lauramartinez.com.co;"Conm.: (57) (2) 3185149519";"Palmira Colombia, Palmira"
"HOTEL ALTAVISTA DEL LAGO";repo163@hotmail.com;hotelaltavistadelago.com;"(57) (2) 2533783";"Cr7 6-16 Cali, Valle del Cauca Colombia, Cali"
"HOTEL LOS BALCONES";hotellosbalcones@gmail.com;www.hotellosbalconespopayan.com;"(57) (2) 8242030";"Cr7 2-75 Colombia, Popayán"
"HOTEL HACIENDA LA BONITA";hotellabonita@une.net.co;www.hotelhaciendalabonita.com;"(57) (4) 8423708";"Cr74 B 39-88 Of 205 Colombia, Medellín"
"HOTEL GALICIA PLAZA";hotelgaliciaplaza@hotmail.com;;"(57) (6) 8733778";"Cl 21 19-28 Centro Colombia, Manizales"
"HOTEL EMBAJADOR";hotelemba37@gmail.com;www.hotelembajadorbucaramanga.com;"(57) (7) 6304027";"Cl 37 17-18 P-2 Colombia, Bucaramanga"
"HOTEL NUEVO SAMARITANO";hnsamaritano@hotmail.com;www.hotelnuevosamaritano.net;"(57) (4) 2513362";"Cr45 45-25 Colombia, Medellín"
"HOTEL SAN MARTÍN ARMENIA";info@hotel-sma.com;www.hotel-sma.com;"(57) (6) 7466078";"Av Bolívar 7 N-32 Colombia, Armenia"
"HOTEL DANN CARLTON";reservas@danncarltonbaq.co;www.danncarltonbaq.co;"(57) (5) 3677777";"Cl 98 52 B-10 Colombia, Barranquilla"
"MOTEL DE PASO LAS GAVIOTAS";info@lasgaviotasmotel.com;www.lasgaviotasmotel.com;"Telefax: (57) (5) 4306295";"Vía a Gaira Km 2 Colombia, Santa Marta"
"HOTEL SAN GIL";hotel-sangil@hotmail.com;www.hotelsangiltulua.com;"(57) (2) 2246542";"Cl 26 Cr23 Esq Colombia, Tuluá"
"MH HOTELES";gerencia@mhhoteles.com;mhhoteles.com;"(57) (6) 3413010";"Cr8 28-51 Colombia, Pereira"
"HOTEL CAMPESTRE EL REFUGIO DE BALSORA";elrefugiodebalsora@gmail.com;www.hotelcampestreelrefugiodebalsora.com;"(57) 3327859";"Vía Pereira Armenia Km 17 Colombia, Pereira"
"HOTEL LAS RAMPAS";lasrampashotel@yahoo.com;www.lasrampashotel.com;"(57) (4) 5121210";"Cr50 56-48 Colombia, Medellín"
"EL TESORO HOTEL Y CENTRO DE CONVENCIONES S.A.";info@hoteleltesoro.com.co;www.hoteleltesoro.com.co;"(57) (4) 8582054";"Km 36 Vía Antígua Vía Al Mar San Jerónimo Colombia, San Jerónimo"
"HOTEL FANTASÍA";fantasi251@hotmail.com;;"(57) (4) 2511438";"Cr52 53-58 Colombia, Medellín"
"ECO HOTEL RINCÓN DEL BÚHO";rinconbuho@yahoo.es;www.rinconbuho.weebly.com;"(57) (6) 8890645";"Km 2 Vía Parque Adolfo Hoyos Vda El Arenillo Colombia, Manizales"
"HOTEL D LEONI";fantasi251@hotmail.com;;"(57) (4) 4481608";"Cr45 49-38 Colombia, Medellín"
"HOTEL COLONIAL SAN JERÓNIMO REAL";hotelsanjeronimoreal@gmail.com;www.hotelsanjeronimoreal.com;"(57) (4) 5802213";"Cr11 20-47 San Jerónimo Colombia, San Jerónimo"
"HOTEL ROKASOL";hotelrokasol_manizales@hotmail.com;hotelrokasol.blogspot.com;"(57) (6) 8842084";"Cl 21 19-16 Centro Colombia, Manizales"
"HOTEL SUITE COMFORT";admon.compras@hschotel.com;www.hotelsuiteconfort.com;"(57) (4) 4440151";"Cq 5 66 B-24 Colombia, Medellín"
"ALOJAMIENTO EMPRESARIAL";reservas@alojamientoempresarial.com.co;www.alojamientoempresarial.com.co;"(57) (4) 4446568";"Cr68 32 E-27 Colombia, Medellín"
"HOTEL RIVERA DEL MAR";hotel-riveradelmar@hotmail.com;www.hotel-riveradelmar.com;"(57) (5) 3405036";"Cl 43 43-147 Colombia, Barranquilla"
"442 HOTEL BOUTIQUE";boutique442@hotmail.com;www.442hotelboutique.com;"(57) (8) 2667324";"Cr7 59-20 Limonar Colombia, Ibagué"
"HOTEL VARÓN";hotelvaron@hotmail.com;;"(57) (8) 2621794";"Cr1 A 22-02 Colombia, Ibagué"
"SONESTA HOTEL PEREIRA";dianamaria.cortes@ghlholteles.com;www.ghlhoteles.com;"(57) (6) 3113600";"Km 7 Vía Cerritos Colombia, Pereira"
"HOTEL LOS TORRES";norma.hotellostorres@gmail.com;;"(57) (8) 2460049";"Cl 8 9-58 Colombia, Chaparral"
"HOTEL SUEÑO REAL";irmaleytonc@hotmail.com;www.hotelsuenoreal.com.co;"(57) (6) 3355197";"Cr8 16-13 Colombia, Pereira"
PÁEZ;hotelalejandria@hotmail.com;;"(57) (7) 6117560";"Cr20 53-25 Torcoroma Colombia, Barrancabermeja"
"HOTEL PORTAL DE MILÁN";mercadeo@hotelportaldemilan.com;www.hotelportaldemilan.com;"(57) (6) 8870161";"Cr23 70 A-76 Colombia, Manizales"
"First Name";"Email Address";Url;Telephone;Address
"OLAS DEL MAR";hotelolasdelmar@gmail.com;;"(57) (5) 4226498";"Cr4 18-96 El Rodadero Colombia, Santa Marta"
"HOTEL NUEVO SAMARITANO";hnsamaritano@hotmail.com;www.hotelnuevosamaritano.net;"(57) (4) 2513362";"Cr45 45-25 Colombia, Medellín"
"MH HOTELES";gerencia@mhhoteles.com;mhhoteles.com;"(57) (6) 3413010";"Cr8 28-51 Colombia, Pereira"
"HOTEL DANN CARLTON";reservas@danncarltonbaq.co;www.danncarltonbaq.co;"(57) (5) 3677777";"Cl 98 52 B-10 Colombia, Barranquilla"
"HOTEL TERRANOVA LA 70";hotelterranova70@hotmail.com;www.hotelterranova.com.co/;"(57) (4) 2602282";"Cr70 47-34 Colombia, Medellín"
"AGENCIA DE VIAJES E.A.T. TURCOL TURISMO COLOMBIANO";reservassantamarta@hotmail.com;www.turcol.com;"(57) (5) 4212256";"Cl 13 3-13 L-115 C.C. San Francisco Plaza Colombia, Santa Marta"
"HOTEL PORTAL DE MILÁN";mercadeo@hotelportaldemilan.com;www.hotelportaldemilan.com;"(57) (6) 8870161";"Cr23 70 A-76 Colombia, Manizales"
CASACOL;info@casacol.co;www.casacol.co;"(57) (4) 3016248936";"Cl 3   S 38-125 Int 505 Colombia, Medellín"
"HOTEL PARQUE PLAZA";reservas@hotelparqueplaza.com;hotelparqueplaza.com;"(57) (4) 4483464";"Cr43 B 9-15 Colombia, Medellín"
"CLUB APARTAHOTEL OLIMPUS";olimpusibague@yahoo.com;;"(57) (8) 2600201";"Cl 20 32-22 Sur Brr. Miramar Colombia, Ibagué"
"HOTEL SAN GIL";hotel-sangil@hotmail.com;www.hotelsangiltulua.com;"(57) (2) 2246542";"Cl 26 Cr23 Esq Colombia, Tuluá"
"APARTAMENTO AMOBLADO CALI";david.teran@apartamentoamobladocali.com;www.apartamentoamobladocali.com.co;"(57) 3162850687";". Colombia, Cali"
"HOTEL AVENIDA PRINCIPAL TIBÚ";hotelavenidaprincipaltibu@hotmail.com;www.hotelavenidaprincipaltibu.com;"(57) (75) 5663924";"Cl 5 7-18 Tibú Colombia, Tibú"
"RESIDENCIAS LAS AMÉRICAS";claudialigelly@outlook.com;www.residenciaslasamericas.com;"(57) (2) 8834303";"Cl 25 2   N-31 Colombia, Cali"
"HOTEL CANADIENSE";Hotelcanadiense@gmail.com;www.hotelcanadiense.com;"(57) (5) 3792260";"Cl 45 36-142 Colombia, Barranquilla"
"HOTEL EMILY SUITES";hotelemilysuites@hotmail.com;www.hotelemilysuites.com;"(57) (5) 4358442";"Dg39 6-34 Mamatoco Colombia, Santa Marta"
"HOTEL SAN ANDRES REAL";hotelsanandresreal@gmail.com;www.hotelsanandresreal.com;"(57) (7) 6914779";"Cr17 A 53-80 Colombia, Bucaramanga"
"HOTEL ORQUIDEA NEIVA";hotelorquideaneiva@hotmail.com;www.neivahotelorquidea.com;"(57) (8) 8721395";"Cl 12 3 A-27 Colombia, Neiva"
"MOTEL LOS PIRINEOS";hotellospirineos@hotmail.com;www.motellospirineos.com;"(57) (7) 6459728";"Km 4 Vía Pamplona E-Brr. Buenavista Colombia, Bucaramanga"
"HOTEL LOS ANDES";hotellosandes@hotmail.com;www.hotellosandespopayan.com;"(57) (2) 8214811";"Cr17 2-62 Colombia, Popayán"
"PARIS HOTEL BARRANQUILLA";parishotelbarranquilla@gmail.com;www.parishotelbarranquilla.com;"(57) (5) 3176240";"Carera 38 45-86 Colombia, Barranquilla"
"FRUPYS LTDA.";frupys_ltda@yahoo.es;www.frupysltda.com;"(57) (1) 4069545";"Cr43 B 5 A-39 Colombia, Bogotá"
"HOTEL COLONIAL";hotelcolonial@hotmail.es;www.hotelcolonialpopayan.com;"(57) (2) 8317848";"Cl 5 10-94 Colombia, Popayán"
"LA PETUNIA";hospedajelapetunia@hotmail.com;www.hospedajelapetunia.com;"(57) (2) 5132740";"Cr54 6 A-65 Colombia, Cali"
"HOTEL SWITE REAL";serranoplazahotel@hotmail.com;www.hotelswitereal.com;"(57) (7) 3012293527";"Cl 55 17 A-17 P-2 Colombia, Bucaramanga"
"HOTEL FORTUNA";hotelfortunataraza@gmail.com;www.hotelfortunataraza.com;"(57) (4) 8365035";"Cr29 30-51 Tarazá-Antioquía Colombia, Tarazá"
"HOTEL EL VIAJERO";hotelporvenir@gmail.com;;"(57) (5) 6645948";"Centro Cr6 35-77 P-2 Calle Porvenir Colombia, Cartagena"
"LA POSADA DE LA PLAZA";laposadadelaplaza@hotmail.com;laposadadelaplaza.com;"(57) 3174050869";"Cr6 5-34 Colombia, Salento"
"HOSTAL DEL PACÍFICO";hostaldelpacifico@gmail.com;www.hostaldelpacifico.com;"(57) (2) 8892228";"Cl 18 5-67 Colombia, Cali"
"HOTEL JARDÍN PLAZA";hoteljardinplaza@hotmail.com;www.hoteljardinplazapopayan.com;"(57) (2) 8368745";"Cr17   N 6   N-14 Colombia, Popayán"
"HOTEL BOLIVAR";reservas@hotel-bolivar.com;www.hotelbolivarmanizales.com;"(57) (6) 8844066";"Cr20 23-09 Colombia, Manizales"
"HOTEL MAJESTI";glrorigo2_@hotmail.com;www.hotelmajesti.com;"(57) (2) 2414198";"Cl 3 4-39 Centro Colombia, Buenaventura"
"FINCAS Y EVENTOS";fincaseventos@hotmail.com;www.fincaseventos.com;"(57) (2) 2878583";". Colombia, Palmira"
"HOTEL EL MIRADOR PAISA";doris4118@hotmail.com;www.hotelelmiradorpaisa.com;"(57) (6) 7471936";"Cr18 35-51 Colombia, Armenia"
"HOTEL CASA DEL HUÉSPED";hotelcasadelhuesped@hotmail.com;www.hotelcasadelhuesped.com;"(57) (6) 3660137";"Cr13 11-28 Sta Rosa de Cabal Colombia, Santa Rosa de Cabal"
"BAR-RESTAURANTE BALCONES DEL AYER";rosestercb@hotmail.com;www.balconesdelayer.com;"(57) (6) 7593273";"Cl 6 5-40 Colombia, Salento"
"HOTEL SAN MARCOS DOMO";sanmarcosmanizales@gmail.com;www.hotelsanmarcosdomo.com;"(57) (6) 8902266";"Cl 27 21-58 Colombia, Manizales"
"HOTEL LA BASTILLA";lubricom.tulua@hotmail.com;www.hotellabastilla.co;"(57) (2) 2255605";"Cr27 A 42-33 Colombia, Tuluá"
"ESTACIÓN DE SERVICIO TULÚA";lubricom.tulua@hotmail.com;www.estaciondeserviciotulua.com;"(57) (2) 2241675";"Km 1 Salida Sur Tulúa Colombia, Tuluá"
"HOTEL D'MARES";;www.hoteldmares.com;"(57) (7) 6203293";"Cl 50 3-17 Sector Comercial Colombia, Barrancabermeja"
"First Name";"Email Address";Url;Telephone;Address
"HOTEL CASA DEL HUÉSPED";hotelcasadelhuesped@hotmail.com;www.hotelcasadelhuesped.com;"(57) (6) 3660137";"Cr13 11-28 Sta Rosa de Cabal Colombia, Santa Rosa de Cabal"
"BAR-RESTAURANTE BALCONES DEL AYER";rosestercb@hotmail.com;www.balconesdelayer.com;"(57) (6) 7593273";"Cl 6 5-40 Colombia, Salento"
"HOTEL D'MARES";;www.hoteldmares.com;"(57) (7) 6203293";"Cl 50 3-17 Sector Comercial Colombia, Barrancabermeja"
"HOTEL FARALLONES";hotel_farallones@hotmail.com;www.hotelfarallonesdebucaramanga.com;"(57) (7) 6429905";"Cl 34 17-73 Colombia, Bucaramanga"
"HOTEL LUXOR";info@hotelluxorpopayan.com;www.hotelluxorpopayan.com;"(57) (2) 8828590";"Cl 4 15-49 Colombia, Popayán"
"ESTACIÓN DE SERVICIO TULÚA";lubricom.tulua@hotmail.com;www.estaciondeserviciotulua.com;"(57) (2) 2241675";"Km 1 Salida Sur Tulúa Colombia, Tuluá"
"HOTEL BARAJAS REAL";hotelbarajasreal@hotmail.com;www.hotelbarajasreal.com;"(57) (7) 6959903";"Cr17 57-29 Colombia, Bucaramanga"
"AGUAMARINA HOTEL";;;"(57) (5) 4365869";"Cr16 6-49 Rodadero Colombia, Santa Marta"
"HOTEL EL RODADERO";gerencia@turismerk.com;www.turismerk.com;"(57) (5) 4228295";"Cr1 10-11 Frente a la Bahía del Rodadero Colombia, Santa Marta"
"HOTEL SAN MIGUEL IMPERIAL";hotelsanmiguelimperial@hotmail.com;www.hotelsanmiguel.com.co;"(57) (5) 4218282";"Cl 21 6-96 Colombia, Santa Marta"
"HOTEL CASA REAL";casarealmonteria@hotmail.com;www.hotelcasareal.net;"(57) (4) 7814256";"Cl 29 6-26 Centro Colombia, Montería"
"HOTEL BAHÍA SARDINA";"reservas@bahiasardina.com               gerencia@bahiasardina.com";bahiasardina.com;"(57) (8) 5129024";"Av Colombia 5 A-29 Colombia, San Andrés"
"HOTEL REAL DE GIRÓN";hotelrealdegiron@hersuco.com;;"(57) (7) 6760616";"Cr17 A 60 A-19 Km 1 Vía Chimitá Zona Industrial Girón Colombia, Bucaramanga"
"HOTEL PLAZA CENTRO";hotelplazacentro@hotmail.com;;"(57) (6) 3168474980";"Cl 23 21-13 Plaza de Bolívar Colombia, Manizales"
"SOL NACIENTE TURISMO QUIMBAYA";sol.turismoquimbaya@gmail.com;www.balsaje.info;"(57) (6) 7523424";"Cr6 17-02 Colombia, Quimbaya"
"APARTAHOTEL LA CIUDAD";laciudadapartahotel@gmail.com;www.hotelaciudad.com;"(57) (7) 6029294";"Cl 49 22-24 Colombia Colombia, Barrancabermeja"
"MOTEL CABAÑAS OTUN";inverbuenosaires@une.net.co;www.cabanasotun.com;"(57) (6) 3371785";"Av30 Agosto 87-580 Vía Cerritos Colombia, Pereira"
"HOTEL CASA DEL PEREGRINO";reservashotelcasadelperegrino@gmail.com;www.hotelcasadelperegrino.com;"(57) (2) 2280308";"Cl 4 14-45 Colombia, Buga"
"HOTEL EL CAIMITO";hotelcaimito@hotmail.com;www.hotelcaimito.com;"(57) (8) 6704060";"Cr35 26 A-16 Maizaro Colombia, Villavicencio"
"HOTEL PALMA REAL";reservas@hotelpalmarealvillavicencio.com;www.hotelpalmarealvillavicencio.com;"(57) (8) 6623441";"Cr29 36-45 Av. Alfonso López Colombia, Villavicencio"
"HOTEL ACDAC";hotelacdacog@hotmail.com;www.hotelacdac.com;"(57) (5) 5840202";"Cr8 19-04 Colombia, Valledupar"
"APARTAHOTEL SAN JUAN DEL LAGO";sanjuandellago@hotmail.com;www.apartahotelsanjuandellago.com;"(57) (6) 3256770";"Cr7 25-34 P-2 Sector Lago Uribe Colombia, Pereira"
"HOTEL NUEVO MARAZUL";hotelmarazulbd@hotmail.com;www.hotelnuevomarazul.com;"(57) (7) 6410705";"Cl 55 17 A-120 Colombia, Bucaramanga"
"HOTEL SAN JULIÁN S.A.S.";gerencia@hotelsanjuliansas.com;www.hotelsanjuliansas.com;"(57) (2) 2360040";"Cr15 4-54 Colombia, Buga"
"HOTEL EL VIAJERO";hotelviajero@gmail.com;www.hotelelviajero.com;"(57) (5) 6643289";"Centro Cr6 35-68 Calle del Porvenir Colombia, Cartagena"
"HOTEL EL PILAR LTDA.";hotel_pilar@hotmail.com;www.hotelelpilar.com.co;"(57) (7) 6347207";"Cl 34 24-09 Colombia, Bucaramanga"
"HOTEL NOGALES";info@hotelnogales.com.co;www.hotelnogales.com.co;"(57) (5) 7280408";"Cr11 A 34 B-58 Colombia, Riohacha"
"HOSTAL CAMPESTRE EL FUERTE";ventas@elfuertederozo.com;elfuertederozo.com;"(57) (2) 3306011";"Cl 5 89-35 Cali Colombia, Cali"
"HOTEL TANGARA";hotelmirador@macarena.com.co;www.tangarahotel.com;"(57) (6) 3224818";"Km 11 Vía La Romelia El Pollo Estación de Servicio El Mirador Colombia, Dosquebradas"
"HOTEL SARAI";info@saraihotel.com.co;www.saraihotel.com.co;"(57) (2) 3148339838";"Cl 6 5-30 Sector Historico Colombia, Popayán"
"HOTEL CAMPESTRE LA NAVARRA";lanavarrahotelcampestre@hotmail.com;www.hotelcampestrelanavarra.com;"(57) (6) 7442000";"A 7 Minutos del Parque del Café Colombia, Armenia"
"HOSTAL STUDIO";admin@hostalstudio.com;www.hostalstudio.com;"(57) (6) 8853127";"Cl 55 24-60 Colombia, Manizales"
"HOTEL SAN ANTONIO";sanantoniodelcerro@macarena.com.co;www.macarena.com.co;"(57) (6) 3223636";"Vía Cerritos La Virginia Km 1 Colombia, Pereira"
"HOTEL AMERICAN GOLF";gerencia@hotelamericangolf.com;www.hotelamericangolf.com;"(57) (5) 3365400";"Cl 82 58-41 Colombia, Barranquilla"
"HOTEL CASA REAL";hcasarealarmenia@hotmail.com;;"(57) (6) 7340606";"Cr18 18-36 Colombia, Armenia"
"HOTEL CASA REAL ARMENIA";hcasarealarmenia@hotmail.com;;"(57) (6) 7340606";"Cr18 18-36 Colombia, Armenia"
"FINCA MARTHA CECILIA";javiacosta1983@hotmail.com;fincamarthacecilia.com;"(57) (6) 7454129";"Vía Armenia Calarcá Km 3 Colombia, Armenia"
"HOTEL PRINCE PLAZA";hotelprinceplaza@gmail.com;;"(57) (4) 2601893";"Cl 44 68 A-10 Colombia, Medellín"
"HOTEL PLAZA CALARCA";safary8@latinmail.com;www.hotelplazacalarca.com;"(57) (6) 7421885";"Cl 39 27-24 Colombia, Calarcá"
"HOTEL UNIVERSO PLAZA";juanjosenino@hotmail.com;;"(57) (4) 2314170";"Cl 50 53-41 Colombia, Medellín"
"First Name";"Email Address";Url;Telephone;Address
"CABAÑAS MISS MARY";hotelmissmary@gmail.com;hotelmissmary.blogspot.com;"(57) (8) 3106098772";"Bahía Suroeste Colombia, Providencia"
"HOTEL DEL PARQUE";hoteldelparque@gmail.com;hoteldelparque.com.co;"(57) (4) 5684859";"Cl 20 20-30 Colombia, La Ceja"
"HOTEL EL DORADO PALMIRA";hoteleldoradopalmira@hotmail.com;hoteldoradopalmira@hotmail.com;"(57) (2) 2758055";"Cr29 28-69 Colombia, Palmira"
"HOTELES INNOVA";yramirez@hotelesinnova.com;www.hotelesinnova.com;"(57) (2) 6640004";"Av6   N 43   N-47 Colombia, Cali"
"HOTEL GUADALUPE";hotelguadalupe@hotmail.com;hotelguadalupedecartago.com;"(57) (2) 2138100";"Cr4 6-26 Colombia, Cartago"
"HOTEL KRONE";ber.acosta@yahoo.es;;"(57) (2) 8240330";"Cl 7 7-78 Brr. El Centro Colombia, Popayán"
"EVENTY VIAJES Y TURISMO";eventyviajesyturismo@hotmail.com;www.eventyviajes.com;"(57) (2) 8837532";"C.C. Fortuna L-2119 Colombia, Cali"
"HOTEL TORRE IDEAL";hoteltorreideal@latinmail.com;;"(57) (2) 7214410";"Cl 18 A 6-20 Av. Idema Colombia, Pasto"
"HOTEL PORTAL DEL SUR";;;"(57) (4) 4483269";"Cr42 24-96 Int 501 Itaguí Colombia, Medellín"
"HOTEL 44";hotel44cartago@hotmail.com;www.hotel44cartago.mundow.com;"(57) (2) 2131617";"Cl 4 4-25 Colombia, Cartago"
"HOTEL LA PUERTA DEL SOL";puertadelsolpopayan@yahoo.es;www.hotellapuertadelsolbucaramanga.com;"(57) (7) 6448111";"Cl 61 17 F-15 Colombia, Bucaramanga"
"HOTEL POPORO QUIMBAYA";linatourarmenia@yahoo.es;;"(57) (6) 7522677";"Cr6 Cl 17 Esq Colombia, Quimbaya"
"APARTA HOTEL AMOBLADOS B&B VILLA COUNTRY S.A.S";apartahotelesvillacontry@hotmail.com;;"(57) (5) 3854869";"Cl 76 52-57 Ap 301 Colombia, Barranquilla"
"HOTEL GAIRAKA";hotelgairaka@hotmail.com;www.hotelgairaka.com;"(57) (5) 4312469";"Cl 24 8-03 Colombia, Santa Marta"
"HOTEL DIGMARAN";hoteldigmaran@hotmail.com;;"(57) (4) 8283300";"Cr101 96-04 Apartadó Colombia, Apartadó"
"APARTA SUITE EL OSCAR S.A.";suiteloscar@hotmail.com;www.hoteleloscar.com;"(57) (4) 8288184";"Cr102 98-10 Colombia, Apartadó"
"HOTEL LOS ALMENDROS";h.losalmendros@hotmail.com;www.hotel-losalmendros.com;"(57) (4) 4129002";"Cl 41 A 70-78 Colombia, Medellín"
"HOTEL PUNTO UNO";juanjoseninom@hotmail.com;;"(57) (4) 5111034";"Cr45 46-25 Colombia, Medellín"
"EL SUEÑO DE MI ABUELO";gerencia@avansis.com.co;www.facebook.com/suenodemiabuelo.finca;"(57) 3148909882";"Combia Vda La Honda Pereira Colombia, Pereira"
"HOTEL SAN FRANCISCO";rociobues21@hotmail.com;www.hsftunja.com;"(57) (8) 7426645";"Cr9 18-90 P-2 Colombia, Tunja"
"HOTEL RIVERA PLAZA";reservas@hotelriveraplaza.com;www.hotelriveraplaza.com;"(57) (2) 5571200";"Cr37 A 6-70 Colombia, Cali"
"PARAISO WORLD TRAVEL";paraisoworldtravel@hotmail.com;;"(57) (2) 4854203";"Av 6 Bis N 25 N-11 Colombia, Cali"
"HOSTAL TIERRA SOL AIRE";hostaltierrasolaire@hotmail.c;www.hostaltierrasolaire.com;"(57) (6) 8875425";"Cl 67 23 B-34 Brr. Palermo Alto Colombia, Manizales"
"POSADA HENRY";libiadehenry@hotmail.com;facebook.com/posadahenryvalbuena;"(57) (8) 5126150";"Av20 de Julio-1 A-36 frente a Pollo Kikiriki Colombia, San Andrés"
"HOTEL ESMERALDA DEL FONCE";corbaraque.hc@hotmail.com;;"(57) (7) 7242956";"Cr11 10-50 P-2 Edif Arango Colombia, San Gil"
"CABAÑAS EN COVEÑAS CHIQUILINDA";elenaflorez202@hotmail.com;www.quieroirachiquilinda.blogspot.com;"(57) (4) 2655030";"Medellin Colombia, Medellín"
"HOTEL PLAZA ROSA";info@plazarosa.com;www.plazarosa.com;"(57) (4) 3120005";"Cr32 D 9-17 Colombia, Medellín"
"HOTEL MANHATTAN";hotelmanhattan@hotmail.com;;"(57) (7) 6114166";"Cl 57 31-66 Br Ciudad Bolívar Colombia, Barrancabermeja"
"HOTEL LA POSADA DE LULÚ";laposadadelulu1993@hotmail.com;;"(57) (8) 5122919";"Av Antioquia 2-28 Colombia, San Andrés"
"CASA FAMILIAR EN BOGOTA";acamilocorrean@hotmail.com;;"(57) (1) 2537421";"Cl 98 68 D-23 Colombia, Bogotá"
"HOSTAL POSADA R. SAN MARTÍN";alcirainfante@hotmail.es;;"(57) (8) 5126325";"Av Providencia 2 A-89 Colombia, San Andrés"
"HOTEL PRINCE PLAZA";hotelprinceplaza@gmail.com;;"(57) (4) 2601893";"Cl 44 68 A-10 Colombia, Medellín"
"FUN FACTORY COLOMBIA SEX-SHOP";info@funfactory-colombia.com;www.funfactory-colombia.com;"(57) (1) 2232831";"Cr92 64 C-59 Colombia, Bogotá"
"HOTEL SANTA SOFÍA";hotelsantasofia@hotmail.com;www.hotelsantasofia.com;"(57) (7) 6324665";"Cl 40 24-60 Av La Rosita-Cr 25 Colombia, Bucaramanga"
"HOTEL BRISAS DE SAN FRANCISCO";juanjoseninim@hotmail.com;;"(57) (4) 2541691";"Cl 56 41-114 Colombia, Medellín"
"HOTEL CARIBE";;;"(57) (5) 4234316";"Cl 18 2-28 Colombia, Santa Marta"
"HOTEL H Y M";hotelhym@gmail.com;www.hotelhympalmira.com;"(57) (2) 2728085";"Cr33 30-41 Colombia, Palmira"
"HOTEL SUN SET";reservas@sunsethotelspa.com;sunsethotelspa.com;"(57) (8) 3185232286";"Carrt Circunvalar Km 13 Colombia, San Andrés"
"HOSTERÍA REAL";reservas@lahosteriareal.com;www.lahosteriareal.com;"(57) (4) 3119434";"Cl 18 35-69 L-223 Palms Avenue Colombia, Medellín"
"HOTEL Y CENTRO DE BUCEO SIRIUS";info@siriushotel.net;www.siriushotel.net;"(57) (8) 5148213";"Bahía Sur Oe Colombia, Providencia"
"First Name";"Email Address";Url;Telephone;Address
"AGENCIA ELITE VIAJES Y TURISMO";info@eliteviajesyturismo.com;www.eliteviajesyturismo.com;"(57) (2) 8880360";"Cr5 16-60 C.C. Megacentro P-1 L-107 Colombia, Cali"
"HOTEL LA PUERTA DEL SOL";puertadelsolpopayan@yahoo.es;www.hotellapuertadelsolbucaramanga.com;"(57) (7) 6448111";"Cl 61 17 F-15 Colombia, Bucaramanga"
"OPERADOR TURÍSTICO WAGNER TOURS";wagnertours@hotmail.com;www.wagnertoursonline.com;"(57) (6) 7526001";"Manz A Casa 4 La Orquídea Colombia, Quimbaya"
"HOTEL LAS MOLAS";carlos.giraldob@une.net.co;www.hotellasmolas.com;"(57) (4) 8280146";"Cl 98 101 A-05 Colombia, Apartadó"
"HOTEL BOUTIQUE LE CASTEL BLANC";admon@lecastelblanc.com;www.lecastelblanc.com;"(57) (8) 5130912";"Cl 3 18-71 Brr. Sarie Bay Colombia, San Andrés"
"HOTEL EL COLISEO";hotelelcoliseo@gmail.com;hotelelcoliseo.com;"(57) (6) 8852679";"Cr24 62-75 Recta del Coliseo Colombia, Manizales"
"SERVEM S.A.S .";eventos@servem.com.co;www.servem.com.co;"(57) (4) 3120005";"Cr32 D 9-17 Poblado Hotel Plaza Rosa Colombia, Medellín"
"HOTEL FONTAMAR";info@fontamarhotel.com;www.fontamarhotel.com;"(57) (5) 3510840";"Cr43 43-61 Colombia, Barranquilla"
"AGENCIA DE VIAJES CHAYRAMA";chayrama1@hotmail.com;www.chayrama.com;"(57) (5) 4229520";"Cr1 8-31 L-32 Edif Santa María del Mar El Rodadero Colombia, Santa Marta"
"HOTEL MIRADOR DEL QUINDIO ARMENIA";hotelmiradordelquindioarmenia@hotmail.com;www.hotelmiradordelquindioarmenia.com;"(57) (6) 7326046";"Av Bolívar 12 Norte-58 Colombia, Armenia"
"HOTEL PAIMANA";hotel_paimana@hotmail.com;;"(57) (4) 7916118";"Cr4 34-99 Centro Colombia, Montería"
"APARTAHOTEL TRIVIÑO";apartahoteltrivino@outlook.com;www.apartahoteltrivino.com;"(57) (2) 2335111";"Cl 26 39-73 Colombia, Tuluá"
"HOTEL LAS AMÉRICAS SAN ANDRÉS ISLA";reservas@hotel-las-americas.com;www.hotel-las-americas.com;"(57) (8) 5126637";"Av20 de Julio Con Av Las Américas C.C. Las Américas Colombia, San Andrés"
"HOTEL EL TIO";hotel-eltio@hotmail.com;hoteleltio.com.co;"(57) (5) 5708542";"Cr7 17 A-02 Colombia, Valledupar"
"HOTEL CALI";marioferandoe@yahoo.es;;"(57) (2) 7364043";"Cl 15 A 10-77 LAS LUNAS Colombia, Pasto"
"CASA HOGAR LOS PINOS";leogarpin@hotmail.com;;"(57) (2) 3730995";"Cr122 20-95 Colombia, Cali"
"HOTEL FUNDADORES";hotelfundadores@gmail.com;hotelfundadores.com.co;"(57) (6) 8846490";"Cr23 29-54 Colombia, Manizales"
"HOTEL CHAMBÚ PLAZA";hotelchambuplaza@hotmail.com;www.hotelchambuplaza.net;"(57) (2) 7219033";"Cr20 Cl 17 Esq Centro Colombia, Pasto"
"FINCA TESORITO";tesorito_quindio@yahoo.es;www.tesoritofinca.com;"(57) 3155484859";"Vda Marmato Municipio de Armenia Colombia, Armenia"
"HOTEL SAN SEBASTIÁN DE URABÁ";hotelsansebastiandeuraba@gmail.com;;"(57) (4) 8214504";"Cl 46 49-50 Colombia, Necoclí"
"HOTEL DON ALFONSO";recepcion@donalfonsohotel.com;www.donalfonsohotel.com;"(57) (6) 3342233";"Av Circunvalar 12-37 Colombia, Pereira"
"POSADA HENRY";libiadehenry@hotmail.com;facebook.com/posadahenryvalbuena;"(57) (8) 5126150";"Av20 de Julio-1 A-36 frente a Pollo Kikiriki Colombia, San Andrés"
"HOTEL METRÓPOLIS PLAZA SUR";reservas@hotelmetropolisplazacali.com;www.hotelmetropolisplazacali.com;"(57) (2) 5531900";"Cr44 9-08 Colombia, Cali"
"HOTEL MEDELLÍN JR";hotelmedellinjr@gmail.com;www.facebook.com/hotelmedellinjr;"(57) (6) 3251440";"Cl 14 8-58 Colombia, Pereira"
"HOTEL NOBLEHOUSE";info@sanandresnoblehouse.com;www.sanandresnoblehouse.com;"(57) (8) 5128263";"Av Colón 3-80 Altos Champs Sport Colombia, San Andrés"
"HOTEL VILLAS DE SAN JUAN";hotelvillasdesanjuan@hotmail.com;www.hotelesmedellinestadio.com;"(57) (4) 2506525";"Cl 44 70-64 Colombia, Medellín"
"HOTEL FARALLONES CALI";hotelfarallonescali@hotmail.com;Hotelfarallonescali.com;"(57) (2) 8804603";"Cl 11 8-63 Colombia, Cali"
"APARTAESTUDIOS AMOBLADOS ROOSEVELT PLAZA";hrpcontacto@gmail.com;apartamentosamobladoscali.com.co;"(57) (2) 5190760";"Cr40 6-79 Colombia, Cali"
"HOTEL ESTADIO PLAZA";hotelestadioplaza050@gmail.com;www.hotelestadioplaza.com.co;"(57) (4) 2305354";"Cl 50 68-05 Colombia, Medellín"
"HOTEL ORINOQUIA REAL";hotelorinoquiareal@gmail.com;www.hotelorinoquiareal.com;"(57) (8) 6324890";"Cr17 11-47 Colombia, Yopal"
"HOTEL SUN SET";reservas@sunsethotelspa.com;sunsethotelspa.com;"(57) (8) 3185232286";"Carrt Circunvalar Km 13 Colombia, San Andrés"
"HOTEL DEL PARQUE";hoteldelparque@gmail.com;hoteldelparque.com.co;"(57) (4) 5684859";"Cl 20 20-30 Colombia, La Ceja"
"HOTEL EL CARRETERO";reservas@hotelcarretero.com;;"(57) (4) 4417159";"Cl 75 A 64 C-40 Colombia, Medellín"
"CHRISBAN HOTEL BOUTIQUE";contacto@chrisbanhotelboutique.com;www.chrisbanhotelboutique.com;"(57) (2) 2365858";"Cl 4  11-53 Colombia, Buga"
"HOTEL CASTILLO REAL";hotelcastilloreal@hotmail.com;www.hotelcastillorealcartago.amawebs.com;"(57) (2) 2123676";"Cr8 12-26 Colombia, Cartago"
"HOTEL PERUGINOS PLAZA";peruginos@hotmail.com;;"(57) (2) 6677889";"Cl 30   N 2 B   N-100 Frente a la Terminal Colombia, Cali"
"POSADA MISS KENJHA";reservasmisskenjha@gmail.com;www.misskenjha.co;"(57) (8) 3164740331";"Tom Hooker Sector Chocó 11-31 Colombia, San Andrés"
"MOTEL LAS VEGAS";tata270965@hotmail.com;www.motelasvegas.com;"(57) (2) 2139066";"Av Circunvalar 14-50 Colombia, Cartago"
"HOTEL SAN FRANCISCO";hotelsanfranciscorodadero@hotmail.com;www.sfcol.com;"(57) (5) 4224858";"Cr3 9-50 El Rodadero Colombia, Santa Marta"
"HOSTAL PELIKAN";peli.k@hotmail.com;www.hostalpelikan.com;"(57) (5) 4219057";"Cr2 17-04 E Principal Taganga Colombia, Santa Marta"
"First Name";"Email Address";Url;Telephone;Address
"HOTEL CAMPESTRE VILLA DE LOS ANGELES";merencia@villadelosangeles.co;villadelosangeles.co;"(57) (4) 3170570";"Cr10 19 Sur-196 Los Balsos Colombia, Medellín"
"HOSTAL TIERRA SOL AIRE";hostaltierrasolaire@hotmail.c;www.hostaltierrasolaire.com;"(57) (6) 8875425";"Cl 67 23 B-34 Brr. Palermo Alto Colombia, Manizales"
"HOTEL BOUTIQUE LE CASTEL BLANC";admon@lecastelblanc.com;www.lecastelblanc.com;"(57) (8) 5130912";"Cl 3 18-71 Brr. Sarie Bay Colombia, San Andrés"
"HOTEL CALI";marioferandoe@yahoo.es;;"(57) (2) 7364043";"Cl 15 A 10-77 LAS LUNAS Colombia, Pasto"
"HOSTAL PALOGRANDE";contacto@hotalpalogrande.com;www.hostalpalogrande.com.co;"(57) (6) 8863984";"Cl 62 23-36 Colombia, Manizales"
"APARTA HOTEL TISKIRAMA";hoteltiskirama@hotmail.com;;"(57) (5) 4227903";"Cr2 5-159 El Rodadero Colombia, Santa Marta"
"HOSTAL PELIKAN";peli.k@hotmail.com;www.hostalpelikan.com;"(57) (5) 4219057";"Cr2 17-04 E Principal Taganga Colombia, Santa Marta"
"APARTA-HOTEL MONTECARLO";apartahotelmontecarlo@hotmail.com;;"(57) (2) 6675991";"Cl 22   N 5   N-15 Colombia, Cali"
"HOTEL MIRADOR DEL PIPINTÁ";ventas@hotelpipinta.com;www.hotelpipinta.com;"Conm.: (57) (4) 4447338";"Vía La Pintada Manizales Km 15 Colombia, Medellín"
"CASA FAMILIAR EN BOGOTA";acamilocorrean@hotmail.com;;"(57) (1) 2537421";"Cl 98 68 D-23 Colombia, Bogotá"
"LA CASA SOLARIEGA";lacaravanadelarte@gmail.com;;"(57) (4) 8531530";"Cl De La Amargura 8-9 Colombia, Santa Fe de Antioquia"
"HOTEL PLAZA";hotelplazasantafedeantioquia@gmail.com;;"(57) (4) 8532851";"Cl 9 9-59 Parque Principal Santa Fé de Antioquia Colombia, Santa Fe de Antioquia"
"MOTEL VILLA DEL SOL Y GUADUALES";motelguaduales@uniweb.net.co;www.motelguaduales.com.co;"(57) (2) 2714099";"Cr32 Vía Candelaria Colombia, Palmira"
"MOTEL LAS VEGAS";tata270965@hotmail.com;www.motelasvegas.com;"(57) (2) 2139066";"Av Circunvalar 14-50 Colombia, Cartago"
"APARTAESTUDIOS AMOBLADOS ROOSEVELT PLAZA";hrpcontacto@gmail.com;apartamentosamobladoscali.com.co;"(57) (2) 5190760";"Cr40 6-79 Colombia, Cali"
"HOTEL GAUDI";hotelgaudimedellin@hotmail.com;www.hotelgaudimedellin.co;"(57) (4) 4341379";"Cr70 C 5-38 Colombia, Medellín"
"CABAÑAS EN COVEÑAS CHIQUILINDA";elenaflorez202@hotmail.com;www.quieroirachiquilinda.blogspot.com;"(57) (4) 2655030";"Medellin Colombia, Medellín"
"APARTAMENTOS AMOBLADOS ROXY";rocio.dtcomercial@gmail.com;www.apartamentoscali.jimdo.com;"Conm.: (57) (2) 3103880710";"Cl 18 56-40 Colombia, Cali"
"HOTEL PLAZA ROSA";info@plazarosa.com;www.plazarosa.com;"(57) (4) 3120005";"Cr32 D 9-17 Colombia, Medellín"
"GESTIÓN TURÍSTICA.COM S.A.S";direccion@gestionturistica.com.co;;"(57) (4) 4230020";"Cl 85 48-01 B-3 L-170 Colombia, Medellín"
"POSADA JAZMINA PLACE";jazminaplace@yahoo.com;;"(57) (8) 3133712945";"Sector Pueblo Viejo Colombia, Providencia"
"APARTA ESTUDIO SAN JOAQUÍN";cristinapadilla11@hotmail.com;;"(57) (4) 5802547";"Cq 2 68-70 Int 202 Colombia, Medellín"
"HOTEL SUN SET";reservas@sunsethotelspa.com;sunsethotelspa.com;"(57) (8) 3185232286";"Carrt Circunvalar Km 13 Colombia, San Andrés"
"HOSTERÍA REAL";reservas@lahosteriareal.com;www.lahosteriareal.com;"(57) (4) 3119434";"Cl 18 35-69 L-223 Palms Avenue Colombia, Medellín"
"HOTEL LOS ALMENDROS";h.losalmendros@hotmail.com;www.hotel-losalmendros.com;"(57) (4) 4129002";"Cl 41 A 70-78 Colombia, Medellín"
"HOTEL EL TIO";hotel-eltio@hotmail.com;hoteleltio.com.co;"(57) (5) 5708542";"Cr7 17 A-02 Colombia, Valledupar"
"HOTEL LOS ANGELES";clientespublicarpalmira@gmail.com;;"(57) (2) 2281018";"Cr14 4-34 Colombia, Buga"
"PARAISO WORLD TRAVEL";paraisoworldtravel@hotmail.com;;"(57) (2) 4854203";"Av 6 Bis N 25 N-11 Colombia, Cali"
"CASA DE HUÉSPEDES LA CASONA";casadehuespedes1@gmail.com;;"(57) (4) 4165116";"Cl 33 A 70 A-06 Colombia, Medellín"
"POSADA HENRY";libiadehenry@hotmail.com;facebook.com/posadahenryvalbuena;"(57) (8) 5126150";"Av20 de Julio-1 A-36 frente a Pollo Kikiriki Colombia, San Andrés"
"APARTAMENTOS AMOBLADOS CABECERA";rosariocalvete@hotmail.com;www.amobladoscabecera.com;"(57) 3153547649";"Cl 49 35 A-17 Cabecera Colombia, Bucaramanga"
"CABAÑA LAS MÚCURAS";lasmucuras@gmail.com;www.lamucuracovenas.com;"(57) (4) 4443417";"Coveñas Colombia, Medellín"
"FUNDACIÓN REFUGIO TRANQUILO";fundacionrefugiotranquilo@hotmail.com;;"(57) (4) 4514213";"Cr48 57-38 Bello Colombia, Medellín"
"HOTEL CARIBE";;;"(57) (5) 4234316";"Cl 18 2-28 Colombia, Santa Marta"
"HOTEL EXITO REAL";juanjoseninom@hotmail.com;;"(57) (4) 2933602";"Cr47 48-66 Colombia, Medellín"
"HOTEL PAIMANA";hotel_paimana@hotmail.com;;"(57) (4) 7916118";"Cr4 34-99 Centro Colombia, Montería"
"HOSTAL CASA MARIA";hostalcasamaria@hotmail.com;www.hostalcasamaria.com;"(57) (5) 4219027";"Cl 19 5-40 Taganga Colombia, Santa Marta"
"HOTEL ORINOQUIA REAL";hotelorinoquiareal@gmail.com;www.hotelorinoquiareal.com;"(57) (8) 6324890";"Cr17 11-47 Colombia, Yopal"
"HOTEL CHARLOTTE CARTAGENA";reservas@hotelescharlotte.com;www.hotelescharlotte.com;"(57) (5) 6424744";"Bgde Cr2 7-126 Av San Martín Colombia, Cartagena"
"HOTEL MANHATTAN";hotelmanhattan@hotmail.com;;"(57) (7) 6114166";"Cl 57 31-66 Br Ciudad Bolívar Colombia, Barrancabermeja"
"First Name";"Email Address";Url;Telephone;Address
"HOTEL LAS AVENIDAS";hotellasavenidas@gmail.com;;"(57) (2) 7301854";"Cr9 18-56 Av IDEMA Colombia, Pasto"
"HOTEL FAROLES QUIMBAYA";hotelfarolesquimbaya@gmail.com;;"(57) (6) 7522150";"Cr6 17-36 Colombia, Quimbaya"
"SERVEM S.A.S .";eventos@servem.com.co;www.servem.com.co;"(57) (4) 3120005";"Cr32 D 9-17 Poblado Hotel Plaza Rosa Colombia, Medellín"
"HOTEL EL TIO";hotel-eltio@hotmail.com;hoteleltio.com.co;"(57) (5) 5708542";"Cr7 17 A-02 Colombia, Valledupar"
"HOSTAL TIERRA SOL AIRE";hostaltierrasolaire@hotmail.c;www.hostaltierrasolaire.com;"(57) (6) 8875425";"Cl 67 23 B-34 Brr. Palermo Alto Colombia, Manizales"
"LASSIO HOSTALES";casa.lassio.manizales@gmail.c;www.lassiohostal.com;"(57) (6) 8876056";"Cl 66 23 B-56 Cl Larga B. Guayacanes Colombia, Manizales"
"HOTEL COMERCIAL";hotelcomercial@hotmail.com;www.hotelcomercial.com;"(57) (6) 3367565";"Cl 31 Cr8 Esq Colombia, Pereira"
"APARTAMENTOS AMOBLADOS CABECERA";rosariocalvete@hotmail.com;www.amobladoscabecera.com;"(57) 3153547649";"Cl 49 35 A-17 Cabecera Colombia, Bucaramanga"
"HOTEL GAUDI";hotelgaudimedellin@hotmail.com;www.hotelgaudimedellin.co;"(57) (4) 4341379";"Cr70 C 5-38 Colombia, Medellín"
"HOTEL CASA ANDREA";hotelcasaandrea@hotmail.com;;"(57) (5) 6550982";"Bgde Cr3 5-76 Colombia, Cartagena"
"HOTEL MG";;;"(57) (5) 4344050";"Cl 30 74-41 A Brr. 11 de Noviembre Colombia, Santa Marta"
"EL SUEÑO DE MI ABUELO";gerencia@avansis.com.co;www.facebook.com/suenodemiabuelo.finca;"(57) 3148909882";"Combia Vda La Honda Pereira Colombia, Pereira"
"HOTEL ANTIOQUIA PLAZA";hotelantioquiaplaza@hotmail.com;;"(57) (4) 8534134";"Cl 10 16-70 Sta Fé de Antioquia Colombia, Medellín"
"HOTEL EL DIAMANTE";cristian.alzate.arango@gmail.com;;"(57) (5) 3200627";"Cl 41 38-65 Colombia, Barranquilla"
"HOTEL LA PUERTA DEL SOL";puertadelsolpopayan@yahoo.es;www.hotellapuertadelsolbucaramanga.com;"(57) (7) 6448111";"Cl 61 17 F-15 Colombia, Bucaramanga"
"HANNA HOTELES";hannahoteles@hotmail.com;www.hanahoteles.com;"(57) (5) 3512716";"Cl 55 53-33 Colombia, Barranquilla"
"ANDINO REAL HOTEL";reservas@andinoreal.co;www.andinoreal.co;"(57) (1) 5615864";"Cl 33 A 17-70 Colombia, Bogotá"
"TERRAMONTE HOTEL RESTAURANTE";terramontehotelrestaurante@hotmail.com;;"(57) (4) 5464067";"Cl 49 49-11 El Santuario Colombia, Medellín"
"HOTEL TORRE IDEAL";hoteltorreideal@latinmail.com;;"(57) (2) 7214410";"Cl 18 A 6-20 Av. Idema Colombia, Pasto"
"APARTAMENTOS TURÍSTICOS ROCKY CAY BAY";info@rockycaybay.com;rockycaybay.com;"(57) (8) 3144710621";"San Luis 47-81 Colombia, San Andrés"
"CASA HOGAR LOS PINOS";leogarpin@hotmail.com;;"(57) (2) 3730995";"Cr122 20-95 Colombia, Cali"
"HOTEL LAS 4 ESTACIONES";info@unoh.co;unoh.co;"(57) (4) 8283317";"Cl 98 100-20 Colombia, Apartadó"
"HOSTAL CASA MARIA";hostalcasamaria@hotmail.com;www.hostalcasamaria.com;"(57) (5) 4219027";"Cl 19 5-40 Taganga Colombia, Santa Marta"
"HOTEL SAN FRANCISCO";rociobues21@hotmail.com;www.hsftunja.com;"(57) (8) 7426645";"Cr9 18-90 P-2 Colombia, Tunja"
"HOTEL VILLAS DE SAN JUAN";hotelvillasdesanjuan@hotmail.com;www.hotelesmedellinestadio.com;"(57) (4) 2506525";"Cl 44 70-64 Colombia, Medellín"
"MOTEL LAS VEGAS";tata270965@hotmail.com;www.motelasvegas.com;"(57) (2) 2139066";"Av Circunvalar 14-50 Colombia, Cartago"
"CABAÑA LAS MÚCURAS";lasmucuras@gmail.com;www.lamucuracovenas.com;"(57) (4) 4443417";"Coveñas Colombia, Medellín"
"HOTEL HOSPEDERIA ROCAMAR";hotel_rocamar@hotmail.com;www.hospederia-rocamar.blogspot.com;"(57) (5) 4235377";"Cl 16 1 C-47 Colombia, Santa Marta"
"HOTEL PRINCE PLAZA";hotelprinceplaza@gmail.com;;"(57) (4) 2601893";"Cl 44 68 A-10 Colombia, Medellín"
"CASA DE HUÉSPEDES LA CASONA";casadehuespedes1@gmail.com;;"(57) (4) 4165116";"Cl 33 A 70 A-06 Colombia, Medellín"
"HOTEL GAIRAKA";hotelgairaka@hotmail.com;www.hotelgairaka.com;"(57) (5) 4312469";"Cl 24 8-03 Colombia, Santa Marta"
"HOTEL ESMERALDA DEL FONCE";corbaraque.hc@hotmail.com;;"(57) (7) 7242956";"Cr11 10-50 P-2 Edif Arango Colombia, San Gil"
"MOTEL METROPOLIS";motelmetrpolis@hotmail.com;;"(57) (4) 2337394";"Cl 71 51-61 Colombia, Medellín"
"HOTEL Y CENTRO DE BUCEO SIRIUS";info@siriushotel.net;www.siriushotel.net;"(57) (8) 5148213";"Bahía Sur Oe Colombia, Providencia"
"HOTEL LOS ALMENDROS";h.losalmendros@hotmail.com;www.hotel-losalmendros.com;"(57) (4) 4129002";"Cl 41 A 70-78 Colombia, Medellín"
"OPERADOR TURÍSTICO WAGNER TOURS";wagnertours@hotmail.com;www.wagnertoursonline.com;"(57) (6) 7526001";"Manz A Casa 4 La Orquídea Colombia, Quimbaya"
"HOTEL LAS AMÉRICAS SAN ANDRÉS ISLA";reservas@hotel-las-americas.com;www.hotel-las-americas.com;"(57) (8) 5126637";"Av20 de Julio Con Av Las Américas C.C. Las Américas Colombia, San Andrés"
"HOTEL EL CÓNDOR";hotelcondor@hotmail.com;;"(57) (4) 8281997";"Cl 99 100-57 P-2 Colombia, Apartadó"
"HOTEL FERROVIARIO";marpil2007@yahoo.es;;"(57) (7) 6115923";"Dg48 33-74 Av. del Ferrocarril Colombia, Barrancabermeja"
"HOTEL CALI";marioferandoe@yahoo.es;;"(57) (2) 7364043";"Cl 15 A 10-77 LAS LUNAS Colombia, Pasto"
"First Name";"Email Address";Url;Telephone;Address
"FINCA MARTHA CECILIA";javiacosta1983@hotmail.com;fincamarthacecilia.com;"(57) (6) 7454129";"Vía Armenia Calarcá Km 3 Colombia, Armenia"
"HOSTAL FLAMING TREE";hotel_flemming@hotmail.com;www.providenciaisla.com;"(57) (8) 3107021527";"Sta Isabel Centro Colombia, Providencia"
"HOTEL LOS ALMENDROS";h.losalmendros@hotmail.com;www.hotel-losalmendros.com;"(57) (4) 4129002";"Cl 41 A 70-78 Colombia, Medellín"
"HOTEL FERROVIARIO";marpil2007@yahoo.es;;"(57) (7) 6115923";"Dg48 33-74 Av. del Ferrocarril Colombia, Barrancabermeja"
"HOTEL ANTIOQUIA PLAZA";hotelantioquiaplaza@hotmail.com;;"(57) (4) 8534134";"Cl 10 16-70 Sta Fé de Antioquia Colombia, Medellín"
"HOTEL CARIBE";;;"(57) (5) 4234316";"Cl 18 2-28 Colombia, Santa Marta"
"HOTEL ESTADIO PLAZA";hotelestadioplaza050@gmail.com;www.hotelestadioplaza.com.co;"(57) (4) 2305354";"Cl 50 68-05 Colombia, Medellín"
"HOTEL EL DIAMANTE";cristian.alzate.arango@gmail.com;;"(57) (5) 3200627";"Cl 41 38-65 Colombia, Barranquilla"
"CABAÑAS EN COVEÑAS CHIQUILINDA";elenaflorez202@hotmail.com;www.quieroirachiquilinda.blogspot.com;"(57) (4) 2655030";"Medellin Colombia, Medellín"
"HOTEL PLAZA ROSA";info@plazarosa.com;www.plazarosa.com;"(57) (4) 3120005";"Cr32 D 9-17 Colombia, Medellín"
"GESTIÓN TURÍSTICA.COM S.A.S";direccion@gestionturistica.com.co;;"(57) (4) 4230020";"Cl 85 48-01 B-3 L-170 Colombia, Medellín"
"CABAÑAS Y RESTAURANTE MISS ELMA";hotel_misselma@yahoo.com;www.hotelmisselma.com;"(57) (8) 5148229";"Bahía Agua Dulce Colombia, Providencia"
"HOTEL EL ENCANTO";hotelencanto2009@hotmail.com;elencantoprovidencia.com;"(57) (8) 3113331753";"Bahía Agua Dulce Colombia, Providencia"
"POSADA SAN ANDRÉS ULTD.";sanandresultd@gmail.com;www.sanandresultd.com;"(57) (8) 5130035";"Tom Hooker 8-75 South End Colombia, San Andrés"
"HOTEL DE TURISMO GUADALAJARA S.A.";ventag@hotelguadalajara.com.com;hotelguadalajara.com.co;"(57) (2) 2272611";"Cl  1  13-33 Colombia, Buga"
"HOSTAL TIERRA SOL AIRE";hostaltierrasolaire@hotmail.c;www.hostaltierrasolaire.com;"(57) (6) 8875425";"Cl 67 23 B-34 Brr. Palermo Alto Colombia, Manizales"
"HOTEL LA ERMITA";gerencia@ermita-hotel.com;www.ermita-hotel.com;"(57) (8) 7704110";"Cl 10 11-51 Colombia, Sogamoso"
"POSADA MISS KENJHA";reservasmisskenjha@gmail.com;www.misskenjha.co;"(57) (8) 3164740331";"Tom Hooker Sector Chocó 11-31 Colombia, San Andrés"
"HOTEL DORADO PLAZA";wmonroy@doradoplaza.com;www.doradoplaza.com;"(57) (5) 6553060";"Bgde Cr2 4-41 Av San Martín Colombia, Cartagena"
"HOTEL SAN FRANCISCO";hotelsanfranciscorodadero@hotmail.com;www.sfcol.com;"(57) (5) 4224858";"Cr3 9-50 El Rodadero Colombia, Santa Marta"
"HOTEL BRISAS DE SAN FRANCISCO";juanjoseninim@hotmail.com;;"(57) (4) 2541691";"Cl 56 41-114 Colombia, Medellín"
"HOSTAL EL REY";hostalelrey@hotmail.com;hostalelrey.co;"(57) (5) 6431359";"Los Corales Cr56 B Manz F Lt 16 Colombia, Cartagena"
"HOSTAL PELIKAN";peli.k@hotmail.com;www.hostalpelikan.com;"(57) (5) 4219057";"Cr2 17-04 E Principal Taganga Colombia, Santa Marta"
"SONESTA HOTEL BARRANQUILLA";reservas.sonestabarranquilla@ghlhoteles.com;www.sonesta.com/barranquilla;"(57) (5) 3856060";"Cl 106 50-11 Colombia, Barranquilla"
"SAN AGUSTÍN EVENTOS Y TURISMO";pradocentro@tusanagustin.com;www.tusanagustin.com;"(57) (4) 4444494";"Cl 60 45 D-71 Colombia, Medellín"
"HOTEL LAS VEGAS SAN AGUSTÍN";gerencia@hotellasvegascartagena.com.co;;"(57) (5) 6609136";"Centro Cl 36 6-08 Cl San Agustín Colombia, Cartagena"
"HOTEL PUERTO COLOMBIA";hotelpuertocolombia@hotmail.com;;"(57) (5) 3095636";"Cr6 2-12 Puerto Colombia Colombia, Barranquilla"
"SOLEEC S.A.S";soleecenfermeria@hotmail.com;;"(57) (1) 2131306";"Cl 117 6 A-83 Of 505 Colombia, Bogotá"
"HOTEL EMPORIUM";;;"(57) (1) 2680235";"Cr33 25 A-04 Colombia, Bogotá"
"POSADA TURISTICA MISS GEIDY";;;"Telefax: (57) (8) 5123290";"Sarie Bay al lado Aptos Tabo Colombia, San Andrés"
"APARTAMENTOS PARA TURISTAS MISS BRÚGIDA";;;"Telefax: (57) (8) 5122992";"Cl 4 16-47 Sarie Bay Colombia, San Andrés"
"HOTEL MONTALVAN";;;"(57) (7) 5709165";"Cl 8 8-23 La Parada Villa del Rosario Colombia, Cúcuta"
"CASA HOSTAL CORCEGA PANTANILLO";;;"(57) 3113560316";"Vía Armenia-Montenegro Vda Pantanillo Colombia, Armenia"
"TAYBO BEACH HOTEL";;;"(57) (5) 3450013";"Cl 76 46-04 P-2 L-9 Colombia, Barranquilla"
"CASA CAMPESTRE DE MR WILSÓN";;;"(57) (5) 1000000";"Cl 20 2 B-40 Taganga Colombia, Santa Marta"
"HOSPEDAJE EL DORADO";;;"(57) (8) 8720963";"Cl 5 2 A-35 Colombia, Neiva"
"HOTEL SOL DEL NORTE";;;"(57) (4) 8537542";"Cr20 20-65 Colombia, Yarumal"
"HOTEL LOS CARDONES";;;"(57) (5) 5743023";"Cl17 9-74 Colombia, Valledupar"
"HOTEL DORIS";;;"(57) (4) 2515431";"Cr45 46-23 Colombia, Medellín"
"AQUÍ ME QUEDO HOSTAL";;;"(57) (6) 8872757";"Cl 67 23 A-33 Colombia, Manizales"
"First Name";"Email Address";Url;Telephone;Address
"CASA LOMA MINCA";;;"(57) 3138086134";"Minca - Santa Marta Colombia, Cartagena"
"APARTASTUDIOS SUN RIVER";;;"(57) (2) 6535710";"Av9 A 13 N-58 Colombia, Cali"
"HOSTAL CASA VICTORIA";;;"(57) (5) 6437921";"Cr10 31-08 Calle Tripita y Media Colombia, Cartagena"
"ARRENDAMIENTO DE HABITACIONES DIOS HABLA HOY";;;"(57) (4) 5127176";"Cl 55 A 50-60 Colombia, Medellín"
"CASA DE HUÉSPEDES DOÑA FANNY";;;"(57) (1) 2695263";"Cr44 A 22 A68 Colombia, Bogotá"
"FUNDACIÓN INSTITUTO MAYOR CAMPESINO";;;"(57) (2) 2286134";"Cr12 35 S-10 Salida Sur Colombia, Buga"
"HOSTAL SANTA MARIA-TAGANGA";;;"(57) (5) 4213526";"Cl 21 5 A-71 Colombia, Santa Marta"
"ZI ONE LUXURY HOTEL";;;"(57) (6) 3171300";"Cr13 12-28 Colombia, Pereira"
"HOTEL ANDINO";;;"(57) (8) 8710184";"Cl 9 5-82 Colombia, Neiva"
"HOTEL BOUTIQUE SAN SEBASTIAN";;;"(57) (1) 5404643";"Cl 62 9-49 Colombia, Bogotá"
"HOSPEDAJE DON RAFA";;;"(57) (2) 6697731";"Cr16 B 14 E 08 Yumbo Colombia, Yumbo"
"POSADA NATIVA LICY";;;"(57) 3144889890";"Loma Flower Hill 19-39 Colombia, San Andrés"
"SWEET ISLAND PLACES";;;"(57) 3173749974";"Av Circunvalar Cabañas Altamar Cl 8 18 A 73 Colombia, San Andrés"
"HOSPEDAJE Y ESTADERO ORIENT STAR";;;"(57) (5) 3768141";"Cl 10 23-29 Colombia, Barranquilla"
"HOSTERÍA TONUSCO CAMPESTRE";;;"(57) (4) 8532258";"Cl 7 Cr7 Barranca-01 El Guali Colombia, Santa Fe de Antioquia"
"HOSPEDAJE CAMPO AMOR";;;"(57) (4) 2554707";"Cr58 7 -42 Colombia, Medellín"
"ON VACATION";;;"(57) (1) 3104949";"Av (Cr) 30 72-48 Colombia, Bogotá"
"HOTEL NEVADA";;;"(57) (2) 6603689";"Av8 N 14 N-19 Colombia, Cali"
"HOTEL ZALMEDINA";;;"(57) (5) 6551939";"Bgde Cr2 5-52 Av San Martín Colombia, Cartagena"
"HOTEL MIAMI REAL";;;"(57) (4) 7918741";"Cr1 B 39-13 P-2 Colombia, Montería"
"RESIDENCIAS LOS ANDES";;;"(57) (4) 2610769";"Cr46 42-70 Colombia, Medellín"
"RIVENDELL PARADISE";;;"(57) (4) 2895629";"Giradota Verada La Meseta Colombia, Medellín"
"TRONCAL DEL NORTE";;;"(57) (4) 4011549";"Autop Norte Km 16 Colombia, Medellín"
"HOTEL LA CASTELLANA INN";;;"(57) (1) 2364048";"Cl 94 Bis 49 A-18 Colombia, Bogotá"
"HOTEL VILLA PARAISO";;;"(57) (8) 8797727";"Cl 4 7-69 Colombia, Villavieja"
"HOSPEDAJE MONACO";;;"(57) (1) 3410839";"Cr16 17 A-21 Colombia, Bogotá"
"HOTEL EL AMANECER";;;"(57) (4) 4063824";"Cl 13 13-73 Colombia, Medellín"
"HOTEL SAN REMO";;;"(57) (8) 2613339";"Cl 16 2-88 Colombia, Ibagué"
"HOTEL PUA";;;"(57) (8) 8669951";"Cl 16 6-31 Colombia, Neiva"
"POSADA VÃSQUEZ OVIEDO";;;"Telefax: (57) (8) 5120011";"Cl 4 41-67 Int 1 Sarie Bay Colombia, San Andrés"
"FINCA AGROTURÍSTICA COMBIA";;;"(57) 3154453535";"Vía al Valle Km 4 Colombia, Calarcá"
"GUIA HOTELERA VIP";;;"(57) (6) 7584490";"Cl 10 N 14-52 Colombia, Circasia"
"HOSPEDAJE FARAÓN DE ORIENTE";;;"(57) (8) 6610047";"Cr31 37-69 Centro Colombia, Villavicencio"
"MAC CHELL POSADA NATIVA";;;"Telefax: (57) (8) 5120311";"Av20 de Julio 1-69 Colombia, San Andrés"
"HOTEL GIRÇN";;;"(57) (8) 6683448";"Cr38 24 A-40 Brr. San Benito Colombia, Villavicencio"
"HOTEL PORTÓN DE LA 10";;;"(57) (4) 3603940";"Cl 10 # 52-181 Colombia, Medellín"
"CASONA DE USAQUÉN HOTEL BOUTIQUE";;;"(57) (1) 4686626";"Cl 117 6-27 Colombia, Bogotá"
"HOTEL MONTALVAN";;;"(57) (7) 5709165";"Cl 8 8-23 La Parada Villa del Rosario Colombia, Cúcuta"
"HOSPEDAJE VILLALUZ";;;"(57) (1) 2812181";"Cr15 23-73 Colombia, Bogotá"
"RESTAURANTE LA RANCHA";;;"(57) (7) 7258942";"Cl 2 6-54 Colombia, San Gil"
"First Name";"Email Address";Url;Telephone;Address
"HOTEL ZALMEDINA";;;"(57) (5) 6551939";"Bgde Cr2 5-52 Av San Martín Colombia, Cartagena"
"HOSPEDAJE LOS COCHES";;;"(57) (5) 6633659";"Carrt La Cordialidad Cl 32 92-08 Colombia, Cartagena"
"VIANOVAS PLACE";;;"Telefax: (57) (8) 5131651";"Nixon Point dg Iglesia Baustista Central Colombia, San Andrés"
"HOTEL ALTAMAR";;;"(57) (5) 6431256";"Bosque Tr54 21 B-57 Colombia, Cartagena"
"POSADA NATIVA OHANA LODGING";;;"Telefax: (57) (8) 5132176";"San Luis Bay frente Iglesia Bautista Emmanuel Colombia, San Andrés"
"LA SELECTA ECO HOTEL";;;"(57) (6) 3357514";"Vía San Joaquín-Altagracia Km 5 Colombia, Pereira"
"POSADA NATIVA ATARDECER ISLEÞO";;;"Telefax: (57) (8) 5132285";"La Loma Sector Barrack Claymont dg PanaderÚa Molina Colombia, San Andrés"
"HOTEL GIRÇN";;;"(57) (8) 6683448";"Cr38 24 A-40 Brr. San Benito Colombia, Villavicencio"
"HOTEL BALCONES DE LA BAHIA";;;"(57) (2) 2419913";"Cl 1 6 A-53 frente al Mirador Azúl Colombia, Buenaventura"
"HOTEL PORTÓN DE LA 10";;;"(57) (4) 3603940";"Cl 10 # 52-181 Colombia, Medellín"
"RESIDENCIAS LA 11";;;"(57) (6) 3315535";"Cr11 3-60 Colombia, Pereira"
"CASA REAL BED & BREAKFAST";;;"(57) (1) 2565738";"Cll 97A No 60D 56 Colombia, Bogotá"
"HOSPEDAJE LISBOA";;;"(57) (1) 3410421";"Cl 18 A 14-75 Colombia, Bogotá"
"RESTAURANTE LA RANCHA";;;"(57) (7) 7258942";"Cl 2 6-54 Colombia, San Gil"
"HOTEL CASA BAQUERO";;;"(57) (8) 6648648";"Vda Vanguardia Lt 2 Pozo Azul Colombia, Villavicencio"
"HOTEL DECAMERON MARAZUL SÚPER";;;"(57) (8) 5132338";"Carrt San Luis 30-45 Int 100 Colombia, San Andrés"
"HOSPEDAJE NUEVA LUNA";;;"(57) (4) 8491146";"Cr51 49-33 Colombia, Venecia"
"FINCA HOTEL CASA LUNA";;;"(57) (4) 3416858";"Cr 52 el Socorro Sector Piscina Colombia, Medellín"
"CELEBRITIE`S SUITES";;;"(57) (1) 6011414";"Cl 74 10-33 Colombia, Bogotá"
"HOTEL BUENAVISTA";;;"(57) (5) 5803691";"Cr11 19-113 Colombia, Valledupar"
"HOSPEDAJE MI VALLE";;;"(57) (5) 5828806";"Cr7 A 41 A-42 Brr. 12 de Octubre Colombia, Valledupar"
"HOTEL EL TRIUNFO VALLENATO";;;"(57) (5) 5744459";"Cl 19 9-31 Colombia, Valledupar"
"HOEL PERLA DE MAR";;;"(57) (5) 4233130";"Cr1 C 24 103 Colombia, Santa Marta"
6.9.3.APARTAESTUDIOS;;;"(57) (1) 2264515";"Cr63 98-86 Colombia, Bogotá"
"HOSPEDAJE PALOMAR DE SUEÑOS";;;"(57) (6) 7593610";"Cr4 1-16 Colombia, Salento"
"HOTEL LATINO MEDELLÍN";;;"(57) (4) 5116188";"Cr47 53-29 Colombia, Medellín"
"HOTEL NAIROBI";;;"(57) (8) 5123300";"Cr7 B 4-44 Sector Cinco Esquinas Colombia, San Andrés"
"HOSTAL SANTA MARIA-TAGANGA";;;"(57) (5) 4213526";"Cl 21 5 A-71 Colombia, Santa Marta"
"POSADA SARITA";;;"(57) (7) 6391602";"Cr23 153 E-16 Villa España I Colombia, Bucaramanga"
"RESERVAS HOTELERAS";;;"(57) (1) 6190518";"Av15 124-65 Mezz 6 Colombia, Bogotá"
"HOTEL EL TURISTA";;;"(57) (7) 6222670";"Cr3 48-60 La Campana Colombia, Barrancabermeja"
"HOSTAL TUKAMA";;;"(57) (6) 8873048";"Cr23 B 70-70 Colombia, Manizales"
"THE SWIT REAL";;;"(57) (8) 7444833";"Cr13 19-25 Centro Histórico Colombia, Tunja"
"HOTEL INTERNACIONAL LA TRIADA";;;"(57) (7) 6422897";"Cr20 34-22 Colombia, Bucaramanga"
"HOTEL Y RESTAURANTE DON PEDRO JOSE";;;"(57) (75) 5691534";"Cl 8 16A-20 La Rotina Colombia, Ocaña"
"HOTEL YELENA";;;"(57) (2) 2411775";"Cl 2 7 A-50 La Virgen Colombia, Buenaventura"
"HOTEL MAICAO PLAZA";;;"(57) 7266597";"Cl 10 A 10-28 Colombia, Maicao"
"HOTEL BOUTIQUE SAN SEBASTIAN";;;"(57) (1) 5404643";"Cl 62 9-49 Colombia, Bogotá"
"HOTEL YARI";;;"(57) (6) 3346254";"Cl 19 11-54 Colombia, Pereira"
"HOTEL LA SABANA";;;"(57) (1) 2844830";"Cl 23 5-23 Colombia, Bogotá"
"First Name";"Email Address";Url;Telephone;Address
"ESTANCIA SAN ANTONIO";;;"(57) 3202393460";"Vda Pastor Ospina Colombia, Bogotá"
"HOSPEDAJE LAS DELICIAS";;;"(57) (1) 2813202";"Cl 18 15-71 Colombia, Bogotá"
"HOSTAL MOM MARIELA";;;"(57) (8) 5129621";"Cr18 9-72 Campo Hermoso Colombia, San Andrés"
"HOTEL EL PASO";;;"(57) (2) 8240227";"Cr7 7-14 Colombia, Popayán"
"HOTEL CASA DE ORIENTE";;;"(57) (4) 5410692";"Cr21 22-07 El Retiro Colombia, Medellín"
"HOTEL EL DELFIN";;;"(57) (5) 4229152";"Cr3 5-185 El Rodadero Colombia, Santa Marta"
"HOSTAL LOS ROSALES B&B";;;"(57) (5) 3455180";"Cl 75 44-44 Colombia, Barranquilla"
"HOTEL COSTA BELLA";;;"(57) (5) 6566129";"Marbella Cr3 48-39 Av del Lago Colombia, Cartagena"
"HOTEL BAROEE";;;"(57) (2) 8212001";"Cl 6 15-46 Colombia, Popayán"
"BIGHT VIEW";;;"Telefax: (57) (8) 5131906";"Manz 14 Casa 3 Bight Colombia, San Andrés"
"HOSPEDAJE SANTANA";;;"(57) (2) 6570730";"Cr4 Oe 20-150 Yumbo Colombia, Yumbo"
"VILLA SUNNY DAYS";;;"Telefax: (57) (8) 5132458";"San Luis Plat Form 47-24 Colombia, San Andrés"
"APARTAMENTOS TROPICAL BREEZE CARIBE";;;"Telefax: (57) (8) 5121179";"Av Duarte Blum Colibertadores Colombia, San Andrés"
"HOTEL PORTÓN DE LA 10";;;"(57) (4) 3603940";"Cl 10 # 52-181 Colombia, Medellín"
"HOTEL CASA DEL MARQUÉS BAHIACHALA";;;"(57) (7) 7267036";"Cl 7 7-51 Colombia, Barichara"
"HOTEL CALDAS";;;"(57) (2) 8208782";"Cl 5 7-62 Colombia, Popayán"
"HOTEL SAN ANDRES DE TUMACO";;;"(57) (2) 7272980";"Av Los Estudiantes 1 B-43 P-3 Colombia, Tumaco"
"APARTAMENTOS OLGALU";;;"(57) 3212429328";"Edif Hansa Reef Club Colombia, San Andrés"
"HOTEL BOGOTÁ REGENCY";;;"(57) (1) 5921777";"Cr7 127-21 Colombia, Bogotá"
"HOTEL MAGEBA";;;"(57) (4) 5131149";"Cl 52 53-88 Colombia, Medellín"
"APARTAMENTOS AMOBLADOS VONBLON";;;"(57) (8) 5122426";"Av 20 de Julio 4-32 Colombia, San Andrés"
"HOTEL SICARARE";;;"(57) (5) 5744343";"Cr9 16-04 Colombia, Valledupar"
"HOEL PERLA DE MAR";;;"(57) (5) 4233130";"Cr1 C 24 103 Colombia, Santa Marta"
"HOSPEDAJE LA SEXTA";;;"(57) (2) 6692577";"Cl 6 3-41 Yumbo Colombia, Yumbo"
"HOTEL PALMERAS";;;"(57) (5) 4222505";"Cl 17 Cr5 El Rodadero Colombia, Santa Marta"
"HOTEL EJECUTIVO";;;"(57) (1) 4811779";"Cl 63 D 21-26 Colombia, Bogotá"
"HOTEL TORRE DEL BOSQUE";;;"(57) (2) 7317414";"Cr44 18-12 Zona Universitaria Colombia, Pasto"
"HOTEL EL TURISTA";;;"(57) (7) 6222670";"Cr3 48-60 La Campana Colombia, Barrancabermeja"
"HOTEL SAN FERNANDO";;;"(57) (2) 5563561";"Cl 4 Oe 25-29 Colombia, Cali"
"HOTELES CERCA A LA EMBAJADA";;;"(57) (1) 2688163";"Cl 24 B 44-59 Colombia, Bogotá"
"POSADA JANETH PLACE";;;"Telefax: (57) (8) 5121562";"Av20 de Julio Colombia, San Andrés"
"MIS BOHIOS HOTEL CAMPESTRE";;;"(57) (6) 7593010";"Salento - Quindio Km2.5 Via Cocora Colombia, Salento"
"CASA CORINTO PRIVADA";;;"(57) (1) 2145597";"Vía al Carmen - Valle Lanceros Colombia, Bogotá"
"RIVENDELL PARADISE";;;"(57) (4) 2895629";"Giradota Verada La Meseta Colombia, Medellín"
"HOTEL SOL Y LUNA";;;"(57) (5) 7287650";"Cl 14 B 11-47 Colombia, Riohacha"
"RESIDENCIAS OTOÑAL";;;"(57) (1) 2439909";"Cl 24 A 13 A-81 Colombia, Bogotá"
"HOSPEDAJE LISBOA";;;"(57) (1) 3410421";"Cl 18 A 14-75 Colombia, Bogotá"
"MOTEL LOS LAURELES CRIBA";;;"(57) (5) 6720708";"La Quinta Cl 33-27 A-67 Colombia, Cartagena"
"HOTEL SHALOM";;;"(57) (6) 3447517";"Cl 18 15-11 Colombia, Pereira"
"HOTEL MARY MAY";;;"(57) (8) 5125669";"Av 20 de Julio 3-74 Colombia, San Andrés"
"First Name";"Email Address";Url;Telephone;Address
"HOTEL PANORAMA.";;;"(57) (4) 2518801";"Cr45 49-50 Colombia, Medellín"
"POSADA MISS CENTA";;;"(57) 3165253710";"San Luis Ginnie Bay Detrás De La Escuela Rubén Darío Colombia, San Andrés"
"HOSTAL Y RESTAURANTE WAYUU WAYUU";;;"(57) (5) 4218521";"Km 48 Vía Riohacha Cabañas del Río Buritaca Colombia, Santa Marta"
"HOSPEDAJE LA SEXTA";;;"(57) (2) 6692577";"Cl 6 3-41 Yumbo Colombia, Yumbo"
"HOTEL MARSELLA";;;"(57) (4) 7810732";"CR 3 38-22 Colombia, Montería"
"MOTEL SEX AND LOVE";;;"(57) (2) 6669308";"Cl 0 T 2-174 Vía Cali-Palmira Colombia, Cali"
"HOTEL NEUCHATEL";;;"Nal: (57) (2) 6604033";"Cl 22 AN 6 A-54 Colombia, Cali"
"HOTEL JACINTO PLAZA YUMBO";;;"(57) (2) 6570644";"Cl 10 3-53 Yumbo Colombia, Cali"
"HOTEL BAHÍA DEL SOL";;;"(57) (2) 2460163";"Cl Bonita-Ladrilleros Colombia, Ladrilleros"
"HOSPEDAJE LA 18";;;"(57) (1) 2434406";"Cl 18 15-53 Colombia, Bogotá"
"HOTEL ANDINO";;;"(57) (8) 8710184";"Cl 9 5-82 Colombia, Neiva"
"HOTEL A.B.C.";;;"(57) (2) 8836630";"Cr3 # 16-29 Colombia, Cali"
"HOTEL SAN SEBASTIÁN";;;"(57) (1) 2680236";"Cr33 25 A-42 Colombia, Bogotá"
"HOTEL MEDELLÍN RODADERO";;;"(57) 3006190707";"Cl 12 2-58 El Rodadero Santa Marta Colombia, Bucaramanga"
"HOTEL Y RESTAURANTE MANIZALES";;;"(57) (5) 4214399";"Cl 10 B 3-08 P-2 Colombia, Santa Marta"
"HOSTAL SARIE BAY INN";;;"(57) (8) 5124234";"Cl 6 19 A-35 Sarie Bay Colombia, San Andrés"
"HOTEL PLAZA GRANADA";;;"(57) (4) 6053222";"Cl 14 30-144 Colombia, Medellín"
"HOTEL CASA DEL VIAJERO";;;"(57) (5) 7281407";"Cr7 17 B-11 P-2 Av Mercado Nuevo Colombia, Riohacha"
"HOSPEDAJE LA ESTANCIA";;;"(57) (2) 6697800";"Cr12 A 23-38 Yumbo Colombia, Cali"
"MOTEL Y HOSPEDAJE LAS DUNAS";;;"(57) (5) 6666678";"Cr17 # 62-19 Colombia, Cartagena"
"HOTEL INTERNACIONAL TEKNICAT E.U.";;;"(57) (1) 3457476";"Av Caracas 61-12 Colombia, Bogotá"
"HOTEL PIBE CRIS";;;"(57) (5) 5749797";"Cl 18 9-65 Colombia, Valledupar"
"HOTEL EL CEIBOTE";;;"(57) (5) 5701010";"Cr18 D 20-100 Colombia, Valledupar"
"HOTEL EL JAZMÍN CUYABRO";;;"(57) (6) 7470309";"Cl 35 21-21 Diagonal al Terminal de Transporte Colombia, Armenia"
"HOTEL MONTECARLO COLONIAL";;;"(57) (1) 2816703";"Cl 18 8-35 Colombia, Bogotá"
"HOTEL LOS HELECHOS ANAPOIMA";;;"(57) (1) 8993433";"Cr2 6-66 Anapoima Colombia, Anapoima"
"HOTEL CASA DEL MARQUÉS BAHIACHALA";;;"(57) (7) 7267036";"Cl 7 7-51 Colombia, Barichara"
"CASA CAMPESTRE DE MR WILSÓN";;;"(57) (5) 1000000";"Cl 20 2 B-40 Taganga Colombia, Santa Marta"
"HOTEL LA CORDILLERA";;;"(57) (8) 6580423";"Cr15 13-96 Dg A La Flota Macarena y Expreso Bolivariano Colombia, Granada"
"HOSPEDAJE EL SILENCIO";;;"(57) (4) 4414975";"Cr64 B 75 A-19 Colombia, Medellín"
"HOTEL NOCHES DE ENSUEÑO";;;"(57) 2654073";"Cl 16 Cr16 Esq Colombia, Villagorgona"
"HOTEL MAR DOLL";;;"(57) (2) 7323848";"Cl 18 6 A-11 Venecia Colombia, Pasto"
"APARTAESTUDIO REAL";;;"(57) (8) 2613098";"Cr3 15-32 Centro Colombia, Ibagué"
"HOTEL LA GRAN POSADA";;;"(57) (2) 4453858";"Cr5 43-01 Colombia, Cali"
"HOTEL EL ENCANTO";;;"(57) (2) 2035437";"Cr11 10-57 Colombia, Zarzal"
"HOTEL EJECUTIVO";;;"(57) (1) 4811779";"Cl 63 D 21-26 Colombia, Bogotá"
"HOTEL MEDELLÍN S.A.";;;"(57) (5) 5744441";"Cr9 18-76 Centro Colombia, Valledupar"
"HOTEL PROVINCIA";;;"(57) (5) 5800558";"Cl 16 A 5-25 Centro Colombia, Valledupar"
"HOTEL EL PERIODISTA";;;"(57) (4) 2163626";"Cr43 53-45 Colombia, Medellín"
"SONESTA HOTEL VALLEDUPAR";;;"(57) (5) 5748686";"Dg10 6 N-15 Colombia, Valledupar"
"First Name";"Email Address";Url;Telephone;Address
"POSADA NATIVA OHANA LODGING";;;"Telefax: (57) (8) 5132176";"San Luis Bay frente Iglesia Bautista Emmanuel Colombia, San Andrés"
"POSADA MISS MATY BATISTA";;;"Telefax: (57) (8) 5130698";"San Luis Ground Road entrada al Coliseo Colombia, San Andrés"
"HOTEL RINCÓN DE LA BELLA VILLA";;;"(57) (4) 2312119";"Cr50 A# 53-10 Colombia, Medellín"
"HOSTAL LA CASA DEL VIAJERO";;;"(57) (52) 6840260";"Cr4 21 B-56 Colombia, Mompós"
"RESIDENCIAS LOS ANDES";;;"(57) (4) 2610769";"Cr46 42-70 Colombia, Medellín"
"RIVENDELL PARADISE";;;"(57) (4) 2895629";"Giradota Verada La Meseta Colombia, Medellín"
"HOTEL RESTAURANTE BAR PISCIS";;;"(57) 3164419584";"Cr2 12-56 L-108 A Colombia, Santa Marta"
"HOSPEDAJE CASA ESTADIO";;;"(57) (4) 2342867";"Cl 50 76 93 Colombia, Medellín"
"HOTEL HOSPEDERÍA SAN CARLOS";;;"(57) (1) 6334363";"Reservas en Bogotá Colombia, Bogotá"
"HOSPEDAJE VILLALUZ";;;"(57) (1) 2812181";"Cr15 23-73 Colombia, Bogotá"
"HOTEL KAMANI";;;"(57) (8) 4354101";"Cl 16 12-27 Colombia, Florencia"
"CASA FRATELLY HOTEL";;;"(57) (1) 5707946";"Cl 24 ABis 44 A-41 Colombia, Bogotá"
"HOSPEDAJE EL MIRADOR";;;"(57) (8) 7320941";"Tr 8 6-94 Colombia, Villa de Leyva"
"VILLETA SUITE";;;"(57) (1) 8444360";"Dg2 13-56 Colombia, Villeta"
"APARTAMENTOS AMOBLADOS ANA";;;"(57) (1) 3561495";"Av (Cl 80 ) 112 F 10 Colombia, Bogotá"
"RED VISIµN REGIONAL SAN SEBASTIÃN S.A.S.";;;"(57) (1) 7583258";"Cr68 B 96 - 16 Trr 2 Ap 1003 Colombia, Bogotá"
"HOTEL SAN ANDRES DE TUMACO";;;"(57) (2) 7272980";"Av Los Estudiantes 1 B-43 P-3 Colombia, Tumaco"
"HOSPEDAJE LOS GERANIOS";;;"(57) 3116490823";"Cr4 6-39 Colombia, Salento"
"AQUÍ ME QUEDO HOSTAL";;;"(57) (6) 8872757";"Cl 67 23 A-33 Colombia, Manizales"
"APARTA HOTEL LOIRE";;;"(57) (5) 6448079";"Cl 26 22-103 Colombia, Cartagena"
"APARTAMENTOS UNICENTRO";;;"(57) (1) 2152040";"Cr14 B 119-83 Colombia, Bogotá"
"HOTEL HERNANDO HENRY";;;"(57) (8) 5123816";"Av Las Américas 4 84 Colombia, San Andrés"
"HOTEL CERRO TUSA";;;"(57) (4) 8490164";"Cl Bolívar 51-38 Colombia, Venecia"
"HOTEL LONDRES";;;"(57) 3206043559";"Cl 30 9-44 Calle de la Media Luna Colombia, Cartagena"
"FINCA HOTEL EL JUNCAL";;;"(57) (4) 8490135";"Cr 52 el socorro Colombia, Venecia"
"HOTEL RISARALDA";;;"(57) (5) 5742226";"Cl 18 9-58 Colombia, Valledupar"
"HOSPEDAJE MI VALLE";;;"(57) (5) 5828806";"Cr7 A 41 A-42 Brr. 12 de Octubre Colombia, Valledupar"
"NORDESTE HOSTAL Y EVENTOS";;;"(57) (5) 7287418";"Cl 9 7-35 Colombia, Riohacha"
"SUITES INN EJECUTIVAS";;;"(57) (1) 3458099";"Cl 57 18-25 Colombia, Bogotá"
"ECO HOTEL LA ROSITA";;;"(57) (8) 6621687";"Cr30 A 37-79 Of 304 Pasaje Bolívar Ed Los Esteros Colombia, Villavicencio"
"POSADA NATIVA LUCKI®S PLACE";;;"(57) (8) 5129104";"Cl 21 4 A-37 Brr. El Bight Colombia, San Andrés"
"HOSPEDAJE REMARÍN";;;"(57) (5) 1000000";"Cl 12 3-70 Taganga Colombia, Santa Marta"
"HOTEL NEUCHATEL";;;"Nal: (57) (2) 6604033";"Cl 22 AN 6 A-54 Colombia, Cali"
"HOTEL TRAVEL EMPRESARIAL";;;"(57) (1) 4825377";"Cl 18 96 H-35 Colombia, Bogotá"
"HOTEL TROPICANA";;;"(57) (2) 2413210";"Cr5 2-22 Colombia, Buenaventura"
"HOSPEDAJE LA ORQUIDEA";;;"(57) (72) 7485331";"Dg18 15-125 Colombia, Barbosa"
"HOTEL Y HOSPEDAJE LA MOLIENDA";;;"(57) (7) 6550380";"Cl 9 5-31 Colombia, Bucaramanga"
"LLANO Y ORNOQUÍA LTDA.";;;"(57) (1) 7027138";"Cl 10 Sur 11-30 Colombia, Bogotá"
"RESERVAS HOTELERAS";;;"(57) (1) 6190518";"Av15 124-65 Mezz 6 Colombia, Bogotá"
"HOTEL COSTA REAL TUMACO";;;"(57) (2) 7274164";"Cl Antioquia Colombia, Tumaco"
"First Name";"Email Address";Url;Telephone;Address
"HOTEL HOUSTON";;;"(57) (7) 6343977";"Cl 33 30-44 Colombia, Bucaramanga"
"APARTAHOTEL TUKASA RODADERO";;;"(57) (5) 4226749";"Cl 17 3-28 El Rodadero S Colombia, Santa Marta"
"HOTEL LA GRAN POSADA";;;"(57) (2) 4453858";"Cr5 43-01 Colombia, Cali"
"HOTEL ROYAL SUITE";;;"(57) (6) 8730506";"Cr23 16-39 Colombia, Manizales"
"HOTEL LAS BRISAS DEL NORTE";;;"(57) (5) 7280047";"Cr8 1-32 Callejón de Las Brisas Colombia, Riohacha"
"HOTEL BOUTIQUE SAN SEBASTIAN";;;"(57) (1) 5404643";"Cl 62 9-49 Colombia, Bogotá"
"HOTEL LAS JOTAS";;;"(57) (2) 6612964";"Av8 N 14-47 Colombia, Cali"
"FINCA KAIDALY";;;"(57) (8) 6648484";"Km 2.5 Vía La Azotea Colombia, Villavicencio"
"ATLANTIS PLAZA HOTEL";;;"(57) (7) 5821777";"Cl 8 7-55 Colombia, Cúcuta"
"HOTEL EUROPA BOUTIQUE";;;"(57) (6) 8802016";"Cl 10 24-79 Colombia, Manizales"
"HOSPEDAJE Y RESTAURANTE CASAQUINTA";;;"(57) (6) 8855978";"Cl 49 24-53 Colombia, Manizales"
"POSADA NATIVA CANO";;;"(57) 3164303911";"Loma Bolivariano Colombia, San Andrés"
"HOSPEDAJE FOTOMA";;;"(57) (1) 3347069";"Cl 14 14-53 Colombia, Bogotá"
"HOSTAL SARIE BAY INN";;;"(57) (8) 5124234";"Cl 6 19 A-35 Sarie Bay Colombia, San Andrés"
"AMANWANA ECOFINCA";;;"(57) (1) 3365366";"Cl 19 5-25 Of 703 Colombia, Bogotá"
"HOTEL BOUTIQUE CITY CENTER";;;"(57) (1) 5720000";"Cr43 B 24 A-10 Colombia, Bogotá"
"HOTEL JUAN MARÍA LTDA.";;;"(57) (2) 2244562";"Cr28 Cl 27 Esq Colombia, Tuluá"
"HOSPEDAJE SABOR LATINO";;;"(57) (4) 8532525";"Cl 10 19-87 Colombia, Santa Fe de Antioquia"
"HOSPEDAJE MARITZA";;;"(57) (5) 6907385";"Los Corales Manz A Casa 12 P-1 Colombia, Cartagena"
"ANDINO HOSTAL";;;"(57) (1) 2532452";"Cr64 98 B-12 Colombia, Bogotá"
"HOTEL ACAPULCO";;;"(57) (8) 5841924";"Cl 8 20-75 Colombia, San José del Guaviare"
"HOTEL EL AMANECER";;;"(57) (4) 4063824";"Cl 13 13-73 Colombia, Medellín"
"HOTEL CAMINO REAL 1A";;;"(57) (2) 6823682";"Cl 9 # 3-54 Colombia, Cali"
"HOTEL HARBY";;;"(57) (4) 5124400";"Cl 54 50-48 Colombia, Medellín"
"BETUE PLAZA HOTEL";;;"(57) (4) 8388120";"Cl Bolivar 42-54 Colombia, Zaragoza"
"HOTEL TREBOL";;;"(57) (8) 8719087";"Cl 5 1 I-03 Colombia, Neiva"
"HOTEL SANTA MÓNICA";;;"(57) (5) 3795286";"Cl 42 38-28 Colombia, Barranquilla"
"HOTEL PISCINA MESÓN VASCO";;;"(57) (1) 8670578";"Cl 22 65-52 Colombia, Fusagasugá"
"HOTEL MIAMI REAL";;;"(57) (4) 7918741";"Cr1 B 39-13 P-2 Colombia, Montería"
"RESIDENCIAS WALKIRIA";;;"(57) (5) 3444300";"Cr 53 61 35 Colombia, Barranquilla"
"HOSPEDAJE SANTANA";;;"(57) (2) 6570730";"Cr4 Oe 20-150 Yumbo Colombia, Yumbo"
"POSADA NATIVA JUSTINA PLACES";;;"Telefax: (57) (8) 5133174";"La Loma Barrack 39-15 Colombia, San Andrés"
"HOSTAL LA CASA DEL VIAJERO";;;"(57) (52) 6840260";"Cr4 21 B-56 Colombia, Mompós"
"CASA LINDA";;;"(57) (5) 4220762";"Cr2 12-56 L-108-A Colombia, Santa Marta"
"HOSPEDAJE CASA ESTADIO";;;"(57) (4) 2342867";"Cl 50 76 93 Colombia, Medellín"
"INVERSIONES LAMY Y COMPAÑIA";;;"(57) (1) 7038759";"Cl 24 40-46 Of 201 Colombia, Bogotá"
"CASONA DE USAQUÉN HOTEL BOUTIQUE";;;"(57) (1) 4686626";"Cl 117 6-27 Colombia, Bogotá"
"LUXOR HOTELES";;;"(57) (6) 3258583";"Cl 24 8-35 Colombia, Pereira"
"BOGOTA DELUXE";;;"(57) (1) 6043293";"Bogotà Colombia, Bogotá"
"HOTEL MADRID";;;"(57) (4) 2390938";"Cr43 # 50-28 Colombia, Medellín"
"First Name";"Email Address";Url;Telephone;Address
"HOTEL RESTAURANTE NACIONAL";;;"(57) (5) 6743961";"Cl 33 27-114 Colombia, Cartagena"
"HOTEL BENIDORM";;;"(57) (6) 8905040";"Cl 44 20-20 Colombia, Manizales"
"HOTEL D'OSCAR";;;"(57) (2) 6610571";"Cl 26 N 2 Bis-68 Colombia, Cali"
"FINCA HOTEL CAMPESINA LA BOHEMIA";;;"(57) (2) 3264479";"Cr50 14-37 Of 201 Colombia, Cali"
"SUITES TRAVELERS";;;"(57) (2) 6688019";"Cl 2 A 2-76 Colombia, Cali"
"HOTEL CASA TOSCANO ELITE BOGOTÁ";;;"(57) (1) 3470050";"Cl 70 8-19 Colombia, Bogotá"
"ARRENDAMIENTO DE HABITACIONES DIOS HABLA HOY";;;"(57) (4) 5127176";"Cl 55 A 50-60 Colombia, Medellín"
"HOTEL IMPERIO LA 16";;;"(57) (6) 3255371";"Cl 16 5-75 Colombia, Pereira"
"RESIDENCIA LETICIA";;;"(57) (6) 3332958";"Cr8 14-58 Colombia, Pereira"
"HOTEL ROSMAR";;;"(57) (1) 8324437";"Cl 16 9-37 Colombia, Girardot"
"HOSPEDAJE MAR ADENTRO";;;"(57) (2) 2434729";"Cl 6 5 A-86 Sector F-8 Colombia, Buenaventura"
"HOTEL HOUSTON";;;"(57) (7) 6343977";"Cl 33 30-44 Colombia, Bucaramanga"
"RESIDENCIAS LA VEGA";;;"(57) (7) 6428577";"CL 29 16-41 Colombia, Bucaramanga"
"HOSPEDAJE FAMILIAR Y MISCELANEA SSENIA®S";;;"(57) (2) 3803087";"Cr37 A 6-42 Colombia, Cali"
"HOTEL FELIPE II";;;"(57) (2) 2422820";"Cr3 A 2-44 Centro Colombia, Buenaventura"
"HOSPEDAJE STAMBUL";;;"(57) (2) 2246583";"Av3 N 49-123 Colombia, Tuluá"
"HOTEL SAN SEBASTIÁN";;;"(57) (1) 2680236";"Cr33 25 A-42 Colombia, Bogotá"
"TRYP USAQUEN";;;"(57) (1) 6576200";"Cl 120 A 7-33 Colombia, Bogotá"
"AGENCIA DE VIAJES VIAJES CHAPINERO";;;"(57) (1) 7443434";"Cl 63 13-37 Colombia, Bogotá"
"HOTEL EJECUTIVO";;;"(57) (1) 4811779";"Cl 63 D 21-26 Colombia, Bogotá"
"ALOJAMIENTO BOUTIQUE VILLAS MEDITERRÁNEO";;;"(57) (1) 6218663";"Cl 97 16-10 Of 302 Colombia, Bogotá"
"HOTEL CASA VERDE";;;"(57) (5) 4314122";"Cl 18 4-70 Colombia, Santa Marta"
"HOTEL CASA CRISTIANA";;;"(57) (4) 2921594";"Cl 62 49-16 Colombia, Medellín"
"HOTEL SAN JOSÉ";;;"(57) (4) 5120066";"Cl 49 45-12 Colombia, Medellín"
"NARVÁEZ TORRES GRACIELA";;;"(57) (8) 8717717";"Cr3 Bis 7-82 Colombia, Neiva"
COCONITO;;;"(57) (1) 4139881";"Tr93 51-53 Colombia, Bogotá"
"HOTEL MEDELLÍN RODADERO";;;"(57) 3006190707";"Cl 12 2-58 El Rodadero Santa Marta Colombia, Bucaramanga"
"HOTEL INTERNACIONAL TEKNICAT E.U.";;;"(57) (1) 3457476";"Av Caracas 61-12 Colombia, Bogotá"
"VIANOVAS PLACE";;;"Telefax: (57) (8) 5131651";"Nixon Point dg Iglesia Baustista Central Colombia, San Andrés"
"HOSPEDAJE SANTAFEREÑO";;;"(57) (2) 4423416";"Cr7 36-26 Colombia, Cali"
"POSADA MORGAN TREASURE";;;"Telefax: (57) (8) 5148373";"Sector Santa Catalina Colombia, Providencia"
"POSADA MC BEAN";;;"Telefax: (57) (8) 5148530";"Mc Bean Hill Sector La Montaþa Colombia, Providencia"
"HOTEL AMERICAN DREAM";;;"(57) (1) 2693309";"Av Cr 40 25-28 Colombia, Bogotá"
"HOSPEDAJES EXOTICOS Y CAMPING MONTEROCA";;;"(57) 3154136862";"Km 4 Vía Salento Boquía Colombia, Salento"
"HOTEL MADRID";;;"(57) (4) 2390938";"Cr43 # 50-28 Colombia, Medellín"
"HOSPEDAJE FAMILIAR LA FLORESTA";;;"(57) (1) 2266326";"Cr69 C 96-69 Colombia, Bogotá"
"MIZARE HOSTAL";;;"(57) (5) 5809341";"Cr6 13-39 Novalito Colombia, Valledupar"
"HOSPEDAJE MONTREAL";;;"(57) (5) 6601795";"Cl 30 8 B-12 Calle Media Luna Colombia, Cartagena"
"VILLETA SUITE";;;"(57) (1) 8444360";"Dg2 13-56 Colombia, Villeta"
"HOSTAL LA CASA DE MAMÁ";;;"(57) (5) 7272859";"Cl 9 3-51 Barrio Arriba Colombia, Riohacha"
"First Name";"Email Address";Url;Telephone;Address
"POSADA MC BEAN";;;"Telefax: (57) (8) 5148530";"Mc Bean Hill Sector La Montaþa Colombia, Providencia"
"HOTEL GIRÇN";;;"(57) (8) 6683448";"Cr38 24 A-40 Brr. San Benito Colombia, Villavicencio"
"CASA LINDA";;;"(57) (5) 4220762";"Cr2 12-56 L-108-A Colombia, Santa Marta"
"CASA MARTA CARTAGENA DE INDIAS";;;"(57) 3106306003";"Cr10 25-165 Calle San Antonio Colombia, Cartagena"
"HOTEL MONTALVAN";;;"(57) (7) 5709165";"Cl 8 8-23 La Parada Villa del Rosario Colombia, Cúcuta"
"CASA CAMPESTRE JUANITA";;;"(57) 3114459116";"Vía Caimo Km 4 Alcarraza Casa 1 Colombia, Armenia"
"ESTUDIO 70 NORTE";;;"(57) (5) 3588180";"Cl 70 48-40 Colombia, Barranquilla"
"FINCA HOTEL SAN ANGELLO";;;"(57) 3122979814";"Vía Quimbaya Panaca Km 3 Colombia, Quimbaya"
"HOSTAL LA CASA DE MAMÁ";;;"(57) (5) 7272859";"Cl 9 3-51 Barrio Arriba Colombia, Riohacha"
"HOTELES SEXTA AVENIDA S.A.";;;"(57) (2) 6674949";"Av de Las Américas 18 N 26 Colombia, Cali"
"HOTEL VILLA DEL PRADO";;;"(57) (4) 8284428";"Cl 100 E 107-07 Brr. Ortiz Colombia, Apartadó"
"HOTEL 999";;;"(57) (5) 5749057";"Cl 17 9-101 Colombia, Valledupar"
"HOTEL MIRAMAR";;;"(57) (7) 7244728";"Cr11 8-72 P-3 Colombia, San Gil"
"HOTEL SICARARE";;;"(57) (5) 5744343";"Cr9 16-04 Colombia, Valledupar"
"HOTEL BONAVENTO";;;"(57) (4) 8687475";"Cr50 (Bolívar) 16-14 Colombia, San Pedro de los Milagros"
"HOSTERIA FUNDADORES";;;"(57) (4) 8531553";"Cr 13 16-23 Colombia, Santa Fe de Antioquia"
"HOSPEDAJE MEXICO CENTRAL";;;"(57) (1) 3415039";"Cr16 17 A-21 Colombia, Bogotá"
"CABAÑAS LA CASA DE LAS DOS RUEDAS";;;"(57) (5) 4219118";"Cr1 B 18-89 Taganga Colombia, Santa Marta"
"ECO HOTEL RANCHO LUNA";;;"(57) (5) 4221722";"Cr1 17-92 Ap 301 Edi Murujuy Colombia, Santa Marta"
"HOSPEDAJE CURAZAO";;;"(57) (1) 2439823";"Cr16 17-25 Colombia, Bogotá"
"HOSPEDAJE ZAPATOCA";;;"(57) (5) 4317871";"Cl 10 5-12 P-2 Colombia, Santa Marta"
6.9.3.APARTAESTUDIOS;;;"(57) (1) 2264515";"Cr63 98-86 Colombia, Bogotá"
"APARTASTUDIOS SUN RIVER";;;"(57) (2) 6535710";"Av9 A 13 N-58 Colombia, Cali"
"LA ESQUINA DEL MOTORISTA";;;"(57) (2) 6589243";"Cr9 Bis 9-37 Yumbo Colombia, Cali"
"CASA DE HUÉSPEDES DOÑA FANNY";;;"(57) (1) 2695263";"Cr44 A 22 A68 Colombia, Bogotá"
"HOTEL NAIROBI";;;"(57) (8) 5123300";"Cr7 B 4-44 Sector Cinco Esquinas Colombia, San Andrés"
"HOTEL CUMANDAY";;;"(57) (6) 3240416";"Cr5 22-54 Colombia, Pereira"
"HOSPEDAJE BACARAT";;;"(57) (1) 3421686";"Cl 18 15-74 Colombia, Bogotá"
"HOTEL IMPERIO LA 16";;;"(57) (6) 3255371";"Cl 16 5-75 Colombia, Pereira"
"MOTEL AMASIS";;;"(57) (6) 3329972";"Vía Armenia Km 4 Colombia, Pereira"
"CASONA DEL PATIO";;;"(57) (1) 2128805";"8 No 69 24 Colombia, Bogotá"
"HOTEL ROSMAR";;;"(57) (1) 8324437";"Cl 16 9-37 Colombia, Girardot"
"HOTEL FIRENZE SUITES";;;"(57) (8) 4340603";"Cl 15 12-32 P-1 Colombia, Florencia"
"HOTEL A.B.C.";;;"(57) (2) 8836630";"Cr3 # 16-29 Colombia, Cali"
"HOTEL MYO";;;"(57) (7) 6455870";"Cr22 28-59 Colombia, Bucaramanga"
"FINCA RECREACIONAL EL BOLERO";;;"(57) (2) 8839619";"Cr5 15-11 P-6 Colombia, Cali"
"HOTEL ALBORICOSAS";;;"(57) (2) 8853936";"Cr8 20-14 Colombia, Cali"
"HOTEL BOUTIQUE SAN SEBASTIAN";;;"(57) (1) 5404643";"Cl 62 9-49 Colombia, Bogotá"
"HOTEL FELIPE II";;;"(57) (2) 2422820";"Cr3 A 2-44 Centro Colombia, Buenaventura"
"SUPER HOTEL";;;"(57) (2) 2196418";"Cl 48 51-31 Colombia, Sevilla"
"First Name";"Email Address";Url;Telephone;Address
"1212 HOSTELS";;;"(57) (1) 4672656";"Cl 67 4-16 Colombia, Bogotá"
"POSADA NATIVA LICY";;;"(57) 3144889890";"Loma Flower Hill 19-39 Colombia, San Andrés"
"SWEET ISLAND PLACES";;;"(57) 3173749974";"Av Circunvalar Cabañas Altamar Cl 8 18 A 73 Colombia, San Andrés"
"HOSPEDAJE Y ESTADERO ORIENT STAR";;;"(57) (5) 3768141";"Cl 10 23-29 Colombia, Barranquilla"
"HOTEL ALEJANDRA";;;"(57) (2) 7211512";"Cl 16 Cr13 Colombia, Pasto"
"CASA SANTANA";;;"(57) 3123514287";"Cl 14 8-25 Colombia, Villa de Leyva"
"HOTEL EL NOGAL";;;"(57) (8) 2520615";"Cr6 6-53 Colombia, Mariquita"
"HOSPEDAJE CAMPO AMOR";;;"(57) (4) 2554707";"Cr58 7 -42 Colombia, Medellín"
"HOSPEDAJE BRAZIL";;;"(57) (4) 4014918";"Cr52 50-80 Int 201 Copacabana Colombia, Medellín"
"HOTEL PLAZA GRANADA";;;"(57) (4) 6053222";"Cl 14 30-144 Colombia, Medellín"
"HOSPEDAJE MI CASA";;;"(57) (2) 6812633";"Cl 24 # 1 N-32 Colombia, Cali"
"HOTEL SAN VICENTE";;;"(57) (2) 6615324";"Cl 24 N 2 C N-16 Colombia, Cali"
"HOTEL BOUTIQUE SAN FRANCISCO";;;"(57) (8) 8720565";"Cl 9 5-10 Colombia, Neiva"
"HOTEL ALTAMAR";;;"(57) (5) 6431256";"Bosque Tr54 21 B-57 Colombia, Cartagena"
"HOTEL CASA VILLA COLONIAL";;;"(57) (5) 6645421";"Cl30 10-89 Media Luna Colombia, Cartagena"
"HOTEL EL JAZMÍN CUYABRO";;;"(57) (6) 7470309";"Cl 35 21-21 Diagonal al Terminal de Transporte Colombia, Armenia"
"HOTEL SUITE 45";;;"(57) (4) 5103040";"Cr45 49-35 Colombia, Medellín"
"HOTEL MAJESTIC LTDA.";;;"(57) (5) 3491010";"Cr53 54-41 Colombia, Barranquilla"
"HOTEL NUEVO SIBONEY";;;"(57) (1) 3413905";"Cl 18 15-39 Colombia, Bogotá"
"HOSPEDAJE EL VENADO";;;"(57) (1) 2860927";"Cr16 15-65 Colombia, Bogotá"
"CASA FRATELLY HOTEL";;;"(57) (1) 5707946";"Cl 24 ABis 44 A-41 Colombia, Bogotá"
"HOSPEDAJE LA CEIBA";;;"(57) (5) 6622667";"Bosque Dg21 53-129 Edif La Ceiba Colombia, Cartagena"
"HOSPEDAJE EL JARDIN CASA COLONIAL";;;"(57) (8) 8373455";"Cr11 4-10 Colombia, San Agustín"
"HOTEL LOS CARDONES";;;"(57) (5) 5743023";"Cl17 9-74 Colombia, Valledupar"
"HOTEL ALMIRANTE JOSÉ";;;"(57) (4) 8272576";"Cr15 104-17 Colombia, Turbo"
"HOTEL TORRE CENTRAL";;;"(57) (1) 3420810";"Cr10 17-43 Colombia, Bogotá"
"EL RANCHO DE PIPE";;;"(57) (8) 8661003";"Cl 45 19 A-44 Prado Norte Colombia, Neiva"
"REPOSO EL MOTORISTA";;;"(57) (2) 4463555";"Cl 50 1 N-20 Colombia, Cali"
"HOTEL DON SEBASTIÁN";;;"(57) (2) 2250273";"Cr20 25-83 Colombia, Tuluá"
"HOTEL ROSMAR";;;"(57) (1) 8324437";"Cl 16 9-37 Colombia, Girardot"
"HOTEL MAR DOLL";;;"(57) (2) 7323848";"Cl 18 6 A-11 Venecia Colombia, Pasto"
"HOSPEDAJE VILLAS DEL POBLADO";;;"(57) (7) 6467639";"Cl 44 23-121 Poblado Colombia, Bucaramanga"
"HOTEL SAN MARCOS PEREIRA";;;"(57) (6) 3337000";"Cl 17 4-10 Colombia, Pereira"
"CABAÑAS RIO GRANDE";;;"(57) (2) 6655380";"Cl 53 N 10-24 Colombia, Cali"
"HOSPEDAJE EL CORZO";;;"(57) (8) 7320938";"Cr9 2-206 Colombia, Villa de Leyva"
"LIRIOS DE FLORENCIA";;;"(57) (2) 3951284";"Cl 12 A 50-110 Ap 201-D Colombia, Cali"
"EDIFICIO EL LÍBANO";;;"(57) (5) 4227290";"Cl 7 3-36 El Rodadero Colombia, Santa Marta"
"HOTEL EL MARQUÉS DE SAN LUIS";;;"(57) (8) 7320277";"Cr13 8-58 San Juan de Dios Colombia, Villa de Leyva"
"HOSPEDAJE J.E. & YOLIMA";;;"(57) (5) 6695208";"Dg21 B 51-46 Colombia, Cartagena"
"RESIDENCIAS VENEZUELA";;;"(57) (8) 6646094";"Tr29 40-67 El Emporio Colombia, Villavicencio"
"First Name";"Email Address";Url;Telephone;Address
"HOTEL NASHAMA";;;"(57) (5) 4228253";"Cl 13 2-41 El Rodadero Colombia, Santa Marta"
"TRYP USAQUEN";;;"(57) (1) 6576200";"Cl 120 A 7-33 Colombia, Bogotá"
"HOSPEDAJE-RESTAURANTE LA CUCHARA DE PALO";;;"(57) (5) 4227613";"Cr4 19 B-16 Colombia, Santa Marta"
"HOSTAL TIMA URAKA CASA DE LA LUNA";;;"(57) (5) 4228433";"Cl 18 2-59 El Rodadero Colombia, Santa Marta"
"HOTEL IMBANACO CALI";;;"(57) (2) 3962810";"Cr40 5 A-23 Colombia, Cali"
"HOTEL EL PORTÓN MARINO";;;"(57) (2) 7273241";"Cl Sucre 11-40 Colombia, Tumaco"
"HOTEL Y RESTAURANTE LA ANTIOQUEÑITA";;;"(57) (7) 5875014";"Av7 0 B-64 Panamericano Colombia, Cúcuta"
"HOTEL ACORA";;;"(57) (7) 5724000";"Cl 10 2-75 Centro Colombia, Cúcuta"
"HOTEL NEVADA";;;"(57) (2) 6603689";"Av8 N 14 N-19 Colombia, Cali"
"HOTEL LA PRIMERA";;;"(57) (2) 4480930";"Cr1 42-11 Colombia, Cali"
"CASA PETER LTDA.";;;"(57) (5) 6646579";"Centro Cr3 36-152 Colombia, Cartagena"
"HOTEL LA CASA DE SIEMPRE";;;"(57) (5) 5845254";"Cr7 15-53 Cañahuate Colombia, Valledupar"
"GUIA HOTELERA VIP";;;"(57) (6) 7584490";"Cl 10 N 14-52 Colombia, Circasia"
"RESIDENCIAS VENEZUELA";;;"(57) (8) 6646094";"Tr29 40-67 El Emporio Colombia, Villavicencio"
"MARY APARTAMENTOS AMOBLADOS";;;"Telefax: (57) (8) 5132259";"Sector Genney Bay dg Coliseo San Luis Colombia, San Andrés"
"POSADA ALMENDROS INN";;;"Telefax: (57) (8) 5124278";"Manz 5 Casa 5 Los Almendros Colombia, San Andrés"
"POSADA MISS MATY BATISTA";;;"Telefax: (57) (8) 5130698";"San Luis Ground Road entrada al Coliseo Colombia, San Andrés"
"HOTEL MONTECARLO COLONIAL";;;"(57) (1) 2816703";"Cl 18 8-35 Colombia, Bogotá"
"HOSPEDAJE CASA ESTADIO";;;"(57) (4) 2342867";"Cl 50 76 93 Colombia, Medellín"
"HOTEL KARLO";;;"(57) (2) 5244950";"Cl 4 27-100 Colombia, Cali"
"HOTEL ALFA";;;"(57) (2) 2122999";"Cl 10 4-71 Colombia, Cartago"
"FINCA HOTEL SAN ANGELLO";;;"(57) 3122979814";"Vía Quimbaya Panaca Km 3 Colombia, Quimbaya"
"HOSPEDAJE FAMILIAR LA FLORESTA";;;"(57) (1) 2266326";"Cr69 C 96-69 Colombia, Bogotá"
"MOTEL LOS LAURELES CRIBA";;;"(57) (5) 6720708";"La Quinta Cl 33-27 A-67 Colombia, Cartagena"
"HOTEL BALCONES DEL PARQUE";;;"(57) (4) 8456844";"Cl 9 2-75 Colombia, Jardín"
"HOTEL CACIQUE TONUNU";;;"(57) (4) 8580056";"Cl 23 10-68 Sector La Playa Colombia, San Jerónimo"
"HOTEL CASTILLA DE ORO";;;"(57) (4) 8272185";"Cl 100 14-07 Colombia, Turbo"
"HOSPEDAJE NUEVA LUNA";;;"(57) (4) 8491146";"Cr51 49-33 Colombia, Venecia"
"FINCA HOTEL CASA LUNA";;;"(57) (4) 3416858";"Cr 52 el Socorro Sector Piscina Colombia, Medellín"
"HOTEL 999";;;"(57) (5) 5749057";"Cl 17 9-101 Colombia, Valledupar"
"HOTEL PANORAMA.";;;"(57) (4) 2518801";"Cr45 49-50 Colombia, Medellín"
"POSADA NATIVA LORIGRY";;;"(57) 3143462794";"Loma Harmony Hall Hill Colombia, San Andrés"
"POSADA NATIVA LUCKI®S PLACE";;;"(57) (8) 5129104";"Cl 21 4 A-37 Brr. El Bight Colombia, San Andrés"
"HOTEL VILLA KAREN";;;"(57) 3114522760";"Alto Neblinas Colombia, Puerto Gaitán"
"HOTEL MEDELLIN RODADERO";;;"(57) (5) 4220202";"Cl 12 2-58 El Rodadero Colombia, Santa Marta"
"HOSTAL CASA VICTORIA";;;"(57) (5) 6437921";"Cr10 31-08 Calle Tripita y Media Colombia, Cartagena"
"HOTEL LA SIESTA";;;"(57) (2) 2242220";"Cl 26 21 --59 San Diego Colombia, Tuluá"
"HOTEL LA ESTRELLA";;;"(57) (2) 2240452";"Cl 25 20-49 Colombia, Tuluá"
"HOTEL MI CASITA";;;"(57) (6) 3250947";"Cl 25 6-20 Colombia, Pereira"
"POSADA CHAMBRANAS";;;"(57) (6) 7593425";"Cr6 1-10 Colombia, Salento"
"First Name";"Email Address";Url;Telephone;Address
"HOSTAL GERÓNIMO PLAZA";;;"(57) (4) 8583712";"Cl 21 9-53 Colombia, San Jerónimo"
"RESIDENCIAS SUYA";;;"(57) (4) 8675651";"Plaza Principal de Yali 19-41 Colombia, Yalí"
"HOTEL LONDRES";;;"(57) 3206043559";"Cl 30 9-44 Calle de la Media Luna Colombia, Cartagena"
"HOTEL 999";;;"(57) (5) 5749057";"Cl 17 9-101 Colombia, Valledupar"
"HOTEL SORACÁ MANTO REAL";;;"(57) (8) 7445175";"Vía Soracá Tunja 500m Sector la Y Colombia, Tunja"
"SUITES INN EJECUTIVAS";;;"(57) (1) 3458099";"Cl 57 18-25 Colombia, Bogotá"
"HOSPEDAJE MEXICO CENTRAL";;;"(57) (1) 3415039";"Cr16 17 A-21 Colombia, Bogotá"
"POSADA NATIVA LORIGRY";;;"(57) 3143462794";"Loma Harmony Hall Hill Colombia, San Andrés"
"GRANJA DESCANSO Y DIVERSIÓN";;;"(57) (8) 6678364";"Km 2 Vía Puerto López Colombia, Villavicencio"
"HOSPEDAJE LAFAYETTE";;;"(57) (4) 5121200";"Cr50 # 56-37 Colombia, Medellín"
"HOTEL BENIDORM";;;"(57) (6) 8905040";"Cl 44 20-20 Colombia, Manizales"
"HOTEL CIUDAD SEÑORA";;;"(57) (2) 2282628";"Cr17 4-32 Colombia, Buga"
"CASA DE HUÉSPEDES DOÑA FANNY";;;"(57) (1) 2695263";"Cr44 A 22 A68 Colombia, Bogotá"
"HOTEL JACINTO PLAZA YUMBO";;;"(57) (2) 6570644";"Cl 10 3-53 Yumbo Colombia, Cali"
"HOTEL INTER";;;"(57) (1) 3346712";"Cr3 20-17 Colombia, Bogotá"
"MOTEL AMASIS";;;"(57) (6) 3329972";"Vía Armenia Km 4 Colombia, Pereira"
"HOTEL ROSMAR";;;"(57) (1) 8324437";"Cl 16 9-37 Colombia, Girardot"
"HOTEL EL TURISTA";;;"(57) (7) 6222670";"Cr3 48-60 La Campana Colombia, Barrancabermeja"
"HOTEL LE MIRAGE";;;"(57) (1) 2570412";"Cr14 A 102-12 Colombia, Bogotá"
"HOTEL PISCINAS EL PARAÍSO";;;"(57) (1) 8458410";"Autop Medellín Entrada Principal La Vega Colombia, La Vega"
"HOTEL ANDINO";;;"(57) (8) 8710184";"Cl 9 5-82 Colombia, Neiva"
"ESTANCIA EL OLIVO B&B";;;"(57) (8) 7320142";"Tr10 7-91 Colombia, Villa de Leyva"
"POSADA NATIVA CANO";;;"(57) 3164303911";"Loma Bolivariano Colombia, San Andrés"
"POSADA NATIVA LICY";;;"(57) 3144889890";"Loma Flower Hill 19-39 Colombia, San Andrés"
"SWEET ISLAND PLACES";;;"(57) 3173749974";"Av Circunvalar Cabañas Altamar Cl 8 18 A 73 Colombia, San Andrés"
"RESIDENCIAS LA CAUCANITA";;;"(57) (2) 8310077";"Cr17 6-12 Colombia, Popayán"
"HOTEL IMBANACO CALI";;;"(57) (2) 3962810";"Cr40 5 A-23 Colombia, Cali"
"CASA CAMPESTRE LAGO CALIMA";;;"(57) 3167721773";"Puerto Buga Frente A Club Náutico Colombia, Darién"
"HOTEL Y RESTAURANTE LA ANTIOQUEÑITA";;;"(57) (7) 5875014";"Av7 0 B-64 Panamericano Colombia, Cúcuta"
"HOSPEDERÍA LOS AMIGOS";;;"(57) (8) 8362094";"Cr6 5-53 Colombia, Pitalito"
"CASA SANTANA";;;"(57) 3123514287";"Cl 14 8-25 Colombia, Villa de Leyva"
"HOTEL CASA VERDE";;;"(57) (5) 4314122";"Cl 18 4-70 Colombia, Santa Marta"
"HOTEL LOS FAROLES";;;"(57) (4) 2500312";"Cr70 # 45 E-135 Colombia, Medellín"
"HOTEL HARBY";;;"(57) (4) 5124400";"Cl 54 50-48 Colombia, Medellín"
"BOGOTA DELUXE";;;"(57) (1) 6043293";"Bogotà Colombia, Bogotá"
"HOTEL CASA LA RIVIERA";;;"(57) (1) 6205670";"Cl 103 11 B-26 Colombia, Bogotá"
"HOTEL GALAXY";;;"(57) (5) 6654865";"Bgde Cr2 9-42 Av San Martín Colombia, Cartagena"
"HOTEL REAL PLAZA IN";;;"(57) (1) 2696478";"Cl 22 43 A-12 Colombia, Bogotá"
"HOTEL LOS MUROS";;;"(57) (5) 6640737";"Get Cr10 30-34 Calle San Andrés Colombia, Cartagena"
"HOSTAL FAMILIAR LA ALBORADA";;;"(57) (1) 5339101";"Cr68 D 95-81 Colombia, Bogotá"
"First Name";"Email Address";Url;Telephone;Address
"HOSPEDAJE LOS GERANIOS";;;"(57) 3116490823";"Cr4 6-39 Colombia, Salento"
"HOTEL SORACÁ MANTO REAL";;;"(57) (8) 7445175";"Vía Soracá Tunja 500m Sector la Y Colombia, Tunja"
"POSADA NATIVA LUCKI®S PLACE";;;"(57) (8) 5129104";"Cl 21 4 A-37 Brr. El Bight Colombia, San Andrés"
"HOTEL LATINO MEDELLÍN";;;"(57) (4) 5116188";"Cr47 53-29 Colombia, Medellín"
"LA PLAYA HOSTEL";;;"(57) (1) 2321532";"Cr19 33-04 Colombia, Bogotá"
"IE BUSSINES SOLUCTIONS";;;"(57) (2) 5571872";"Cr21 14-24 Colombia, Cali"
"HOTEL CUMANDAY";;;"(57) (6) 3240416";"Cr5 22-54 Colombia, Pereira"
"HOTEL Y HOSPEDAJE LA MOLIENDA";;;"(57) (7) 6550380";"Cl 9 5-31 Colombia, Bucaramanga"
"APARTAHOTEL TUKASA RODADERO";;;"(57) (5) 4226749";"Cl 17 3-28 El Rodadero S Colombia, Santa Marta"
"LONDOÑO HERNÁNDEZ LUIS ALBERTO";;;"(57) (2) 8801527";"Cl 15 1-50 Colombia, Cali"
"HOTEL EUROPA BOUTIQUE";;;"(57) (6) 8802016";"Cl 10 24-79 Colombia, Manizales"
"POSADA NATIVA CANO";;;"(57) 3164303911";"Loma Bolivariano Colombia, San Andrés"
"HOSPEDAJE Y ESTADERO ORIENT STAR";;;"(57) (5) 3768141";"Cl 10 23-29 Colombia, Barranquilla"
"RESIDENCIAS LA CAUCANITA";;;"(57) (2) 8310077";"Cr17 6-12 Colombia, Popayán"
"EL GRAN HOTEL YARUMAL";;;"(57) (4) 8536065";"Cr20 21-25 Colombia, Yarumal"
"RESIDENCIAS LOS CRISTALES";;;"(57) (2) 8841172";"Cr15 17-54 Colombia, Cali"
"HOTEL LOS FAROLES";;;"(57) (4) 2500312";"Cr70 # 45 E-135 Colombia, Medellín"
"CASA-HOTEL MIRIAM HERNÁNDEZ";;;"(57) (4) 7826883";"Cl 25 9-41 Centro Colombia, Montería"
"RESIDENCIAS WALKIRIA";;;"(57) (5) 3444300";"Cr 53 61 35 Colombia, Barranquilla"
"FINCA AGROTURÍSTICA COMBIA";;;"(57) 3154453535";"Vía al Valle Km 4 Colombia, Calarcá"
"APARTAMENTOS AMOBLADOS ANA";;;"(57) (1) 3561495";"Av (Cl 80 ) 112 F 10 Colombia, Bogotá"
"HOSPEDAJE CASA DEL PARQUE";;;"(57) (1) 2906464";"Cr66 12-06 Colombia, Bogotá"
"HOTEL CABAÑAS AGUA DULCE";;;"(57) (8) 5148160";"Agua Dulce Colombia, Providencia"
"HOTEL LORD PIERRE";;;"(57) (8) 5124453";"Av Colombia 1 B-106 Colombia, San Andrés"
"HOTEL EL TURISMO";;;"(57) (4) 8654606";"Dg19 18 A-29 Colombia, Yolombó"
"CELEBRITIE`S SUITES";;;"(57) (1) 6011414";"Cl 74 10-33 Colombia, Bogotá"
"HOTEL UNIÓN";;;"(57) (5) 5714420";"Cl 19 B 11-15 Colombia, Valledupar"
"EL RANCHO DE PIPE";;;"(57) (8) 8661003";"Cl 45 19 A-44 Prado Norte Colombia, Neiva"
"MOTEL LOS LAURELES";;;"(57) (5) 4330101";"Cl 30 57 A-200 Colombia, Santa Marta"
"HOSPEDAJE LUNA AZUL";;;"(57) (5) 4212967";"Cr2 20-71 Colombia, Santa Marta"
"GAIRA REAL CASA REAL";;;"(57) (5) 4229979";"Cl 18 14-13 Rodadero Sur Gaira Colombia, Santa Marta"
"HOTEL RED CAY";;;"(57) (8) 5124349";"Av20 de Julio-1 A-87 Colombia, San Andrés"
"HOTEL NAIROBI";;;"(57) (8) 5123300";"Cr7 B 4-44 Sector Cinco Esquinas Colombia, San Andrés"
"HOTEL TRAVEL EMPRESARIAL";;;"(57) (1) 4825377";"Cl 18 96 H-35 Colombia, Bogotá"
"HOTEL IMPERIO LA 16";;;"(57) (6) 3255371";"Cl 16 5-75 Colombia, Pereira"
"POSADA SARITA";;;"(57) (7) 6391602";"Cr23 153 E-16 Villa España I Colombia, Bucaramanga"
"CASA CAMPESTRE EL CIMARRON";;;"(57) (8) 6681956";"Cr26 A 4 B-60 Manz J Casa 9 La Alborada Colombia, Villavicencio"
"HOTEL MAR AZUL";;;"(57) (1) 2489522";"Cl 58 B 9-24 Colombia, Bogotá"
"CASA HOTEL DEL NORTE";;;"(57) (6) 7499696";"Cr13 16 N-35 Colombia, Armenia"
"HOTEL YELENA";;;"(57) (2) 2411775";"Cl 2 7 A-50 La Virgen Colombia, Buenaventura"
"First Name";"Email Address";Url;Telephone;Address
"HOTEL COSTA REAL TUMACO";;;"(57) (2) 7274164";"Cl Antioquia Colombia, Tumaco"
"HOTEL MAICAO INTERNACIONAL";;;"(57) 7267184";"Cl 12 10-90 Colombia, Maicao"
"HOTEL CAICEDONIA PLAZA";;;"(57) (2) 2160763";"Cr16 7-21 Colombia, Caicedonia"
"HOTEL STEVEN";;;"(57) (2) 2413804";"Cr4 4-42 Colombia, Buenaventura"
"HOSPEDAJE OMARU";;;"(57) (1) 2462818";"Cr10 A 3-04 Colombia, Bogotá"
"HOSPEDAJE MONACO";;;"(57) (1) 3410839";"Cr16 17 A-21 Colombia, Bogotá"
"HOTEL ALEJANDRA";;;"(57) (2) 7211512";"Cl 16 Cr13 Colombia, Pasto"
"HOTEL BOUTIQUE CITY CENTER";;;"(57) (1) 5720000";"Cr43 B 24 A-10 Colombia, Bogotá"
"HOTEL CAMPESTRE SAN FELIPE";;;"(57) (1) 6263404";"Bogotà-A 7 Km Mariquita Vía Ibague Colombia, Bogotá"
"HOSPEDERÍA LOS AMIGOS";;;"(57) (8) 8362094";"Cr6 5-53 Colombia, Pitalito"
"HOSTERÍA TONUSCO CAMPESTRE";;;"(57) (4) 8532258";"Cl 7 Cr7 Barranca-01 El Guali Colombia, Santa Fe de Antioquia"
"HOSPEDAJE MARITZA";;;"(57) (5) 6907385";"Los Corales Manz A Casa 12 P-1 Colombia, Cartagena"
"RESIDENCIAS LOS CRISTALES";;;"(57) (2) 8841172";"Cr15 17-54 Colombia, Cali"
"HOSPEDAJE CANEY";;;"(57) (2) 3953578";"Cl 47 85 B-36 Colombia, Cali"
"HOTEL LOS FAROLES";;;"(57) (4) 2500312";"Cr70 # 45 E-135 Colombia, Medellín"
"HOTEL NEVADA";;;"(57) (2) 6603689";"Av8 N 14 N-19 Colombia, Cali"
"HOTEL BELLO PLAZA";;;"(57) (4) 2721195";"Cr49 52-16 Bello Colombia, Medellín"
"HOTEL DON FELIPE";;;"(57) (2) 2339685";"Cr24 28-51 Colombia, Tuluá"
"HOTEL SAN REMO";;;"(57) (8) 2613339";"Cl 16 2-88 Colombia, Ibagué"
"CASA-HOTEL MIRIAM HERNÁNDEZ";;;"(57) (4) 7826883";"Cl 25 9-41 Centro Colombia, Montería"
"HOTEL GALAXY";;;"(57) (5) 6654865";"Bgde Cr2 9-42 Av San Martín Colombia, Cartagena"
"HOTEL LA CASA DE SIEMPRE";;;"(57) (5) 5845254";"Cr7 15-53 Cañahuate Colombia, Valledupar"
"TIVOLI SUITES & RESORT";;;"(57) (1) 6370411";"Cr 17 109 A - 67 Colombia, Bogotá"
"POSADA ADALIDES KELLY";;;"Telefax: (57) (8) 5129703";"La Loma Sector Perry Hill Casa 10-50 Colombia, San Andrés"
"MAURO PLACE";;;"Telefax: (57) (8) 5130376";"Sound Bay Colombia, San Andrés"
"APARTAMENTOS PARA TURISTAS MISS BRÚGIDA";;;"Telefax: (57) (8) 5122992";"Cl 4 16-47 Sarie Bay Colombia, San Andrés"
"HOSPEDAJE ALFEREZ DEL LLANO";;;"(57) (8) 6626287";"Cl 41 32-48 Centro Colombia, Villavicencio"
"HOTEL TICANCHAY";;;"(57) (1) 8679538";"Km 64 Via Girardot Colombia, Bogotá"
"CASA CAMPESTRE JUANITA";;;"(57) 3114459116";"Vía Caimo Km 4 Alcarraza Casa 1 Colombia, Armenia"
"BOGOTA DELUXE";;;"(57) (1) 6043293";"Bogotà Colombia, Bogotá"
"HOTEL ALFA";;;"(57) (2) 2122999";"Cl 10 4-71 Colombia, Cartago"
"HOTEL MAJESTIC LTDA.";;;"(57) (5) 3491010";"Cr53 54-41 Colombia, Barranquilla"
"HOSPEDAJE FAMILIAR LA FLORESTA";;;"(57) (1) 2266326";"Cr69 C 96-69 Colombia, Bogotá"
"HOSPEDAJE EL DORADO";;;"(57) (8) 8720963";"Cl 5 2 A-35 Colombia, Neiva"
"COMPLEJO HOTELERO LOS CORALES";;;"(57) (2) 7272779";"Playa El Morro Colombia, Tumaco"
"MOTEL AMAJARI";;;"(57) (4) 8870866";"Cr20 19-19 Colombia, Yarumal"
"HOTEL BALCONES DEL PARQUE";;;"(57) (4) 8456844";"Cl 9 2-75 Colombia, Jardín"
"HOSTAL RELAX 10";;;"(57) (4) 3120254";"Cl 10 37-39 Int 202 Colombia, Medellín"
"HOTEL DECAMERON MARAZUL SÚPER";;;"(57) (8) 5132338";"Carrt San Luis 30-45 Int 100 Colombia, San Andrés"
"HOSTAL GERÓNIMO PLAZA";;;"(57) (4) 8583712";"Cl 21 9-53 Colombia, San Jerónimo"
"First Name";"Email Address";Url;Telephone;Address
"HOTEL LOS ANGELES DE LA ESTACIÓN";;;"(57) (8) 2613253";"Cl 23 3-77 Colombia, Ibagué"
"HOSPEDAJE CAMPO AZUL";;;"(57) 3178190159";"Cartagena Colombia, Cartagena"
"HOSPEDAJE Y RESTAURANTE LA COLINA";;;"(57) 8410242";"Cl 50 70-49 P-2 Colombia, Ciudad Bolívar"
"HOTEL LUNA ROJA LTDA";;;"(57) (8) 6358160";"Cr22 8-19 Colombia, Yopal"
"HOEL PERLA DE MAR";;;"(57) (5) 4233130";"Cr1 C 24 103 Colombia, Santa Marta"
"HOTEL EL TURISTA";;;"(57) (7) 6222670";"Cr3 48-60 La Campana Colombia, Barrancabermeja"
"HOSPEDAJE VILLAS DEL POBLADO";;;"(57) (7) 6467639";"Cl 44 23-121 Poblado Colombia, Bucaramanga"
"HOTEL EL PARAÌSO";;;"(57) (8) 2564594";"Cl 5 11-78 Colombia, Líbano"
"HOTEL POSADA DE LOS ANGELES";;;"(57) (8) 7320562";"Cr10 13-94 Colombia, Villa de Leyva"
"POSADA LA VILLA DE ALCALÁ";;;"(57) (8) 7320671";"Cr9 N 5-104 La Palma Colombia, Villa de Leyva"
"HOSPEDAJE Y RESTAURANTE LA PALMA";;;"(57) (4) 4538091";"Barbosa Colombia, Medellín"
"HOTEL SAN VICENTE";;;"(57) (2) 6615324";"Cl 24 N 2 C N-16 Colombia, Cali"
"HOTEL HARBY";;;"(57) (4) 5124400";"Cl 54 50-48 Colombia, Medellín"
"POSADA MISS MATY BATISTA";;;"Telefax: (57) (8) 5130698";"San Luis Ground Road entrada al Coliseo Colombia, San Andrés"
"HOSPEDAJE CASA ESTADIO";;;"(57) (4) 2342867";"Cl 50 76 93 Colombia, Medellín"
"MOTEL SENSACIONES";;;"(57) (4) 4279078";"Cl 62 D 108 BB-11 Colombia, Medellín"
"LUXOR HOTELES";;;"(57) (6) 3258583";"Cl 24 8-35 Colombia, Pereira"
"HOSPEDAJES EXOTICOS Y CAMPING MONTEROCA";;;"(57) 3154136862";"Km 4 Vía Salento Boquía Colombia, Salento"
"HOSTAL MÉDICO HOM";;;"(57) (5) 6437966";"Cl 5 A 6-55 Av Piñango Colombia, Cartagena"
"HOTEL HOSTERIA LOS FRAYLES";;;"(57) (1) 2112748";"Cl 53 17-21 Colombia, Bogotá"
"HOSPEDAJE MONTREAL";;;"(57) (5) 6601795";"Cl 30 8 B-12 Calle Media Luna Colombia, Cartagena"
"HOTEL CABAÑAS AGUA DULCE";;;"(57) (8) 5148160";"Agua Dulce Colombia, Providencia"
"HOTEL LOPERENA PLAZA";;;"(57) (5) 5804652";"Cl 16 B 9-66 Centro Colombia, Valledupar"
"LA SELECTA ECOHOTEL";;;"(57) (6) 3357514";"Km 5 Vía San Joaquin Altagracia Colombia, Pereira"
"HOSPEDAJE BACARAT";;;"(57) (1) 3421686";"Cl 18 15-74 Colombia, Bogotá"
"HOTEL ARCO IRIS";;;"(57) (6) 3343306";"Cl 21 7-42 Colombia, Pereira"
"PAPAGAYOS BEACH HOTEL";;;"(57) (2) 5240898";"Cr61 1 D-114 Pampalinda Cali Colombia, Cali"
"HOTEL YELENA";;;"(57) (2) 2411775";"Cl 2 7 A-50 La Virgen Colombia, Buenaventura"
"HOSPEDAJE DON RAFA";;;"(57) (2) 6697731";"Cr16 B 14 E 08 Yumbo Colombia, Yumbo"
"POSADA CAMPESTRE";;;"(57) (7) 6396109";"Cl 153 22-31 Villa España I Colombia, Bucaramanga"
"HOSPEDAJE SANTA CLARA";;;"(57) 3104326343";"Cr12 8 N-54 Brr Santa Clara Colombia, Popayán"
"HOSPEDAJE OMARU";;;"(57) (1) 2462818";"Cr10 A 3-04 Colombia, Bogotá"
"HOTEL BE LA SIERRA";;;"(57) (5) 4227960";"Cr1 9-47 El Rodadero Colombia, Santa Marta"
"HOTEL SAN JOSÉ";;;"(57) (4) 5120066";"Cl 49 45-12 Colombia, Medellín"
"CENTRO TURISTICO EL CALLAO";;;"(57) (5) 6567081";"La Boquilla Cr9 #35-103 Colombia, Cartagena"
"HOSTAL FAMILIAR LA ALBORADA";;;"(57) (1) 5339101";"Cr68 D 95-81 Colombia, Bogotá"
"FINCA HOTEL SAN ANGELLO";;;"(57) 3122979814";"Vía Quimbaya Panaca Km 3 Colombia, Quimbaya"
"HOTEL LOS CRISTALES ANDES";;;"(57) (4) 8414236";"Cr51 49 A-28 Colombia, Andes"
"ECO HOTEL LA ROSITA";;;"(57) (8) 6621687";"Cr30 A 37-79 Of 304 Pasaje Bolívar Ed Los Esteros Colombia, Villavicencio"
"HOTEL DUGGER'S";;;"(57) (2) 5581070";"Cr27 Oe 3-45 Ap 101 Colombia, Cali"
"First Name";"Email Address";Url;Telephone;Address
"HOSPEDAJE ALFEREZ DEL LLANO";;;"(57) (8) 6626287";"Cl 41 32-48 Centro Colombia, Villavicencio"
"HOTEL PORTÓN DE LA 10";;;"(57) (4) 3603940";"Cl 10 # 52-181 Colombia, Medellín"
"HOTEL ATARDECER CAFETERO";;;"(57) (6) 7378787";"Cl 16 N 13-26 Colombia, Armenia"
"HOTEL HOSPEDERÍA SAN CARLOS";;;"(57) (1) 6334363";"Reservas en Bogotá Colombia, Bogotá"
"HOSPEDAJE LISBOA";;;"(57) (1) 3410421";"Cl 18 A 14-75 Colombia, Bogotá"
"HOTEL HOSTERIA LOS FRAYLES";;;"(57) (1) 2112748";"Cl 53 17-21 Colombia, Bogotá"
"CABAÑAS SANTA CATALINA";;;"(57) (8) 5148392";"Sta Catalina Colombia, Providencia"
"HOTEL LOS CARDONES";;;"(57) (5) 5743023";"Cl17 9-74 Colombia, Valledupar"
"HOTEL MOVICH CARTAGENA DE INDIAS SMALL LUXURY";;;"(57) (5) 6600133";"Centro Cl 33 4-39 Calle Vélez Daníes Colombia, Cartagena"
"HOSPEDAJE LOS GERANIOS";;;"(57) 3116490823";"Cr4 6-39 Colombia, Salento"
"HOSTAL RELAX 10";;;"(57) (4) 3120254";"Cl 10 37-39 Int 202 Colombia, Medellín"
"CASA COLONIAL INN";;;"(57) (1) 2490575";"Cl 57 18-26 Colombia, Bogotá"
"RESIDENCIAS SUYA";;;"(57) (4) 8675651";"Plaza Principal de Yali 19-41 Colombia, Yalí"
"HOSTERÍA MIS ANCESTROS";;;"(57) (4) 8531657";"Cl 9 1-192 Colombia, Santa Fe de Antioquia"
"SUITES GALERÍAS INN";;;"(57) (1) 2171327";"Cr23 53 A-43 Colombia, Bogotá"
"HOTEL CESAR";;;"(57) (5) 5807350";"Cl 18 9-39 Colombia, Valledupar"
"HOTEL CARIBE CONTINENTAL";;;"(57) (5) 4305627";"Manz G Casa 16 Concepción V Colombia, Santa Marta"
"HOSPEDAJE PALOMAR DE SUEÑOS";;;"(57) (6) 7593610";"Cr4 1-16 Colombia, Salento"
"HOTEL RESTAURANTE NACIONAL";;;"(57) (5) 6743961";"Cl 33 27-114 Colombia, Cartagena"
"HOTEL BENIDORM";;;"(57) (6) 8905040";"Cl 44 20-20 Colombia, Manizales"
"HOTEL LA POSADA";;;"(57) (2) 2295803";"Cl 8 8-60 Frente al Museo Rayo Colombia, Roldanillo"
"HOTEL NAIROBI";;;"(57) (8) 5123300";"Cr7 B 4-44 Sector Cinco Esquinas Colombia, San Andrés"
"RESIDENCIAS EL REPOSO";;;"(57) (7) 6304362";"Cl 28 # 17 A-16 Colombia, Bucaramanga"
"HOTEL VILLA PARAISO";;;"(57) (8) 8797727";"Cl 4 7-69 Colombia, Villavieja"
"RESIDENCIAS BUENOS AIRES";;;"(57) (7) 6714572";"Cr22 10-45 Colombia, Bucaramanga"
"CASA MATEO HOSTERIA RESTAURANTE";;;"(57) (8) 8387452";"Cl 4 18-31 (Rivera) Colombia, Neiva"
"HOSPEDAJE EL EDÉN DE CAROLINA";;;"(57) (7) 5731305";"Cl 2 7-31 Colombia, Cúcuta"
"HOTEL A.B.C 7 AVENIDA";;;"(57) (1) 2856329";"Cr7 47-63 Colombia, Bogotá"
"HOTEL CAICEDONIA PLAZA";;;"(57) (2) 2160763";"Cr16 7-21 Colombia, Caicedonia"
"HOSPEDAJE VILLAS DEL POBLADO";;;"(57) (7) 6467639";"Cl 44 23-121 Poblado Colombia, Bucaramanga"
"HOTEL HOUSTON";;;"(57) (7) 6343977";"Cl 33 30-44 Colombia, Bucaramanga"
"HOTEL AMBEIMA LTDA.";;;"(57) (8) 2634300";"Cr3 13-32 Colombia, Ibagué"
"HOTEL LA GRAN POSADA";;;"(57) (2) 4453858";"Cr5 43-01 Colombia, Cali"
"POSADA CAMPESTRE";;;"(57) (7) 6396109";"Cl 153 22-31 Villa España I Colombia, Bucaramanga"
"HOSPEDAJE LA PRIMEVERA ORIENTAL";;;"(57) (1) 2356067";"Av (Cr) 24 68-48 Int 3 Colombia, Bogotá"
"HOTEL PALMERAS";;;"(57) (5) 4222505";"Cl 17 Cr5 El Rodadero Colombia, Santa Marta"
"HOTEL DIX";;;"(57) (4) 4480341";"Cl 10 41-21 Colombia, Medellín"
"LA PALMA";;;"(57) (1) 2493834";"Av. Caracas N 52-59 Colombia, Bogotá"
"HOSPEDAJE MARITZA";;;"(57) (5) 6907385";"Los Corales Manz A Casa 12 P-1 Colombia, Cartagena"
"HOSTAL LAS PALMAS";;;"(57) (1) 2493834";"Av Caracas 52-59 Colombia, Bogotá"
"First Name";"Email Address";Url;Telephone;Address
"HOTEL RESTAURANTE BAR PISCIS";;;"(57) 3164419584";"Cr2 12-56 L-108 A Colombia, Santa Marta"
"CASA REAL BED & BREAKFAST";;;"(57) (1) 2565738";"Cll 97A No 60D 56 Colombia, Bogotá"
"RESIDENCIAS OTOÑAL";;;"(57) (1) 2439909";"Cl 24 A 13 A-81 Colombia, Bogotá"
"FINCA LA GRANJA";;;"(57) 3106203704";"Vía A Sta Verónica Juan de Acosta Colombia, Barranquilla"
"HOTEL LOS HELECHOS ANAPOIMA";;;"(57) (1) 8993433";"Cr2 6-66 Anapoima Colombia, Anapoima"
"HOSPEDAJE FAMILIAR LA FLORESTA";;;"(57) (1) 2266326";"Cr69 C 96-69 Colombia, Bogotá"
"HOTEL CASA DEL MARQUÉS BAHIACHALA";;;"(57) (7) 7267036";"Cl 7 7-51 Colombia, Barichara"
"HOSPEDAJE LA FONTANA";;;"(57) (8) 8713737";"Cr2 5-33 Colombia, Neiva"
COCONITO;;;"(57) (1) 4139881";"Tr93 51-53 Colombia, Bogotá"
"HOTEL SOL DEL NORTE";;;"(57) (4) 8537542";"Cr20 20-65 Colombia, Yarumal"
"HOTEL MOVICH CARTAGENA DE INDIAS SMALL LUXURY";;;"(57) (5) 6600133";"Centro Cl 33 4-39 Calle Vélez Daníes Colombia, Cartagena"
"HOTEL SAN ANDRES DE TUMACO";;;"(57) (2) 7272980";"Av Los Estudiantes 1 B-43 P-3 Colombia, Tumaco"
"KAYROS VIVIENDA TURISTICA";;;"(57) (5) 4314406";"Cl 17 9-44 Colombia, Santa Marta"
"CASA COLONIAL INN";;;"(57) (1) 2490575";"Cl 57 18-26 Colombia, Bogotá"
"HOTEL CASTILLA DE ORO";;;"(57) (4) 8272185";"Cl 100 14-07 Colombia, Turbo"
"HOSTAL GERÓNIMO PLAZA";;;"(57) (4) 8583712";"Cl 21 9-53 Colombia, San Jerónimo"
"LA POSADA DEL PALMAR";;;"(57) (4) 8493791";"Cl 10 10-53 Colombia, Valparaíso"
"SUITES INN EJECUTIVAS";;;"(57) (1) 3458099";"Cl 57 18-25 Colombia, Bogotá"
"HOTEL HOSPEDAJE VILLA MARÍA";;;"(57) (8) 8601875";"Cr16 12-28 Colombia, Neiva"
"GRANJA DESCANSO Y DIVERSIÓN";;;"(57) (8) 6678364";"Km 2 Vía Puerto López Colombia, Villavicencio"
"HOSTERÍA LA POSADA DE VERANO";;;"(57) (4) 8535598";"El Paso 700 Metros Después Pte. Amarillo Colombia, Santa Fe de Antioquia"
"HOSPEDAJE LA CASA";;;"(57) (5) 4212483";"Cl 18 3-52 Colombia, Santa Marta"
"HOTEL LA CORDILLERA";;;"(57) (8) 6580423";"Cr15 13-96 Dg A La Flota Macarena y Expreso Bolivariano Colombia, Granada"
"HOSPEDAJE LAFAYETTE";;;"(57) (4) 5121200";"Cr50 # 56-37 Colombia, Medellín"
"POSADA TORREON";;;"(57) (4) 5984403";"..... Colombia, Medellín"
"HOTEL RESTAURANTE NACIONAL";;;"(57) (5) 6743961";"Cl 33 27-114 Colombia, Cartagena"
"FINCA HOTEL CAMPESINA LA BOHEMIA";;;"(57) (2) 3264479";"Cr50 14-37 Of 201 Colombia, Cali"
"HOTEL LATINO MEDELLÍN";;;"(57) (4) 5116188";"Cr47 53-29 Colombia, Medellín"
"HOTEL INTER";;;"(57) (1) 3346712";"Cr3 20-17 Colombia, Bogotá"
"HOTEL IMPERIO LA 16";;;"(57) (6) 3255371";"Cl 16 5-75 Colombia, Pereira"
"RESIDENCIA LETICIA";;;"(57) (6) 3332958";"Cr8 14-58 Colombia, Pereira"
"LA ROCA - PLAZA PRINCIPAL";;;"(57) (1) 7320331";"Cl 13 9-54 Colombia, Bogotá"
"CASONA DEL PATIO";;;"(57) (1) 2128805";"8 No 69 24 Colombia, Bogotá"
"HOTEL MAR DOLL";;;"(57) (2) 7323848";"Cl 18 6 A-11 Venecia Colombia, Pasto"
"HOSPEDAJE EL EDÉN DE CAROLINA";;;"(57) (7) 5731305";"Cl 2 7-31 Colombia, Cúcuta"
"PAPAGAYOS BEACH HOTEL";;;"(57) (2) 5240898";"Cr61 1 D-114 Pampalinda Cali Colombia, Cali"
"HOSPEDAJE MAR ADENTRO";;;"(57) (2) 2434729";"Cl 6 5 A-86 Sector F-8 Colombia, Buenaventura"
"HOTEL CAPRI REAL";;;"(57) (8) 6625233";"Cl 36 24 A-24 San Isidro Colombia, Villavicencio"
"HOSPEDAJE SAN DIEGO";;;"(57) (7) 6434273";"Cr18 54-71 Colombia, Bucaramanga"
"HOSTAL KASA GUANE";;;"(57) (7) 6576960";"Cl 49 28-21 Colombia, Bucaramanga"
"First Name";"Email Address";Url;Telephone;Address
"HOTEL VILLA KAREN";;;"(57) 3114522760";"Alto Neblinas Colombia, Puerto Gaitán"
"HOSPEDAJE LA CASA";;;"(57) (5) 4212483";"Cl 18 3-52 Colombia, Santa Marta"
"APARTASTUDIOS SUN RIVER";;;"(57) (2) 6535710";"Av9 A 13 N-58 Colombia, Cali"
"HOTEL LOS ANGELES DEL CENTRO LTDA.";;;"(57) (2) 8898087";"Cr6 13-113 Colombia, Cali"
"HOTEL IMPERIO LA 16";;;"(57) (6) 3255371";"Cl 16 5-75 Colombia, Pereira"
"HOTEL EMPREARIAL";;;"(57) (6) 3242677";"Cl 17 4-73 Colombia, Pereira"
"HOTEL VILLA PARAISO";;;"(57) (8) 8797727";"Cl 4 7-69 Colombia, Villavieja"
"POSADA NUEVO CHALET";;;"(57) (2) 6610029";"Av4 N 15 N-43 Colombia, Cali"
"HOTEL XIN LIANG";;;"(57) (2) 7256491";"Cr1 12-185 Av Panamericana Colombia, Ipiales"
"HOTEL NUBES VERDES";;;"(57) (2) 7730439";"Cr6 9-26 Colombia, Ipiales"
"HOTEL RESIDENCIAL GIRASOL";;;"(57) (2) 4466791";"Cr1 46 C-31 Colombia, Cali"
"HOTEL LA SOLEDAD INN";;;"(57) (1) 2883961";"Cr20 40-64 Colombia, Bogotá"
"RESIDENCIAS LOS CRISTALES";;;"(57) (2) 8841172";"Cr15 17-54 Colombia, Cali"
"HOSPEDAJE J.E. & YOLIMA";;;"(57) (5) 6695208";"Dg21 B 51-46 Colombia, Cartagena"
"MIS BOHIOS HOTEL CAMPESTRE";;;"(57) (6) 7593010";"Salento - Quindio Km2.5 Via Cocora Colombia, Salento"
"RESIDENCIAS VENEZUELA";;;"(57) (8) 6646094";"Tr29 40-67 El Emporio Colombia, Villavicencio"
"HOTEL PORTÓN DE LA 10";;;"(57) (4) 3603940";"Cl 10 # 52-181 Colombia, Medellín"
"HOTEL LOS MOLINOS";;;"(57) (4) 4130347";"Cr70 A N 45 E-132 Colombia, Medellín"
"HOTEL EL JAZMÍN CUYABRO";;;"(57) (6) 7470309";"Cl 35 21-21 Diagonal al Terminal de Transporte Colombia, Armenia"
"HOSPEDAJE LA MANSIÓN";;;"(57) (5) 3795116";"Cl 59 45-39 Colombia, Barranquilla"
"HOTEL CASA DEL MARQUÉS BAHIACHALA";;;"(57) (7) 7267036";"Cl 7 7-51 Colombia, Barichara"
"APARTAMENTOS OLGALU";;;"(57) 3212429328";"Edif Hansa Reef Club Colombia, San Andrés"
"HOTEL DECAMERON MARAZUL SÚPER";;;"(57) (8) 5132338";"Carrt San Luis 30-45 Int 100 Colombia, San Andrés"
"APARTAMENTOS AMOBLADOS VONBLON";;;"(57) (8) 5122426";"Av 20 de Julio 4-32 Colombia, San Andrés"
"HOTEL GUATATUR E.U.";;;"(57) (4) 8611212";"Cl 31 31-04 Colombia, Guatapé"
"HOSTERÍA LOS CEDROS";;;"(57) (4) 2601026";"Cl 51 73-134 Colombia, Medellín"
"CELEBRITIE`S SUITES";;;"(57) (1) 6011414";"Cl 74 10-33 Colombia, Bogotá"
"REPOSO EL MOTORISTA";;;"(57) (2) 4463555";"Cl 50 1 N-20 Colombia, Cali"
"HOTEL OASIS CUBA";;;"(57) (6) 3371739";"Cl 69 25-46 P-2 Colombia, Pereira"
"HOTEL ANDINO";;;"(57) (8) 8710184";"Cl 9 5-82 Colombia, Neiva"
"FINCA KAIDALY";;;"(57) (8) 6648484";"Km 2.5 Vía La Azotea Colombia, Villavicencio"
"HOTEL EUROPA BOUTIQUE";;;"(57) (6) 8802016";"Cl 10 24-79 Colombia, Manizales"
"1212 HOSTELS";;;"(57) (1) 4672656";"Cl 67 4-16 Colombia, Bogotá"
"HOSPEDAJE LA PRIMEVERA ORIENTAL";;;"(57) (1) 2356067";"Av (Cr) 24 68-48 Int 3 Colombia, Bogotá"
"HOTEL MEDELLÍN S.A.";;;"(57) (5) 5744441";"Cr9 18-76 Centro Colombia, Valledupar"
"HOTEL ACAPULCO";;;"(57) (8) 5841924";"Cl 8 20-75 Colombia, San José del Guaviare"
"HOTEL SAN ANDRES DE TUMACO";;;"(57) (2) 7272980";"Av Los Estudiantes 1 B-43 P-3 Colombia, Tumaco"
"HOTEL MAGEBA";;;"(57) (4) 5131149";"Cl 52 53-88 Colombia, Medellín"
"HOTEL ZALMEDINA";;;"(57) (5) 6551939";"Bgde Cr2 5-52 Av San Martín Colombia, Cartagena"
"HOTEL BOUTIQUE CASA ROSALÍA";;;"(57) (5) 5744129";"Cl 16 10-10 Colombia, Valledupar"
"First Name";"Email Address";Url;Telephone;Address
"NORDESTE HOSTAL Y EVENTOS";;;"(57) (5) 7287418";"Cl 9 7-35 Colombia, Riohacha"
"HOSPEDAJE DIANA";;;"(57) (1) 2848242";"Cr15 18-21 Colombia, Bogotá"
"HOSPEDAJE ZAPATOCA";;;"(57) (5) 4317871";"Cl 10 5-12 P-2 Colombia, Santa Marta"
"HOTEL MEDELLIN RODADERO";;;"(57) (5) 4220202";"Cl 12 2-58 El Rodadero Colombia, Santa Marta"
"HOSPEDAJE LAFAYETTE";;;"(57) (4) 5121200";"Cr50 # 56-37 Colombia, Medellín"
"HOTEL TRAVEL EMPRESARIAL";;;"(57) (1) 4825377";"Cl 18 96 H-35 Colombia, Bogotá"
"HOTEL BAHÍA DEL SOL";;;"(57) (2) 2460163";"Cl Bonita-Ladrilleros Colombia, Ladrilleros"
"CASA PRADO";;;"(57) (2) 6680223";"Cl 35 A N 2 B N-220 Colombia, Cali"
"HOTEL Y HOSPEDAJE LA MOLIENDA";;;"(57) (7) 6550380";"Cl 9 5-31 Colombia, Bucaramanga"
"RESIDENCIAS BUENOS AIRES";;;"(57) (7) 6714572";"Cr22 10-45 Colombia, Bucaramanga"
"HOSTAL TUKAMA";;;"(57) (6) 8873048";"Cr23 B 70-70 Colombia, Manizales"
"GRAN HOTEL ROLDANILLO";;;"(57) (2) 2297028";"Cr1N 15-56 Colombia, Roldanillo"
"HOTEL IPIALES";;;"(57) (2) 7736447";"Cr5 12-124 Colombia, Ipiales"
"HOSTEL GREEN LAKE";;;"(57) (6) 8916712";"Cl 63 22-22 La Rambla Colombia, Manizales"
"HOTEL STEVEN";;;"(57) (2) 2413804";"Cr4 4-42 Colombia, Buenaventura"
"ATV RENTALS VAN DEN ENDEN";;;"(57) 3174366930";"Vía Salento Vda Boquia Colombia, Salento"
"HOSPEDAJE ORIENTE";;;"(57) (1) 3365958";"Cr13 A 18-05 Ap 302 Colombia, Bogotá"
"HOTEL BE LA SIERRA";;;"(57) (5) 4227960";"Cr1 9-47 El Rodadero Colombia, Santa Marta"
"AMANWANA ECOFINCA";;;"(57) (1) 3365366";"Cl 19 5-25 Of 703 Colombia, Bogotá"
"HOTEL NUBES VERDES";;;"(57) (2) 7730439";"Cr6 9-26 Colombia, Ipiales"
"APARTURISMO RODADERO Y OTROS";;;"(57) (1) 6148995";"Av(cl)127#1454apt202 Colombia, Bogotá"
"HOTEL BOUTIQUE CITY CENTER";;;"(57) (1) 5720000";"Cr43 B 24 A-10 Colombia, Bogotá"
"HOTEL D'VINCI";;;"(57) (4) 5318410";"Cr52 # 49 A-00 Colombia, Medellín"
"HOSPEDAJE MI CASA";;;"(57) (2) 6812633";"Cl 24 # 1 N-32 Colombia, Cali"
"HOTEL BELLO PLAZA";;;"(57) (4) 2721195";"Cr49 52-16 Bello Colombia, Medellín"
bia, Tumaco"
"HOTEL CASA MAYOR";;;"(57) (4) 2345537";"Cr77 C# 48-91 Colombia, Medellín"
"HOTEL CASA CRISTIANA";;;"(57) (4) 2921594";"Cl 62 49-16 Colombia, Medellín"
"HOTEL RESIDENCIAL GIRASOL";;;"(57) (2) 4466791";"Cr1 46 C-31 Colombia, Cali"
"FUNDACIÓN HOSPEDAJE CANEY";;;"(57) (2) 3953578";"Cl 47 85 B-36 Colombia, Cali"
"BOGOTA DELUXE";;;"(57) (1) 6043293";"Bogotà Colombia, Bogotá"
"CASA MARÍA CARTAGENA";;;"(57) (5) 6649880";"San Diego Cr9 38-94 Calle Tumbamuerto Colombia, Cartagena"
