"First Name";"Email Address";Url;Telephone;Address
"L. A. TEJADA S.A.S.";latejada@latejada.com;www.latejada.com;"(57) (1) 6148103";"Cr54 127 D-26 Colombia, Bogotá"
QUIMICOPLÁSTICOS;comunicaciones@quimicoplastic;www.quimicoplasticos.com;"(57) (4) 4443560";"Cl 48 C Sur 43 A-291 Envigado Colombia, Medellín"
"GRICOAT DE COLOMBIA";beatrizgomez@gricoat.com.co;www.gricoat.com.co;"(57) (4) 6046129";"Cl 77 A 45 A-102 Itagüí Colombia, Medellín"
"QUISOL LTDA.";quisol@etb.net.co;www.quisol.com;"(57) (1) 4162136";"Cl 25 C 85 C-65 Colombia, Bogotá"
"UNICOR S.A";jisaza@unicorsa.com;www.unicorsa.com;"(57) (4) 3779966";"Cr42 53-26 Itagüí Colombia, Medellín"
OXIDER;oxider@une.net.co;www.oxidersa.com;"(57) (4) 4449785";"Cr42 24-32 Itagüí Colombia, Medellín"
"C.H.T. COLOMBIANA LTDA.";info@cht.com.co;www.cht.com.co;"(57) (4) 4444838";"Cl 84   S 37-10 Sabaneta Colombia, Medellín"
"RUPERT COCINAS & BAÑOS LTDA.";rupert_ltda@hotmail.com;www.rupertcocinas.com;"(57) (1) 4180838";"Cl 23 HBis 103 B-47 Colombia, Bogotá"
"DEQUIMICOS LTDA";dequimicosltda@yahoo.com;www.dequimicosltda.com;"(57) (2) 8892220";"Cr5 # 15-53 Colombia, Cali"
DIVERQUÍMICOS;ventas@diverquimicos.com;www.diverquimicos.com;"(57) (1) 5421000";"Cr70 Av Rojas-68 -24 Colombia, Bogotá"
"PREFLEX S.A.";info@preflex.com.co;www.preflex.com.co;"(57) (1) 7799222";"Tr5 12-75 Cazucá Soacha Entrada 2 Colombia, Bogotá"
"SUPROQUIN LTDA.";suministrosquimicos@une.net.co;www.suproquin.co;"(57) (4) 4447980";"Cr43 A 61   S-152 Bdg 133 Sabaneta Colombia, Medellín"
"MEXICHEM RESINAS COLOMBIA S.A.S";servicioalcliente@mexichem.com;www.mexichem.com.co;"(57) (1) 6231899";"Autop Sur No. 71-75 Colombia, Bogotá"
"AMTEX S.A.";alexis.bonnett@amtex-corp.com;www.amtex.com.co;"(57) (4) 4449991";"Cr51 13-66 Colombia, Medellín"
"AGENCIA FABRICA PLASTICOS SALFER";plasalfer@etb.net.co;www.salfer.co;"(57) (1) 2680982";"Cl 22 22 A-10 Colombia, Bogotá"
"EDGAR GUIZA C - SMILES CENTER";smilescenterbogota@hotmail.com;www.edgarguiza.com;"(57) (1) 6910783";"Cr. 13 N 94 A 25 Consult 314 Colombia, Bogotá"
"DOTACIONES QUÍMICAS E.M. LTDA.";dotacionesquimicas@yahoo.com;www.dotacionesquimicas.com;"(57) (2) 8844325";"Cl 15 14-21 Colombia, Cali"
"G & M QUÍMICA LTDA.";contacto@gmquimica.com;www.gmquimica.com;"(57) (2) 3372783";"Cr36 A 10-193 Colombia, Cali"
"ABC RESTAURACIONES EN GENERAL";aicodeart.ltda@hotmail.com;;"(57) (1) 4715854";"Tr24 53 C-08 Esq Colombia, Bogotá"
"COLORQUÍMICA S.A.";colorquimica@colorquimica.com.co;www.colorquimica.com.co;"(57) (4) 3021717";"Cl 77   S 53-51 La Estrella Colombia, Medellín"
"ENKA DE COLOMBIA S.A.";planta@enka.com.co;www.enka.com.co;"(57) (4) 3195106";"Cr37 A 8-43 Of 901 Colombia, Medellín"
"DRAS ANAMARÍA JARAMILLO - LZ ADRIANA BOLAÑOS";ajaramillo@clinicalasvegas.com;;"(57) (4) 2668654";"Cl 2   S 46-55 Consult 229 Fase I Colombia, Medellín"
"ALFAQUÍMICOS S.A.S.";alfaquimicos@une.net.co;www.alfaquimicos.com;"(57) (4) 4440511";"Cr50 14-265 Colombia, Medellín"
"PREMON S.A.S.";premonltda@gmail.com;www.premon.co;"(57) (5) 3402379";"Cl 41 35-65 Colombia, Barranquilla"
"DENTAL LA 75 DOR";dental_la75@hotmail.com;www.dentalla75dor.com;"(57) (1) 2555129";"Cr24 75-12 Colombia, Bogotá"
"AGROQUÍMICOS DEL VALLE S.A.S.";aquivallesas@hotmail.com;www.agroquimicosdelvalle.com;"(57) (2) 3738150";"Cl 33 AT 30-01 Colombia, Cali"
INGEQUIMICA;ingequimica_01@yahoo.com;www.ingequimica.com;"(57) (7) 6710168";"Cl 16 15-56 Colombia, Bucaramanga"
"DRAS CRISTINA Y MARTHA SANTA";crisantag25@hotmail.com;;"(57) (6) 3330628";"Cr5 18-33 Consult 701 Centro de Especialistas de Risaralda Colombia, Pereira"
"CHEMICAL LABORATORIO S.A.S.";ivan.pazos@chemicallaboratorio.com;chemicallaboratorio.com;"(57) (2) 3164925462";"Cl 7 24 A-74 Colombia, Cali"
"LABORATORIO DE PRÓTESIS DENTAL WILSON MEJÍA";dental_wm@hotmail.com;;"(57) (1) 4797152";"Cr19 A 76-72 Of. 402 Colombia, Bogotá"
"RESICOLORS S.A.S.";administracion@resicolors.com;www.resicolors.com;"(57) (4) 4616741";"Cl 22 D 43 C-55 Bello Colombia, Medellín"
"SINTEPOX LTDA.";fpareja@sintepox.biz;;"(57) (1) 6794759";"Cr163 A 18 A-08 Colombia, Bogotá"
"ORBE COLOMBIA S.A.S.";gerencia@quimicosorbe.com;www.quimicosorbe.com;"(57) (1) 7450599";"Cl 8 N 26-80 Colombia, Bogotá"
QUIMDESA;quimdesaltda@hotmail.com;;"(57) (4) 5971846";"Cl 74 A 48-69 Itagüí Colombia, Medellín"
"QUIMIRESINAS DE COLOMBIA S.A.S.";"ventasmedellin@quimiresinas.com.co      juancrestrepo@quimiresinas.com";www.quimiresinas.com;"(57) (4) 2552424";"Cr52 3   S-71 Colombia, Medellín"
"QUIMIRESINAS DE COLOMBIA S.A.S";"ventasmedellin@quimiresinas.com.co      juancrestrepo@quimiresinas.com";www.quimiresinas.com;"(57) (1) 4867475";"Cl 20 C 96 C-61 Colombia, Bogotá"
"LA CASA DEL FIBRERO";lacasadelfibrero.p@gmail.com;;"(57) (6) 3345304";"Cl 13 4-48 Colombia, Pereira"
"DERPOLIESTER S.A.S";gerencia@derpoliester.com;www.derpoliester.com;"(57) (1) 2477511";"Cl 12 27 42/50 Colombia, Bogotá"
OXIQUIMICA;ventas@oxiquimicacolombia.com;www.oxiquimicacolombia.com;"(57) (4) 4487535";"Cr65 75-35 Colombia, Medellín"
"ALMACÉN FIBRARESINAS";fibraresinas@une.net.co;;"(57) (2) 8880601";"Cr5 20 A-19 Colombia, Cali"
"First Name";"Email Address";Url;Telephone;Address
"LA CASA DEL FIBRERO";lacasadelfibrero.p@gmail.com;;"(57) (6) 3345304";"Cl 13 4-48 Colombia, Pereira"
POLIFIBRAS;;;"(57) (2) 2426812";"Cl 1 7A-90 pueblo Nuevo Colombia, Buenaventura"
"RECINAS Y FIBRAS DEL PACÍFICO S.A.S.";;;"Nal: (57) (4) 3904922";"Cr32 C S 2-95 Int 2006 Colombia, Medellín"
"NITROACRYL DE COLOMBIA LTDA.";;;"(57) (7) 6395611";"Vía Anillo Vial Vía Floridablanca-Girón 1500 Mts Colombia, Bucaramanga"
"SUMIGLAS S.A.";;;"(57) (4) 4489922";"Cl 12 S 51 B-21 Colombia, Medellín"
"ASG APLICACIONES INDUSTRIALES";;;"(57) (4) 3721196";"Cl 76 47-09 Itagüí Colombia, Itagüí"
"SOLO EMPAQUES FIBRAS Y RESINAS";;;"(57) (2) 2401456";"Cl 2 S 7 B-06 L-4 Pueblo Nuevo Colombia, Buenaventura"
"BAHAMÓN VALDERRAMA & CÍA.";;;"(57) (1) 4935691";"Cl 24 19-45 Colombia, Bogotá"
"NOVASUIN S.A.S.";;;"(57) (5) 6437926";"Dg21 48-98 Colombia, Cartagena"
"SUIN S.A.";;;"(57) (4) 4441190";"Cl 32 41-28 Colombia, Itagüí"
"DUPONT DE COLOMBIA S.A.";;;"(57) (1) 6292202";"Cl 113 7-21 Torre A Piso-14 Colombia, Bogotá"
"ARTE LEÓN";;;"(57) (1) 2558069";"Cl 58 16-66 Colombia, Bogotá"
"INDURESINAS S.A.S";;;"(57) (4) 6041055";"Calle 79B Sur 50-150 Colombia, Medellín"
POLISUIN;;;"(57) (1) 8415312";"Terminal Terrestre de Carga Via Siberia Colombia, Bogotá"
"SOLOQUÍMICOS E.U";;;"(57) (2) 4445660";"Cr12 32 A-25 Colombia, Cali"
"ARTE Y MANUALIDADES";;;"(57) (1) 3127276";"Cl 53 16-58 L-2 Colombia, Bogotá"
"AKZO NOBEL";;;"Conm.: (57) (4) 3618888";"Cl 10 S 50 FF-28 Of 402 Colombia, Medellín"
"DISTRUMÉDICA S.A.";;;"(57) (1) 3261770";"Cr13 73-34 Of 501 Colombia, Bogotá"
"CABOT COLOMBIANA S.A.";;;"(57) (5) 6688511";"Mamonal Km 12 Colombia, Cartagena"
"ALTOBRILLO - GEMELA AMERICANA";;;"(57) (7) 6346655";"Cl 37 26-15 Of 302 B Colombia, Bucaramanga"
"PROCESOS Y SERVICIOS S.A";;;"(57) (4) 3385900";"Cr59 36-91 Itagüí Colombia, Itagüí"
"QUÍMICOS JOSÉ DEL NORTE";;;"(57) (1) 6092788";"Cl 163 A 19 A-31 Colombia, Bogotá"
"RESINAS Y MODELOS S.A.S.";;;"(57) (1) 2742458";"Km 3 Vía Chía-Cota Colombia, Bogotá"
"DISMATEC E.U.";;;"(57) (1) 7244549";"Cr72 J 42 C-13 S Colombia, Bogotá"
RESIFIBRAS;;;"(57) (2) 7204081";"Cr9 13-57 Las Lunas I Colombia, Pasto"
"QUÍMICAS Y MUCHO MÁS";;;"(57) (2) 4458504";"Cr15 43 A-06 Colombia, Cali"
"ARTES CKS";;;"(57) (1) 4545697";"Cl 42G Sur 78C-42 Colombia, Bogotá"
"RESIQUIM CALI";;;"(57) (2) 8881641";"Cl 22 5-60 Colombia, Cali"
"ARTE Y MOLDES MAGENTART.COM";;;"(57) (4) 4129100";"Cl 43 70 A-34 Colombia, Medellín"
"FIBRAS RESINAS Y PINTURAS";;;"(57) (5) 6625820";"Prado Dg22 33 A-41 Av Crisanto Luque Colombia, Cartagena"
"INDUSTRIAS PRODICOL LTDA.";;;"(57) (6) 3300335";"C.C. Metropolitano Bdg C-202 Dosq Colombia, Dosquebradas"
"RESINAS AVANTI";;;"(57) (1) 2016680";"Cl 17 21-55 Colombia, Bogotá"
"RES Y LAC";;;"(57) (4) 3817829";"Cr53 35-84 Colombia, Medellín"
"INVESA S.A.";;;"(57) (7) 6714135";"Cr17 15-35 Colombia, Bucaramanga"
"MULTIACABADOS S.A.S.";;;"(57) (5) 3691394";"Cl 76 73-20 L-1 Colombia, Barranquilla"
"RICOL LTDA.";;;"Conm.: (57) (4) 3745444";"Av 37 B 42-240 Itagui Colombia, Itagüí"
"GLASSFORT LTDA.";;;"(57) (4) 2811111";"Cl 32 51 A-68 Itagüí Colombia, Itagüí"
"VINMAR INTERNATIONAL SUCURSAL COLOMBIA";;;"(57) (4) 2665565";"Cl 5 A 43 B-25 Int 310 Colombia, Medellín"
REFIQUIM;;;"(57) (4) 2772717";"Cr50 46 A-08 Itagüí Colombia, Itagüí"
SAPOLIN;;;"Nal: (57) (1) 4040411";"Cl 17 99-27 Colombia, Bogotá"
"First Name";"Email Address";Url;Telephone;Address
"PINTURAS NOVA";;;"(57) (5) 4214420";"Cl 11 12-45 L-1 Miraflores Colombia, Santa Marta"
"ARTE Y MANUALIDADES";;;"(57) (1) 3127276";"Cl 53 16-58 L-2 Colombia, Bogotá"
"DISTRUMÉDICA S.A.";;;"(57) (1) 3261770";"Cr13 73-34 Of 501 Colombia, Bogotá"
"ASG APLICACIONES INDUSTRIALES";;;"(57) (4) 3721196";"Cl 76 47-09 Itagüí Colombia, Itagüí"
"ALTOBRILLO - GEMELA AMERICANA";;;"(57) (7) 6346655";"Cl 37 26-15 Of 302 B Colombia, Bucaramanga"
"INDUSTRIAS PRODICOL LTDA.";;;"(57) (6) 3300335";"C.C. Metropolitano Bdg C-202 Dosq Colombia, Dosquebradas"
"RECINAS Y FIBRAS DEL PACÍFICO S.A.S.";;;"Nal: (57) (4) 3904922";"Cr32 C S 2-95 Int 2006 Colombia, Medellín"
"VINMAR INTERNATIONAL SUCURSAL COLOMBIA";;;"(57) (4) 2665565";"Cl 5 A 43 B-25 Int 310 Colombia, Medellín"
"NOVASUIN S.A.S.";;;"(57) (5) 6437926";"Dg21 48-98 Colombia, Cartagena"
"DISTRIERA LTDA.";;;"(57) (1) 6198002";"Autop Norte 120-19 Colombia, Bogotá"
"MULTIACABADOS S.A.S.";;;"(57) (5) 3691394";"Cl 76 73-20 L-1 Colombia, Barranquilla"
"CHEMAR DECOR LTDA.";;;"(57) (1) 2517760";"Dg85 76-63 Colombia, Bogotá"
"INVESA S.A.";;;"(57) (7) 6714135";"Cr17 15-35 Colombia, Bucaramanga"
"DABRICO Y CIA LTDA";;;"(57) (1) 7803299";"Cl 8 6-11 E-3 Cazuca Soacha Colombia, Soacha"
"RESINAS AVANTI";;;"(57) (1) 2016680";"Cl 17 21-55 Colombia, Bogotá"
REFIQUIM;;;"(57) (4) 2772717";"Cr50 46 A-08 Itagüí Colombia, Itagüí"
