"First Name";"Email Address";Url;Telephone;Address
"First Name";"Email Address";Url;Telephone;Address
"21 GRADOS INGENIERIA";mantenimiento@21gradosingenieria.com;www.21gradosingenieria.com;"(57) (5) 6622376";"Bosque Dg21 A 53-94 Bdg 1 Colombia, Cartagena"
"21 GRADOS INGENIERÍA S.A.S.";mantenimiento@21gradosingenieria.com;www.21gradosingenieria.com;"(57) (5) 6622376";"Bosque Dg21 A 53-94 Bdg 1 Colombia, Cartagena"
"KADELL DE COLOMBIA S.A.S.";kadell@kadell.com;www.kadell.com;"(57) (4) 2628911";"Oficinas en Bogotá ( 57 )( 1 ) 2628911 Colombia, Medellín"
"ACE AIRE";aceairecia@etb.net.co;www.aceaire.com;"(57) (1) 6306223";"Cr69 Q 75-55 Colombia, Bogotá"
"CONSTRUCOL MG E.U.";construcolmg.eu@hotmail.com;www.construcolmg.com;"(57) (7) 6367366";"Cl 105 A 21-06 Provenza Colombia, Bucaramanga"
"WESTON LTDA.";westoncl@weston.com.co;www.weston.com.co;"(57) (1) 3907700";"Cl 16 65 B-82 Colombia, Bogotá"
"21 GRADOS INGENIERIA";mantenimiento@21gradosingenieria.com;www.21gradosingenieria.com;"(57) (5) 6622376";"Bosque Dg21 A 53-94 Bdg 1 Colombia, Cartagena"
"REFRIGERACION WONDER";reiserrano@grupowonder.com;www.refrigeracionwonder.com;"(57) (7) 6467915";"Autop Girón Vía a Chimitá El Palenque Colombia, Bucaramanga"
REFRIAUTOMATISMOS;info@refriautomatismos.com;www.refriautomatismos.com;"(57) (1) 2923695";"Cr82 7 D 41/47 Colombia, Bogotá"
"REFRIAUTOMATISMOS LTDA.";info@refriautomatismos.com;www.refriautomatismos.com;"(57) (1) 2923695";"Cr82 7 D 41/47 Colombia, Bogotá"
"21 GRADOS INGENIERÍA S.A.S.";mantenimiento@21gradosingenieria.com;www.21gradosingenieria.com;"(57) (5) 6622376";"Bosque Dg21 A 53-94 Bdg 1 Colombia, Cartagena"
"FAST SERVICE INGENIERÍA S.A.S.";fastserviceingenieria@yahoo.com.ar;fastserviceingenieria.com;"(57) (2) 3840392";"Cr34 6-21 Colombia, Cali"
"ALMACÉN FRIOMASTER S.A.S.";friomaster.eu@hotmail.com;www.friomastercali.com;"(57) (2) 8802139";"Cr5 20-27 Colombia, Cali"
ALMAFROST;gerencia@almafrost.com;www.almafrost.com;"(57) (4) 2323520";"Cr46 30-31 Colombia, Medellín"
"KADELL DE COLOMBIA S.A.S.";kadell@kadell.com;www.kadell.com;"(57) (4) 2628911";"Oficinas en Bogotá ( 57 )( 1 ) 2628911 Colombia, Medellín"
"REFRIARTIC S.A.S.";refriartico@hotmail.com;www.refriartico.com;"(57) (4) 3510688";"Cl 20 65-54 Colombia, Medellín"
"AGENCIA FONTANA";fontanaraul@hotmail.com;www.agenciafontana.com;"(57) (1) 6205015";"Cl 122 15-21 L-209 Colombia, Bogotá"
"AC FRIO LTDA.";"gerencia@acfrioltda.com                 servifrio-rp@hotmail.com";www.acfriosas.com;"(57) (1) 2126262";"Cr20 Nº 65-06 Colombia, Bogotá"
"ACE AIRE";aceairecia@etb.net.co;www.aceaire.com;"(57) (1) 6306223";"Cr69 Q 75-55 Colombia, Bogotá"
"DOTACIONES JOSERRAGO S.A.";rafael.ramirez@joserrago.com.co;www.joserrago.com.co;"(57) (1) 2436035";"Av Caracas 17-40 Colombia, Bogotá"
"E-REFRIGERACIÓN CÍA. LTDA.";erefrigeracion@gmail.com;www.erefrigeracion.com;"(57) (5) 3681406";"Cr74 76-55 Colombia, Barranquilla"
"CONSTRUCOL MG E.U.";construcolmg.eu@hotmail.com;www.construcolmg.com;"(57) (7) 6367366";"Cl 105 A 21-06 Provenza Colombia, Bucaramanga"
"INDUSTRIAS COLDER";recep@refrigeracioncolder.com;www.industriascolder.com;"(57) (7) 5871119";"Cl 12 A Av3 Y-04 Salado Bdg 17 Módulo 4 Colombia, Cúcuta"
"SERVICIO TÉCNICO DE AIRE ACONDICIONADO";autorizadowhirpool@hotmail.com;www.sustecnicosautorizados.com;"(57) (1) 6802001";"Cl 142 15-20 Colombia, Bogotá"
"SERVI SANABRIA E.U.";servisanabriaeu@gmail.com;www.servisanabria.com;"(57) (1) 4079478";"Cr24 Nº 2-37 Brr. Vergel Colombia, Bogotá"
"WESTON LTDA.";westoncl@weston.com.co;www.weston.com.co;"(57) (1) 3907700";"Cl 16 65 B-82 Colombia, Bogotá"
"REFRICONFORT S.A.S.";asisadministrativo@refriconfort.com.co;www.refriconfortsas.com;"(57) (5) 6663964";"Pie de la Popa Calle Mompox 30-102 L-B-3 Colombia, Cartagena"
"SUTRAK S.A.";proyectos@sutraksa.com;www.sutraksa.com.co;"(57) (4) 4448735";"Cr46 48 C   S-40 Int 104 Envigado Colombia, Medellín"
"SUMINISTROS PARA TRANSPORTE REFRIGERADO REFRIGERACIÓN Y AIRE ACONDICIONADO SUTRAK S.A.";proyectos@sutraksa.com;www.sutraksa.com;"(57) (4) 4448735";"Cr46 48 C   S-40 Int 104 Envigado Colombia, Medellín"
"REFRIGERACION WONDER";reiserrano@grupowonder.com;www.refrigeracionwonder.com;"(57) (7) 6467915";"Autop Girón Vía a Chimitá El Palenque Colombia, Bucaramanga"
AFAIRES;gerencia@afaires.com;www.afaires.com;"Telefax: (57) (1) 4809898";"Cl 23 H 100-44 Colombia, Bogotá"
"GRIVAN INGENIERÍA S.A.";mercadeo@grivaningenieria.com;www.grivaningenieria.com;"(57) (2) 3815040";"Cl 18 36 B-38 Colombia, Cali"
"CASA DEL CONTROL WISCONSIN Y CIA S.A.S";casadelcontrol@hotmail.com;www.casadelcontrolwisconsin.com.co;"(57) (1) 4384009";"Cl 64 F 73 B-05 Colombia, Bogotá"
"REFRIAUTOMATISMOS LTDA.";info@refriautomatismos.com;www.refriautomatismos.com;"(57) (1) 2923695";"Cr82 7 D 41/47 Colombia, Bogotá"
"ACE AIRE S.A.S.";auditorianacional@aceaire.com;www.lgshop.com.co;"(57) (4) 3040094";"Cr. 42 75-83 L-247 C.C. Uiventas Itagüí Colombia, Medellín"
"CHILLER INGT COLOMBIA";chillercolombia@yahoo.com;www.chillercolombia.com;"(57) (1) 2430564";"Cl 24 18-77 Colombia, Bogotá"
"INTEC LTDA.";intec@intec.com.co;www.intec.com.co;"(57) (7) 6712952";"Cl 13 8-47 Colombia, Bucaramanga"
REFRIAUTOMATISMOS;info@refriautomatismos.com;www.refriautomatismos.com;"(57) (1) 2923695";"Cr82 7 D 41/47 Colombia, Bogotá"
"ALMACENES REFRIGERACIÓN";;www.almacenesrefrigeracion.net;"(57) (1) 2839020";"Cl 19 15-09 Colombia, Bogotá"
"DÁJER EQUIPOS S.A.S.";administracion@dajerequipos.com;www.dajerequipos.com;"Telefax: (57) (1) 2215500";"AvCl 53 66 C-31 Colombia, Bogotá"
"REFRIMAG S.A.S";refrimag@refrimag.com;www.refrimag.com;"(57) (2) 5240312";"Cl 5 22-73 Colombia, Cali"
"MAQUIN DE COLOMBIA";andresamador@maquindecolombia.com;www.maquindecolombia.com;"Telefax: (57) (1) 2506688";"Cr54 70-60 Colombia, Bogotá"
"FAST SERVICE INGENIERÍA S.A.S.";fastserviceingenieria@yahoo.com.ar;fastserviceingenieria.com;"(57) (2) 3840392";"Cr34 6-21 Colombia, Cali"
"DRI DE COLOMBIA S.A.S.";dridecolombia@une.net.co;;"Nal: (57) (4) 4440852";"Cl 7 # 50-171 Colombia, Medellín"
"DISTRIBUIDORA DE REPUESTOS INDUSTRIALES DE COLOMBIA S.A.S.";dridecolombia@une.net.co;www.dridecolombia.com;"Nal: (57) (4) 4440852";"Cl 7 # 50-171 Colombia, Medellín"
REFRIPARTES;julimalogo@hotmail.com;www.refripartes.co;"(57) (4) 3229939";"Cr52 59-27 Colombia, Medellín"
"ALMACÉN FRIOMASTER S.A.S.";friomaster.eu@hotmail.com;www.friomastercali.com;"(57) (2) 8802139";"Cr5 20-27 Colombia, Cali"
INOXCARIBE;oscardiaz@inoxcaribe.com;www.inoxcaribe.com;"(57) (5) 3555713";"Vía 40 83-33 Colombia, Barranquilla"
"AIRE ACONDICIONADO VENTILAR LTDA.";servicioalcliente@ventilarltda.com;www.ventilarltda.com;"(57) (1) 2236607";"Cr88 67-39 Colombia, Bogotá"
POLONORTE;ventas@polonorte.com.co;www.polonorte.com.co;"(57) (1) 2813375";"Av (Cl) 19 16 A-04 Colombia, Bogotá"
ALMAFROST;gerencia@almafrost.com;www.almafrost.com;"(57) (4) 2323520";"Cr46 30-31 Colombia, Medellín"
ACSERVICIOS;acservicios2014@gmail.com;www.calentadoresenmedellin.com;"(57) (4) 5113221";"Cr55 A 61-35 Colombia, Medellín"
"REFRIARTIC S.A.S.";refriartico@hotmail.com;www.refriartico.com;"(57) (4) 3510688";"Cl 20 65-54 Colombia, Medellín"
"AGENCIA FONTANA";fontanaraul@hotmail.com;www.agenciafontana.com;"(57) (1) 6205015";"Cl 122 15-21 L-209 Colombia, Bogotá"
"AC FRIO LTDA.";"gerencia@acfrioltda.com                 servifrio-rp@hotmail.com";www.acfriosas.com;"(57) (1) 2126262";"Cr20 Nº 65-06 Colombia, Bogotá"
"DOTACIONES JOSERRAGO S.A.";rafael.ramirez@joserrago.com.co;www.joserrago.com.co;"(57) (1) 2436035";"Av Caracas 17-40 Colombia, Bogotá"
"E-REFRIGERACIÓN CÍA. LTDA.";erefrigeracion@gmail.com;www.erefrigeracion.com;"(57) (5) 3681406";"Cr74 76-55 Colombia, Barranquilla"
"INDUSTRIAS COLDER";recep@refrigeracioncolder.com;www.industriascolder.com;"(57) (7) 5871119";"Cl 12 A Av3 Y-04 Salado Bdg 17 Módulo 4 Colombia, Cúcuta"
"SERVICIO TÉCNICO DE AIRE ACONDICIONADO";autorizadowhirpool@hotmail.com;www.sustecnicosautorizados.com;"(57) (1) 6802001";"Cl 142 15-20 Colombia, Bogotá"
"SERVI SANABRIA E.U.";servisanabriaeu@gmail.com;www.servisanabria.com;"(57) (1) 4079478";"Cr24 Nº 2-37 Brr. Vergel Colombia, Bogotá"
"REFRICONFORT S.A.S.";asisadministrativo@refriconfort.com.co;www.refriconfortsas.com;"(57) (5) 6663964";"Pie de la Popa Calle Mompox 30-102 L-B-3 Colombia, Cartagena"
"SUMINISTROS PARA TRANSPORTE REFRIGERADO REFRIGERACIÓN Y AIRE ACONDICIONADO SUTRAK S.A.";proyectos@sutraksa.com;www.sutraksa.com;"(57) (4) 4448735";"Cr46 48 C   S-40 Int 104 Envigado Colombia, Medellín"
"SUTRAK S.A.";proyectos@sutraksa.com;www.sutraksa.com.co;"(57) (4) 4448735";"Cr46 48 C   S-40 Int 104 Envigado Colombia, Medellín"
AFAIRES;gerencia@afaires.com;www.afaires.com;"Telefax: (57) (1) 4809898";"Cl 23 H 100-44 Colombia, Bogotá"
"GRIVAN INGENIERÍA S.A.";mercadeo@grivaningenieria.com;www.grivaningenieria.com;"(57) (2) 3815040";"Cl 18 36 B-38 Colombia, Cali"
"CASA DEL CONTROL WISCONSIN Y CIA S.A.S";casadelcontrol@hotmail.com;www.casadelcontrolwisconsin.com.co;"(57) (1) 4384009";"Cl 64 F 73 B-05 Colombia, Bogotá"
"CHILLER INGT COLOMBIA";chillercolombia@yahoo.com;www.chillercolombia.com;"(57) (1) 2430564";"Cl 24 18-77 Colombia, Bogotá"
"ACE AIRE S.A.S.";auditorianacional@aceaire.com;www.lgshop.com.co;"(57) (4) 3040094";"Cr. 42 75-83 L-247 C.C. Uiventas Itagüí Colombia, Medellín"
"INTEC LTDA.";intec@intec.com.co;www.intec.com.co;"(57) (7) 6712952";"Cl 13 8-47 Colombia, Bucaramanga"
"DÁJER EQUIPOS S.A.S.";administracion@dajerequipos.com;www.dajerequipos.com;"Telefax: (57) (1) 2215500";"AvCl 53 66 C-31 Colombia, Bogotá"
"ALMACENES REFRIGERACIÓN";;www.almacenesrefrigeracion.net;"(57) (1) 2839020";"Cl 19 15-09 Colombia, Bogotá"
"REFRIMAG S.A.S";refrimag@refrimag.com;www.refrimag.com;"(57) (2) 5240312";"Cl 5 22-73 Colombia, Cali"
"MAQUIN DE COLOMBIA";andresamador@maquindecolombia.com;www.maquindecolombia.com;"Telefax: (57) (1) 2506688";"Cr54 70-60 Colombia, Bogotá"
"DISTRIBUIDORA DE REPUESTOS INDUSTRIALES DE COLOMBIA S.A.S.";dridecolombia@une.net.co;www.dridecolombia.com;"Nal: (57) (4) 4440852";"Cl 7 # 50-171 Colombia, Medellín"
"DRI DE COLOMBIA S.A.S.";dridecolombia@une.net.co;;"Nal: (57) (4) 4440852";"Cl 7 # 50-171 Colombia, Medellín"
REFRIPARTES;julimalogo@hotmail.com;www.refripartes.co;"(57) (4) 3229939";"Cr52 59-27 Colombia, Medellín"
"AIRE ACONDICIONADO VENTILAR LTDA.";servicioalcliente@ventilarltda.com;www.ventilarltda.com;"(57) (1) 2236607";"Cr88 67-39 Colombia, Bogotá"
INOXCARIBE;oscardiaz@inoxcaribe.com;www.inoxcaribe.com;"(57) (5) 3555713";"Vía 40 83-33 Colombia, Barranquilla"
POLONORTE;ventas@polonorte.com.co;www.polonorte.com.co;"(57) (1) 2813375";"Av (Cl) 19 16 A-04 Colombia, Bogotá"
ACSERVICIOS;acservicios2014@gmail.com;www.calentadoresenmedellin.com;"(57) (4) 5113221";"Cr55 A 61-35 Colombia, Medellín"
"First Name";"Email Address";Url;Telephone;Address
"FAGOR INDUSTRIAL EN MEDELLÍN";nsalazar@fagorindustrial.com.co;www.fagorindustrial.com.co;"(57) (4) 4443029";"Cl 25 52-46 Colombia, Medellín"
"ACONDICLIMA INGENIERIA Y CONSTRUCCION S.A.S.";acondiclima@acondiclima.com;www.acondiclima.com;"Telefax: (57) (1) 2623800";"Av (Cr) 50 4 C-63 Colombia, Bogotá"
"REFRIGERACIÓN CASTELL";servicioalcliente@refricastell.com.co;www.castell.com.co;"(57) (2) 6603614";"Av de Las Américas 23 Bn-83 Colombia, Cali"
"SUMIAIRES LTDA.";sumiaires@mtcca.com;www.mtcaa.com;"(57) (2) 5244667";"Av3   N 47   N-102 Colombia, Cali"
"COMTECOL LTDA.";info@comteco-colombia.com;www.comtecol.com;"(57) (1) 2874200";"Cr1 A 11-130 Of 315/417 Colombia, Chía"
"CENTRAL DE REFRIGERACIÓN Y LAVADORAS";jimenezdanilo@gmail.com;www.crlrefrigeracionylavadoras.com;"(57) (6) 3330743";"Cl 23 8-66 Colombia, Pereira"
"ACONDICIONAR INGENIEROS S.A.S.";comercial@acondicionaringenieros.com;www.acondicionaringenieros.com;"(57) (2) 6653904";"Cl 38   N 3 H   N-42 Colombia, Cali"
REFRITECH;comerical@refritech.com;www.refritech.com.co;"(57) (4) 4442924";"Cl 1 A# 65 A-44 Colombia, Medellín"
"TANQUES PARA ENFRIAMIENTO DE LECHE REFRITANQUESRB";;www.refritanquesrb.com;"(57) (4) 4488554";"Cr51 71-20 Colombia, Medellín"
"FRIGORÍFICO DE PEREIRA S.A.";gerencia@frigoper.com.co;frigoper.com.co;"(57) (6) 3401644";"Cr14 83-125 Zona Ind Villa Olímpica Colombia, Pereira"
"TOTAL COLD LTDA.";ventas@totalcold.com;www.totalcold.com;"(57) (7) 5847276";"Av5 6-35 San Luis Colombia, Cúcuta"
"INGERACK SAS";ventas@ingerack.com;;"(57) (2) 4390484";"Cr1 H 60-59 Colombia, Cali"
"AIRE Y REFRIGERACIÓN OZONO";jammaderas@hotmail.com;;"(57) (6) 3309173";"Cl 8 30-90 Brr. El Japón Vía Frailes Colombia, Pereira"
"PROYETEC COLOMBIA LTDA.";proyeteccol@hotmail.com;www.proyetec.com.co;"Telefax: (57) (1) 2034048";"Cr54 176-20 Colombia, Bogotá"
"ALPERPLAST S.A.S";alperplast@gmail.com;www.alperplastsas.com;"Telefax: (57) (1) 2408176";"Cr28 A 68-76 Colombia, Bogotá"
"INDUSTRIAS ROGO S.A.";indurogo@indurogo.com;www.indurogo.com;"(57) (4) 3372529";"Cr58 43 Sur-83 Bdg 145 Colombia, Medellín"
"AIRE ACONDICIONADO MÁS AIRE";masaire@une.net.co;www.masaire.com;"(57) (4) 5808058";"Cl 32 A 71-33 Colombia, Medellín"
"E.M.A INGENIERÍA S.A.S";administracion@grupoema.co;www.grupoema.co;"(57) (6) 8864771";"Cl 72 A 19-18 Colombia, Manizales"
INRECOM;inrecomcali@hotmail.com;;"(57) (2) 4394582";"Cl 47 4   N-33 Colombia, Cali"
MAYEKAWA;mycom@mycom.com.co;www.mayekawa.com.co;"(57) (1) 2243203";"Tr93 53-48 Int 37 Colombia, Bogotá"
"MAYEKAWA COLOMBIA S.A.S.";mycom@mycom.com.co;www.mayekawa.com.co;"(57) (1) 2243203";"Tr93 53-48 Int 37 Colombia, Bogotá"
"MICROCEL EDUARDO FRANCO S.A.S.";info@microcel.com.co;www.microcel.com.co;"(57) (5) 3794143";"Cl 42 46-176 Colombia, Barranquilla"
"ALFRIO S.A.S";alfrio@alfrio.com;www.alfrio.com;"(57) (1) 2113834";"Cl 57 19-48 Colombia, Bogotá"
"MULTIFRÍO Y CONFORT";info@multifrio.com;www.multifrioconfort.com;"(57) (4) 2176645";"Cr24 45-69 Colombia, Medellín"
"ENFRIAR SERVICIOS S.A.S.";gerenciaser@enfriarservicios.com.co;enfriarservicios.com.co;"(57) (2) 6661813";"Cl 39   N 2 A-129 Colombia, Cali"
"REFRIGERACIÓN SUPERCOLD";gerenciasupercold@hotmail.com;;"(57) (1) 7954753";"Cl 19 16 A-33 Colombia, Bogotá"
"REFRIGERACIÓN BAJO CERO LTDA.";servicliente@refrigeracionba;www.refrigeracionbajocero.com;"(57) (1) 2502988";"Cl 67 29-30 Colombia, Bogotá"
"REFRIMODULARES S.A.";refrimodulares@une.net.co;www.refrimodulares.com;"(57) (4) 4446432";"Cl 62 56 A-85 Colombia, Medellín"
"REFRIMARKET COLOMBIA S.A.S";refrimarket@refrimarket.com.co;www.refrimarket.com.co;"(57) (1) 7957570";"Cl 66 14-33 Colombia, Bogotá"
"INDISEM REFRIGERACION LTDA.";info@indisem.com;www.indisem.com;"(57) (1) 2582301";"Cr47 143-54 Colombia, Bogotá"
"OPTIFRÍO S.A.S.";optifrio@une.net.co;www.optifrio.com;"(57) (4) 4481242";"Cl 51 33-29 Colombia, Medellín"
"FRÍO AIRES DE LA COSTA";gerencia@frioairesdelacosta.com;www.frioairesdelacosta.com;"(57) (5) 5852828";"Cr11 11-60 Colombia, Valledupar"
SERVITEC;ventas@servitecltda.com;www.servitecltda.com;"(57) (5) 6673908";"Ceballos Tr54 29 B-38 Carrt El Bosque Colombia, Cartagena"
"PEDRO ARCE G.";airearce@costa.net.co;;"(57) (5) 6609565";"Manga Cr23 29 A-79 Colombia, Cartagena"
"FÁBRICA REFRISUR -MB";servicliente@refrisur-mb.com;www.refrisur-mb.com;"(57) (2) 4412505";"Dg19 17 G-38 Colombia, Cali"
FRIOEXTREMO;frioextremo@gmail.com;www.frioextremoaz.com;"(57) (1) 3608776";"Cr20 A 16-71 Colombia, Bogotá"
"AIRE NEIVA LTDA.";aireneiva@hotmail.com;www.aireneiva.com;"Telefax: (57) (8) 8752453";"Cl 21 7-84 Colombia, Neiva"
"AMERICAN AGENCY SERVICE S.A.S.";adrianabravo35@hotmail.com;www.americanagency.com.co;"(57) (1) 6098990";"Cl 65 A 17-73 Colombia, Bogotá"
"ALICORP S.A.S.";bogota@alicorpsas.com.co;www.alicorpsas.com.co;"(57) (1) 6363153";"Cr49 B No. 91-59 La Castellana Colombia, Bogotá"
"INGENIERIA DE REFRIGERACION INDUSTRIAL ROJAS HNOS. S.A.";gerencia.comercial@rojas-hermanos.com;www.rojas-hermanos.com;"(57) (1) 2882011";"Cr15 48-55 Colombia, Bogotá"
"First Name";"Email Address";Url;Telephone;Address
"FAGOR INDUSTRIAL EN MEDELLÍN";nsalazar@fagorindustrial.com.co;www.fagorindustrial.com.co;"(57) (4) 4443029";"Cl 25 52-46 Colombia, Medellín"
"ACONDICLIMA INGENIERIA Y CONSTRUCCION S.A.S.";acondiclima@acondiclima.com;www.acondiclima.com;"Telefax: (57) (1) 2623800";"Av (Cr) 50 4 C-63 Colombia, Bogotá"
"SUMIAIRES LTDA.";sumiaires@mtcca.com;www.mtcaa.com;"(57) (2) 5244667";"Av3   N 47   N-102 Colombia, Cali"
"REFRIGERACIÓN CASTELL";servicioalcliente@refricastell.com.co;www.castell.com.co;"(57) (2) 6603614";"Av de Las Américas 23 Bn-83 Colombia, Cali"
"COMTECOL LTDA.";info@comteco-colombia.com;www.comtecol.com;"(57) (1) 2874200";"Cr1 A 11-130 Of 315/417 Colombia, Chía"
"CENTRAL DE REFRIGERACIÓN Y LAVADORAS";jimenezdanilo@gmail.com;www.crlrefrigeracionylavadoras.com;"(57) (6) 3330743";"Cl 23 8-66 Colombia, Pereira"
"TANQUES PARA ENFRIAMIENTO DE LECHE REFRITANQUESRB";;www.refritanquesrb.com;"(57) (4) 4488554";"Cr51 71-20 Colombia, Medellín"
REFRITECH;comerical@refritech.com;www.refritech.com.co;"(57) (4) 4442924";"Cl 1 A# 65 A-44 Colombia, Medellín"
"ACONDICIONAR INGENIEROS S.A.S.";comercial@acondicionaringenieros.com;www.acondicionaringenieros.com;"(57) (2) 6653904";"Cl 38   N 3 H   N-42 Colombia, Cali"
"FRIGORÍFICO DE PEREIRA S.A.";gerencia@frigoper.com.co;frigoper.com.co;"(57) (6) 3401644";"Cr14 83-125 Zona Ind Villa Olímpica Colombia, Pereira"
"TOTAL COLD LTDA.";ventas@totalcold.com;www.totalcold.com;"(57) (7) 5847276";"Av5 6-35 San Luis Colombia, Cúcuta"
"INGERACK SAS";ventas@ingerack.com;;"(57) (2) 4390484";"Cr1 H 60-59 Colombia, Cali"
"AIRE Y REFRIGERACIÓN OZONO";jammaderas@hotmail.com;;"(57) (6) 3309173";"Cl 8 30-90 Brr. El Japón Vía Frailes Colombia, Pereira"
"PROYETEC COLOMBIA LTDA.";proyeteccol@hotmail.com;www.proyetec.com.co;"Telefax: (57) (1) 2034048";"Cr54 176-20 Colombia, Bogotá"
"INDUSTRIAS ROGO S.A.";indurogo@indurogo.com;www.indurogo.com;"(57) (4) 3372529";"Cr58 43 Sur-83 Bdg 145 Colombia, Medellín"
"ALPERPLAST S.A.S";alperplast@gmail.com;www.alperplastsas.com;"Telefax: (57) (1) 2408176";"Cr28 A 68-76 Colombia, Bogotá"
"AIRE ACONDICIONADO MÁS AIRE";masaire@une.net.co;www.masaire.com;"(57) (4) 5808058";"Cl 32 A 71-33 Colombia, Medellín"
"E.M.A INGENIERÍA S.A.S";administracion@grupoema.co;www.grupoema.co;"(57) (6) 8864771";"Cl 72 A 19-18 Colombia, Manizales"
INRECOM;inrecomcali@hotmail.com;;"(57) (2) 4394582";"Cl 47 4   N-33 Colombia, Cali"
MAYEKAWA;mycom@mycom.com.co;www.mayekawa.com.co;"(57) (1) 2243203";"Tr93 53-48 Int 37 Colombia, Bogotá"
"MAYEKAWA COLOMBIA S.A.S.";mycom@mycom.com.co;www.mayekawa.com.co;"(57) (1) 2243203";"Tr93 53-48 Int 37 Colombia, Bogotá"
"MICROCEL EDUARDO FRANCO S.A.S.";info@microcel.com.co;www.microcel.com.co;"(57) (5) 3794143";"Cl 42 46-176 Colombia, Barranquilla"
"ALFRIO S.A.S";alfrio@alfrio.com;www.alfrio.com;"(57) (1) 2113834";"Cl 57 19-48 Colombia, Bogotá"
"MULTIFRÍO Y CONFORT";info@multifrio.com;www.multifrioconfort.com;"(57) (4) 2176645";"Cr24 45-69 Colombia, Medellín"
"ENFRIAR SERVICIOS S.A.S.";gerenciaser@enfriarservicios.com.co;enfriarservicios.com.co;"(57) (2) 6661813";"Cl 39   N 2 A-129 Colombia, Cali"
"REFRIGERACIÓN SUPERCOLD";gerenciasupercold@hotmail.com;;"(57) (1) 7954753";"Cl 19 16 A-33 Colombia, Bogotá"
"REFRIGERACIÓN BAJO CERO LTDA.";servicliente@refrigeracionba;www.refrigeracionbajocero.com;"(57) (1) 2502988";"Cl 67 29-30 Colombia, Bogotá"
"REFRIMODULARES S.A.";refrimodulares@une.net.co;www.refrimodulares.com;"(57) (4) 4446432";"Cl 62 56 A-85 Colombia, Medellín"
"REFRIMARKET COLOMBIA S.A.S";refrimarket@refrimarket.com.co;www.refrimarket.com.co;"(57) (1) 7957570";"Cl 66 14-33 Colombia, Bogotá"
"OPTIFRÍO S.A.S.";optifrio@une.net.co;www.optifrio.com;"(57) (4) 4481242";"Cl 51 33-29 Colombia, Medellín"
"First Name";"Email Address";Url;Telephone;Address
"INDISEM REFRIGERACION LTDA.";info@indisem.com;www.indisem.com;"(57) (1) 2582301";"Cr47 143-54 Colombia, Bogotá"
"FÁBRICA REFRISUR -MB";servicliente@refrisur-mb.com;www.refrisur-mb.com;"(57) (2) 4412505";"Dg19 17 G-38 Colombia, Cali"
"EQUIPOS SURTIHOTELES";ventas.surtihot@hotmail.com;www.equipossurtihoteles.com;"(57) (1) 3475598";"Dg54 22 A-08 Colombia, Bogotá"
COLSTEEL;colsteel@une.net.co;www.colsteel.com;"(57) (4) 4442761";"Cl 10 B   S 51-67 Colombia, Medellín"
REFRISISTEMAS;recepcion@refrisistemas.co;www.refrisistemas.co;"(57) (5) 3720606";"Cr46 54-55 Colombia, Barranquilla"
"PEDRO ARCE G.";airearce@costa.net.co;;"(57) (5) 6609565";"Manga Cr23 29 A-79 Colombia, Cartagena"
"CARVEL LTDA.";bibiana.ortiz@carvel.com.co;www.carvel.com.co;"(57) (1) 3458902";"Cr8 69-53 Colombia, Bogotá"
"AIRES & AIRES";ventas@airesyaires.com;www.airesyaires.com;"(57) (4) 4445380";"Cr70 51-69 Colombia, Medellín"
FRIOCENTER;marvinfortich1974@yahoo.com;www.friocenter.com.co;"(57) (5) 3608221";"Cr43 55-08 L-2 Colombia, Barranquilla"
"AMERICAN AGENCY SERVICE S.A.S.";adrianabravo35@hotmail.com;www.americanagency.com.co;"(57) (1) 6098990";"Cl 65 A 17-73 Colombia, Bogotá"
"INGENIERIA DE REFRIGERACION INDUSTRIAL ROJAS HNOS. S.A.";gerencia.comercial@rojas-hermanos.com;www.rojas-hermanos.com;"(57) (1) 2882011";"Cr15 48-55 Colombia, Bogotá"
"AIMCO S.A.S";ventas@cocinasaimco.com;www.cocinasaimco.com;"(57) (1) 4751177";"Cr23 69-18 Colombia, Bogotá"
"INVERSIONES MENDEZ GROUP S.A.S";sandraymendez@yahoo.com;www.inversionesmendez.com;"(57) (1) 4306693";"Tr93 53-32 Bdg 74 Colombia, Bogotá"
FRIOEXTREMO;frioextremo@gmail.com;www.frioextremoaz.com;"(57) (1) 3608776";"Cr20 A 16-71 Colombia, Bogotá"
"DISOL S.A.S.";disol@soldaduras.com;www.soldaduras.com.co;"(57) (1) 2851990";"Cr18 A 39 B-32 Colombia, Bogotá"
"CLIMATIZAT AIR REFIGERACION COMERCIAL E INDUSTRIAL";;;"(57) (7) 6165109";"Cl 43 18-08 L-1 Rincón De Girón Colombia, Bucaramanga"
"TECAM S.A. TECNOLOGÍA AMBIENTAL";martha.carmona@tecam-sa.com.;www.tecam-sa.com;"(57) (2) 6812618";"Cl 55 7   N-06 Colombia, Cali"
SERVITEC;ventas@servitecltda.com;www.servitecltda.com;"(57) (5) 6673908";"Ceballos Tr54 29 B-38 Carrt El Bosque Colombia, Cartagena"
REFRIGLOBAL;refriglobal@hotmail.com;www.refriglobal.com;"(57) (8) 2751806";"Av Ambalá 60-84 Colombia, Ibagué"
"SOMECOL S.A.S.";somecol@somecol.com;www.somecol.com;"(57) (1) 8053366";"Cr28 6-71 Colombia, Bogotá"
"TECNOLOGIA Y SUMINISTROS";ventas@tecnologiaysuministros.com;www.tecnologiaysuministros.co;"(57) (4) 2325022";"Cr43 A 34-95 L-248 C.C. Almacentro Colombia, Medellín"
"AIRE NEIVA LTDA.";aireneiva@hotmail.com;www.aireneiva.com;"Telefax: (57) (8) 8752453";"Cl 21 7-84 Colombia, Neiva"
SERVI-REFRIAIRE;gerencia@servirefriaire.com;www.servirefriaire.com;"Conm.: (57) (4) 3600240";"Cr50 D 6   S-34 Colombia, Medellín"
"QUIMICA INDUSTRIAL & COMERCIAL LTDA.";qicltda@hotmail.com;www.quimicaindustrialycomercial.com;"(57) (1) 5429096";"Cl 77 A 82-10 Colombia, Bogotá"
"NUVAL - NUTRICIÓN VITAL";nuval@nuval.com.co;www.nuval.com.co;"(57) (4) 2607416";"Cl 55 71 A-115 Colombia, Medellín"
"FRÍO AIRES DE LA COSTA";gerencia@frioairesdelacosta.com;www.frioairesdelacosta.com;"(57) (5) 5852828";"Cr11 11-60 Colombia, Valledupar"
"ACCEL REFRICENTRO";accelrefricentro@gmail.com;www.accelrefricentro.com;"(57) (2) 6816681";"Cl 56F1 45 A-21 Colombia, Cali"
"ALMACÉN NUEVOHOGAR S.A.S.";gerencianuevohogar@une.net.co;www.almacennuevohogar.com;"(57) (4) 5133131";"Cl 50 54-50 Colombia, Medellín"
"REFRINORTE S.A.S.";2;www.refrinorte.com;"(57) (5) 3851080";"Cr43 59-21 Colombia, Barranquilla"
"ALICORP S.A.S.";bogota@alicorpsas.com.co;www.alicorpsas.com.co;"(57) (1) 6363153";"Cr49 B No. 91-59 La Castellana Colombia, Bogotá"
"REFRIPARTES Y MOTORES S.A.S.";refripartesbq@hotmail.com;refripartesymotores.com;"(57) (5) 3708787";"Cl 45 43-66 Colombia, Barranquilla"
"TERMOTEC DEL CARIBE S.A.S.";servicioalcliente@termotecdelcaribe.com;www.termotecdelcaribe.com;"(57) (5) 3682099";"Vía 40 77 A-18 L-3 Colombia, Barranquilla"
"INDUSTRIAS THERMOTAR LTDA.";info@thermotar.com;www.thermotar.com;"(57) (5) 3443544";"Cl 58 66 B-23 Colombia, Barranquilla"
"EQUIPOS SURTIHOTELES";ventas.surtihot@hotmail.com;www.equipossurtihoteles.com;"(57) (1) 3475598";"Dg54 22 A-08 Colombia, Bogotá"
"REFRICENTRO COLOMBIA S.A.S.";tavoagudelo@hotmail.com;www.refricentrocolombia.com;"(57) (5) 3037373";"Cl 44 41-101 Colombia, Barranquilla"
"MUNDO AIRES LTDA.";mundoairesltda@une.net.co;;"(57) (4) 4771905";"Cr70 99-21 Colombia, Medellín"
"COMPRESORES MIL LTDA.";compresoresmil@hotmail.com;www.compresoresmil.com;"(57) (1) 2243362";"Av Boyacá 68 B-15 Colombia, Bogotá"
"INGETECNO LTDA.";ingetecnoltda@yahoo.es;www.ingetecno.co;"(57) (8) 6705079";"Cr14 13 B-29 Brr. Estero Colombia, Villavicencio"
"ALMACÉN COLDMEM";servicios@coldmem.com;www.coldmem.com;"(57) (2) 5240312";"Cl 5 22-69 Colombia, Cali"
"FRIO ARTICO SOLUCIONES INTEGRALES";fasicolsa@hotmail.com;www.aireacondicionadofasicolsa.com;"(57) (1) 4771397";"Cr71 BBis 12-60 Colombia, Bogotá"
"CENTRO AIRES NEIVA";centroaires2@hotmail.com;www.centroairesneiva.com;"(57) (8) 8716532";"Cl 3 5-110 Colombia, Neiva"
"VALENCIA RENTERIA WILSON ALBERTO";albertossee@hotmail.com;www.electronicaycontroles.com;"(57) (4) 5855003";"Cr50 67-10 Colombia, Medellín"
"A SU SERVICIO WHIRLPOOL";claudia.natura1@hotmail.com;www.asuserviciowhirpool.com;"(57) (4) 2381212";"MEDELLIN Colombia, Medellín"
"AIRESERVICE LTDA.";aireservice@gmail.com;www.aireserviceltda.com;"(57) (1) 2502907";"Cl 70 54-28 Colombia, Bogotá"
"REFRIGERACIÓN DEL ORIENTE";refrioriente@hotmail.com;www.refrigeraciondeloriente.com;"(57) (7) 6712698";"Boulevar Santander 22-41 Colombia, Bucaramanga"
"FROID S.A.S.";abarrera@froidsas.com;www.froidsas.com.co;"(57) (5) 6679986";"Ceballos Dg30 54-254 Colombia, Cartagena"
"FULL CONFORT S.A.S.";fullconfortctg@gmail.com;www.fullconfort.com.co;"(57) (5) 6563289";"Pie de la Popa Cr19 B-29 B-139 Colombia, Cartagena"
"ELECTRÓNICAS Y REFRIGERACIÓN";servicioalcliente@solucionesyrefrigeracion.com;www.solucionesyrefrigeracion.com;"(57) (5) 3032735";"Cr45 64-18 Colombia, Barranquilla"
"ALMACÉN REFRIGERACIÓN";minervine5@almacenesrefrigeracion.net;www.almacenesrefrigeracion.net;"(57) (2) 8844328";"Cl 14 3-00 Colombia, Cali"
"A.F. REFRIGERACIÓN S.A.S.";administracion@afrefrigeracion.com.co;www.afrefrigeracion.com.co;"(57) (2) 5248988";"Cl 42   N 4   N-174 Colombia, Cali"
"First Name";"Email Address";Url;Telephone;Address
"POLAIRES DE LA COSTA S.A.S.";polairesdelacosta@hotmail.com;www.polairesdelacosta.com;"(57) 3015934846";"Cr45 79-38 Colombia, Barranquilla"
"CLIMAELECTRIC S.A.S.";climaelectricsas@hotmail.com;www.climaelectricsas.com;"(57) (5) 6581719";"Cr19 32-107 Av Pedro de Heredia Sector El Espinal Colombia, Cartagena"
"FRIOCOSTA S.A";friocostaavianca@hotmail.com;www.friocostasa.com;"(57) (1) 6162477";"Cr53 102-48 Colombia, Bogotá"
"CONGELAR SERVICIOS";congelarservicios999@hotmail.com;www.congelar.com.co;"(57) (1) 2100452";"Cl 70 A 16-45 Colombia, Bogotá"
"AUTOFRÍO IMPORTACIONES S.A.S.";autofrioimportacionesventa@hotmail.com;www.autofrioimportaciones.com;"(57) (5) 3516718";"Cr41 57-48 Colombia, Barranquilla"
"COMPRESORES LTDA.";compresores_ltda@compresoresltda.com.co;www.compresoresltda.com.co;"(57) (5) 3412036";"Cl 39 46-65 Colombia, Barranquilla"
"SERVICIOS ELÉCTRICOS & ELECTRÓNICOS INTEGRALES S.A.S.";electritronicos@hotmail.com;;"(57) (2) 3250281";"Cr36 B 14-41 Colombia, Cali"
"TECNOAISLAR DE OCCIDENTE S.A.S.";alexanderlara@tecnoaislar.com;www.tecnoaislardeoccidente.com;"(57) (2) 6630669";"Cr7 B 72 B-57 Colombia, Cali"
"CURVIT S.A.S";vidrios.curvit@yahoo.es;www.vidriocurvocurvit.com;"(57) (1) 6917806";"Cr60 D 90-50 Colombia, Bogotá"
"AIRE & MONTAJES LTDA.";aireymontajes@une.net.co;;"(57) (4) 3119538";"Cr43 F 14 A-88 Colombia, Medellín"
"FRIO MASTER";said.galvan1@hotmail.com;;"(57) (7) 3103617129";"Av3 7   N-74 Colombia, Cúcuta"
"COMERCIALIZADORA PUNTO FRIO S.A.S.";puntofriosas@gmail.com;;"(57) (7) 6113904";"Cr20 55-56 Br Torcoroma Colombia, Barrancabermeja"
"SERVICIO AMERICANO";jose.d.galeano@hotmail.com;;"(57) 3173961631";"Cl 45 15-46 Colombia, Pereira"
ELECTROMAR;electromar-mf@gmail.com;;"(57) (4) 2709684";"Cl 40   S 40-30 Envigado Colombia, Medellín"
"ASYCO S.A.";bucaramanga@asyco.co;www.colchonesspring.com;"(57) (7) 5832913";"Cl 18 0 E-49 Caobos Colombia, Cúcuta"
"FRIO PARTES ANDÓN";fpandon@hotmail.com;;"(57) (5) 3686844";"Cr43 63-30 Colombia, Barranquilla"
"TECNITERMOS S.A.S.";tecnitermos@une.net.co;;"(57) (4) 4489042";"Cr42 24-96 Itaguí Colombia, Itagüí"
"WL CONTROLS LTDA";wlcontrols@terra.com;www.wlcontrols.com;"Telefax: (57) (1) 2370374";"Cr27 11-86 Colombia, Bogotá"
"INVEPAR S.A.S (METALSOUZA)";info@inveparsas.com;www.inveparsas.com;"(57) (1) 6301894";"Tr69 B BIS 73-49 Colombia, Bogotá"
"CENTRAL DE AIRES ACONDICIONADOS";centraldeaires@gmail.com;;"Conm.: (57) (7) 5849334";"Cl 2 14-02 Nueva Esperanza Colombia, Cúcuta"
"ICEMEN S.A.S";serviciotecnico@icemen.com.co;www.icemen.com.co;"(57) (4) 2847775";"Cl 57 40 A-38 Colombia, Medellín"
"RED ORIGEN";comunicaciones@redorigen.co;www.redorigen.co;"(57) (4) 5142444";"Cr53 59-02 Colombia, Medellín"
AIRECAR;aire.carjairo@outlook.com;;"(57) 3112086365";"Cr48 A 57-39 Colombia, Bucaramanga"
"ACE AIRE";auditorianacional@aceaire.com;www.lgshop.com.co;"(57) (8) 6306223";"Av40 29 3/5 Esq Colombia, Villavicencio"
"CENTRAL DE AIRES";centraldeaires@une.net.co;www.centraldeaires.com;"(57) (4) 4484499";"Cr43 A 23-18 Colombia, Medellín"
"CARROCERIAS PLATINUM S.A.S.";gerencia.platinumsas@gmail.com;;"(57) (4) 2886249";"Cr47 F 80 S-20 Sabaneta Colombia, Sabaneta"
REFRIJOHN;refrijohn-rj@hotmail.com;;"(57) (6) 3340600";"Cl 19 Bis 10-70 Colombia, Pereira"
SERTINTEG;sertinteg@hotmail.com;;"(57) 3008901084";"Bucaramanga Colombia, Bucaramanga"
"DR. FRIO";;;"(57) (7) 6224050";"Cr20 51-06 Colombia Colombia, Barrancabermeja"
"PLASTICOS SILVATRIM DE COLOMBIA S.A.";servicioalcliente@silvatrim;www.silvatrim.com.co;"(57) (1) 2312392";"Cr69 K 78-34 Colombia, Bogotá"
"SERVICIO TECNICO CENTRALES WHIRPOOL ANTIOQUIA";centralesantioquia@hotmail.com;;"(57) (4) 3336644";"Cl 39   S 31-44 Envigado Colombia, Medellín"
"AIRE ACONDICIONADO FRIGOS";;;"(57) (4) 2313544";"Cr53 58-72 Of 202 Colombia, Medellín"
"ALMACÉN REFRIQUEZADA";;;"(57) (7) 6212259";"Cl 49 19-38 Br Colombia Colombia, Barrancabermeja"
PUENTES;tecniservicios1@hotmail.com;;"(57) (7) 6378301";"Bucaramanga Colombia, Bucaramanga"
"AGENCIA MUNDIAL DE AIRES";airesadomiciliomedellin@hotmail.com;www.agenciamundialdeaires.com;"(57) (4) 2552485";"Cl 2 A 52-02 Colombia, Medellín"
"First Name";"Email Address";Url;Telephone;Address
"CLIMA AIRE LTDA.";clima_aire@yahoo.es;www.climaaire.com;"(57) (8) 8753522";"Cl 34 A 12-13 Colombia, Neiva"
"REFRIACERO CENTRAL";refriacero.central@gmail.com;www.refriacerocentral.com;"(57) (4) 3762286";"Cr47 63-11 Itagüí Colombia, Itagüí"
"AIRES DCH S.A.S";;www.airesdch.com;"(57) 3187927253";"Dg21 B 17-101 Manz H Casa 17 San Jorge II Girón Colombia, Bucaramanga"
"SERVIELECTRI FRIGERACIÓN";pedro_service@hotmail.com;www.servielectrifrigeracion.com;"(57) (8) 8603070";"Cl 25 C 22-48 Sur Colombia, Neiva"
"ELECTROREFRIGERACIÓN INDUSTRIAL H & J S.A.S.";electrorefrigeracionindustrial@yahoo.com;www.electrorefrigeracion.com;"(57) (1) 8111385";"Cl 21 106-71 Colombia, Bogotá"
COLSTEEL;colsteel@une.net.co;www.colsteel.com;"(57) (4) 4442761";"Cl 10 B   S 51-67 Colombia, Medellín"
REFRIGLOBAL;refriglobal@hotmail.com;www.refriglobal.com;"(57) (8) 2751806";"Av Ambalá 60-84 Colombia, Ibagué"
"TECNOLOGIA Y SUMINISTROS";ventas@tecnologiaysuministros.com;www.tecnologiaysuministros.co;"(57) (4) 2325022";"Cr43 A 34-95 L-248 C.C. Almacentro Colombia, Medellín"
"CLIMATIZAT AIR REFIGERACION COMERCIAL E INDUSTRIAL";;;"(57) (7) 6165109";"Cl 43 18-08 L-1 Rincón De Girón Colombia, Bucaramanga"
FRIOCENTER;marvinfortich1974@yahoo.com;www.friocenter.com.co;"(57) (5) 3608221";"Cr43 55-08 L-2 Colombia, Barranquilla"
"AIMCO S.A.S";ventas@cocinasaimco.com;www.cocinasaimco.com;"(57) (1) 4751177";"Cr23 69-18 Colombia, Bogotá"
"REFRIGERACIÓN 7/24 S.A.S.";directorservicios1@refrigeracion724.com;www.refrigeracion724.com;"(57) (1) 3913720";"Cr81 D 13 A-27 Colombia, Bogotá"
"DISOL S.A.S.";disol@soldaduras.com;www.soldaduras.com.co;"(57) (1) 2851990";"Cr18 A 39 B-32 Colombia, Bogotá"
"EQUIPOS SURTIHOTELES";ventas.surtihot@hotmail.com;www.equipossurtihoteles.com;"(57) (1) 3475598";"Dg54 22 A-08 Colombia, Bogotá"
"INVERSIONES MENDEZ GROUP S.A.S";sandraymendez@yahoo.com;www.inversionesmendez.com;"(57) (1) 4306693";"Tr93 53-32 Bdg 74 Colombia, Bogotá"
"INGENIERIA DE REFRIGERACION INDUSTRIAL ROJAS HNOS. S.A.";gerencia.comercial@rojas-hermanos.com;www.rojas-hermanos.com;"(57) (1) 2882011";"Cr15 48-55 Colombia, Bogotá"
"SOMECOL S.A.S.";somecol@somecol.com;www.somecol.com;"(57) (1) 8053366";"Cr28 6-71 Colombia, Bogotá"
SERVI-REFRIAIRE;gerencia@servirefriaire.com;www.servirefriaire.com;"Conm.: (57) (4) 3600240";"Cr50 D 6   S-34 Colombia, Medellín"
"AIRES & AIRES";ventas@airesyaires.com;www.airesyaires.com;"(57) (4) 4445380";"Cr70 51-69 Colombia, Medellín"
REFRISISTEMAS;recepcion@refrisistemas.co;www.refrisistemas.co;"(57) (5) 3720606";"Cr46 54-55 Colombia, Barranquilla"
"TECAM S.A. TECNOLOGÍA AMBIENTAL";martha.carmona@tecam-sa.com.;www.tecam-sa.com;"(57) (2) 6812618";"Cl 55 7   N-06 Colombia, Cali"
"QUIMICA INDUSTRIAL & COMERCIAL LTDA.";qicltda@hotmail.com;www.quimicaindustrialycomercial.com;"(57) (1) 5429096";"Cl 77 A 82-10 Colombia, Bogotá"
"NUVAL - NUTRICIÓN VITAL";nuval@nuval.com.co;www.nuval.com.co;"(57) (4) 2607416";"Cl 55 71 A-115 Colombia, Medellín"
"ACCEL REFRICENTRO";accelrefricentro@gmail.com;www.accelrefricentro.com;"(57) (2) 6816681";"Cl 56F1 45 A-21 Colombia, Cali"
"ALMACÉN NUEVOHOGAR S.A.S.";gerencianuevohogar@une.net.co;www.almacennuevohogar.com;"(57) (4) 5133131";"Cl 50 54-50 Colombia, Medellín"
"INDUSTRIAS THERMOTAR LTDA.";info@thermotar.com;www.thermotar.com;"(57) (5) 3443544";"Cl 58 66 B-23 Colombia, Barranquilla"
"REFRICENTRO COLOMBIA S.A.S.";tavoagudelo@hotmail.com;www.refricentrocolombia.com;"(57) (5) 3037373";"Cl 44 41-101 Colombia, Barranquilla"
"REFRINORTE S.A.S.";2;www.refrinorte.com;"(57) (5) 3851080";"Cr43 59-21 Colombia, Barranquilla"
"TERMOTEC DEL CARIBE S.A.S.";servicioalcliente@termotecdelcaribe.com;www.termotecdelcaribe.com;"(57) (5) 3682099";"Vía 40 77 A-18 L-3 Colombia, Barranquilla"
"REFRIPARTES Y MOTORES S.A.S.";refripartesbq@hotmail.com;refripartesymotores.com;"(57) (5) 3708787";"Cl 45 43-66 Colombia, Barranquilla"
"MUNDO AIRES LTDA.";mundoairesltda@une.net.co;;"(57) (4) 4771905";"Cr70 99-21 Colombia, Medellín"
"COMPRESORES MIL LTDA.";compresoresmil@hotmail.com;www.compresoresmil.com;"(57) (1) 2243362";"Av Boyacá 68 B-15 Colombia, Bogotá"
"FULL CONFORT S.A.S.";fullconfortctg@gmail.com;www.fullconfort.com.co;"(57) (5) 6563289";"Pie de la Popa Cr19 B-29 B-139 Colombia, Cartagena"
"INGETECNO LTDA.";ingetecnoltda@yahoo.es;www.ingetecno.co;"(57) (8) 6705079";"Cr14 13 B-29 Brr. Estero Colombia, Villavicencio"
"FRIO ARTICO SOLUCIONES INTEGRALES";fasicolsa@hotmail.com;www.aireacondicionadofasicolsa.com;"(57) (1) 4771397";"Cr71 BBis 12-60 Colombia, Bogotá"
"VALENCIA RENTERIA WILSON ALBERTO";albertossee@hotmail.com;www.electronicaycontroles.com;"(57) (4) 5855003";"Cr50 67-10 Colombia, Medellín"
"REFRIGERACIÓN DEL ORIENTE";refrioriente@hotmail.com;www.refrigeraciondeloriente.com;"(57) (7) 6712698";"Boulevar Santander 22-41 Colombia, Bucaramanga"
"A SU SERVICIO WHIRLPOOL";claudia.natura1@hotmail.com;www.asuserviciowhirpool.com;"(57) (4) 2381212";"MEDELLIN Colombia, Medellín"
"CENTRO AIRES NEIVA";centroaires2@hotmail.com;www.centroairesneiva.com;"(57) (8) 8716532";"Cl 3 5-110 Colombia, Neiva"
"AIRESERVICE LTDA.";aireservice@gmail.com;www.aireserviceltda.com;"(57) (1) 2502907";"Cl 70 54-28 Colombia, Bogotá"
"ALMACÉN COLDMEM";servicios@coldmem.com;www.coldmem.com;"(57) (2) 5240312";"Cl 5 22-69 Colombia, Cali"
"FROID S.A.S.";abarrera@froidsas.com;www.froidsas.com.co;"(57) (5) 6679986";"Ceballos Dg30 54-254 Colombia, Cartagena"
"ELECTRÓNICAS Y REFRIGERACIÓN";servicioalcliente@solucionesyrefrigeracion.com;www.solucionesyrefrigeracion.com;"(57) (5) 3032735";"Cr45 64-18 Colombia, Barranquilla"
"A.F. REFRIGERACIÓN S.A.S.";administracion@afrefrigeracion.com.co;www.afrefrigeracion.com.co;"(57) (2) 5248988";"Cl 42   N 4   N-174 Colombia, Cali"
"ALMACÉN REFRIGERACIÓN";minervine5@almacenesrefrigeracion.net;www.almacenesrefrigeracion.net;"(57) (2) 8844328";"Cl 14 3-00 Colombia, Cali"
"First Name";"Email Address";Url;Telephone;Address
"REFRIACERO CENTRAL";refriacero.central@gmail.com;www.refriacerocentral.com;"(57) (4) 3762286";"Cr47 63-11 Itagüí Colombia, Itagüí"
"IMPORTADORA A/C CARS LTDA.";impoaccars@hotmail.com;www.accarsltda.com;"(57) (5) 3692855";"Cl 79 44-12 Colombia, Barranquilla"
"FRIOSANDER S.A.S.";friosandersas@gmail.com;www.friosander.com;"(57) (7) 6715991";"Cl 8 21-78 Comuneros Colombia, Bucaramanga"
"CLIMA AIRE LTDA.";clima_aire@yahoo.es;www.climaaire.com;"(57) (8) 8753522";"Cl 34 A 12-13 Colombia, Neiva"
COMERCOLD;comercold@hotmail.com;www.comercold.com.co;"(57) (2) 4412154";"Cr15 49-45 Colombia, Cali"
"QUINDI AIRES S.A.S.";quindiaires@gmail.com;quindiaires.com;"(57) (6) 7392218";"Et II Manz R Casa 15 Manantiales Colombia, Armenia"
IMAAS;imaas@imaas.com;www.imaas.com;"(57) (6) 3301000";"Zona Industrial la Macarena 2 Bdg 6 Colombia, Dosquebradas"
"CONFORTOTAL S.A.S.";informacion@confortotalsas.com;www.confortotalsas.com;"(57) (2) 5522132";"Cl 9 D 40 A-46 Colombia, Cali"
"FROST TEC S.A.S.";frio011@hotmail.com;www.frost-tec.com;"(57) (6) 3343489";"Cl 19 Bis 10-04 Centro Colombia, Pereira"
"FULL AIRE";edwin19571@hotmail.com;www.fullairecartagena.com;"(57) (5) 6743788";"Escallón Villa Calle Buenos Aires Cr54-30 D-62 Colombia, Cartagena"
"REFRONCA IMPORT S.A.S.";refroncaimport@gmail.com;www.refronca.com;"(57) (7) 5723887";"Cl 8 9-21 Centro Colombia, Cúcuta"
PROFRIO;profriorefrigeracion@hotmail.com;www.profriorefrigeracion.com;"(57) (6) 8819954";"Cr26 46-49 Colombia, Manizales"
"INGENIERÍA DE CONFORT";ingenieria_deconforteu@yahoo.es;www.ingenieriadeconfort.com;"(57) (4) 7822197";"Cl 29 11-69 Centro Colombia, Montería"
"COMERCIALIZADORA PUNTO FRIO";puntofriosas@gmail.com;www.puntofriosas.com;"(57) (7) 6336645";"Cr19 29-33 Colombia, Bucaramanga"
"COOLING THE WORLD REFRIGERATION COMPANY S.A.S.";servicitalcliente@coolimgtheworld.com;www.coolingtheworld.co;"(57) (5) 3177795";"Cl 77 65-37 L 214 Colombia, Barranquilla"
"DELTA INGENIERIA S.A.";;www.deltaingenieriasa.com;"(57) (5) 6698617";"La Villa Cl 31-50 A-57 Av Pedro de Heredia Colombia, Cartagena"
"A.C. INGENIERÍA E.C. LTDA.";acingenier@gmail.com;;"(57) (5) 6625704";"Bosque Urb El Refugio B-2 Ap 4-B Colombia, Cartagena"
"INDUSTRIAS J.T.";industriasjt@hotmail.com;;"(57) (8) 8720182";"Cl 10 2-07 Colombia, Neiva"
"FORMEX S.A.S.";juliovelez@almacenformex.com;;"(57) (4) 4444543";"Cr46 38-50 Sandiego Colombia, Medellín"
"CENTRO TECNICO WHIRPOOL-SAMSUNG-LG";refrielectricosdelnorte@hotmail.com;;"(57) (1) 07314744";"Tr22 69 C-70 S Colombia, Bogotá"
"NIBEC LTDA";comercial@nibecltda.com;www.nibecltda.com;"(57) (1) 2474850";"Cr27 10-86 Colombia, Bogotá"
REFRIPOLO;;;"(57) (5) 6664276";"L-Amador Cl Real 32-44 Colombia, Cartagena"
"MULSTISERVICIOS H.B.";hbedoya1745@hotmail.com;;"(57) (4) 7821658";"Cr15 B 34-50 El Edén Colombia, Montería"
"REFRIACERO 1A S.A.S.";refriacero1a@hotmail.com;;"(57) (5) 3642051";"Cr7 D 45-03 Colombia, Barranquilla"
"C.I.S. LTDA.";ventas@cisltda.com;;"(57) (5) 6621994";"Bosque Dg21 48-82 Carrtera Principal Colombia, Cartagena"
FRINCO;leonardogris15@hotmail.com;;"(57) 3207768077";"Cr10 22-38 Colombia, Pereira"
ELECTROCENTRO;electrocentrocentro@hotmail.com;;"(57) (8) 6623091";"Cl 37 29-11 Centro Colombia, Villavicencio"
"ALMACÉN ABA ABACE";abacel.whirpool@hotmail.com;;"(57) (6) 3361414";"Cl 34 8 B-28 Colombia, Pereira"
"NEVERAS Y LAVADORAS";neverasylavadoras@hotmail.com;;"(57) (4) 3743277";"Cr53 34 B-82 Ap 202 Itagüí Colombia, Medellín"
"BOBINADOS Y CIRCUITOS INDUSTRIALES S.A.S.";bobinadosycircuitosindustriales@gmail.com;;"(57) (2) 4456502";"Cr6 30-50 Colombia, Cali"
"FABRICACION DE EQUIPOS DE REFRIGERACION";edison26rodriguez@hotmail.com;;"(57) (1) 6943630";"Cl 72 58-18 L-1 Colombia, Bogotá"
EUROFRÍO;eurofriocali@hotmail.com;www.facebook.com/pages/Eurofrio-Refrigeracion/412635245435697?fref=ts;"(57) (2) 4411443";"Cl 70 27-17 Colombia, Cali"
REFRI-CONGELAR;refricongelar@refricongelar.com;www.refricongelar.com;"(57) (4) 2915122";"Cr51 59-42 Colombia, Medellín"
"TECNIELÉCTRICOS DEL HOGAR";tecnielectricosdelhogar@hotmail.com;;"(57) (4) 4375641";"Cr80 80-47 Colombia, Medellín"
"ELÉCTRICOS CHIGORODO";electricoschigorodo2@hotmail.com;;"(57) (4) 8253365";"Cl 97 101-27 Colombia, Chigorodó"
REFRIARISMENDI;darismendi8@hotmail.com;;"(57) (7) 6460684";"Cr23 31-78 Girón Colombia, Bucaramanga"
"ANSVA REFRIGERACION";ansvarefrigeracion@hotmail.com;;"Telefax: (57) (8) 8776646";"Cr54 22 A-41 Las Palmas Colombia, Neiva"
"MULTIAIRES R&R S.A.S.";multiariesryr@hotmail.com;www.facebook.com/multiairesrr;"(57) (5) 3688083";"Cl 64 44-05 L-4 Colombia, Barranquilla"
"FOGEL ANDINA S.A.S.";fogel@fogelandina.com;fogel-group.com;"(57) (2) 2800802";"Cl 15   N 32-234 Acopi Yumbo Colombia, Cali"
"FRIOTIENDAS INDUSTRIAL S.A";oscarramirezo33@hotmail.com;www.friotiendas.com;"(57) (1) 3510500";"Cr27 12 B-31 Colombia, Bogotá"
"First Name";"Email Address";Url;Telephone;Address
"POLAIRES DE LA COSTA S.A.S.";polairesdelacosta@hotmail.com;www.polairesdelacosta.com;"(57) 3015934846";"Cr45 79-38 Colombia, Barranquilla"
"CLIMAELECTRIC S.A.S.";climaelectricsas@hotmail.com;www.climaelectricsas.com;"(57) (5) 6581719";"Cr19 32-107 Av Pedro de Heredia Sector El Espinal Colombia, Cartagena"
"FRIOCOSTA S.A";friocostaavianca@hotmail.com;www.friocostasa.com;"(57) (1) 6162477";"Cr53 102-48 Colombia, Bogotá"
"CONGELAR SERVICIOS";congelarservicios999@hotmail.com;www.congelar.com.co;"(57) (1) 2100452";"Cl 70 A 16-45 Colombia, Bogotá"
"AUTOFRÍO IMPORTACIONES S.A.S.";autofrioimportacionesventa@hotmail.com;www.autofrioimportaciones.com;"(57) (5) 3516718";"Cr41 57-48 Colombia, Barranquilla"
"SERVICIOS ELÉCTRICOS & ELECTRÓNICOS INTEGRALES S.A.S.";electritronicos@hotmail.com;;"(57) (2) 3250281";"Cr36 B 14-41 Colombia, Cali"
"COMPRESORES LTDA.";compresores_ltda@compresoresltda.com.co;www.compresoresltda.com.co;"(57) (5) 3412036";"Cl 39 46-65 Colombia, Barranquilla"
"TECNOAISLAR DE OCCIDENTE S.A.S.";alexanderlara@tecnoaislar.com;www.tecnoaislardeoccidente.com;"(57) (2) 6630669";"Cr7 B 72 B-57 Colombia, Cali"
"WL CONTROLS LTDA";wlcontrols@terra.com;www.wlcontrols.com;"Telefax: (57) (1) 2370374";"Cr27 11-86 Colombia, Bogotá"
ELECTROMAR;electromar-mf@gmail.com;;"(57) (4) 2709684";"Cl 40   S 40-30 Envigado Colombia, Medellín"
SERTINTEG;sertinteg@hotmail.com;;"(57) 3008901084";"Bucaramanga Colombia, Bucaramanga"
REFRIJOHN;refrijohn-rj@hotmail.com;;"(57) (6) 3340600";"Cl 19 Bis 10-70 Colombia, Pereira"
"COMERCIALIZADORA PUNTO FRIO S.A.S.";puntofriosas@gmail.com;;"(57) (7) 6113904";"Cr20 55-56 Br Torcoroma Colombia, Barrancabermeja"
"SERVICIO TECNICO CENTRALES WHIRPOOL ANTIOQUIA";centralesantioquia@hotmail.com;;"(57) (4) 3336644";"Cl 39   S 31-44 Envigado Colombia, Medellín"
"CARROCERIAS PLATINUM S.A.S.";gerencia.platinumsas@gmail.com;;"(57) (4) 2886249";"Cr47 F 80 S-20 Sabaneta Colombia, Sabaneta"
PUENTES;tecniservicios1@hotmail.com;;"(57) (7) 6378301";"Bucaramanga Colombia, Bucaramanga"
"FRIO PARTES ANDÓN";fpandon@hotmail.com;;"(57) (5) 3686844";"Cr43 63-30 Colombia, Barranquilla"
"PLASTICOS SILVATRIM DE COLOMBIA S.A.";servicioalcliente@silvatrim;www.silvatrim.com.co;"(57) (1) 2312392";"Cr69 K 78-34 Colombia, Bogotá"
"INVEPAR S.A.S (METALSOUZA)";info@inveparsas.com;www.inveparsas.com;"(57) (1) 6301894";"Tr69 B BIS 73-49 Colombia, Bogotá"
"AIRE ACONDICIONADO FRIGOS";;;"(57) (4) 2313544";"Cr53 58-72 Of 202 Colombia, Medellín"
"ALMACÉN REFRIQUEZADA";;;"(57) (7) 6212259";"Cl 49 19-38 Br Colombia Colombia, Barrancabermeja"
"RED ORIGEN";comunicaciones@redorigen.co;www.redorigen.co;"(57) (4) 5142444";"Cr53 59-02 Colombia, Medellín"
"FRIO MASTER";said.galvan1@hotmail.com;;"(57) (7) 3103617129";"Av3 7   N-74 Colombia, Cúcuta"
"ACE AIRE";auditorianacional@aceaire.com;www.lgshop.com.co;"(57) (8) 6306223";"Av40 29 3/5 Esq Colombia, Villavicencio"
"ASYCO S.A.";bucaramanga@asyco.co;www.colchonesspring.com;"(57) (7) 5832913";"Cl 18 0 E-49 Caobos Colombia, Cúcuta"
AIRECAR;aire.carjairo@outlook.com;;"(57) 3112086365";"Cr48 A 57-39 Colombia, Bucaramanga"
"CENTRAL DE AIRES ACONDICIONADOS";centraldeaires@gmail.com;;"Conm.: (57) (7) 5849334";"Cl 2 14-02 Nueva Esperanza Colombia, Cúcuta"
"AGENCIA MUNDIAL DE AIRES";airesadomiciliomedellin@hotmail.com;www.agenciamundialdeaires.com;"(57) (4) 2552485";"Cl 2 A 52-02 Colombia, Medellín"
"TECNITERMOS S.A.S.";tecnitermos@une.net.co;;"(57) (4) 4489042";"Cr42 24-96 Itaguí Colombia, Itagüí"
"SERVICIO AMERICANO";jose.d.galeano@hotmail.com;;"(57) 3173961631";"Cl 45 15-46 Colombia, Pereira"
"CENTRAL DE AIRES";centraldeaires@une.net.co;www.centraldeaires.com;"(57) (4) 4484499";"Cr43 A 23-18 Colombia, Medellín"
"First Name";"Email Address";Url;Telephone;Address
"ICEMEN S.A.S";serviciotecnico@icemen.com.co;www.icemen.com.co;"(57) (4) 2847775";"Cl 57 40 A-38 Colombia, Medellín"
"DR. FRIO";;;"(57) (7) 6224050";"Cr20 51-06 Colombia Colombia, Barrancabermeja"
FRIONORTES;;;"(57) (7) 5713814";"Cl 8 0-44 Latino Colombia, Cúcuta"
SERVIHERNANDEZ;;;"(57) (7) 5871224";"Av9 A 14 A   N-35 Villanueva Zona Industrial Colombia, Cúcuta"
"CURVIT S.A.S";vidrios.curvit@yahoo.es;www.vidriocurvocurvit.com;"(57) (1) 6917806";"Cr60 D 90-50 Colombia, Bogotá"
"JECAR REFRIGERACION";;;"(57) 3132655018";"Cr10 8-40 Br Santana Colombia, Bucaramanga"
FRIO-COOL;frio-cool.0623@hotmail.com;;"(57) (7) 6001685";"Cl 53 23-05 Esq Torcoroma Colombia, Barrancabermeja"
"ALMACÉN REFRIANDES";almacen.refriandes@hotmail.com;;"(57) (6) 8845085";"Cl 32 22-60 Colombia, Manizales"
"AIRE & MONTAJES LTDA.";aireymontajes@une.net.co;;"(57) (4) 3119538";"Cr43 F 14 A-88 Colombia, Medellín"
"TECNIELÉCTRICOS DEL HOGAR";tecnielectricosdelhogar@hotmail.com;;"(57) (4) 4375641";"Cr80 80-47 Colombia, Medellín"
"ALMACÉN ARTITAL & CÍA. LTDA.";almartital@telecom.com.co;www.almacenartital.com;"(57) (5) 6625273";"María Auxiliadora Cl 30 39-73 Av Pedro de Heredia Colombia, Cartagena"
REFRIARISMENDI;darismendi8@hotmail.com;;"(57) (7) 6460684";"Cr23 31-78 Girón Colombia, Bucaramanga"
"AIRES DCH S.A.S";;www.airesdch.com;"(57) 3187927253";"Dg21 B 17-101 Manz H Casa 17 San Jorge II Girón Colombia, Bucaramanga"
"MULTISERVICES A.C.";mauricio01221@hotmail.com;;"(57) (8) 1000000";"Cl 50 A 25-38 Colombia, Neiva"
"SOLUAIRE S.A.S";soluairesas@hotmail.com;;"(57) 3105052885";"Cl 112 24-40 Los Olivos Colombia, Barranquilla"
"CENTRAL DE AIRES DEL PACÍFICO LTDA.";ameliameba@hotmail.com;;"(57) (2) 2415012";"Cl 6 3-09 Calimita Colombia, Buenaventura"
"ELECTROREFRIGERACIÓN INDUSTRIAL H & J S.A.S.";electrorefrigeracionindustrial@yahoo.com;www.electrorefrigeracion.com;"(57) (1) 8111385";"Cl 21 106-71 Colombia, Bogotá"
"AIRTEMPE S.A.S";airtempe@empresario.com.co;www.empresario.com.co/airtempe/;"(57) (1) 2011589";"Cl 5 A 25 A-57 Colombia, Bogotá"
"FRIO ARTE";frioarte@hotmail.com;www.frioarte.com;"(57) (4) 5113276";"Cr52 58-12 Colombia, Medellín"
"BOBINADOS Y CIRCUITOS INDUSTRIALES S.A.S.";bobinadosycircuitosindustriales@gmail.com;;"(57) (2) 4456502";"Cr6 30-50 Colombia, Cali"
"REFRIACERO CENTRAL";refriacero.central@gmail.com;www.refriacerocentral.com;"(57) (4) 3762286";"Cr47 63-11 Itagüí Colombia, Itagüí"
"REFRILLANOS, PARTES Y SUMINISTROS";;;"(57) (8) 6682428";"Cl 26 C 39-07 Brr. 7 de Agosto Colombia, Villavicencio"
"ANSVA REFRIGERACION";ansvarefrigeracion@hotmail.com;;"Telefax: (57) (8) 8776646";"Cr54 22 A-41 Las Palmas Colombia, Neiva"
REFRI-CONGELAR;refricongelar@refricongelar.com;www.refricongelar.com;"(57) (4) 2915122";"Cr51 59-42 Colombia, Medellín"
"IMPORTADORA A/C CARS LTDA.";impoaccars@hotmail.com;www.accarsltda.com;"(57) (5) 3692855";"Cl 79 44-12 Colombia, Barranquilla"
"DISPENSAR REFRIGERACIÓN S.A.S.";dispensar@une.net.co;www.dispensarrefrigeracion.com;"(57) (4) 3632666";"Cr58 77-50 Int 1422 Itagüí Colombia, Medellín"
FRIOMAX;friomaxpereira@hotmail.com;;"(57) (6) 3337143";"Cr14 24-64 Centenario Colombia, Pereira"
"FERRETERÍAS COLOMBIA MÍA";ferreteriascolombiamia@hotmail.com;;"(57) (8) 2630066";"Cr4 16-47 Colombia, Ibagué"
"CLIMA AIRE LTDA.";clima_aire@yahoo.es;www.climaaire.com;"(57) (8) 8753522";"Cl 34 A 12-13 Colombia, Neiva"
"AGENCIA INGENIERÍA Y SERVICIOS TECNIFRÍO LTDA.";tecnifrioltda@telecom.com.co;;"(57) (8) 8720608";"Cl 15 3-82 Colombia, Neiva"
LUBRIREPUESTOS;maritza_escalante_meneses@hotmail.com;;"(57) (7) 5791676";"Av6 1-51 La Merced Colombia, Cúcuta"
"REFRILAVADORAS CV";;;"(57) (5) 6601172";"Manga Cl 25 22-29 Colombia, Cartagena"
"EFICIENCIA 21 S. EN C.S.";eficiencia21@gmail.com;www.eficiencia21.com;"(57) (5) 3686985";"Cr41 69 D-83 L-15 Colombia, Barranquilla"
FRIOPOLAR;gustavo.hoyos57@hotmail.com;;"(57) (8) 2631370";"Cl 16 2-105 Colombia, Ibagué"
"SOLO AIRES LTDA.";soloaires10@hotmail.com;;"(57) (5) 3609641";"Cr46 79-222 L-1 Colombia, Barranquilla"
REFRITURBO;refriturbo@hotmail.com;;"(57) (4) 8278080";"Cr13 99 A-09 Colombia, Turbo"
"AIRCON S.A.S.";gerencia@aircon.com.co;aircon.com.co;"(57) (5) 2750707";"Cl 25 22-30 Calle El Cauca Colombia, Sincelejo"
"MULSTISERVICIOS H.B.";hbedoya1745@hotmail.com;;"(57) (4) 7821658";"Cr15 B 34-50 El Edén Colombia, Montería"
"REFRIACERO 1A S.A.S.";refriacero1a@hotmail.com;;"(57) (5) 3642051";"Cr7 D 45-03 Colombia, Barranquilla"
"INSTAFRÍO S.A.S.";instafrio@yahoo.com;;"(57) (5) 3049331";"Cl 60 43-153 L-1 Esq Colombia, Barranquilla"
"CENTRO POLICLINICO DEL STOP";;;"(57) (7) 6472695";"Cr12 18-34 Colombia, San Gil"
"CLIMA AIRES";climaaires@hotmail.com;;"(57) (2) 6202916";"Cl 15 1-105 Colombia, Cali"
"FRIOTIENDAS INDUSTRIAL S.A";oscarramirezo33@hotmail.com;www.friotiendas.com;"(57) (1) 3510500";"Cr27 12 B-31 Colombia, Bogotá"
"ALMACÉN ABA ABACE";abacel.whirpool@hotmail.com;;"(57) (6) 3361414";"Cl 34 8 B-28 Colombia, Pereira"
"DISEÑO DE AIRE ACONDICIONADO";efrainpuerto@gmail.com;www.efrainpuerto.wordpress.com;"(57) (1) 6822160";"Cl 129 F 91-16 Colombia, Bogotá"
"REFRIGERAR INGENIEROS S.A.S.";refrigerar.ingenieros@hotmail.com;;"(57) (5) 3200207";"Cr43 43-27 Colombia, Barranquilla"
"COMERCIALIZADORA CHAVES MONTENEGRO";achaves20031@hotmail.com;www.comercializadorachaves.com;"(57) (1) 6048764";"Cl 70 A 15-15 Of 201 Colombia, Bogotá"
"ELÉCTRICOS CHIGORODO";electricoschigorodo2@hotmail.com;;"(57) (4) 8253365";"Cl 97 101-27 Colombia, Chigorodó"
"ASISTENCIA TÉCNICA AL INSTANTE S.A.S.";damapbm15@hotmail.com;www.asistenciatecnicaalinstante.com;"(57) (5) 3461059";"Cr22 D 65 B-54 Colombia, Barranquilla"
"First Name";"Email Address";Url;Telephone;Address
"First Name";"Email Address";Url;Telephone;Address
REFRI-CONGELAR;refricongelar@refricongelar.com;www.refricongelar.com;"(57) (4) 2915122";"Cr51 59-42 Colombia, Medellín"
"INTELMEC LTDA.";;www.intelmec.com.co;"(57) (7) 6520308";"Cl 48 22-45 Colombia, Bucaramanga"
"REFRIACERO CENTRAL";refriacero.central@gmail.com;www.refriacerocentral.com;"(57) (4) 3762286";"Cr47 63-11 Itagüí Colombia, Itagüí"
"SERVIAIRES DEL NORTE";;;"(57) (5) 4305725";"Cl 29 B 1-92 Los Cocos Colombia, Santa Marta"
"REFRILAVADORAS CV";;;"(57) (5) 6601172";"Manga Cl 25 22-29 Colombia, Cartagena"
"CLIMA AIRE LTDA.";clima_aire@yahoo.es;www.climaaire.com;"(57) (8) 8753522";"Cl 34 A 12-13 Colombia, Neiva"
REFRIPOLO;;;"(57) (5) 6664276";"L-Amador Cl Real 32-44 Colombia, Cartagena"
"AIRE CONFORT";aireconfort_sai@yahoo.es;;"(57) (8) 5122534";"Brr. Obrero Cr3 Vía San Luis Colombia, San Andrés"
"INDUMOL LTDA.";indumol@une.net.co;www.indumol.com;"(57) (4) 4443390";"Cr56 29-136 Colombia, Medellín"
"AIRES DCH S.A.S";;www.airesdch.com;"(57) 3187927253";"Dg21 B 17-101 Manz H Casa 17 San Jorge II Girón Colombia, Bucaramanga"
"FABRICACION DE EQUIPOS DE REFRIGERACION";edison26rodriguez@hotmail.com;;"(57) (1) 6943630";"Cl 72 58-18 L-1 Colombia, Bogotá"
"AIRE INDUSTRIAL DEL CARIBE LTDA.";cartagena@aireindustrialcaribe.com;aireindustrialcaribe.com;"(57) (5) 6621955";"Bosque Dg21 49-103 Colombia, Cartagena"
"INSTAFRÍO S.A.S.";instafrio@yahoo.com;;"(57) (5) 3049331";"Cl 60 43-153 L-1 Esq Colombia, Barranquilla"
SEPROLAIRES;ass-seprol.aires@hotmail.com;www.seprolaires.com;"(57) 3172337312";"Cl 50 17-15 Colombia, Neiva"
"FERRETERÍAS COLOMBIA MÍA";ferreteriascolombiamia@hotmail.com;;"(57) (8) 2630066";"Cr4 16-47 Colombia, Ibagué"
"AGENCIA INGENIERÍA Y SERVICIOS TECNIFRÍO LTDA.";tecnifrioltda@telecom.com.co;;"(57) (8) 8720608";"Cl 15 3-82 Colombia, Neiva"
"ALMACÉN REFRIANDES";almacen.refriandes@hotmail.com;;"(57) (6) 8845085";"Cl 32 22-60 Colombia, Manizales"
COMERCOLD;comercold@hotmail.com;www.comercold.com.co;"(57) (2) 4412154";"Cr15 49-45 Colombia, Cali"
REFRIOCCIDENTE;marisol.0023@hotmail.com;www.refrioccidente.com;"(57) (6) 3306179";"Manz 3 Bdg 19 A Parque Indutrial la Badea Dosq Colombia, Pereira"
"ALMACÉN ABA ABACE";abacel.whirpool@hotmail.com;;"(57) (6) 3361414";"Cl 34 8 B-28 Colombia, Pereira"
"RISS TECHNOLOGY S.A.S.";gerencia@risstechnology.com;www.risstechnology.com;"(57) (4) 4441109";"Cr78 32 EE-25 Colombia, Medellín"
"QUINDI AIRES S.A.S.";quindiaires@gmail.com;quindiaires.com;"(57) (6) 7392218";"Et II Manz R Casa 15 Manantiales Colombia, Armenia"
FRIOMAX;friomaxpereira@hotmail.com;;"(57) (6) 3337143";"Cr14 24-64 Centenario Colombia, Pereira"
"AIRTEMPE S.A.S";airtempe@empresario.com.co;www.empresario.com.co/airtempe/;"(57) (1) 2011589";"Cl 5 A 25 A-57 Colombia, Bogotá"
"FRIOTIENDAS INDUSTRIAL S.A";oscarramirezo33@hotmail.com;www.friotiendas.com;"(57) (1) 3510500";"Cr27 12 B-31 Colombia, Bogotá"
IMAAS;imaas@imaas.com;www.imaas.com;"(57) (6) 3301000";"Zona Industrial la Macarena 2 Bdg 6 Colombia, Dosquebradas"
"IBRO S.A.S.";venta@ibrosa.com;www.ibrosa.com;"(57) (5) 6695324";"Bosque Dg21 52 A-23 Av Principal Colombia, Cartagena"
"THERMO TRUCK IMPORTADOR DE THERMO KING";thermotruck@gmail.com;;"(57) (1) 4616197";"Cra. 80 D No. 13-29 Brr. El Tintal Colombia, Bogotá"
"REFRIGERACION YEN-FRIO";;;"(57) (5) 6611592";"San Pedro Manz 37 Lt 6 L-4 diagonal Bomba Texaco Colombia, Cartagena"
"CONFORTOTAL S.A.S.";informacion@confortotalsas.com;www.confortotalsas.com;"(57) (2) 5522132";"Cl 9 D 40 A-46 Colombia, Cali"
"TALLER DE REFRIGERACION WILLCAR";;;"(57) (8) 6700179";"Cr36 22-23 San Benito Colombia, Villavicencio"
"FRIOTERMO LTDA.";;;"(57) (1) 2562156";"Cl 102 45 A-28 Colombia, Bogotá"
"AIRE ACONDICIONADO AIRES ASOCIADOS LTDA.";;;"(57) (6) 3367506";"Cr6 26-74 Of 201 Colombia, Pereira"
"COMERCIALIZADORA PUNTO FRIO";puntofriosas@gmail.com;www.puntofriosas.com;"(57) (7) 6336645";"Cr19 29-33 Colombia, Bucaramanga"
"GLACIAL S.A.S.";;;"(57) (4) 7899185";"Cr5 41-42 Colombia, Montería"
"FRÍOS DEL NORTE";;;"(57) (6) 3383321";"Cr11 44-256 Colombia, Pereira"
"REFRIAMIGOS LTDA.";;;"(57) (4) 5164797";"Cr53 62-39 Colombia, Medellín"
"REFRIROJAS TOVAR";;;"(57) 3202002684";"calle 20 52-46 Colombia, Neiva"
"FROST TEC S.A.S.";frio011@hotmail.com;www.frost-tec.com;"(57) (6) 3343489";"Cl 19 Bis 10-04 Centro Colombia, Pereira"
"REFRIGERACIÓN AUTOMOTRIZ MARMOLEJO";;;"(57) (5) 3685920";"Cr47 72-178 Colombia, Barranquilla"
"CASA DE REPARACIONES";;;"(57) (1) 2400566";"Cr69 D 68-20 Colombia, Bogotá"
"REFRIPARTES Y SERVICIOS";;;"(57) (5) 6533626";"San Pedro Plan 24 Manz 37 Lt 8 L-1 Colombia, Cartagena"
"FULL AIRE";edwin19571@hotmail.com;www.fullairecartagena.com;"(57) (5) 6743788";"Escallón Villa Calle Buenos Aires Cr54-30 D-62 Colombia, Cartagena"
"THERMOANDINA S.A.S";;;"(57) (1) 4159809";"Cr102 A 25 D-60 Colombia, Bogotá"
"INGENIERIA & ELÉCTRICOS S.A.S.";;;"(57) (7) 6422428";"Cr19 29-03 Colombia, Bucaramanga"
"COLFRIOS PITALITO";;;"(57) (8) 8365994";"Cr2 9-39 Colombia, Pitalito"
"AIRE ACONDICIONADO AUTO FRESH";;;"(57) (5) 3607770";"Cl 75 45-56 L-1-C Colombia, Barranquilla"
"INGENIERÍA DE CONFORT";ingenieria_deconforteu@yahoo.es;www.ingenieriadeconfort.com;"(57) (4) 7822197";"Cl 29 11-69 Centro Colombia, Montería"
"IMPORTACIONES & PARTES UNIVERSAL";;;"(57) (4) 5117264";"Cr52 58-74 Colombia, Medellín"
"INGENIERÍA EN REFRIGERACIÓN Y AIRE ACONDICIONADO";;;"(57) (1) 6944287";"Cr141 A 137-52 Colombia, Bogotá"
"AIRE FRIO REPARACIÓN Y MANTENIMIENTO";;;"(57) (5) 4102800";"Cr. 5 19 89 Cienaga Colombia, Ciénaga"
"COOLING THE WORLD REFRIGERATION COMPANY S.A.S.";servicitalcliente@coolimgtheworld.com;www.coolingtheworld.co;"(57) (5) 3177795";"Cl 77 65-37 L 214 Colombia, Barranquilla"
"SUPER NORDICO";;;"(57) (8) 6632029";"Cr22 8 C-112 Vía Puerto López Colombia, Villavicencio"
"REFRONCA IMPORT S.A.S.";refroncaimport@gmail.com;www.refronca.com;"(57) (7) 5723887";"Cl 8 9-21 Centro Colombia, Cúcuta"
PROFRIO;profriorefrigeracion@hotmail.com;www.profriorefrigeracion.com;"(57) (6) 8819954";"Cr26 46-49 Colombia, Manizales"
"INDUSTRIAS J.T.";industriasjt@hotmail.com;;"(57) (8) 8720182";"Cl 10 2-07 Colombia, Neiva"
"A.C. INGENIERÍA E.C. LTDA.";acingenier@gmail.com;;"(57) (5) 6625704";"Bosque Urb El Refugio B-2 Ap 4-B Colombia, Cartagena"
"DELTA INGENIERIA S.A.";;www.deltaingenieriasa.com;"(57) (5) 6698617";"La Villa Cl 31-50 A-57 Av Pedro de Heredia Colombia, Cartagena"
"FORMEX S.A.S.";juliovelez@almacenformex.com;;"(57) (4) 4444543";"Cr46 38-50 Sandiego Colombia, Medellín"
"CLIMATIZADO DEL CARIBE";climatizadodelcaribe@hotmail.com;www.climatizadodelcaribe.com;"(57) (5) 6622361";"Brr. República de Chile Manz 75 Lt 19 Colombia, Cartagena"
"FABRICACION DE EQUIPOS DE REFRIGERACION";edison26rodriguez@hotmail.com;;"(57) (1) 6943630";"Cl 72 58-18 L-1 Colombia, Bogotá"
"REFRIACERO 1A S.A.S.";refriacero1a@hotmail.com;;"(57) (5) 3642051";"Cr7 D 45-03 Colombia, Barranquilla"
SERVITEDH;servitedh@hotmail.com;www.servitedh.com;"(57) (8) 8636231";"Cr16 34-22 Colombia, Neiva"
SERVIHERNANDEZ;;;"(57) (7) 5871224";"Av9 A 14 A   N-35 Villanueva Zona Industrial Colombia, Cúcuta"
"SERVICIO TÉCNICO MAFRAS S.A.S.";serviciotecnicomafra@yahoo.es;;"(57) (4) 7839702";"Cr16 17 A-122 Tacasuan Colombia, Montería"
"SERVI TODO";servitodo.cuellar@gmail.com;;"(57) 3105033492";"Cr22 19-05 Colombia, Neiva"
FRIOPOLAR;gustavo.hoyos57@hotmail.com;;"(57) (8) 2631370";"Cl 16 2-105 Colombia, Ibagué"
"ALMACÉN ABA ABACE";abacel.whirpool@hotmail.com;;"(57) (6) 3361414";"Cl 34 8 B-28 Colombia, Pereira"
"ELÉCTRICOS CHIGORODO";electricoschigorodo2@hotmail.com;;"(57) (4) 8253365";"Cl 97 101-27 Colombia, Chigorodó"
"ASISTENCIA TÉCNICA AL INSTANTE S.A.S.";damapbm15@hotmail.com;www.asistenciatecnicaalinstante.com;"(57) (5) 3461059";"Cr22 D 65 B-54 Colombia, Barranquilla"
"SUPERFRÍO LTDA.";;;"(57) (7) 6115518";"Cl 48 19-46 Colombia Colombia, Barrancabermeja"
"DISPENSAR REFRIGERACIÓN S.A.S.";dispensar@une.net.co;www.dispensarrefrigeracion.com;"(57) (4) 3632666";"Cr58 77-50 Int 1422 Itagüí Colombia, Medellín"
"FERRETERÍAS COLOMBIA MÍA";ferreteriascolombiamia@hotmail.com;;"(57) (8) 2630066";"Cr4 16-47 Colombia, Ibagué"
"TECNIELÉCTRICOS DEL HOGAR";tecnielectricosdelhogar@hotmail.com;;"(57) (4) 4375641";"Cr80 80-47 Colombia, Medellín"
FRIOMAX;friomaxpereira@hotmail.com;;"(57) (6) 3337143";"Cr14 24-64 Centenario Colombia, Pereira"
"ALMACÉN ARTITAL & CÍA. LTDA.";almartital@telecom.com.co;www.almacenartital.com;"(57) (5) 6625273";"María Auxiliadora Cl 30 39-73 Av Pedro de Heredia Colombia, Cartagena"
REFRIOCCIDENTE;marisol.0023@hotmail.com;www.refrioccidente.com;"(57) (6) 3306179";"Manz 3 Bdg 19 A Parque Indutrial la Badea Dosq Colombia, Pereira"
FRINCO;leonardogris15@hotmail.com;;"(57) 3207768077";"Cr10 22-38 Colombia, Pereira"
"RISS TECHNOLOGY S.A.S.";gerencia@risstechnology.com;www.risstechnology.com;"(57) (4) 4441109";"Cr78 32 EE-25 Colombia, Medellín"
FRIO-COOL;frio-cool.0623@hotmail.com;;"(57) (7) 6001685";"Cl 53 23-05 Esq Torcoroma Colombia, Barrancabermeja"
"First Name";"Email Address";Url;Telephone;Address
"SUPER NORDICO";;;"(57) (8) 6632029";"Cr22 8 C-112 Vía Puerto López Colombia, Villavicencio"
"SERVICIO DE NEVERAS Y LAVADORAS BERNARDO POSADA";;;"(57) (4) 2115481";"Cl 68 48-103 Colombia, Medellín"
"LINCE REFRIGERACIÓN LTDA.";;;"(57) (1) 7417323";"Av1 de Mayo 52-18 Colombia, Bogotá"
"SERVICIO DE REFRIGERACIÓN GÓMEZ WILSON";;;"(57) 3123303965";"Av20 de Julio E Port Arthur Cl 4-A 5-47 Colombia, San Andrés"
"B.L.AIRES LTDA.C.I.";;;"(57) 3008053787";"Cr70 86-106 Colombia, Barranquilla"
"ALMACÉN CARCO";;;"(57) (5) 5844444";"Cr9 18-13 Colombia, Valledupar"
"FRIO LOS ANDES";;;"(57) 3202154083";"Cl 7 4-29 San Lis Colombia, Cúcuta"
DIAC;;;"(57) (1) 6600305";"Cr68 H 74 B-54 Colombia, Bogotá"
"DARTICO S.A.S.";;;"(57) (2) 8843558";"Cl 24 8-64 Colombia, Cali"
"REFRIGERACIÓN EFREGO";;;"(57) (4) 2126751";"Cr51 67-84 Colombia, Medellín"
"PROFESSIONAL AIRS AIRE ACONDICIONADO";;;"(57) (7) 6363242";"Cl 103 31-63 Colombia, Bucaramanga"
"QUINTERO ALEGRÍA NELSON";;;"(57) (2) 4373120";"Cr33 A 38-04 Colombia, Cali"
"SUPER COLD REFRIAGIL";;;"Nal: (57) (4) 4440573";"Cl 60 53-40 Colombia, Medellín"
"JM REFRIGERACIÓN";;;"(57) 31572270543";"Cr4 Estadio 26-08 Colombia, Ibagué"
SOLUMEC;;;"(57) (5) 6431388";"Urb Barlovento Manz E Lt 2 Colombia, Cartagena"
"FRIO FRIMAC";;;"(57) (1) 3511123";"Av (cl) 19 22 56 Colombia, Bogotá"
"PUNTO FRÍO";;;"(57) (8) 2702288";"Cl 29 7-64 Colombia, Ibagué"
"ALMACEN INDUSTRIAL DE REFRIGERACIÓN REFRICOL";;;"(57) (8) 2751237";"Cr 20 60-97 Ambala Colombia, Ibagué"
"AIRE ACONDICIONADO REFRICENTER CARRIER";;;"(57) (5) 3401771";"Cr46 54-55 Colombia, Barranquilla"
"REFRIARTICO CARIBE";;;"(57) (5) 6562020";"Cl 43 43-3 Esq Colombia, Cartagena"
"ATLANPACIFIC LTDA.";;;"(57) (4) 3114105";"Cr34 7-73 Int 305 Colombia, Medellín"
REFRI-GALERAS;;;"(57) 3127551110";"Cr12 16-26 Fátima Colombia, Pasto"
"THERMO TEK";;;"(57) (2) 7238744";"Cl 5 14-175 Caicedo Alto Colombia, Pasto"
"DISTRIBUCIONES MERCO ELECTRO";;;"(57) (7) 6336114";"Cr5 Occ 36-55 La Joya Colombia, Bucaramanga"
"1ERVICIO ESPECIALIZADO JDHEM";;;"(57) 3132644553";"Manz 10 Casa 4 La Esperanza Colombia, Girardot"
"PROYECTOS Y SERVICIOS LTDA.";;;"(57) (7) 6348821";"Cr22 21-26 Colombia, Bucaramanga"
REFRITODO;;;"(57) (7) 6203885";"Cr28 46-71 Ap 301 El Recreo Colombia, Barrancabermeja"
ELECTROFRÍO;;;"(57) (1) 8600291";"Calera Vda Altamar Colombia, Bogotá"
"TECNI SERVICIOS INGENIERÍA B.A.P";;;"(57) (8) 8709981";"Cr28 11 B-90 Colombia, Neiva"
"REFRI SUR MARY";;;"(57) (8) 8723020";"Cl 15 3-33 Colombia, Neiva"
"TALLER DE REFRIGERACIÓN H DE Z GOMEZ";;;"(57) (7) 5870915";"Av2 0-160 Aeropuerto Colombia, Cúcuta"
"SERVICIOS INDUSTRIALES ICEBERG";;;"(57) (7) 6486142";"Cl 5 14-05 Altamira I Colombia, Bucaramanga"
"C.I. ROJAS RUBIO S.C.S. - ECOFRÍO";;;"(57) (1) 6230118";"Cr19 A 79-18 Of 210 Colombia, Bogotá"
"TECNISERVICIOS GUEVARA";;;"(57) (2) 8219482";"Cl 9 A 20-77 Colombia, Popayán"
CONGELAR;;;"(57) (1) 2246773";"Cl68A 91-54 Colombia, Bogotá"
"RAMOS ASTAÍZA HÉCTOR HENRY";;;"(57) (8) 8735082";"Cl 18 C S 29-05 Colombia, Neiva"
"COLD HOME REFRIGERACIÓN LTDA.";;;"(57) (7) 5781475";"Cl 1 4-67 La Merced Colombia, Cúcuta"
"REFRIGERACIÓN COMERCIAL REFRIMEL E.U.";;;"(57) (4) 3024088";"Cl 25 S 42-40 L-602 Envigado Colombia, Envigado"
VITRIFRIO;;;"(57) (4) 5126058";"Cl 59 51 D-74 Colombia, Medellín"
"TALLER MÓVIL J.J";;;"(57) (4) 2910357";"Cl 65 39-57 Ap 201 Colombia, Medellín"
"First Name";"Email Address";Url;Telephone;Address
"FERRETERÍAS COLOMBIA MÍA";ferreteriascolombiamia@hotmail.com;;"(57) (8) 2630066";"Cr4 16-47 Colombia, Ibagué"
"DISEÑO DE AIRE ACONDICIONADO";efrainpuerto@gmail.com;www.efrainpuerto.wordpress.com;"(57) (1) 6822160";"Cl 129 F 91-16 Colombia, Bogotá"
"REPARACIÓN MULTIELECTRODOMÉSTICOS";andres2008tec@hotmail.com;;"(57) (2) 3349601";"Cr32 Bis 19-84 Colombia, Cali"
"AIRCON S.A.S.";gerencia@aircon.com.co;aircon.com.co;"(57) (5) 2750707";"Cl 25 22-30 Calle El Cauca Colombia, Sincelejo"
"REFRILAVADORAS CV";;;"(57) (5) 6601172";"Manga Cl 25 22-29 Colombia, Cartagena"
"COMERCIALIZADORA DE REFRIGERACIÓN INDUSTRIAL CALI S.A.S.";wilberlandazuri@hotmail.com;;"(57) (2) 4201580";"Cl 71 25 C-18 Colombia, Cali"
"ECOFRÍO DEL CARIBE S.A.S.";miltonfoliaco@gmail.com;;"(57) (5) 3014924";"Cl 69 34-27 P-2 Colombia, Barranquilla"
"SERVIAIRES DEL NORTE";;;"(57) (5) 4305725";"Cl 29 B 1-92 Los Cocos Colombia, Santa Marta"
"FRIO ARTE";frioarte@hotmail.com;www.frioarte.com;"(57) (4) 5113276";"Cr52 58-12 Colombia, Medellín"
"INDUMOL LTDA.";indumol@une.net.co;www.indumol.com;"(57) (4) 4443390";"Cr56 29-136 Colombia, Medellín"
"ALMACÉN ARTITAL & CÍA. LTDA.";almartital@telecom.com.co;www.almacenartital.com;"(57) (5) 6625273";"María Auxiliadora Cl 30 39-73 Av Pedro de Heredia Colombia, Cartagena"
"ASISTENCIA TÉCNICA AL INSTANTE S.A.S.";damapbm15@hotmail.com;www.asistenciatecnicaalinstante.com;"(57) (5) 3461059";"Cr22 D 65 B-54 Colombia, Barranquilla"
"DISPENSAR REFRIGERACIÓN S.A.S.";dispensar@une.net.co;www.dispensarrefrigeracion.com;"(57) (4) 3632666";"Cr58 77-50 Int 1422 Itagüí Colombia, Medellín"
"First Name";"Email Address";Url;Telephone;Address
"INTERCOOL DEL CARIBE S.A.S.";info@intercoolweb.com;www.intercoolweb.com;"(57) (5) 3784450";"Cl 99 47-05 Ap 4 B Colombia, Barranquilla"
"AIRTEMPE S.A.S";airtempe@empresario.com.co;www.empresario.com.co/airtempe/;"(57) (1) 2011589";"Cl 5 A 25 A-57 Colombia, Bogotá"
"IGLU REFRIGERAR E.A.T.";;;"(57) (4) 7918170";"Cr11 40-18 Nariño Colombia, Montería"
"REFRIGERACIÓN AUTOMOTRIZ LAUREANO GÓMEZ";;;"(57) (5) 6567012";"Lo Amador Calle Ricaurte 20 B-55 Colombia, Cartagena"
"A.P.C FRIGORÍFICO S.A.S.";apcfrigorificos@hotmail.com;www.apcfrigorifico.com;"(57) (2) 6410020";"Cr37 10-303 Bdg 105 Acopi-Yumbo Colombia, Cali"
REFRICOR;;;"(57) (4) 7810588";"Cl 34 1-30 Colombia, Montería"
"GERARDO APRAEZ / REFRIGERACIÓN AL DÍA";;;"(57) (2) 8315678";"Cr18 3-08 Colombia, Popayán"
FRIONORTES;;;"(57) (7) 5713814";"Cl 8 0-44 Latino Colombia, Cúcuta"
"SERVITEC DE REPUESTOS LTDA";;;"(57) (5) 3608064";"Cr 44 76-160 Colombia, Barranquilla"
COOLFRIOS;;;"(57) (8) 8366930";"Cr2 9-40 Colombia, Pitalito"
"CLIMATIZADO DEL CARIBE";climatizadodelcaribe@hotmail.com;www.climatizadodelcaribe.com;"(57) (5) 6622361";"Brr. República de Chile Manz 75 Lt 19 Colombia, Cartagena"
"TALLER DE REFRIGERACIÓN EL NEVADO";;;"(57) (6) 3681944";"Cr9 9-84 La Magdalena Colombia, La Virginia"
"AGENCIA REFRIGERACION DEL SUR & CIA. LTDA.";;;"(57) (7) 6391980";"Cl 29 11-20 Colombia, Bucaramanga"
TECNI-MARCAS;;;"(57) (8) 8702728";"Cl 2 10 A-39 Colombia, Neiva"
"BOBINADOS Y CIRCUITOS INDUSTRIALES S.A.S.";bobinadosycircuitosindustriales@gmail.com;;"(57) (2) 4456502";"Cr6 30-50 Colombia, Cali"
"SERVIAIRES DE LA COSTA LTDA.";;;"(57) (5) 3230070";"Costado Sur Terminal de Transportes de Barranquilla Colombia, Barranquilla"
"REFRIGERACIÓN JARPRO S.A.S.";;;"(57) (5) 3403684";"Cl 44 41-140 Colombia, Barranquilla"
"REFRIGERACIÓN Y BATERÍAS";;;"(57) (5) 6627539";"Tr38 22-16 Colombia, Cartagena"
"EFICIENCIA 21 S. EN C.S.";eficiencia21@gmail.com;www.eficiencia21.com;"(57) (5) 3686985";"Cr41 69 D-83 L-15 Colombia, Barranquilla"
"REPARACIONES PÉREZ";;;"(57) (5) 2751580";"Cr17 13-188 Cruz de Mayo Colombia, Sincelejo"
"REFRIGERANDO FORMEX";;;"(57) (4) 7917677";"Cl 41 10A-65 Colombia, Montería"
"AIRE ACONDICIONADO SERTECAR";;;"(57) (4) 3616116";"Cl 3 S 55-17 Colombia, Medellín"
"QUIJANO GONZÁLEZ NELSON";;;"(57) (1) 2018907";"Cl 10 31-57 Colombia, Bogotá"
"AIRE CONFORT";aireconfort_sai@yahoo.es;;"(57) (8) 5122534";"Brr. Obrero Cr3 Vía San Luis Colombia, San Andrés"
"REFRIT ACNICA";;;"Domic.: (57) (1) 6080790";"Av19 16A-34 Colombia, Bogotá"
"TECNIFROST S.A.S";;;"(57) (4) 4440457";"Cl 53 71 A-05 Colombia, Medellín"
"REFRIGERACIÓN ALMAN";;;"(57) (5) 6660125";"Popa Cl 31 21-251 Av Pedro de Heredia Colombia, Cartagena"
"INSTAFRÍO S.A.S.";instafrio@yahoo.com;;"(57) (5) 3049331";"Cl 60 43-153 L-1 Esq Colombia, Barranquilla"
"AC EL INDUSTRIAL";;;"(57) (1) 2116733";"Cl 58 15 A-22 Colombia, Bogotá"
"A.R. TECNIAIRES DE LA COSTA";;;"(57) (5) 3474931";"Cl 28 26-43 Colombia, Barranquilla"
"REFRIGERACIµN JM S.A.S.";;;"(57) (1) 7952028";"Cr90 D 127-02 Colombia, Bogotá"
"RISS TECHNOLOGY S.A.S.";gerencia@risstechnology.com;www.risstechnology.com;"(57) (4) 4441109";"Cr78 32 EE-25 Colombia, Medellín"
"MAXI MÁS REFRIGERACIÓN";;;"(57) 3212008039";"Cr10 17-19 Colombia, Florencia"
"VENTPLUS E.U.";;;"(57) (5) 3582901";"Cr53 80-284 L-23 Colombia, Barranquilla"
"DROGUERÍA LAS VILLAS DE COLOMBIA";;;"(57) (1) 2642642";"Cl 26 S 78 I-13 Colombia, Bogotá"
"CENTRO POLICLINICO DEL STOP";;;"(57) (7) 6472695";"Cr12 18-34 Colombia, San Gil"
"B.J. AIRES DE LA COSTA";;;"(57) (5) 3722126";"Cr43 55-45 Colombia, Barranquilla"
"ROBAYO JOEL";;;"(57) (1) 2508304";"Cr29 66-50 Colombia, Bogotá"
"QUALITY COOLING SERVICE";;;"(57) (5) 3179538";"Clo 116 37-25 Colombia, Barranquilla"
"FRIOTIENDAS INDUSTRIAL S.A";oscarramirezo33@hotmail.com;www.friotiendas.com;"(57) (1) 3510500";"Cr27 12 B-31 Colombia, Bogotá"
"COLOMBIA Y REFRIGERACIÓN";;;"(57) (5) 6665287";"L-Amador Calle Real Carrera 19 32-107 L-101 Colombia, Cartagena"
"ALMACEN FRÍO REPUESTOS LTDA.";;;"(57) (2) 8892869";"Cl 14 3-03 Colombia, Cali"
"ALMACÉN DE EQUIPOS DE REFRIGERACIÓN EQUIFRÍO";;;"(57) (2) 6650513";"Cl 52 N 4 A-55 Colombia, Cali"
"ELÉCTRICOS CHIGORODO";electricoschigorodo2@hotmail.com;;"(57) (4) 8253365";"Cl 97 101-27 Colombia, Chigorodó"
"SUPER COLD REFRIAGIL";;;"Nal: (57) (4) 4440573";"Cl 60 53-40 Colombia, Medellín"
"TALLER WESTINGHOUSE";;;"(57) (2) 2368916";"Cr14 9-27 Colombia, Buga"
"REFRIG CENTRAL";;;"(57) (8) 2634520";"Cl 18 4-82 Colombia, Ibagué"
"SERVICIO TÉCNICO MAFRAS S.A.S.";serviciotecnicomafra@yahoo.es;;"(57) (4) 7839702";"Cr16 17 A-122 Tacasuan Colombia, Montería"
SOLUMEC;;;"(57) (5) 6431388";"Urb Barlovento Manz E Lt 2 Colombia, Cartagena"
"AIRE PLUS";;;"(57) (5) 3607788";"Cl 66 47-56 L-1 Colombia, Barranquilla"
"REFRIMUNDO LTDA.";;;"(57) (7) 6451887";"Cl 22 22-11 Colombia, Bucaramanga"
"SUPERFRÍO LTDA.";;;"(57) (7) 6115518";"Cl 48 19-46 Colombia Colombia, Barrancabermeja"
"FÁBRICA MODICO";;;"(57) (1) 2814620";"Av (Cl) 19 16 A-56 Colombia, Bogotá"
"REFRIGERACIÓN GUTIERREZ";;;"(57) (1) 2801515";"Cl 1 H 24 17/19 Colombia, Bogotá"
"SERVI TODO";servitodo.cuellar@gmail.com;;"(57) 3105033492";"Cr22 19-05 Colombia, Neiva"
VELFRIO;;;"(57) (4) 3712319";"Cl 67 54 B-74 Itaguí Colombia, Medellín"
ELECTROCENTRO;electrocentrocentro@hotmail.com;;"(57) (8) 6623091";"Cl 37 29-11 Centro Colombia, Villavicencio"
"INTELMEC LTDA.";;www.intelmec.com.co;"(57) (7) 6520308";"Cl 48 22-45 Colombia, Bucaramanga"
"MULTISERVICES A.C.";mauricio01221@hotmail.com;;"(57) (8) 1000000";"Cl 50 A 25-38 Colombia, Neiva"
"INDUSTRIAS TECNIFRIO S.A.S.";gerenciageneral@tecnifrioltda.com;www.tecnifrio.com.co;"(57) (4) 5124227";"Cr52 59-24 Colombia, Medellín"
REFRI-CONGELAR;refricongelar@refricongelar.com;www.refricongelar.com;"(57) (4) 2915122";"Cr51 59-42 Colombia, Medellín"
"ARTE Y REFRIGERACIÓN";luisvicente.salcedo@gmail.com;;"(57) (1) 2724149";"Av Caracas 29-58 S Colombia, Bogotá"
FRIOPOLAR;gustavo.hoyos57@hotmail.com;;"(57) (8) 2631370";"Cl 16 2-105 Colombia, Ibagué"
LUBRIREPUESTOS;maritza_escalante_meneses@hotmail.com;;"(57) (7) 5791676";"Av6 1-51 La Merced Colombia, Cúcuta"
"C.I.S. LTDA.";ventas@cisltda.com;;"(57) (5) 6621994";"Bosque Dg21 48-82 Carrtera Principal Colombia, Cartagena"
REFRIPOLO;;;"(57) (5) 6664276";"L-Amador Cl Real 32-44 Colombia, Cartagena"
"INDUSTRIAS WESCOLD";induwescold@yahoo.es;www.industriaswescold.co;"(57) (2) 5577586";"Autop Sur 10 B-136 Colombia, Cali"
"First Name";"Email Address";Url;Telephone;Address
"SERVITÉCNICOS SÁNCHEZ";;;"(57) (8) 8719978";"Cr2 15-26 Colombia, Neiva"
"ALMACÉN REFRISUR - MB";;;"(57) (2) 8397249";"Cr17 1-68 Colombia, Popayán"
"OOR AIRE";;;"(57) (8) 8769117";"Cr16 A 50-17 Colombia, Neiva"
REFLYLAV;;;"(57) (4) 4773106";"Cl 96 A 76-102 Colombia, Medellín"
"ALMACÉN REFRI LAVA";;;"(57) (8) 2634372";"Cr4 17-44 Colombia, Ibagué"
"ELECTRODOMÉSTICOS EL BARATÓN";;;"(57) (2) 6801762";"Cl 27 43 B-18 Colombia, Cali"
"ELECTRORIENTE LTDA.";;;"(57) (4) 5136745";"Cl 50 53-49 Colombia, Medellín"
GLACIAL;;;"(57) (1) 2526038";"Cl 66 A 88-22 Colombia, Bogotá"
"TK DE OCCIEDENTE S.A.S";;;"(57) (2) 4464444";"Cl 50 N 7 N-37 Colombia, Cali"
REFRISUR;;;"(57) (7) 6312075";"Cr33 112-15 Caldas Colombia, Bucaramanga"
"AIRE ACONDICIONADO REFRIGERACIÓN REFRITERMO";;;"(57) (1) 2254967";"Cl 72 63-47 Colombia, Bogotá"
"DIAGNOSTICENTRO LC";;;"(57) (5) 4308805";"Cr29 29 H-29 Colombia, Santa Marta"
REFRINOVA;;;"(57) (4) 5119441";"Cr52 58-58 Colombia, Medellín"
"INVER DESCUENTOS LTDA.";;;"(57) (1) 2498403";"Cr24 65-20 Colombia, Bogotá"
SERVIFRÍO;;;"(57) (8) 8733215";"Cr12 2 E-20 Colombia, Neiva"
"MUNDO GAS Y REFRIGERACIÓN";;;"(57) (4) 5125481";"Cr57 51 -26 Colombia, Medellín"
"HOYOS JAVIER";;;"(57) (4) 2182457";"Cr43 49-44 Int 1602 Colombia, Medellín"
SERVITECNICO;;;"(57) 3107007890";"Av5 25-30 Colombia, Cúcuta"
"ELECTROMECÁNICA GARCÍA";;;"(57) (1) 5401857";"Cr 78A # 78-40 Colombia, Bogotá"
"SERVICARIBE E.U.";;;"(57) (4) 7852007";"Cr14 A 44-42 Colombia, Montería"
"REFRIGERACIÓN INDUSTRIAL JAIRO ESTEBAN DÍAZ";;;"(57) (8) 8733361";"Cl 20 A S 30 A-08 Casa 19 Colombia, Neiva"
"ACONDICIONADORES DE AIRE Y REFRIGERACIÓN NICFRÍO";;;"(57) (5) 6630842";"Las Delicias Cr64 30-266 Colombia, Cartagena"
"TECNICONFORT DE LA COSTA S.A.S.";;;"(57) (5) 6600185";"Calle 1 de Badillo 35-53 Of 203 Edif Badlissi Colombia, Cartagena"
"REFRIPLAST LTDA.";;;"(57) (1) 4822054";"Cl 24 C 26-50 Colombia, Bogotá"
"TECNI MANTENIMIENTO WHIRLPOOL";;;"Nal: (57) (2) 3845834";"Cl 25 17 B-87 Colombia, Cali"
"TALLER DE NEVERAS Y LAVADORAS LA 14";;;"(57) 3006531512";"Cl 13 11-57 Colombia, Santa Rosa de Cabal"
THERMOAIRES;;;"(57) (7) 6544030";"Km 7 Vía Piedecuesta Sector La Española Colombia, Bucaramanga"
"DISFRÍO LTDA.";;;"(57) (1) 2847791";"Cr15 19-08 Colombia, Bogotá"
"REFRIACEROS DE LA COSTA";;;"(57) 7251254";"Cr13 14-37 Edif Jucriscarma Colombia, Maicao"
"REFRIGERACIÓN AUTOMOTRIZ MARMOLEJO";;;"(57) (5) 3685920";"Cr47 72-178 Colombia, Barranquilla"
"REFRISERVICIOS TALLER";;;"(57) (5) 6537761";"Urb Simón Bolívar Manz 30 Lt 12 Colombia, Cartagena"
"DÍAZ C. GERARDO";;;"(57) (8) 8756174";"Cl 25 C 9 W-57 Colombia, Neiva"
CLIMATIZA;;;"(57) (5) 3693150";"Cl 76 66-72 Colombia, Barranquilla"
"A.C. VENTILACIÓN PRODUCTOS INLUZ";;;"(57) (5) 3187645";"Cl 31 20-143 Colombia, Barranquilla"
"AC EL INDUSTRIAL";;;"(57) (1) 2116733";"Cl 58 15 A-22 Colombia, Bogotá"
"SOLUCION AIRES";;;"(57) 3173822786";"Cr12 5-08 Villabel Colombia, Bucaramanga"
"FRIOSAI S.A.S";;;"(57) 3183736199";"Av Antioquia 2-44 Colombia, San Andrés"
"THERMOCENTER E.U.";;;"(57) (1) 4110679";"Av Ciudad de Cali 7 D-14 Colombia, Bogotá"
"FULL HOGAR";;;"(57) (4) 2516688";"Cl 50 52-33 Colombia, Medellín"
"ALMACÉN CARCO";;;"(57) (5) 5844444";"Cr9 18-13 Colombia, Valledupar"
"First Name";"Email Address";Url;Telephone;Address
"SERVICIO TÉCNICO MAFRAS S.A.S.";serviciotecnicomafra@yahoo.es;;"(57) (4) 7839702";"Cr16 17 A-122 Tacasuan Colombia, Montería"
FRIOPOLAR;gustavo.hoyos57@hotmail.com;;"(57) (8) 2631370";"Cl 16 2-105 Colombia, Ibagué"
"MULTIAIRES R&R S.A.S.";multiariesryr@hotmail.com;www.facebook.com/multiairesrr;"(57) (5) 3688083";"Cl 64 44-05 L-4 Colombia, Barranquilla"
"AIRE INDUSTRIAL DEL CARIBE LTDA.";cartagena@aireindustrialcaribe.com;aireindustrialcaribe.com;"(57) (5) 6621955";"Bosque Dg21 49-103 Colombia, Cartagena"
"INSTAFRÍO S.A.S.";instafrio@yahoo.com;;"(57) (5) 3049331";"Cl 60 43-153 L-1 Esq Colombia, Barranquilla"
"INTERCOOL DEL CARIBE S.A.S.";info@intercoolweb.com;www.intercoolweb.com;"(57) (5) 3784450";"Cl 99 47-05 Ap 4 B Colombia, Barranquilla"
"REFRIGERAR INGENIEROS S.A.S.";refrigerar.ingenieros@hotmail.com;;"(57) (5) 3200207";"Cr43 43-27 Colombia, Barranquilla"
"MULSTISERVICIOS H.B.";hbedoya1745@hotmail.com;;"(57) (4) 7821658";"Cr15 B 34-50 El Edén Colombia, Montería"
"REFRILLANOS, PARTES Y SUMINISTROS";;;"(57) (8) 6682428";"Cl 26 C 39-07 Brr. 7 de Agosto Colombia, Villavicencio"
"EFICIENCIA 21 S. EN C.S.";eficiencia21@gmail.com;www.eficiencia21.com;"(57) (5) 3686985";"Cr41 69 D-83 L-15 Colombia, Barranquilla"
"SERVIAIRES DEL NORTE";;;"(57) (5) 4305725";"Cl 29 B 1-92 Los Cocos Colombia, Santa Marta"
"INDUMOL LTDA.";indumol@une.net.co;www.indumol.com;"(57) (4) 4443390";"Cr56 29-136 Colombia, Medellín"
"SERVI TODO";servitodo.cuellar@gmail.com;;"(57) 3105033492";"Cr22 19-05 Colombia, Neiva"
"FRIOTECNICA DEL CARIBE";;;"Conm.: (57) (4) 3206248627";"Medellin Colombia, Medellín"
"ALMACÉN REFRIANDES";almacen.refriandes@hotmail.com;;"(57) (6) 8845085";"Cl 32 22-60 Colombia, Manizales"
"SU SOLUCIÓN INMEDIATA S.A.S";servicioalcliente@susolucioninmediata.com;www.solucioninmediata.com;"(57) (5) 3686262";"Cl 74 49-48 Colombia, Barranquilla"
REFRITURBO;refriturbo@hotmail.com;;"(57) (4) 8278080";"Cr13 99 A-09 Colombia, Turbo"
"DISPENSAR REFRIGERACIÓN S.A.S.";dispensar@une.net.co;www.dispensarrefrigeracion.com;"(57) (4) 3632666";"Cr58 77-50 Int 1422 Itagüí Colombia, Medellín"
"DISEÑO DE AIRE ACONDICIONADO";efrainpuerto@gmail.com;www.efrainpuerto.wordpress.com;"(57) (1) 6822160";"Cl 129 F 91-16 Colombia, Bogotá"
"IBRO S.A.S.";venta@ibrosa.com;www.ibrosa.com;"(57) (5) 6695324";"Bosque Dg21 52 A-23 Av Principal Colombia, Cartagena"
"THERMO TRUCK IMPORTADOR DE THERMO KING";thermotruck@gmail.com;;"(57) (1) 4616197";"Cra. 80 D No. 13-29 Brr. El Tintal Colombia, Bogotá"
"REFRI POLAR";;;"(57) (2) 3910961";"Cl 46 A N 5 N-74 Colombia, Cali"
"INDUSTRIAS REFRISOLDAR";;;"(57) (7) 6032618";"Dg52 1-29 Rangel Colombia, Barrancabermeja"
"SOLUCION AIRES";;;"(57) 3173822786";"Cr12 5-08 Villabel Colombia, Bucaramanga"
"DISTRIBUIDORA DE REFRIGERACIÓN BARRANQUILLA";;;"(57) (5) 3692589";"Cr44 68-09 L-3 Colombia, Barranquilla"
"ALMACENES VEA";;;"(57) (6) 8847800";"Cr23 28-58 Colombia, Manizales"
FREEZE;;;"(57) (6) 3361607";"Cr12 31-35 Colombia, Pereira"
"1ERVICIO ESPECIALIZADO JDHEM";;;"(57) 3132644553";"Manz 10 Casa 4 La Esperanza Colombia, Girardot"
"AIRE ACONDICIONADO PARTES Y REPUESTOS";;;"(57) (4) 4446440";"Cl 14 S 51 C-05 Colombia, Medellín"
"CENTRO DE SERVICIOS DE REFRIGERACION DEL HUILA";;;"(57) (8) 8757091";"Cl 32 8-05 Colombia, Neiva"
"REFRICALDERAS S.A.S";;;"(57) (8) 6684210";"Cll 3C 28D - 108 B/Carulu Colombia, Villavicencio"
"FRINOX INGENIERÍA S.A.";;;"(57) (1) 2704003";"Cr68 N 36-29 S Colombia, Bogotá"
"LFCG REFRIGERACIÓN INDUSTRIAL";;;"Telefax: (57) (1) 4496092";"Cl 7   S 92 A-56 Casa 44 Colombia, Bogotá"
"AGENCIA REFRISERVICIOS";;;"(57) (1) 2704613";"Cr34 49 A-22 S Colombia, Bogotá"
"HOBART ANDINA S.A.S.";;;"(57) (1) 3794600";"Cl 17 A 69-35 Colombia, Bogotá"
"REFRI SISTEMAS DEL CARIBE";;;"(57) (5) 6690359";"Dg22 44-63 L-1 Colombia, Cartagena"
"TALLER WESTINGHOUSE";;;"(57) (2) 2368916";"Cr14 9-27 Colombia, Buga"
REFRI-GALERAS;;;"(57) 3127551110";"Cr12 16-26 Fátima Colombia, Pasto"
"CABARRIA Y CÍA. S.A.";;;"(57) (2) 4306177";"Cl 56 5 N-65 Bdg 6 Colombia, Cali"
"MULTIFRIO PALMIRA";;;"(57) (2) 2724939";"Cr24 6-87 Colombia, Palmira"
"First Name";"Email Address";Url;Telephone;Address
"ROJAS HNOS S.A.";;;"(57) (2) 6541063";"Cl 52 N 3 A N-105 Colombia, Cali"
"TERMO EQUIPOS LTDA.";;;"(57) (1) 4103444";"Cl 52 A 85 A-58 Colombia, Bogotá"
"LA CLAVE ALMACÉN Y TALLER";;;"(57) (8) 8717863";"Cr2 10-51 Colombia, Neiva"
"INGENIERIA & ELÉCTRICOS S.A.S.";;;"(57) (7) 6422428";"Cr19 29-03 Colombia, Bucaramanga"
"GLOBAL INGENIERÍA S.A.";;;"(57) (5) 3687110";"Cr49 B 74-83 Colombia, Barranquilla"
"COLFRIOS PITALITO";;;"(57) (8) 8365994";"Cr2 9-39 Colombia, Pitalito"
"AIRE ACONDICIONADO AUTO FRESH";;;"(57) (5) 3607770";"Cl 75 45-56 L-1-C Colombia, Barranquilla"
"REFRIHOGARES DEL VALLE";;;"(57) 3148803415";"Cr24 22-14 Colombia, Buga"
"ALMACÉN REFRIPARTES";;;"(57) (8) 5129763";"Sector Rock Hole 4-141 Colombia, San Andrés"
"REFRIGERACIONES JAVIER ISAZA E.";;;"(57) (4) 8273410";"Cra 15 Cl 100-12 Colombia, Turbo"
"DROGUERÍA LAS VILLAS DE COLOMBIA";;;"(57) (1) 2642642";"Cl 26 S 78 I-13 Colombia, Bogotá"
"IMPORTADORA DE REPUESTOS PARA REFRIGERACIÓN Y LAVADORAS DEL VALLE";;;"(57) (2) 6630200";"Cr26 M Dg71 A-15 Colombia, Cali"
"A.R INGENIERÍA E.U";;;"(57) (2) 5242888";"Cr14 A 36-79 Colombia, Cali"
"SERVICIOS REFRIG-ELECTRICOS";;;"Nal: (57) (4) 3065185";"Cl 67 S 45-52 Int 1103 Colombia, Medellín"
"TALLER DE REFRIGERACIÓN MUNDIAL";;;"(57) 7266231";"Cl 16 10-58 Colombia, Maicao"
"REFRI CONFORT LÍDERES EN AIRE";;;"Nal: (57) (2) 4264158";"Dg26G10 Tr72S1-4 Colombia, Cali"
"PROFESSIONAL AIRS AIRE ACONDICIONADO";;;"(57) (7) 6363242";"Cl 103 31-63 Colombia, Bucaramanga"
"DISTRIBUIDORA REFRIAMAYA";;;"(57) (7) 6224325";"Cr20 50-62 Colombia, Barrancabermeja"
"SERVIR INGENIEROS";;;"(57) (8) 2700683";"Cl 37 4 F-67 B/ Cádiz Colombia, Ibagué"
SOLUMEC;;;"(57) (5) 6431388";"Urb Barlovento Manz E Lt 2 Colombia, Cartagena"
"J Y S INDUSTRIAS METÁLICAS";;;"(57) (6) 3348986";"Cl 14 9-53 Colombia, Pereira"
REFRIAIR;;;"(57) (8) 2726846";"Villa Cindy Manz A Casa 6 Vía Salado Colombia, Ibagué"
REFRIELÉCTRICOS;;;"(57) 5763291";"Cl 7 3-12 San Luis Colombia, Cúcuta"
"A DOMICILIO SOLO LAVADORAS";;;"(57) (8) 8700909";"Cr18 9-96 Colombia, Neiva"
"NEIVAFRÍO INGENIERÍA ORS";;;"(57) (8) 8723232";"Cr2 con Cl 14 Esq Colombia, Neiva"
"REFRICALDERAS S.A.S";;;"(57) (8) 6684210";"Cll 3C 28D - 108 B/Carulu Colombia, Villavicencio"
"AIR FRESH INGENIEROS LTDA.";;;"(57) (2) 5134402";"Cr 58 # 3-74 Colombia, Cali"
"ALMACÉN FRÍO CARIBE";;;"(57) (5) 4236380";"Cl 10 7-27 Colombia, Santa Marta"
REFRI-FONCE;;;"(57) (7) 7235864";"Cr12 14-49 Colombia, San Gil"
"RODRÍGUEZ RODRÍGUEZ LEONEL FERNANDO";;;"(57) (7) 6390249";"Cl 15 5-39 Sta Ana Floridablanca Colombia, Floridablanca"
ELECTROMECÁNICA;;;"(57) (1) 8353288";"Manz C-3 Casa 11 Magdalena III Colombia, Girardot"
"PROYECTOS Y SERVICIOS LTDA.";;;"(57) (7) 6348821";"Cr22 21-26 Colombia, Bucaramanga"
"VITRINAS LA ESPECIAL E.U.";;;"(57) (2) 3263458";"Cl 19 43-26 Colombia, Cali"
"INDUCOL S.A.";;;"Nal: (57) (4) 3666055";"Cl 44 71-06 Colombia, Medellín"
"FRIOTEC LTDA.";;;"(57) (5) 3582189";"Cr52 75-27 L-19 Colombia, Barranquilla"
"FRINOX INGENIERÍA S.A.";;;"(57) (1) 2704003";"Cr68 N 36-29 S Colombia, Bogotá"
"CASTILLO GUTIÜRREZ LTDA.";;;"(57) (6) 3296624";"Cr8 40 B-13 Colombia, Pereira"
"ZERO GRADOS";;;"(57) (4) 5123543";"Cl 51 56 A-26 Colombia, Medellín"
"INSTALACIÓN Y MANTENIMIENTO EQUIPOS DE GAS";;;"(57) (2) 7323236";"Cr1 B 23 A-52 Gualcalá Colombia, Pasto"
DOTAPAL;;;"(57) (4) 5115642";"Cr53 59-88 Colombia, Medellín"
"First Name";"Email Address";Url;Telephone;Address
"B.L.AIRES LTDA.C.I.";;;"(57) 3008053787";"Cr70 86-106 Colombia, Barranquilla"
"DE LA HOZ CALLE UBALDO";;;"(57) (5) 3708416";"Cr21 B 53-164 Colombia, Barranquilla"
"TERMEC LTDA.";;;"(57) (5) 3795442";"Cl 51 41-45 Colombia, Barranquilla"
"RENEVAR E.U.";;;"(57) (1) 2769550";"Av Cl 63 70-98 Colombia, Bogotá"
REFRIHOGAR;;;"(57) (2) 6808143";"Cr24 9 B-07 Colombia, Cali"
"G.S. REFRIPARTES";;;"(57) (5) 3197234";"Cr38 48-63 Colombia, Barranquilla"
"SERVIFRIO DEL VALLE";;;"(57) (2) 6679121";"Cl 21 N 8 N-16 Colombia, Cali"
"AIRE ACONDICIONADO MANTIARIE";;;"(57) (7) 6405133";"Cr18 C 8 AN-20 Brr 13 de Junio Colombia, Bucaramanga"
"REFRIG CENTRAL";;;"(57) (8) 2634520";"Cl 18 4-82 Colombia, Ibagué"
"ELECTRODOMESTICOS Y GASODOMESTICOS LA ECONOMIA";;;"(57) (4) 2313814";"Cl 58 54-20 Colombia, Medellín"
"NACIONAL DE FURGONES - FURGONES NFS E.U.";;;"(57) (7) 6718008";"Cr18 16-48 Mutualidad Colombia, Bucaramanga"
"ALMAR LTDA.";;;"(57) (7) 6303795";"Cr22 41-50 Colombia, Bucaramanga"
"THERMO TEK";;;"(57) (2) 7238744";"Cl 5 14-175 Caicedo Alto Colombia, Pasto"
"ALMACEN AUTONEVADO 46";;;"(57) (5) 3582170";"Cr46 74-60 Colombia, Barranquilla"
"FRÍO MUNDIAL";;;"(57) (8) 8704245";"Cr30 A 2 D-21 Colombia, Neiva"
"PALLOMARO S.A.";;;"(57) (1) 3108728";"Cr65 80-06 Colombia, Bogotá"
VELFRIO;;;"(57) (4) 3712319";"Cl 67 54 B-74 Itaguí Colombia, Medellín"
SEAR;;;"(57) (2) 4263217";"Dg28D2 Tr71 A-28 Colombia, Cali"
"FRÍO REAL";;;"(57) (2) 3909583";"Cr15 34-68 Colombia, Cali"
"H.Z. INGENIERÍA LTDA.";;;"(57) (2) 6614115";"Cl 23 D 5 A N-62 L-202 Colombia, Cali"
"REFRIGERACIÓN REFRI NO FROST";;;"(57) (7) 6112859";"Cl 51 14-49 Colombia, Barrancabermeja"
"1ERVICIO ESPECIALIZADO JDHEM";;;"(57) 3132644553";"Manz 10 Casa 4 La Esperanza Colombia, Girardot"
FRIOMAR;;;"(57) (5) 7271662";"Cl 12 A 22-74 Colombia, Riohacha"
"ALMACEN Y TALLER LA MAGIA DE LA LAVADORA";;;"(57) (7) 6582227";"Cr5 A E 28 A-38 La Cumbre Colombia, Bucaramanga"
REFRIGUERAR;;;"(57) (6) 8707669";"Cr9 B 19-21 Colombia, Manizales"
"SERVI-REPUESTOS J.J. POPAYÁN";;;"(57) (2) 8212376";"Cl 7 8-69 Colombia, Popayán"
"EXHIVIT S.A.S.";;;"(57) (1) 4737257";"Cl 35 B S 72 K-36 Colombia, Bogotá"
FRIOSÁN;;;"(57) (1) 2813214";"Cl 19 15-59 Colombia, Bogotá"
"TALLER DE REFRIGERACIÓN GUSTAVO DUARTE";;;"(57) (7) 5825215";"Cl 21 15-36 Alfonso Lopez Colombia, Cúcuta"
"First Name";"Email Address";Url;Telephone;Address
THERMOMAR;;;"(57) (4) 3796375";"Cl 65 44 B-44 Int 401 Itagui Colombia, Itagüí"
"IMPORT LINE REFRINDUSTRIAL";;;"(57) (5) 3401364";"Cl 44 41-119 Colombia, Barranquilla"
"TERMIAIRES LTDA.";;;"(57) (5) 3687010";"Cl 84 43 B-48 Colombia, Barranquilla"
"SERRANO CASTRO EDGAR FERNANDO";;;"(57) 3107177626";"Cl 136 A 4-75 Mirador Arhuaco Sector Bello Horizonte Colombia, Santa Marta"
ACROPOL;;;"(57) (7) 1000000";"Cr15 N 30-53 Bucaramanga Colombia, Cúcuta"
"ALMACENES J.M.T.";;;"(57) (8) 2649555";"Cr6 27-49 El Carmen Colombia, Ibagué"
"PARAIRES LTDA.";;;"(57) (1) 8352528";"Dg8 30-56 Colombia, Girardot"
CONFRIO;;;"(57) (1) 5430150";"Cr17 70-46 Colombia, Bogotá"
"ABA ABC";;;"Domic.: (57) (1) 6156248";"Chapinero Cr6 57-27 Colombia, Bogotá"
"AGENCIA DE REMATES EL PADRINO";;;"(57) (4) 2932106";"Cr57 51-72 Colombia, Medellín"
"FRÍO PART";;;"(57) (4) 7918256";"Cl 41 B 16 B L-11 Urb Alto de la Floresta Colombia, Montería"
"INGENIERÍA DE REFRIGERACIÓN INDUSTRIAL ROJAS HNOS. S.A.";;;"(57) (5) 3588623";"Cr43 76-140 Colombia, Barranquilla"
"AC AIRES";;;"(57) (7) 6834444";"Cr17 C 56-52 Colombia, Bucaramanga"
"REFRIGERACION CRG";;;"(57) (2) 3752693";"Cl 53 3-49 Colombia, Cali"
"CAFETERÍA MECATO RICO Y BARATO";;;"(57) (7) 6347024";"Cl 34 23-33 Antonia Santos Colombia, Bucaramanga"
"THERMOSYSTEMS S.A.S";;;"(57) (4) 3540153";"Cr43 E 5-65 Colombia, Medellín"
"CALIAIRES LTDA";;;"(57) (2) 6671755";"Av8   N 15   N-39 Colombia, Cali"
"ALMACÉN FRÍO CARIBE";;;"(57) (5) 4236380";"Cl 10 7-27 Colombia, Santa Marta"
"ALMACÉN Y TALLER DE REFRIGERACIÓN GIBSON";;;"(57) 7266166";"Cl 9 12-28 Colombia, Maicao"
"SERVICIOS REFRIGERADOS LOGÍSTICOS LTDA.";;;"(57) (1) 5475000";"Cl 17 (Av Cl 13 )-123 -28 Colombia, Bogotá"
"INDUSTRIAS RI-J S.A.S.";;;"(57) (4) 4445504";"Cl 51 41-79 Centro Unico Itagüí Colombia, Medellín"
"AIR FRESH INGENIEROS LTDA.";;;"(57) (2) 5134402";"Cr 58 # 3-74 Colombia, Cali"
"MAGNEPLAST S.A.";;;"(57) (1) 5978697";"Km 3 Funza Siberia Parque Industrial San Antonio Manz BBd 2 Colombia, Funza"
"COMERCIALIZADORA REFRIATLANTICO LTDA.";;;"(57) (5) 3790632";"Cl 44 N° 41-55 Colombia, Barranquilla"
"REFRIGERACIONES COSSIO";;;"(57) (4) 5710545";"Cl 59 52-47 Colombia, Medellín"
REFRIMUNDIAL;;;"(57) (1) 2500075";"Cl 77 69 P-58 Colombia, Bogotá"
SERVIMANT;;;"(57) (2) 3245284";"Cl 3 D 66-55 Colombia, Cali"
AIRESTOP;;;"(57) (4) 3310678";"Cl 38 S 43 A-28 Envigado Colombia, Envigado"
"NACIONAL DE FURGONES - FURGONES NFS E.U.";;;"(57) (7) 6718008";"Cr18 16-48 Mutualidad Colombia, Bucaramanga"
"CASTELLANOS LUQUE SAULO GUILLERMO";;;"(57) (1) 8361969";"Cl 6 23-40 Colombia, Girardot"
"REFRILAVADORAS Y T.V.";;;"(57) 6604573";"Vista Hermosa Cr57 30 A-26 Colombia, Cartagena"
FRIOCAL;;;"(57) (4) 5116174";"Cl 56 52 -30 Colombia, Medellín"
"REMATES LA ROCA";;;"(57) (4) 2933372";"Cr55 52-62 Colombia, Medellín"
"REFRIATLÁNTICO LTDA.";;;"(57) (5) 3794508";"Cl 44 41-55 Colombia, Barranquilla"
"ANGELES REFRIGERACION";;;"(57) (7) 6590336";"Cl 53 15-37 Concordia Colombia, Bucaramanga"
"EXTRUPERFILES Y PLÁSTICOS LTDA.";;;"(57) (1) 3112444";"Cr 28B 74 64 Colombia, Bogotá"
"SERVICIO DE NEVERAS Y LAVADORAS BERNARDO POSADA";;;"(57) (4) 2115481";"Cl 68 48-103 Colombia, Medellín"
"REFCON LTDA.";;;"(57) (1) 2261572";"Cr58 C 152 B-66 Colombia, Bogotá"
"REFRIPOLO NORTE & CÍA LTDA.";;;"(57) (5) 3680977";"Cr71 70-21 Colombia, Barranquilla"
"AIRE ACONDICIONADO XILOTERM";;;"(57) (2) 3746707";"Cr51 16-42 Colombia, Cali"
"TECNIFRISA LTDA.";;;"(57) (1) 2902883";"Tr45 B 8 C-41 Colombia, Bogotá"
"AIRE Y AIRES";;;"(57) (2) 8850274";"Cr18 A 15-34 Colombia, Cali"
"REFRIMONTAJES ANTIOQUIA";;;"Nal: (57) (4) 4817401";"Dg55 55-41 Colombia, Medellín"
"A G REFRIGERACIÓN Y CÍA. LTDA.";;;"(57) (2) 8941924";"Av6 Oe 15 Oe-22 Colombia, Cali"
"FRÍO TÉCNICO";;;"(57) 3103327378";"Cl 20 S 15-16 Timanco Colombia, Neiva"
"REFRIGERACIÓN JARPRO S.A.S.";;;"(57) (5) 3403684";"Cl 44 41-140 Colombia, Barranquilla"
"REFRINORTE BARRANQUILLA";;;"Telefax: (57) (5) 3006740";"Cl 44 36-140 Colombia, Barranquilla"
"CLIMAX REFRIGERACIÓN";;;"(57) (5) 4354487";"Cl 39 12-07 María Eugenia Colombia, Santa Marta"
TECNIRAPID;;;"(57) (8) 8737569";"Cl 1 G 38-15 Colombia, Neiva"
INALFRÍOS;;;"(57) (1) 5424934";"Cr 105 C 16 F-68 Colombia, Bogotá"
"TALLER DE REFRIGERACIÓN EMIR";;;"(57) (2) 8366304";"Cr5 11-27 El Empedrado Colombia, Popayán"
"First Name";"Email Address";Url;Telephone;Address
"VARGAS MARTÍNEZ DAGOBERTO";;;"(57) (1) 3668014";"Cl 25 S 7-21 Colombia, Bogotá"
"ATLANPACIFIC LTDA.";;;"(57) (4) 3114105";"Cr34 7-73 Int 305 Colombia, Medellín"
VELFRIO;;;"(57) (4) 3712319";"Cl 67 54 B-74 Itaguí Colombia, Medellín"
"1ERVICIO ESPECIALIZADO JDHEM";;;"(57) 3132644553";"Manz 10 Casa 4 La Esperanza Colombia, Girardot"
"REFRIGERACIÇN VEGA";;;"(57) (2) 8853209";"Cr8 A 20-70 Colombia, Cali"
"CASA CARRIER";;;"(57) (2) 6601008";"Av8 N 21-47 Colombia, Cali"
"FRINOX INGENIERÍA S.A.";;;"(57) (1) 2704003";"Cr68 N 36-29 S Colombia, Bogotá"
"ICOMAGER S.A.";;;"(57) (1) 2697353";"Cr19 22 C-53 Colombia, Bogotá"
"First Name";"Email Address";Url;Telephone;Address
"INCOPAR LTDA.";;;"(57) (1) 2478203";"Cl 16 33-10 Colombia, Bogotá"
"INTERHOSPITALARIA LTDA.";;;"(57) (1) 4185700";"Tr96 B 24 B-72 Colombia, Bogotá"
"AC AIRES";;;"(57) (7) 6834444";"Cr17 C 56-52 Colombia, Bucaramanga"
"ALMACÉN FRÍO COSTA E.U.";;;"(57) (5) 6565841";"Av Pedro de Heredia Sector Lo Amador 19-47 Colombia, Cartagena"
"REFRIGERACIÓN ANÍBAL VALENCIA";;;"(57) (4) 3711070";"Cl 51 47-18 Ap 201 Itagüí Colombia, Itagüí"
"REFRIGERACIONES COSSIO";;;"(57) (4) 5710545";"Cl 59 52-47 Colombia, Medellín"
"FRINCOL S.A.S.";;;"(57) 3118144690";"Av5 0-109 La Insula Colombia, Cúcuta"
"FERRETERÍA & EQUIPOS LA 10";;;"(57) 31056578167";"Cl 10 10-28 Colombia, Pitalito"
"FRÍO CENTRO";;;"(57) (1) 2861191";"Cl 19 15-23 Colombia, Bogotá"
"MAGNEPLAST S.A.";;;"(57) (1) 5978697";"Km 3 Funza Siberia Parque Industrial San Antonio Manz BBd 2 Colombia, Funza"
"REFRIGERACIÓN POLAR";;;"(57) 3146042261";"Cl 5 27 A-37 Colombia, Popayán"
"REFRICALEFACCIÓN Y VARIEDADES CELESTE";;;"(57) (4) 2720732";"Cr47 51 -50 Bello Colombia, Bello"
"ALMACÉN REFRI ELÉCTRICO";;;"(57) (5) 5707275";"Cr8 19-14 Colombia, Valledupar"
"PÉREZ REFRIGERACIÓN";;;"(57) (5) 2741226";"Cl 19 17-27 Colombia, Sincelejo"
"REFRITRANS LTDA.";;;"(57) (4) 2571140";"Cl 75 A 64 A-44 Colombia, Medellín"
"FRÍOS DEL NORTE";;;"(57) (6) 3383321";"Cr11 44-256 Colombia, Pereira"
"FRIOTERMO LTDA.";;;"(57) (1) 2562156";"Cl 102 45 A-28 Colombia, Bogotá"
"COMPRAVENTA REMATES EL CAMPEÓN";;;"(57) (4) 5120265";"Cr52 59-23 Colombia, Medellín"
"INGECÓN DE LA COSTA S.A.S.";;;"(57) (5) 6900202";"Bosque Tr54 21 C-147 Colombia, Cartagena"
"REFRIROJAS TOVAR";;;"(57) 3202002684";"calle 20 52-46 Colombia, Neiva"
"SHILLERS Y ENFRIAMIENTOS";;;"(57) (4) 4827824";"Av37 A 65 A-58 Bello Colombia, Bello"
"FRIO PAIS";;;"(57) (4) 5162676";"Cr52 58-62 Colombia, Medellín"
SUPERFRIO;;;"(57) (4) 4440528";"Cl 50 68-49 Colombia, Medellín"
"REFRIGERACIÓN JARPRO S.A.S.";;;"(57) (5) 3403684";"Cl 44 41-140 Colombia, Barranquilla"
"REFRIACEROS DE LA COSTA";;;"(57) 7251254";"Cr13 14-37 Edif Jucriscarma Colombia, Maicao"
"AIRE MAXICOLD";;;"(57) (4) 2513855";"Cl 59 53-38 Colombia, Medellín"
"INTERFRÍO DE LA COSTA LTDA";;;"(57) (5) 3606754";"Cr38 69 C-97 Colombia, Barranquilla"
"DISTRIBUIDORA DE AIRE TOTAL LTDA.";;;"(57) (5) 3596958";"Cr 42 H 82-203 L-3 Colombia, Barranquilla"
"JUNIOR REFRIGERACIÓN AUTOMOTRIZ";;;"(57) (5) 6566056";"Popa Cr20 30-102 L-B-1 Av Mompox Colombia, Cartagena"
REFRIREPUESTOS;;;"(57) (7) 6028045";"Dg 49 29-56 Colombia, Barrancabermeja"
"FRÍO TOTAL";;;"(57) (5) 6625559";"Amberes Cl 31 39-158 L-1 Av Pedro de Heredia Colombia, Cartagena"
ALUMINAIRE;;;"(57) (5) 3493269";"Cl 45 52-74 Colombia, Barranquilla"
"QUIJANO GONZÁLEZ NELSON";;;"(57) (1) 2018907";"Cl 10 31-57 Colombia, Bogotá"
"DÍAZ C. GERARDO";;;"(57) (8) 8756174";"Cl 25 C 9 W-57 Colombia, Neiva"
"TECNIFROST S.A.S";;;"(57) (4) 4440457";"Cl 53 71 A-05 Colombia, Medellín"
"TODO ELÉCTRICOS";;;"(57) (2) 2257529";"Cr23 24-63 Colombia, Tuluá"
REFRIUNIVERSAL.RU;;;"(57) (8) 4358209";"Cr10 19-12 Colombia, Florencia"
"REFRIGERACIÓN Y TALLER CENTRO DÍAZ";;;"(57) (8) 8736063";"Cr30 B 1 C-28 Colombia, Neiva"
"GLOBAL INGENIERÍA S.A.";;;"(57) (5) 3687110";"Cr49 B 74-83 Colombia, Barranquilla"
"DÍAZ C. GERARDO";;;"(57) (8) 8756174";"Cl 25 C 9 W-57 Colombia, Neiva"
"A.C. VENTILACIÓN PRODUCTOS INLUZ";;;"(57) (5) 3187645";"Cl 31 20-143 Colombia, Barranquilla"
"ALMACEN DE CONGELADORES TECNIFRIO";;;"Conm.: (57) (4) 5124227";"Cr52 59-24 Colombia, Medellín"
"COLFRIOS PITALITO";;;"(57) (8) 8365994";"Cr2 9-39 Colombia, Pitalito"
"NAVARRO DÍAZ MARÍA DARLEY";;;"(57) (1) 4363870";"Cr86 75-94 Colombia, Bogotá"
"CENTRAL DE SERVICIOS";;;"(57) (4) 2343762";"Cr81 48 B-03 Ap 902 Colombia, Medellín"
"THERMO MAX LTDA.";;;"(57) (1) 2017847";"Cl 8 Nos. 19 A 22/24 Colombia, Bogotá"
"ALMACÉN FRIOCENTRO";;;"(57) (5) 6646234";"Centro Av D. Lemaitre 9-58 frente Edif Banco del Estado Colombia, Cartagena"
"FRIOFER E.U.";;;"(57) (1) 2842773";"Cl 19 14-14 Colombia, Bogotá"
DIAC;;;"(57) (1) 6600305";"Cr68 H 74 B-54 Colombia, Bogotá"
CONSTRUFRIO;;;"(57) (5) 6676918";"Nuevo Bosque Et 6 Manz 53 Lt 30 P-2 Colombia, Cartagena"
"VINTO E.U.";;;"(57) (2) 3251378";"Cl 31 A 33 B-16 Colombia, Cali"
"A.R INGENIERÍA E.U";;;"(57) (2) 5242888";"Cr14 A 36-79 Colombia, Cali"
"AIRE ACONDICIONADO RAPIAIRES";;;"(57) (4) 2542200";"Cr47 65-114 Colombia, Medellín"
"QUINTERO ALEGRÍA NELSON";;;"(57) (2) 4373120";"Cr33 A 38-04 Colombia, Cali"
"ELECTROUNO LTDA.";;;"(57) (2) 4100502";"Cr15 44-49 Colombia, Cali"
"MARFRIO S.A.S.";;;"(57) (5) 6769519";"Bosque Tr54 27-24 L-1 Sector San Isidro Colombia, Cartagena"
"ELECTRODOMESTICOS Y GASODOMESTICOS LA ECONOMIA";;;"(57) (4) 2313814";"Cl 58 54-20 Colombia, Medellín"
"CAFETERÍA MECATO RICO Y BARATO";;;"(57) (7) 6347024";"Cl 34 23-33 Antonia Santos Colombia, Bucaramanga"
REFRIAIR;;;"(57) (8) 2726846";"Villa Cindy Manz A Casa 6 Vía Salado Colombia, Ibagué"
"REFRIGERACIONES EXITOS";;;"(57) (4) 2514259";"Cr53 56-06 Colombia, Medellín"
"FURGONES THERMO COLD";;;"(57) (7) 6760948";"Cr1 3-59 Vía Chimitá Colombia, Bucaramanga"
"TALLER INDUFRÍO MARIO JARAMILLO";;;"(57) (1) 8327112";"Manz 21 Casa 17 Kndy Colombia, Girardot"
"INDUSTRIAS AROCA";;;"(57) (7) 6424274";"Cl 30 14-34 Colombia, Bucaramanga"
REFRIMEC;;;"(57) (5) 6632677";"B. de Lezo Et I Manz L Lt 12 Colombia, Cartagena"
ACONDIAIRE;;;"(57) (7) 6835573";"Cl 60 17 D-13 Colombia, Bucaramanga"
"COOLNESS REFRIGERACIÓN Y MANTENIMIENTO";;;"(57) (8) 8736275";"Cl 20 A 34 A-24 Colombia, Neiva"
"REFRIPARTES JQ";;;"(57) (5) 3400008";"Cl 43 41-133 Colombia, Barranquilla"
PROFRIO;;;"(57) (8) 2639108";"Cr7 22-06 Colombia, Ibagué"
"TALLER DE REFRIGERACION SERVI SERRANO";;;"(57) (7) 6590476";"Cl 39 16-36 Rincon de Girón Colombia, Girón"
"REFRI EXPRESS";;;"(57) (2) 5512468";"Cl 3 Oe 53-23 Colombia, Cali"
"SERVILUX IBAGUÉ";;;"(57) (8) 2614766";"Cl 17 4-10 Centro Colombia, Ibagué"
"TALLER ELECTROREFRIGERACIÓN BUGA";;;"(57) (2) 2277349";"Cl 16 9-76 Colombia, Buga"
"First Name";"Email Address";Url;Telephone;Address
"GRAN FRÍO S.A.S";;;"Nal: (57) (4) 5160074";"Cr39 81-41 Ap 101 Colombia, Medellín"
"TÉCNICOS ASOCIADOS";;;"(57) (4) 5214693";"Cl 97 51 B-22 Int 136 Colombia, Medellín"
REFRICENTRO;;;"(57) (8) 2601590";"Av Guavinal 44-39 Colombia, Ibagué"
"ALMACÉN REFRIGERACIÓN";;;"(57) (5) 5894536";"Cr7 A 19-32 Colombia, Valledupar"
"ELECTRODOMESTICOS Y GASODOMESTICOS LA ECONOMIA";;;"(57) (4) 2313814";"Cl 58 54-20 Colombia, Medellín"
"NACIONAL DE FURGONES - FURGONES NFS E.U.";;;"(57) (7) 6718008";"Cr18 16-48 Mutualidad Colombia, Bucaramanga"
"ALMAR LTDA.";;;"(57) (7) 6303795";"Cr22 41-50 Colombia, Bucaramanga"
REFRIMEC;;;"(57) (5) 6632677";"B. de Lezo Et I Manz L Lt 12 Colombia, Cartagena"
TECNIRAPID;;;"(57) (8) 8737569";"Cl 1 G 38-15 Colombia, Neiva"
"OVIEDO REFRIGERACIÓN";;;"(57) (8) 8753522";"Cl 34 A 12-13 Colombia, Neiva"
REFRI-FONCE;;;"(57) (7) 7235864";"Cr12 14-49 Colombia, San Gil"
"MANTENIMIENTO FENIX";;;"(57) (8) 2680118";"Manz C Casa 8 Urbanización Portal de la Virgen Colombia, Ibagué"
"TECNI SERVICIOS INGENIERÍA B.A.P";;;"(57) (8) 8709981";"Cr28 11 B-90 Colombia, Neiva"
"ALMACÉN FRÍO DELTA";;;"(57) (2) 8853183";"Cr13 A 21-18 Colombia, Cali"
"HIDROCENTER CASA BOSCH";;;"(57) (5) 2760190";"Cl 27 A 15-07 Colombia, Sincelejo"
"REFRIGERACIÇN VEGA";;;"(57) (2) 8853209";"Cr8 A 20-70 Colombia, Cali"
"JIREH REFRIGERACIÓN";;;"Nal: (57) (5) 1";"Barranquilla Colombia, Barranquilla"
"FRIOTEC LTDA.";;;"(57) (5) 3582189";"Cr52 75-27 L-19 Colombia, Barranquilla"
"SURTIPAG S.A.S. AGUIRRE SURTI PAG S.A.S";;;"(57) (5) 6626292";"Camino del Medio Cl 31 A 39/47 Colombia, Cartagena"
"EDGAR CORRALES REFRIGERACIÓN";;;"(57) (1) 7402187";"Cl 6 D 88 D-59 Colombia, Bogotá"
"REFRIGERACIÓN TORRES";;;"(57) (7) 6472695";"Cl 11 26-58 Colombia, Bucaramanga"
"TALLER MÓVIL J.J";;;"(57) (4) 2910357";"Cl 65 39-57 Ap 201 Colombia, Medellín"
"REFRIHERMANOS JC";;;"(57) (4) 5133299";"Cr53 56-23 Colombia, Medellín"
"REFRIGERACIÓN LA 80";;;"(57) (4) 4119468";"Cl 44 79 D-16 Colombia, Medellín"
SERVITECNICO;;;"(57) 3107007890";"Av5 25-30 Colombia, Cúcuta"
"TECNIFRÍAL LTDA.";;;"(57) (1) 2772813";"Cr28 11-65 Of 435 Colombia, Bogotá"
MAXIFRÍO;;;"Nal: (57) (4) 42620067";"Cr 50 35-07 Colombia, Medellín"
"TODO ELÉCTRICOS";;;"(57) (2) 2257529";"Cr23 24-63 Colombia, Tuluá"
"TECNIFRISA LTDA.";;;"(57) (1) 2902883";"Tr45 B 8 C-41 Colombia, Bogotá"
ICEBERG;;;"(57) (1) 2500166";"Cr29B 67-65 Colombia, Bogotá"
"ALMACÉN REFRI JIREH";;;"(57) (4) 2314978";"Cr52 58-70 Colombia, Medellín"
"REFRIGERACIÓN INDUSTRIAL JAIRO ESTEBAN DÍAZ";;;"(57) (8) 8733361";"Cl 20 A S 30 A-08 Casa 19 Colombia, Neiva"
"ARNEG ANDINA LTDA.";;;"(57) (4) 6040596";"Cl 79 B   S 50-150 Int 153 La Estrella Colombia, Medellín"
"COMPRAVENTA REMATES EL CAMPEÓN";;;"(57) (4) 5120265";"Cr52 59-23 Colombia, Medellín"
"DISFRÍO LTDA.";;;"(57) (1) 2847791";"Cr15 19-08 Colombia, Bogotá"
REFRIELECTRONIKA;;;"(57) (7) 6578910";"Cl 43 A 25-63 El Recreo Colombia, Barrancabermeja"
"AIRE MAXICOLD";;;"(57) (4) 2513855";"Cl 59 53-38 Colombia, Medellín"
"AIRE SPORT REFRIGERACIÓN AUTOMOTRIZ";;;"(57) 3002288426";"Plan 332-B Manz 62 Lt 21-A Socorro Colombia, Cartagena"
"ROJAS HNOS S.A.";;;"(57) (2) 6541063";"Cl 52 N 3 A N-105 Colombia, Cali"
"REPARACIONES PÉREZ";;;"(57) (5) 2751580";"Cr17 13-188 Cruz de Mayo Colombia, Sincelejo"
"First Name";"Email Address";Url;Telephone;Address
"AIRE ACONDICIONADO INVERPRIMOS REFRIGERACIÓN";;;"(57) (4) 3604440";"Cl 14   S 51 C-05 Colombia, Medellín"
MERCAFRIO;;;"(57) (1) 2820936";"Cl 19 16-10 Colombia, Bogotá"
"CENTRO DE SERVICIO AUTORIZADO TECNIPLUS";;;"(57) (2) 8306848";"Cl 7 8-69 Colombia, Popayán"
"TALLER DE REFRIGERACION ARRIETA";;;"(57) (5) 3526205";"Cl 71 34-56 Colombia, Barranquilla"
REFRISUCRE;;;"(57) (5) 3456507";"Cr43 74-06 L-12 Colombia, Barranquilla"
"REFRIGERACIÓN GERMÁN PAYOME";;;"(57) (1) 5666627";"Cr23 6-35 S Colombia, Bogotá"
"First Name";"Email Address";Url;Telephone;Address
"ALMACÉN DE REMATES EL MOLINITO";;;"(57) (4) 4130545";"Cr77 43-50 Colombia, Medellín"
"C.S. AYRE S.A.";;;"(57) (2) 4396973";"Cr2 A 44-35 Bdg 3 Colombia, Cali"
"CASTILLO GUTIÜRREZ LTDA.";;;"(57) (6) 3296624";"Cr8 40 B-13 Colombia, Pereira"
"SERVICIOS INDUSTRIALES ICEBERG";;;"(57) (7) 6486142";"Cl 5 14-05 Altamira I Colombia, Bucaramanga"
"MAXILINE DE FRÍO LTDA.";;;"(57) (1) 2836400";"Cl 19 18-35 Colombia, Bogotá"
"BAJO CERO REFRIGERACION S.A.";;;"(57) (2) 6682585";"Av de Las Américas 23 B N-39 Colombia, Cali"
REFRISUR;;;"(57) (7) 6312075";"Cr33 112-15 Caldas Colombia, Bucaramanga"
"EDGAR CORRALES REFRIGERACIÓN";;;"(57) (1) 7402187";"Cl 6 D 88 D-59 Colombia, Bogotá"
"CDR COLOMBIANA DE REFRIGERACIÓN";;;"(57) (1) 2803960";"Cr26 9-57 S Colombia, Bogotá"
"PUNTO FRÍO";;;"(57) (8) 2702288";"Cl 29 7-64 Colombia, Ibagué"
"REFRIGERACION INDUSTRIAL THERMOCOLD LTDA.";;;"(57) (1) 2936111";"Cr72 L 36-10 S Colombia, Bogotá"
"FRÍO TÉCNICO";;;"(57) 3103327378";"Cl 20 S 15-16 Timanco Colombia, Neiva"
"SERVICIO TÉCNICO DE REFRIGERACIÓN OLIVERIO PÉREZ";;;"(57) (4) 2761464";"Cr38 39-S 75 Envigado Colombia, Envigado"
ACREFRIGERACION;;;"(57) (7) 6708180";"Cr15 30-53 Colombia, Bucaramanga"
"INTERHOSPITALARIA LTDA.";;;"(57) (1) 4185700";"Tr96 B 24 B-72 Colombia, Bogotá"
"CALIAIRES LTDA";;;"(57) (2) 6671755";"Av8   N 15   N-39 Colombia, Cali"
"HOYOS JAVIER";;;"(57) (4) 2182457";"Cr43 49-44 Int 1602 Colombia, Medellín"
"TECNI POLOS";;;"(57) (2) 7238744";"Cr16 18-07 Navarrete Colombia, Pasto"
"REMATES LA ROCA";;;"(57) (4) 2933372";"Cr55 52-62 Colombia, Medellín"
"COSMOFRIO LTDA.";;;"(57) (1) 2711385";"Cl 122 45 A-63 Of 301 Colombia, Bogotá"
"AGENCIA DE REMATES EL PADRINO";;;"(57) (4) 2932106";"Cr57 51-72 Colombia, Medellín"
"NEIVANA DE REFRIGERACIÓN";;;"(57) (8) 8716311";"Cl 12 6-36 Colombia, Neiva"
"LAB REFRIGERACIÓN COMERCIAL E INDUSTRIAL";;;"(57) (4) 5124802";"Cl 59 52-69 Colombia, Medellín"
SERVITECNICO;;;"(57) 3107007890";"Av5 25-30 Colombia, Cúcuta"
"VIGOYA WILLIAN";;;"(57) (1) 2816136";"Cl 19 16 A-67 Colombia, Bogotá"
"REFRIGERACIÓN GUTIERREZ";;;"(57) (1) 2801515";"Cl 1 H 24 17/19 Colombia, Bogotá"
"COLD HOMG REFRIGERACIÓN";;;"(57) (7) 5799868";"Cl 1 4-67 La Merced Colombia, Cúcuta"
EXHIBIR;;;"(57) (1) 3119784";"Cr68 H 78-69 Colombia, Bogotá"
"SERVINÓRDICO LTDA.";;;"(57) (1) 2811888";"Av19 18-69 Colombia, Bogotá"
"REFRIGERACION JAIRO CALDERON";;;"(57) (7) 6397884";"Cr40 A 148 A-35 Urb Escoflor Floridablanca Colombia, Floridablanca"
"FRIOMIX DEL CAUCA S.A.";;;"(57) (1) 4132929";"Cr 127 22 B-08 Colombia, Bogotá"
"ALMACÉN REFRI ELÉCTRICO";;;"(57) (5) 5707275";"Cr8 19-14 Colombia, Valledupar"
"FRÍO PART";;;"(57) (4) 7918256";"Cl 41 B 16 B L-11 Urb Alto de la Floresta Colombia, Montería"
"A G REFRIGERACIÓN Y CÍA. LTDA.";;;"(57) (2) 8941924";"Av6 Oe 15 Oe-22 Colombia, Cali"
DISNAR;;;"(57) (5) 6633642";"Sta Lucía Cr70 31-40 Manz I Lt 19 Colombia, Cartagena"
"ALMACÉN Y TALLER FRÍO REPUESTOS";;;"(57) (76) 5651211";"Cr14 3-57 Colombia, Aguachica"
COOLFRIOS;;;"(57) (8) 8366930";"Cr2 9-40 Colombia, Pitalito"
"LIZCANO CARVAJAL LUIS EDUARDO";;;"(57) (1) 4750643";"Cr16 48-10 Colombia, Bogotá"
"AUTOMATIZACIÓN Y OPTIMIZACIÓN DE PROCESOS INDUSTRIALES AUTOPRIND E.U.";;;"(57) (8) 6714083";"Cr13 Este 36-231 Bosques de Abajam 3 Vía Catama Colombia, Villavicencio"
"REFRIGERACIÓN PB";;;"(57) (1) 3349576";"Cl 19 16-02 Colombia, Bogotá"
"EL NEVADO SERVICIOS TÉCNICOS";;;"(57) (6) 7445584";"Cl 24 18-32 Colombia, Armenia"
"TODO ELÉCTRICOS";;;"(57) (2) 2257529";"Cr23 24-63 Colombia, Tuluá"
"INSTALACIÓN Y MANTENIMIENTO EQUIPOS DE GAS";;;"(57) (2) 7323236";"Cr1 B 23 A-52 Gualcalá Colombia, Pasto"
"INDUSTRIAS REFRISOLDAR";;;"(57) (7) 6032618";"Dg52 1-29 Rangel Colombia, Barrancabermeja"
"REFRI-AIRES DEL HUILA";;;"(57) 3152366742";"Cl 19 A 40-19 Colombia, Neiva"
"TALLER FAMILIAR";;;"(57) (5) 3449372";"Cr 40 32-28 Colombia, Barranquilla"
"REFRIGERACION Y LAVADORAS";;;"(57) (4) 8871035";"Cr22 18-45 Colombia, Yarumal"
"A.R. TECNIAIRES DE LA COSTA";;;"(57) (5) 3474931";"Cl 28 26-43 Colombia, Barranquilla"
"REFRIELÉCTRICOS ORTIZ";;;"(57) (5) 3449698";"Cr41 60-41 Colombia, Barranquilla"
"FERMAT COMERCIAL S.A.";;;"(57) (1) 3704011";"Cl 15 36-89 Colombia, Bogotá"
"AIRES ACONDICIONADOS JHONAIRES";;;"(57) (7) 6372262";"Cr12 A 103 D-24 Colombia, Bucaramanga"
"REFRIGERACIONES JAVIER ISAZA E.";;;"(57) (4) 8273410";"Cra 15 Cl 100-12 Colombia, Turbo"
"AIRE LA 15";;;"(57) 3157181077";"Cr15 9 A-50 Colombia, Valledupar"
"FRIOFER E.U.";;;"(57) (1) 2842773";"Cl 19 14-14 Colombia, Bogotá"
"DISTRIMPRESOS & EQUIPOS INDUSTRIALES";;;"(57) (7) 5877666";"Cl 18 N 2-174 Los Angeles Prados del Norte Colombia, Cúcuta"
"REFRIGERACIÓN Y MONTAJES R. Y C. LIMITADA";;;"Nal: (57) (4) 3727570";"Dg40-32-93 L-101 Itaguí Colombia, Medellín"
"SOLUCIONES TER";;;"(57) (4) 5127411";"Cl 57 B 51 D-39 Colombia, Medellín"
"TODO FRIO";;;"(57) (4) 5142475";"Cr52 59-19 Colombia, Medellín"
"EQUISERVIN LTDA.";;;"(57) (5) 3708532";"Cr43 55-08 L-1 Colombia, Barranquilla"
"REFRISER LTDA.";;;"(57) (1) 5998259";"Cl 9 26-75 Colombia, Bogotá"
REFRISUR;;;"(57) (7) 6312075";"Cr33 112-15 Caldas Colombia, Bucaramanga"
"ARNEG ANDINA LTDA.";;;"(57) (4) 6040596";"Cl 79 B   S 50-150 Int 153 La Estrella Colombia, Medellín"
"REFRIGERACIÓN AUTOMOTRIZ MARMOLEJO";;;"(57) (5) 3685920";"Cr47 72-178 Colombia, Barranquilla"
"REFRIGERACIÓN Y BATERÍAS";;;"(57) (5) 6627539";"Tr38 22-16 Colombia, Cartagena"
"REFRIELÉCTRICOS ORTIZ";;;"(57) (5) 3449698";"Cr41 60-41 Colombia, Barranquilla"
"REFRICOMP DEL CARIBE S.A.S.";;;"(57) (5) 3601133";"Cl 72 68-42 L- 1 Colombia, Barranquilla"
"REFRINORTE BARRANQUILLA";;;"Telefax: (57) (5) 3006740";"Cl 44 36-140 Colombia, Barranquilla"
"CARIBBEAN FROZT";;;"(57) 3162787857";"Sector Cinco Esquinas 4-45 Colombia, San Andrés"
REFRIMANE;;;"(57) 3003167771";"Cl 75 22 A-21 Colombia, Barranquilla"
"THERMOCENTER E.U.";;;"(57) (1) 4110679";"Av Ciudad de Cali 7 D-14 Colombia, Bogotá"
"VARGAS ISRAEL";;;"(57) (1) 6311147";"Cr51 71-48 Colombia, Bogotá"
SERVI-REFRIGERACIÓN;;;"(57) (8) 6655070";"Cr18 A 25 A-49 Colombia, Villavicencio"
"REFRICOOL DEL HUILA";;;"(57) (8) 8722417";"Cl 5 3-87 Centro Colombia, Neiva"
"CENTRO TÉCNICO DE MARCAS";;;"(57) (1) 4738334";"Cr95 A 128 B-60 P 2 Colombia, Bogotá"
"First Name";"Email Address";Url;Telephone;Address
"TÉCNICO EN REFRIGERACIÓN OLMEDO RODRÍGUEZ";;;"(57) 3146316148";"Cr11 17-28 Colombia, Buga"
"AGUIRRE EMILIANO";;;"(57) (1) 2433867";"Cl 19 16-31 Colombia, Bogotá"
"MAXIFRÍO NEIVA";;;"(57) (8) 8622796";"Cr9 17-40 Colombia, Neiva"
SUPERFRÍO;;;"(57) (8) 8721443";"Cr3 10-49 Colombia, Neiva"
"REFRIGERACIÓN ALMAN";;;"(57) (5) 6660125";"Popa Cl 31 21-251 Av Pedro de Heredia Colombia, Cartagena"
"CONSTRUFRIO DEL CARIBE";;;"(57) 3114137120";"Lo Amador Cl 32 No 19-33 Colombia, Cartagena"
INFRICOL;;;"(57) (2) 7290294";"Cl 13 23-63 Colombia, Pasto"
"SERVICIO DE NEVERAS Y LAVADORAS BERNARDO POSADA";;;"(57) (4) 2115481";"Cl 68 48-103 Colombia, Medellín"
"LINCE REFRIGERACIÓN LTDA.";;;"(57) (1) 7417323";"Av1 de Mayo 52-18 Colombia, Bogotá"
"ALMACEN REFRISUR";;;"(57) (4) 5128102";"Cl 52 53-81 Colombia, Medellín"
"TECNIFRIOS RODRÍGUEZ";;;"(57) (8) 8670564";"Cl 64 # 1 W-10 Colombia, Neiva"
"AIR FRESCH";;;"(57) (5) 3606065";"Cl 79 44-18 Colombia, Barranquilla"
"AIRE LA 15";;;"(57) 3157181077";"Cr15 9 A-50 Colombia, Valledupar"
"ALMACÉN CARCO";;;"(57) (5) 5844444";"Cr9 18-13 Colombia, Valledupar"
"SERVI TÉCNICO";;;"(57) (5) 3603058";"Cr49 B 79-248 Colombia, Barranquilla"
"FRÍO OPTIMO";;;"(57) 3008864657";"Dg31 82-30 L-101 Colombia, Cartagena"
ABACENTER;;;"(57) (6) 7379494";"Et I Manz 36 Casa 4 La Cecilia Colombia, Armenia"
DIAC;;;"(57) (1) 6600305";"Cr68 H 74 B-54 Colombia, Bogotá"
REFRISERVI;;;"(57) (2) 4491758";"Cr10 54-64 Colombia, Cali"
"REFRIGERACIONES MAYE";;;"Nal: (57) (4) 5117999";"Cr52 58-02 Colombia, Medellín"
"AIRE ACONDICIONADO INSERIM AIRE S.A.";;;"(57) (6) 3368572";"Cr8 45-51 Colombia, Pereira"
"AIRE ACONDICIONADO MANTIARIE";;;"(57) (7) 6405133";"Cr18 C 8 AN-20 Brr 13 de Junio Colombia, Bucaramanga"
"AIRESCOLOMBIA S.A.S.";;;"(57) (6) 3358366";"Cr5 13-56 Colombia, Pereira"
"REYMSA COLOMBIA S.A.S";;;"(57) (1) 2850418";"Cr37 75-11 Colombia, Bogotá"
"EVA AIRE ACONDICIONADO";;;"(57) (4) 5806798";"Cl 96A 82-15 Colombia, Medellín"
FRIGO;;;"(57) (6) 8837178";"Cl 21 9-134 Colombia, Manizales"
"REFRIPARTE IGLOO S.A.S.";;;"(57) (4) 5119030";"Cr53 58-72 Int 202 Colombia, Medellín"
"NEVADA AIRE ACONDICIONADO";;;"(57) 3158119753";"Cl 13 5-105 Colombia, Neiva"
"ACERFRIOS Y MANTENIMIENTO S.A.S.";;;"(57) (1) 2243440";"Av Boyacá 75 A-79 Colombia, Bogotá"
"OVIEDO REFRIGERACIÓN";;;"(57) (8) 8753522";"Cl 34 A 12-13 Colombia, Neiva"
"AIR FRESH INGENIEROS LTDA.";;;"(57) (2) 5134402";"Cr 58 # 3-74 Colombia, Cali"
PROFRIO;;;"(57) (8) 2639108";"Cr7 22-06 Colombia, Ibagué"
"ELECTRODOMÉSTICOS EL BARATÓN";;;"(57) (2) 6801762";"Cl 27 43 B-18 Colombia, Cali"
"REFRIGERACIÓN AL DÍA";;;"(57) (2) 4382200";"Cl 44 14-43 Colombia, Cali"
"HIDROCENTER CASA BOSCH";;;"(57) (5) 2760190";"Cl 27 A 15-07 Colombia, Sincelejo"
"REFRIGERACIÓN Y LAVADORAS JORGE E. LANDAZÁBAL";;;"(57) (7) 5764204";"Cl 13 3-66 San Luis Colombia, Cúcuta"
"ACEROS Y REFRIGERACIÒN";;;"(57) (4) 5119528";"Cr52 59-19 Colombia, Medellín"
"TERMOFRÍO EL NEVADO";;;"(57) (1) 2770142";"Cl 12 19 A-32 Colombia, Bogotá"
"MAGNEPLAST S.A.";;;"(57) (1) 5978697";"Km 3 Funza Siberia Parque Industrial San Antonio Manz BBd 2 Colombia, Funza"
"FRIOTEC LTDA.";;;"(57) (5) 3582189";"Cr52 75-27 L-19 Colombia, Barranquilla"
"First Name";"Email Address";Url;Telephone;Address
"SOLUTEC SOLUCIONES TÉCNICAS CASTELLÓN";;;"(57) (5) 3566099";"Cr48 74-38 Colombia, Barranquilla"
"FRÍO TECNIC";;;"(57) 3113290593";"Cl 81 C 26 C-1 -7 Colombia, Barranquilla"
"REFRIGERACIµN JM S.A.S.";;;"(57) (1) 7952028";"Cr90 D 127-02 Colombia, Bogotá"
"REFRIVILLA E.U.";;;"(57) 3754519";"Cr18 19-41 Soledad Colombia, Soledad"
"MMR REFRIGERACIÓN";;;"(57) (5) 3748007";"Cl 24B3 4-41 Simón Bolívar Colombia, Barranquilla"
"CENTRO DE SERVICIO INMEDIATO ABACENTEC REFRIGERACIÓN";;;"(57) (8) 6715206";"Cl 9 25 A-09 La Rosita Colombia, Villavicencio"
"TALLER DE REFRIGERACIÓN ALFONSO MONSALVE";;;"(57) (4) 2722551";"Cl 52 44-76 Bello Colombia, Bello"
"A.R INGENIERÍA E.U";;;"(57) (2) 5242888";"Cr14 A 36-79 Colombia, Cali"
LORDTEC;;;"Nal: (57) (4) 4926689";"Cr 96 Cc 49 - 12 Colombia, Medellín"
"DISTRIBUIDORA REFRIAMAYA";;;"(57) (7) 6224325";"Cr20 50-62 Colombia, Barrancabermeja"
"AIRE ACONDICIONADO & REFRIGERACIÒN";;;"(57) 3167573811";"Cl 36 41 E-25 Colombia, Cali"
"REYMSA COLOMBIA S.A.S";;;"(57) (1) 2850418";"Cr37 75-11 Colombia, Bogotá"
"A.V.C. INGENIERÍA";;;"(57) (8) 2713058";"La Campiña Manz 4 Casa 24 Colombia, Ibagué"
"JCM INGENIERÍA DEL AIRE";;;"(57) 3108762353";"Av5 0-109 La Insula Colombia, Cúcuta"
"ALMACÉN REFRISUR - MB";;;"(57) (2) 8397249";"Cr17 1-68 Colombia, Popayán"
ELECTROLUX;;;"(57) (4) 4440528";"Cl 50 68-49 Colombia, Medellín"
"AIRES CONFORT H & F";;;"(57) (8) 8713592";"Cr2 14-12 Los Mártires Colombia, Neiva"
"SERVI-REPUESTOS J.J. POPAYÁN";;;"(57) (2) 8212376";"Cl 7 8-69 Colombia, Popayán"
"AIRE ACONDICIONADO REFRIGERACIÓN REFRITERMO";;;"(57) (1) 2254967";"Cl 72 63-47 Colombia, Bogotá"
"ALMACEN DE REFRIGERACION TODO EN FRIO";;;"(57) (7) 6222418";"Av Los Fundadores 16-44 Colombia, Barrancabermeja"
"ELECTRO AIRES POPAYÁN";;;"(57) (2) 8227891";"Cr21 D 2-05 Brr. Pandiguando Colombia, Popayán"
"SÚAREZ JORGE HUMBERTO";;;"(57) (1) 2484141";"Cr31 63-21 Colombia, Bogotá"
"SHILLERS Y ENFRIAMIENTOS";;;"(57) (4) 4827824";"Av37 A 65 A-58 Bello Colombia, Bello"
"REFRIPARTES NOGUERA LTDA.";;;"(57) (5) 3517209";"Cl 38 45-36 Colombia, Barranquilla"
"REFRI SISTEMAS DEL CARIBE";;;"(57) (5) 6690359";"Dg22 44-63 L-1 Colombia, Cartagena"
"CONSTRUFRIO DEL CARIBE";;;"(57) 3114137120";"Lo Amador Cl 32 No 19-33 Colombia, Cartagena"
"FERRELÉCTRICOS PARAMO";;;"(57) (5) 4315645";"Cl 10 8-03 Esq Colombia, Santa Marta"
"INGENIERÍA EN REFRIGERACIÓN Y AIRE ACONDICIONADO";;;"(57) (1) 6944287";"Cr141 A 137-52 Colombia, Bogotá"
"LÓPEZ FERIA HENRY";;;"(57) (5) 3406303";"Cr38 57-41 Colombia, Barranquilla"
"First Name";"Email Address";Url;Telephone;Address
"C.S. AYRE S.A.";;;"(57) (2) 4396973";"Cr2 A 44-35 Bdg 3 Colombia, Cali"
"MARFRIO S.A.S.";;;"(57) (5) 6769519";"Bosque Tr54 27-24 L-1 Sector San Isidro Colombia, Cartagena"
"REFRIG CENTRAL";;;"(57) (8) 2634520";"Cl 18 4-82 Colombia, Ibagué"
"A LA ORDEN CENTRALES";;;"(57) (4) 3418884";"Cr86 32-28 Colombia, Medellín"
"BOJANINI INGENIEROS LTDA.";;;"(57) (6) 3348804";"Cr10 22-18 Colombia, Pereira"
"IMPORTADORA AC REFRIGERACION AUTOMOTRIZ";;;"(57) (5) 3688768";"Cr46 60-50 L-1 Colombia, Barranquilla"
"DISTRIBUCIONES MERCO ELECTRO";;;"(57) (7) 6336114";"Cr5 Occ 36-55 La Joya Colombia, Bucaramanga"
REFRISERGIO;;;"(57) (2) 6562715";"Cl 70 26 C-63 Colombia, Cali"
"GARCÍA PERTÚZ ROGER ANTONIO";;;"(57) (1) 2437417";"Cr16 19-23 Colombia, Bogotá"
REFRITODO;;;"(57) (7) 6203885";"Cr28 46-71 Ap 301 El Recreo Colombia, Barrancabermeja"
"REFRIGERACIÓN 1A";;;"(57) (1) 8311252";"Cr10 18-59 Colombia, Girardot"
"REMATES LA PAZ";;;"Nal: (57) (4) 2318107";"Cl 57 51d- 53 Colombia, Medellín"
"A G REFRIGERACIÓN Y CÍA. LTDA.";;;"(57) (2) 8941924";"Av6 Oe 15 Oe-22 Colombia, Cali"
ACROPOL;;;"(57) (7) 1000000";"Cr15 N 30-53 Bucaramanga Colombia, Cúcuta"
"AIRES ACONDICIONADOS JHONAIRES";;;"(57) (7) 6372262";"Cr12 A 103 D-24 Colombia, Bucaramanga"
"REFRIGERACIÓN INDUSTRIAL NORIEL ARENAS";;;"(57) (2) 6659792";"Cl 43 N 6 B N-36 Colombia, Cali"
REFRILAVA;;;"(57) (1) 7841219";"Cl 63 S 87 A-19 Colombia, Bogotá"
"SERVIAIRES ACONDICIONADO Y REFRIGERACIÓN";;;"(57) (2) 4400786";"Cr1A3A 70 C Bis-13 B-146 Ap 101 Colombia, Cali"
"AIRE ACONDICIONADO SEINTEL E.U.";;;"(57) (5) 6568017";"Crespo Av2 70-26 Colombia, Cartagena"
"J Y S INDUSTRIAS METÁLICAS";;;"(57) (6) 3348986";"Cl 14 9-53 Colombia, Pereira"
"J.CENTENO INGENIERIA E.U";;;"(57) 3128347850";". Colombia, Cali"
"REFRIPLAST LTDA.";;;"(57) (1) 4822054";"Cl 24 C 26-50 Colombia, Bogotá"
CONFRIO;;;"(57) (1) 5430150";"Cr17 70-46 Colombia, Bogotá"
"REFRIGERACIÓN PB";;;"(57) (1) 3349576";"Cl 19 16-02 Colombia, Bogotá"
"COMPRAVENTA REMATES EL CAMPEÓN";;;"(57) (4) 5120265";"Cr52 59-23 Colombia, Medellín"
"ALMACEN FABRCA FRIO.COM";;;"(57) (4) 5122757";"Cr52 59-13 Colombia, Medellín"
"REFRICALDERAS S.A.S";;;"(57) (8) 6684210";"Cll 3C 28D - 108 B/Carulu Colombia, Villavicencio"
"REFRIHAM S.A.";;;"(57) (5) 3344680";"Cl 30 5-A-35 Colombia, Barranquilla"
"AGUIRRE EMILIANO";;;"(57) (1) 2433867";"Cl 19 16-31 Colombia, Bogotá"
"PALLOMARO S.A.";;;"(57) (1) 3108728";"Cr65 80-06 Colombia, Bogotá"
"REFRI-AIRES DEL HUILA";;;"(57) 3152366742";"Cl 19 A 40-19 Colombia, Neiva"
CLIMATIZA;;;"(57) (5) 3693150";"Cl 76 66-72 Colombia, Barranquilla"
DIAC;;;"(57) (1) 6600305";"Cr68 H 74 B-54 Colombia, Bogotá"
SEAR;;;"(57) (2) 4263217";"Dg28D2 Tr71 A-28 Colombia, Cali"
"TRS PARTES S.A.";;;"(57) (1) 8050163";"Cr29 B 79-38 Colombia, Bogotá"
"MACONS REFRIGERACIÓN";;;"(57) (7) 6598019";"- Colombia, Bucaramanga"
REFRIMEC;;;"(57) (5) 6632677";"B. de Lezo Et I Manz L Lt 12 Colombia, Cartagena"
"CARDONA AGUSTÍN";;;"(57) (2) 2750101";"Cr33 A 30-29 Colombia, Palmira"
"FRÍO REAL";;;"(57) (2) 3909583";"Cr15 34-68 Colombia, Cali"
"ELECTRI GAVI";;;"(57) (7) 6211364";"Cr12 49 A-39 Colombia, Barrancabermeja"
"BOGOYA MARTÍNEZ ALEXIS";;;"(57) (1) 3410240";"Av19 16-97 Colombia, Bogotá"
"A.B.C. REFRIGERACION";;;"(57) (7) 6319770";"Cl 55 1 W-52 Real de Minas Colombia, Bucaramanga"
VITRIFRIO;;;"(57) (4) 5126058";"Cl 59 51 D-74 Colombia, Medellín"
"FUENTE DE HELADOS EL ANTOJO";;;"(57) (4) 5618574";"Cl 40 66-28 Rionegro Colombia, Medellín"
"FRANCO OSCAR";;;"(57) (4) 5315512";"Cr61 F 40 B-09 Rionegro Colombia, Medellín"
"REFRI LINE";;;"(57) (5) 6532223";"San Pedro Manz 10 Lt 11 Colombia, Cartagena"
"REFRIGERACIÓN AUTOMOTRIZ LAUREANO GÓMEZ";;;"(57) (5) 6567012";"Lo Amador Calle Ricaurte 20 B-55 Colombia, Cartagena"
"TECNICONFORT DE LA COSTA S.A.S.";;;"(57) (5) 6600185";"Calle 1 de Badillo 35-53 Of 203 Edif Badlissi Colombia, Cartagena"
"REMATES USADOS";;;"(57) (5) 6692093";"El Toril Cl 32 22-283 Av Pedro de Heredia Colombia, Cartagena"
"MARTÍN KAS LTDA.";;;"(57) (1) 2604004";"Cr67 3-39 Colombia, Bogotá"
"REFRIGERACION Y CLIMATIZACION DEL SUR S.A.S";;;"(57) (7) 6398599";"Cl 29 11-20 Lagos I Colombia, Bucaramanga"
"First Name";"Email Address";Url;Telephone;Address
"INGESERVI E.U.";;;"(57) (5) 3791102";"Cl 57 45-60 P-1 L-2 Boston Colombia, Barranquilla"
"SERVIFRÍO A SU SERVICIO";;;"(57) 3126205007";"Carrt La Cordialidad 30-35 Sabanalarga Colombia, Barranquilla"
"THERMOCENTER E.U.";;;"(57) (1) 4110679";"Av Ciudad de Cali 7 D-14 Colombia, Bogotá"
"FRÍO GLACIAL";;;"(57) (4) 8318054";"Cl La Banca 53-67 Colombia, Segovia"
"First Name";"Email Address";Url;Telephone;Address
"REFRIGERACION INDUSTRIAL S.A.S.";;;"(57) 3125108074";"Cl 111 E 64 A-74 Colombia, Medellín"
"TECNIFRIOS RODRÍGUEZ";;;"(57) (8) 8670564";"Cl 64 # 1 W-10 Colombia, Neiva"
"FRÍO REAL";;;"(57) (2) 3909583";"Cr15 34-68 Colombia, Cali"
"CASTELLANOS LUQUE SAULO GUILLERMO";;;"(57) (1) 8361969";"Cl 6 23-40 Colombia, Girardot"
"AGENCIA TECNICA ESPECIALIZADA";;;"(57) (7) 6816320";"Cl 104 25 A-29 Provenza Colombia, Bucaramanga"
"REFRIVILLA E.U.";;;"(57) 3754519";"Cr18 19-41 Soledad Colombia, Soledad"
ELECTROFRÍO;;;"(57) (1) 8600291";"Calera Vda Altamar Colombia, Bogotá"
"A G REFRIGERACIÓN Y CÍA. LTDA.";;;"(57) (2) 8941924";"Av6 Oe 15 Oe-22 Colombia, Cali"
"INDUCOL S.A.S.";;;"(57) (1) 2610817";"Cl 19 66-70 Colombia, Bogotá"
"B.L.AIRES LTDA.C.I.";;;"(57) 3008053787";"Cr70 86-106 Colombia, Barranquilla"
"CASTILLO GUTIÜRREZ LTDA.";;;"(57) (6) 3296624";"Cr8 40 B-13 Colombia, Pereira"
"ALMACÉN REFRIVARIOS";;;"(57) (5) 4211837";"Cl 14 5-28 L-5 Colombia, Santa Marta"
SOCRES;;;"(57) (5) 6901674";"Av 7 71-48 Ap 1-B Edif Daniela Colombia, Cartagena"
"REFRI-LAVADORA DE LA GUAJIRA";;;"(57) (5) 7286539";"Cl 32 Cra 7 Esq Colombia, Riohacha"
"REFRIGERACIÓN URAM";;;"(57) (8) 4361240";"Cl 14 9-55 Raicero Colombia, Florencia"
FRIOSÁN;;;"(57) (1) 2813214";"Cl 19 15-59 Colombia, Bogotá"
"REFRIGERACIÓN TORRES";;;"(57) (7) 6472695";"Cl 11 26-58 Colombia, Bucaramanga"
"W.B. SERVICES LTDA.";;;"(57) (8) 8651067";"Cl 56 B 18 C-18 Villa Carolina Colombia, Neiva"
"DISTRIBUIDORA REFRIMAYOR S.A.";;;"(57) (1) 3362277";"Cl 19 15-56 Colombia, Bogotá"
VITRIFRIO;;;"(57) (4) 5126058";"Cl 59 51 D-74 Colombia, Medellín"
"AIRES & SOLUCIONES LTDA.";;;"(57) (4) 5131732";"Cl 51 54-56 L-117 Colombia, Medellín"
"SERVICIO ELECTRODOMÉSTICO E INDUSTRIAL LTDA";;;"(57) (8) 6620318";"Cl 36 26-31 San Isidro Colombia, Villavicencio"
AIRESTOP;;;"(57) (4) 3310678";"Cl 38 S 43 A-28 Envigado Colombia, Envigado"
"SOLUCIONES TER";;;"(57) (4) 5127411";"Cl 57 B 51 D-39 Colombia, Medellín"
"REFRIHERMANOS JC";;;"(57) (4) 5133299";"Cr53 56-23 Colombia, Medellín"
"TERMOREFRIGERACIÓN GRAN CLIMA E.U.";;;"(57) (2) 8959929";"Cl 25 9-54 P-1 Colombia, Cali"
"REFRIMECANO LTDA.";;;"(57) (4) 4524935";"Cl 31 58-124 Bello Colombia, Bello"
"RUIDÍAZ LEONEL";;;"(57) (2) 6807102";"Cl 52 1C2-03 Colombia, Cali"
"PIR C.I. S.A.";;;"(57) (5) 3344680";"Cl 30 5 A-35 Colombia, Barranquilla"
"ALMACEN FRÍO REPUESTOS LTDA.";;;"(57) (2) 8892869";"Cl 14 3-03 Colombia, Cali"
ICEBERG;;;"(57) (1) 2500166";"Cr29B 67-65 Colombia, Bogotá"
"ALMACÉN REFRI JIREH";;;"(57) (4) 2314978";"Cr52 58-70 Colombia, Medellín"
"STAR AMERICAN EN FRIO S.A.S.";;;"(57) (2) 6670129";"Av5 A N 24 A N-34 L-17 Colombia, Cali"
REFRIEQUIPOS;;;"(57) 3017713388";"Manz. 1 Casa 11 El Parque Colombia, Santa Marta"
"ACONDICIONADORES DE AIRE Y REFRIGERACIÓN NICFRÍO";;;"(57) (5) 6630842";"Las Delicias Cr64 30-266 Colombia, Cartagena"
DISNAR;;;"(57) (5) 6633642";"Sta Lucía Cr70 31-40 Manz I Lt 19 Colombia, Cartagena"
"AIRE ACONDICIONADO AIRES ASOCIADOS LTDA.";;;"(57) (6) 3367506";"Cr6 26-74 Of 201 Colombia, Pereira"
REFRISERVI;;;"(57) (2) 4491758";"Cr10 54-64 Colombia, Cali"
"COMPRAVENTA REMATES EL CAMPEÓN";;;"(57) (4) 5120265";"Cr52 59-23 Colombia, Medellín"
"FRÍOS DEL NORTE";;;"(57) (6) 3383321";"Cr11 44-256 Colombia, Pereira"
"REJILLAS CARIBE";;;"(57) (5) 3706295";"Cl 44 41-40 L-1 Colombia, Barranquilla"
"TECNO-FRIO SANTANDER";;;"(57) (7) 6216455";"Cl 52 A 34 C-46 Campo Alegre Colombia, Barrancabermeja"
"REFRIGERACIÓN SAN NICOLÁS S.A.S.";;;"(57) (2) 8881477";"Cr5 21-94 Colombia, Cali"
REFRIUNIVERSAL.RU;;;"(57) (8) 4358209";"Cr10 19-12 Colombia, Florencia"
"ALMACEN DE CONGELADORES TECNIFRIO";;;"Conm.: (57) (4) 5124227";"Cr52 59-24 Colombia, Medellín"
"JOHNSON CONTROL COLOMBIA LTDA";;;"(57) (5) 3604672";"Cr53 74-49 L-2 Colombia, Barranquilla"
"IMBERA SERVICIOS COLOMBIA S.A.S.";;;"(57) (2) 4441000";"Cl 35 8-65 Colombia, Cali"
"TECNIFRIO CLIMA";;;"(57) (4) 2915168";"Cr47 65-114 Colombia, Medellín"
"AC EL INDUSTRIAL";;;"(57) (1) 2116733";"Cl 58 15 A-22 Colombia, Bogotá"
"AIRE ACONDICIONADO AUTO FRESH";;;"(57) (5) 3607770";"Cl 75 45-56 L-1-C Colombia, Barranquilla"
"AIRE ACONDICIONADO INSERIM AIRE S.A.";;;"(57) (6) 3368572";"Cr8 45-51 Colombia, Pereira"
"REFRIGERACIµN JM S.A.S.";;;"(57) (1) 7952028";"Cr90 D 127-02 Colombia, Bogotá"
"ALMACEN REFRISUR";;;"(57) (4) 5128102";"Cl 52 53-81 Colombia, Medellín"
FRIOTÉCNICOS;;;"(57) (8) 5121215";"Av Antioquia 2-44 Colombia, San Andrés"
"DISTRIMPRESOS Y EQUIPOS";;;"(57) (7) 6302882";"Cl 22 19-24 L-2 Colombia, Bucaramanga"
"TÉCNICOS ASOCIADOS";;;"(57) (4) 5214693";"Cl 97 51 B-22 Int 136 Colombia, Medellín"
"JM REFRIGERACIÓN";;;"(57) 31572270543";"Cr4 Estadio 26-08 Colombia, Ibagué"
SOLUMEC;;;"(57) (5) 6431388";"Urb Barlovento Manz E Lt 2 Colombia, Cartagena"
"ANA CELY ARIAS/WILLIAM SÚAREZ";;;"(57) (7) 6360728";"Cl 90 20-60 Diamante II Colombia, Bucaramanga"
"BOJANINI INGENIEROS LTDA.";;;"(57) (6) 3348804";"Cr10 22-18 Colombia, Pereira"
"TALLER INDUFRÍO MARIO JARAMILLO";;;"(57) (1) 8327112";"Manz 21 Casa 17 Kndy Colombia, Girardot"
"MACONS REFRIGERACIÓN";;;"(57) (7) 6598019";"- Colombia, Bucaramanga"
HERMA;;;"(57) (6) 3292649";"Cr3 33-64 P-2 Colombia, Pereira"
"REFRIMUNDO LTDA.";;;"(57) (7) 6451887";"Cl 22 22-11 Colombia, Bucaramanga"
"NEIVAFRÍO INGENIERÍA ORS";;;"(57) (8) 8723232";"Cr2 con Cl 14 Esq Colombia, Neiva"
"REFRIBLAS CONFORT S.A.S.";;;"(57) (5) 6695083";"Bosque Tranv. 51 21-63 L-107 Colombia, Cartagena"
"ATLANPACIFIC LTDA.";;;"(57) (4) 3114105";"Cr34 7-73 Int 305 Colombia, Medellín"
"REFRIGERAR Y ACCSESORIOS LTDA.";;;"(57) (8) 6826308";"Cr37 25-34 Colombia, Villavicencio"
ELECTROMECÁNICA;;;"(57) (1) 8353288";"Manz C-3 Casa 11 Magdalena III Colombia, Girardot"
"TALLER DE REFRIGERACION SERVI SERRANO";;;"(57) (7) 6590476";"Cl 39 16-36 Rincon de Girón Colombia, Girón"
"AIRES TECNIFRIO'S";;;"(57) (7) 6804030";"Cl 45 19-127 Colombia, Bucaramanga"
"MANTENIMIENTO FENIX";;;"(57) (8) 2680118";"Manz C Casa 8 Urbanización Portal de la Virgen Colombia, Ibagué"
"LIZCANO CARVAJAL LUIS EDUARDO";;;"(57) (1) 4750643";"Cr16 48-10 Colombia, Bogotá"
"WONDER COOL";;;"(57) (2) 3809489";"Av3 N 23 B N-57 Colombia, Cali"
AIREMEK;;;"(57) (7) 6596654";"Cl 20 A 24-92 Girón Colombia, Girón"
"REFRIELECTRICOS DEL ORIENTE";;;"(57) (7) 6420606";"Cr17 41-83 Colombia, Bucaramanga"
"First Name";"Email Address";Url;Telephone;Address
THERMOMAR;;;"(57) (4) 3796375";"Cl 65 44 B-44 Int 401 Itagui Colombia, Itagüí"
"SERVICIO TÉCNICO REFRIAIRES";;;"(57) (4) 4562878";"Cr48 46-78 Bello Colombia, Bello"
"TALLER MÓVIL J.J";;;"(57) (4) 2910357";"Cl 65 39-57 Ap 201 Colombia, Medellín"
"MUNDO GAS Y REFRIGERACIÓN";;;"(57) (4) 5125481";"Cr57 51 -26 Colombia, Medellín"
AIRESTOP;;;"(57) (4) 3310678";"Cl 38 S 43 A-28 Envigado Colombia, Envigado"
SERVITECNICO;;;"(57) 3107007890";"Av5 25-30 Colombia, Cúcuta"
ICEBERG;;;"(57) (1) 2500166";"Cr29B 67-65 Colombia, Bogotá"
"AIRE ACONDICIONADO SEINTEL E.U.";;;"(57) (5) 6568017";"Crespo Av2 70-26 Colombia, Cartagena"
"ELECTRO AIRES POPAYÁN";;;"(57) (2) 8227891";"Cr21 D 2-05 Brr. Pandiguando Colombia, Popayán"
"REFRIPLAST LTDA.";;;"(57) (1) 4822054";"Cl 24 C 26-50 Colombia, Bogotá"
"BANQUETES SÚPER FIESTAS";;;"(57) (4) 3344440";"Tr29 Sur 32 B-114 Envigado. Colombia, Medellín"
"REFRI POLAR";;;"(57) (2) 3910961";"Cl 46 A N 5 N-74 Colombia, Cali"
"INGENIERÍA Y SERVICIOS GENERALES";;;"(57) (8) 6703712";"Cl 26 B 25-32 Colombia, Villavicencio"
"REFRICALEFACCIÓN Y VARIEDADES CELESTE";;;"(57) (4) 2720732";"Cr47 51 -50 Bello Colombia, Bello"
"FRÍOS DEL NORTE";;;"(57) (6) 3383321";"Cr11 44-256 Colombia, Pereira"
"REPARACIONES SIMARRA";;;"(57) (5) 6767015";"Caracoles Et 2 Manz 36 Lt 16 P-2 Colombia, Cartagena"
"PRESTADORA DE SERVICIOS OSBINER MUÑOZ";;;"(57) (2) 2704507";"Guayabal Conj Las Palmas Casa 14 Colombia, Palmira"
"ALMACÉN SERVIREFRILAVADORAS";;;"(57) (8) 8722933";"Cr1 H 8-54 L-2376 Colombia, Neiva"
SUPERFRÍO;;;"(57) (8) 8721443";"Cr3 10-49 Colombia, Neiva"
"AIRE ACONDICIONADO MECO";;;"(57) (4) 7821916";"Cr5 40-05 Centro Colombia, Montería"
"THERMOANDINA S.A.S";;;"(57) (1) 4159809";"Cr102 A 25 D-60 Colombia, Bogotá"
"TECNIFRIO CLIMA";;;"(57) (4) 2915168";"Cr47 65-114 Colombia, Medellín"
"ALMACÉN EL EMBOBINADOR";;;"(57) (5) 3415107";"Cl 57 41-73 Colombia, Barranquilla"
"AIRE FRIO REPARACIÓN Y MANTENIMIENTO";;;"(57) (5) 4102800";"Cr. 5 19 89 Cienaga Colombia, Ciénaga"
"SERVICIO DE NEVERAS Y LAVADORAS BERNARDO POSADA";;;"(57) (4) 2115481";"Cl 68 48-103 Colombia, Medellín"
"SALCEDO GÓMEZ OMAIDE";;;"(57) (8) 5120513";"Natania Et 6 Hill Well Colombia, San Andrés"
"THERMOCENTER E.U.";;;"(57) (1) 4110679";"Av Ciudad de Cali 7 D-14 Colombia, Bogotá"
"THERMO MAX LTDA.";;;"(57) (1) 2017847";"Cl 8 Nos. 19 A 22/24 Colombia, Bogotá"
"FRÍO VEGA";;;"(57) (5) 5744804";"Cl 19 10-44 Colombia, Valledupar"
"COMPRESORES Y SISTEMAS DE REFRIGERACIÓN E.U.";;;"(57) (5) 3722299";"Cl 58 36-24 Bdg 1 Colombia, Barranquilla"
"ALMACÉN FRIOCENTRO";;;"(57) (5) 6646234";"Centro Av D. Lemaitre 9-58 frente Edif Banco del Estado Colombia, Cartagena"
"CENTRO DE SERVICIO INMEDIATO ABACENTEC REFRIGERACIÓN";;;"(57) (8) 6715206";"Cl 9 25 A-09 La Rosita Colombia, Villavicencio"
"A LA ORDEN CENTRALES";;;"(57) (4) 3418884";"Cr86 32-28 Colombia, Medellín"
"ALMACÉN FRIO KALI";;;"(57) (2) 8960594";"Cr1 24-71 Colombia, Cali"
"AIREXPRESS AIRE ACONDICIONADO";;;"(57) 2324093";"Cr33 21-57 Colombia, Tuluá"
"QUINTERO ALEGRÍA NELSON";;;"(57) (2) 4373120";"Cr33 A 38-04 Colombia, Cali"
"CENTRO DE SERVICIO EN AIRE ACONDICIONADO";;;"(57) (2) 8892671";"C.C. Petecuy Of 314 Colombia, Cali"
LORDTEC;;;"Nal: (57) (4) 4926689";"Cr 96 Cc 49 - 12 Colombia, Medellín"
"REFRIGERACIÓN DEL CAQUETÁ";;;"(57) (8) 4344189";"Cr10 19-30 Colombia, Florencia"
"AIRE ACONDICIONADO & REFRIGERACIÒN";;;"(57) 3167573811";"Cl 36 41 E-25 Colombia, Cali"
"First Name";"Email Address";Url;Telephone;Address
"INDUSTRIAS DE REFRIGERACIÓN OSPINA";;;"(57) (8) 6686991";"Cr33 18-53 La Florida Colombia, Villavicencio"
"DUARTE EUGENIO ELADIO";;;"(57) (1) 4153930";"Cl 23F 96H-18 Colombia, Bogotá"
"ALMACÉN REFRIVARIOS";;;"(57) (5) 4211837";"Cl 14 5-28 L-5 Colombia, Santa Marta"
"MENESES MUÑOZ LUIS EDUARDO";;;"(57) (2) 8212147";"Cl 2 18 A-22 Colombia, Popayán"
"REFRIGERACION YEN-FRIO";;;"(57) (5) 6611592";"San Pedro Manz 37 Lt 6 L-4 diagonal Bomba Texaco Colombia, Cartagena"
"GERARDO APRAEZ / REFRIGERACIÓN AL DÍA";;;"(57) (2) 8315678";"Cr18 3-08 Colombia, Popayán"
"ALMACÉN Y TALLER FRÍO REPUESTOS";;;"(57) (76) 5651211";"Cr14 3-57 Colombia, Aguachica"
"TALLER DE NEVERAS Y LAVADORAS LA 14";;;"(57) 3006531512";"Cl 13 11-57 Colombia, Santa Rosa de Cabal"
"REFRIGERACIÓN PB";;;"(57) (1) 3349576";"Cl 19 16-02 Colombia, Bogotá"
"REFRIGERACION Y CLIMATIZACION DEL SUR S.A.S";;;"(57) (7) 6398599";"Cl 29 11-20 Lagos I Colombia, Bucaramanga"
"HOBART ANDINA S.A.S.";;;"(57) (1) 3794600";"Cl 17 A 69-35 Colombia, Bogotá"
"REFRI-AIRES DEL HUILA";;;"(57) 3152366742";"Cl 19 A 40-19 Colombia, Neiva"
"EQUISERVIN LTDA.";;;"(57) (5) 3708532";"Cr43 55-08 L-1 Colombia, Barranquilla"
"REFRIGERACIµN DINÃMICA S.A.S.";;;"(57) (1) 4020643";"Cl 26 S 89 C - 36 Casa B-29 Colombia, Bogotá"
"COMFRIAIRE LTDA.";;;"(57) (1) 5484072";"Cl 22 H 118-10 Colombia, Bogotá"
"VENTPLUS E.U.";;;"(57) (5) 3582901";"Cr53 80-284 L-23 Colombia, Barranquilla"
"AIRE ACONDICIONADO AIRE ASEO";;;"(57) (5) 3682076";"Cr61 68-130 Colombia, Barranquilla"
"SOLUTIONS GROUP LTDA.";;;"(57) (1) 7436278";"Atp Medellin Km 7 Parque Empresarial Celta Bdg 44 Colombia, Bogotá"
"ALMACÉN REFRIREPUESTOS";;;"(57) (4) 2517226";"Cl 58 53-14 Colombia, Medellín"
"REFRIGERACIÓN ADONAI";;;"(57) (2) 6541584";"Av8 1 N-50 -113 Colombia, Cali"
"TÉCNICOS ASOCIADOS";;;"(57) (4) 5214693";"Cl 97 51 B-22 Int 136 Colombia, Medellín"
SOLUMEC;;;"(57) (5) 6431388";"Urb Barlovento Manz E Lt 2 Colombia, Cartagena"
"PUNTO FRÍO";;;"(57) (8) 2702288";"Cl 29 7-64 Colombia, Ibagué"
"REFRIPARTES JQ";;;"(57) (5) 3400008";"Cl 43 41-133 Colombia, Barranquilla"
"CASTELLANOS LUQUE SAULO GUILLERMO";;;"(57) (1) 8361969";"Cl 6 23-40 Colombia, Girardot"
"SERVICIO TECNICO J.R.";;;"(57) (7) 6585245";"Cl 55 140 A-32 Ciudad 2000 Floridablanca Colombia, Floridablanca"
"CENTRO DE SERVICIOS TÉCNICOS";;;"(57) 3124229875";"Cr6 10-59 Colombia, Pitalito"
"FRIDVAL LTDA.";;;"(57) (2) 5244440";"Cl 33 8 A-04 Colombia, Cali"
ACROPOL;;;"(57) (7) 1000000";"Cr15 N 30-53 Bucaramanga Colombia, Cúcuta"
REFRISERVICIOS;;;"(57) (4) 4418856";"Cr74 88 A-44 Int. 302 Colombia, Medellín"
"ICE & FRIO LTDA";;;"(57) (2) 4385567";"Cr15 41-05 Colombia, Cali"
"REFRIGERACIÓN POLAR";;;"(57) 3146042261";"Cl 5 27 A-37 Colombia, Popayán"
PROYECTAIRE;;;"(57) (4) 7913232";"Cl 37 5-12 Colombia, Montería"
A.ACOLFRESH;;;"(57) 3017181992";"Cl 75 Cr42 H Colombia, Barranquilla"
FRIOPLUS;;;"(57) (4) 5141907";"Cr52 59-03 Colombia, Medellín"
"DISTRIBUIDORA DE REPUESTOS CLAUDIA";;;"(57) (6) 7411840";"Cr22 18-42 Colombia, Armenia"
"TALLER FAMILIAR";;;"(57) (5) 3449372";"Cr 40 32-28 Colombia, Barranquilla"
"SOLUCION AIRES";;;"(57) 3173822786";"Cr12 5-08 Villabel Colombia, Bucaramanga"
"CENTRALES WHIRLPOOL REFRIGERACIÓN";;;"(57) (4) 4215077";"Cl 65 78-43 Colombia, Medellín"
"IMPORTACIONES & PARTES UNIVERSAL";;;"(57) (4) 5117264";"Cr52 58-74 Colombia, Medellín"
"First Name";"Email Address";Url;Telephone;Address
"FRIOFER E.U.";;;"(57) (1) 2842773";"Cl 19 14-14 Colombia, Bogotá"
"TRS PARTES S.A.";;;"(57) (1) 8050163";"Cr29 B 79-38 Colombia, Bogotá"
"REFRICOOL DEL HUILA";;;"(57) (8) 8722417";"Cl 5 3-87 Centro Colombia, Neiva"
"REFRIGERACIÓN CENTROCOSTA";;;"(57) 3155179893";"Tr12 10-107 Colombia, Tuluá"
"AGO SERVICIOS";;;"(57) (2) 5575353";"Cr23 11-12 Colombia, Cali"
"REFRIGERACIÓN MAXI-COLD";;;"(57) (2) 8809893";"Cr3 21-70 Colombia, Cali"
"REFRIGERACIÓN REINA";;;"(57) (2) 8963933";"Cl 16 4-38 Colombia, Cali"
"CLIMAX REFRIGERACIÓN";;;"(57) (5) 4354487";"Cl 39 12-07 María Eugenia Colombia, Santa Marta"
"PROFESSIONAL AIRS AIRE ACONDICIONADO";;;"(57) (7) 6363242";"Cl 103 31-63 Colombia, Bucaramanga"
"QUALITY LINE SERVICE";;;"(57) (5) 3012235";"Cr44 69-137 L-1 Colombia, Barranquilla"
"ALMACÉN REFRI SERVICIOS CARTAGENA S.A.S";;;"(57) (5) 6720111";"La María Cr30 41 A-08 Colombia, Cartagena"
"REFRIGERACIÓN INDUSTRIAL NORIEL ARENAS";;;"(57) (2) 6659792";"Cl 43 N 6 B N-36 Colombia, Cali"
"ELECTRODOMESTICOS Y GASODOMESTICOS LA ECONOMIA";;;"(57) (4) 2313814";"Cl 58 54-20 Colombia, Medellín"
"FRIOGOMEZ LTDA.";;;"(57) (7) 6320495";"Cl 35 33-45 Colombia, Bucaramanga"
"ENFRÍO E.U.";;;"(57) (7) 6424136";"Cr24 28-40 Colombia, Bucaramanga"
"REFRIMAYOR S.A.S";;;"(57) (6) 3341263";"Cr10 19-33 Colombia, Pereira"
"THERMO TEK";;;"(57) (2) 7238744";"Cl 5 14-175 Caicedo Alto Colombia, Pasto"
"ALMACÉN Y TALLER ALVARO CONTRERAS";;;"(57) (1) 7019364";"Cra 24 49-79 Colombia, Bogotá"
"ALMACÉN REFRISUR - MB";;;"(57) (2) 8397249";"Cr17 1-68 Colombia, Popayán"
SEAR;;;"(57) (2) 4263217";"Dg28D2 Tr71 A-28 Colombia, Cali"
"CARDONA AGUSTÍN";;;"(57) (2) 2750101";"Cr33 A 30-29 Colombia, Palmira"
"CASTELLANOS LUQUE SAULO GUILLERMO";;;"(57) (1) 8361969";"Cl 6 23-40 Colombia, Girardot"
"TALLER DE REFRIGERACION SERVI SERRANO";;;"(57) (7) 6590476";"Cl 39 16-36 Rincon de Girón Colombia, Girón"
"REFRIGERACIÓN AL DÍA";;;"(57) (2) 4382200";"Cl 44 14-43 Colombia, Cali"
"TALLER DE REFRIGERACIÓN H DE Z GOMEZ";;;"(57) (7) 5870915";"Av2 0-160 Aeropuerto Colombia, Cúcuta"
"ALMACÉN ELECTROLUZ SANTA MARTA";;;"(57) (5) 4310313";"Cr11 10-40 L-101 Edif Petecuy Colombia, Santa Marta"
"REFRIGERACIÓN URAM";;;"(57) (8) 4361240";"Cl 14 9-55 Raicero Colombia, Florencia"
"REFRIGERACION Y LAVADORAS";;;"(57) (4) 8871035";"Cr22 18-45 Colombia, Yarumal"
"INTERHOSPITALARIA LTDA.";;;"(57) (1) 4185700";"Tr96 B 24 B-72 Colombia, Bogotá"
TUELECTRODOMÉSTICO.COM;;;"Domic.: (57) (1) 5407700";"Cl 70 A 16-43 Colombia, Bogotá"
"SERVICIOS LOGISTICOS TELLEVAMOS MB S.A.";;;"(57) (1) 7428082";"Cr68 B 96-16 B-1001 Colombia, Bogotá"
"ALMACEN DE REFRIGERACION TODO EN FRIO";;;"(57) (7) 6222418";"Av Los Fundadores 16-44 Colombia, Barrancabermeja"
"SOLUCIONES TÉCNICAS EN REFRIGERACIÓN";;;"(57) (1) 2995810";"Cl 49   S 81 I-06 Colombia, Bogotá"
"IGLU REFRIGERAR E.A.T.";;;"(57) (4) 7918170";"Cr11 40-18 Nariño Colombia, Montería"
"SÚAREZ JORGE HUMBERTO";;;"(57) (1) 2484141";"Cr31 63-21 Colombia, Bogotá"
"SERVITEC DE REPUESTOS LTDA";;;"(57) (5) 3608064";"Cr 44 76-160 Colombia, Barranquilla"
"TALLER DE REFRIGERACIÓN EL NEVADO";;;"(57) (6) 3681944";"Cr9 9-84 La Magdalena Colombia, La Virginia"
"FRÍOS DEL NORTE";;;"(57) (6) 3383321";"Cr11 44-256 Colombia, Pereira"
"BASCULAS Y BALANZAS IBEROTEC";;;"(57) (4) 4441223";"Cr42 54 A-71 Bdg 115 Itagüí Colombia, Itagüí"
"REFRIATLÁNTICO LTDA.";;;"(57) (5) 3794508";"Cl 44 41-55 Colombia, Barranquilla"
"First Name";"Email Address";Url;Telephone;Address
"COLOMBIA Y REFRIGERACIÓN";;;"(57) (5) 6665287";"L-Amador Calle Real Carrera 19 32-107 L-101 Colombia, Cartagena"
"SERVIR INGENIEROS";;;"(57) (8) 2700683";"Cl 37 4 F-67 B/ Cádiz Colombia, Ibagué"
"FURGONES THERMO COLD";;;"(57) (7) 6760948";"Cr1 3-59 Vía Chimitá Colombia, Bucaramanga"
"TECNI POLOS";;;"(57) (2) 7238744";"Cr16 18-07 Navarrete Colombia, Pasto"
"A.B.C. REFRIGERACION";;;"(57) (7) 6319770";"Cl 55 1 W-52 Real de Minas Colombia, Bucaramanga"
MAXIFRÍO;;;"Nal: (57) (4) 42620067";"Cr 50 35-07 Colombia, Medellín"
"ENGICOLD S.A.S.";;;"(57) (1) 2992762";"Av Boyacá 35-43 S Colombia, Bogotá"
"NACIONAL DE FURGONES - FURGONES NFS E.U.";;;"(57) (7) 6718008";"Cr18 16-48 Mutualidad Colombia, Bucaramanga"
"GIRA FRÍOS";;;"(57) (1) 8310827";"Cr10 20-51 Colombia, Girardot"
"FRÍO MUNDIAL";;;"(57) (8) 8704245";"Cr30 A 2 D-21 Colombia, Neiva"
AIREMEK;;;"(57) (7) 6596654";"Cl 20 A 24-92 Girón Colombia, Girón"
"MAGNEPLAST S.A.";;;"(57) (1) 5978697";"Km 3 Funza Siberia Parque Industrial San Antonio Manz BBd 2 Colombia, Funza"
"TERMO SOLUCIONES";;;"(57) (5) 3685064";"Cr49 B 75-42 América Colombia, Barranquilla"
"B.L.AIRES LTDA.C.I.";;;"(57) 3008053787";"Cr70 86-106 Colombia, Barranquilla"
"ACEVEDO FREDY SERVICIO TECNICO";;;"(57) 3208398974";"Cl 50 20-33 Colombia Colombia, Barrancabermeja"
"CENTRO FRIO";;;"(57) (4) 5129337";"Cl 49 52-60 Ap 105 Colombia, Medellín"
"ALMACEN ELECTROPARTES & REPUESTOS";;;"(57) (8) 6469403";"Cl 15 19-18 Brr. Cooperativo Colombia, Acacías"
"HOBART ANDINA S.A.S.";;;"(57) (1) 3794600";"Cl 17 A 69-35 Colombia, Bogotá"
"FERRETERÍA Y REFRIGERACIÓN ELECTRO RAPIDO";;;"(57) (7) 6783198";"Cr5 A 21-37 Paseo del Puente Piedecuestas Colombia, Piedecuesta"
"TECNICONFORT DE LA COSTA S.A.S.";;;"(57) (5) 6600185";"Calle 1 de Badillo 35-53 Of 203 Edif Badlissi Colombia, Cartagena"
"COCINAS MGC &CIA LTDA";;;"(57) (1) 2770188";"Cl 12 39-09 Colombia, Bogotá"
"TALLER DE REFRIGERACIÓN MUNDIAL";;;"(57) 7266231";"Cl 16 10-58 Colombia, Maicao"
REFRICOSTE;;;"(57) (4) 5130729";"Cl 56 52-36 Colombia, Medellín"
"FERIA DE LA REFRIGERACIÓN";;;"(57) (1) 2435698";"Cl 19 16 A-59 Colombia, Bogotá"
"AIRE ACONDICIONADO AIRES ASOCIADOS LTDA.";;;"(57) (6) 3367506";"Cr6 26-74 Of 201 Colombia, Pereira"
"GRUPO ALFA S.A.";;;"(57) (1) 7110120";"Cl 6 C 73-40 Int 30 Colombia, Bogotá"
"REFRIPARTES Y SERVICIOS";;;"(57) (5) 6533626";"San Pedro Plan 24 Manz 37 Lt 8 L-1 Colombia, Cartagena"
"ALMACÉN SERVIREFRILAVADORAS";;;"(57) (8) 8722933";"Cr1 H 8-54 L-2376 Colombia, Neiva"
"REFRIGERACIÓN CORREA Y CÁRDENAS LTDA.";;;"(57) (1) 8254432";"Cr4 13-20 Madrid Colombia, Bogotá"
"COLD-CRÉDITOS LTDA.";;;"(57) (5) 4240645";"Cl 10 12-25 Colombia, Ciénaga"
"SERVITÉCNICOS SÁNCHEZ";;;"(57) (8) 8719978";"Cr2 15-26 Colombia, Neiva"
"First Name";"Email Address";Url;Telephone;Address
"ACUÑA REFRIGERACIÓN";;;"(57) (7) 6472695";"Cl 38 16 A-41 Rincón de Girón Colombia, Girón"
"FRIOSAI S.A.S";;;"(57) 3183736199";"Av Antioquia 2-44 Colombia, San Andrés"
SERVITECNICO;;;"(57) 3107007890";"Av5 25-30 Colombia, Cúcuta"
"CENTRO DE SERVICIOS TÉCNICOS";;;"(57) 3124229875";"Cr6 10-59 Colombia, Pitalito"
REFRICOLOMBIA;;;"(57) (4) 5124725";"Cl 60 51-45 Colombia, Medellín"
"AGENCIA REFRISERVICIOS";;;"(57) (1) 2704613";"Cr34 49 A-22 S Colombia, Bogotá"
"TÉCNICO EN REFRIGERACIÓN Y AIRE ACONDICIONADO SIGIFREDO CUELLAR";;;"(57) (8) 8742147";"Cl 45 6-35 Colombia, Neiva"
MAXIFRÍO;;;"Nal: (57) (4) 42620067";"Cr 50 35-07 Colombia, Medellín"
"LFCG REFRIGERACIÓN INDUSTRIAL";;;"Telefax: (57) (1) 4496092";"Cl 7   S 92 A-56 Casa 44 Colombia, Bogotá"
"ANA CELY ARIAS/WILLIAM SÚAREZ";;;"(57) (7) 6360728";"Cl 90 20-60 Diamante II Colombia, Bucaramanga"
"CENTRO DE SERVICIOS DE REFRIGERACION DEL HUILA";;;"(57) (8) 8757091";"Cl 32 8-05 Colombia, Neiva"
"AIRE SPORT REFRIGERACIÓN AUTOMOTRIZ";;;"(57) 3002288426";"Plan 332-B Manz 62 Lt 21-A Socorro Colombia, Cartagena"
"TECNIFRIO CLIMA";;;"(57) (4) 2915168";"Cr47 65-114 Colombia, Medellín"
"CENTRO DE REFRIGERACIÓN EL OSO POLAR";;;"(57) (8) 8747283";"Av26 5-66 Colombia, Neiva"
"EXHIVIT S.A.S.";;;"(57) (1) 4737257";"Cl 35 B S 72 K-36 Colombia, Bogotá"
"REFRIGERACIÓN REFRI INOX";;;"(57) (1) 2768308";"Cl 68 90 A-47 Colombia, Bogotá"
"AAA SERVIWHIRPOOL DE ANTIOQUIA";;;"(57) (4) 4489033";"Cr96 43-53 Int 401 Colombia, Medellín"
"THERMOSYSTEMS S.A.S";;;"(57) (4) 3540153";"Cr43 E 5-65 Colombia, Medellín"
TECNICENTRALESSERVICIO;;;"(57) (6) 8824702";"Cr21 31-16 Colombia, Manizales"
"INTERFRÍO DE LA COSTA LTDA";;;"(57) (5) 3606754";"Cr38 69 C-97 Colombia, Barranquilla"
"JOHNSON CONTROL COLOMBIA LTDA";;;"(57) (5) 3604672";"Cr53 74-49 L-2 Colombia, Barranquilla"
"OOR AIRE";;;"(57) (8) 8769117";"Cr16 A 50-17 Colombia, Neiva"
"NEIVANA DE REFRIGERACIÓN";;;"(57) (8) 8716311";"Cl 12 6-36 Colombia, Neiva"
"REFRI SISTEMAS DEL CARIBE";;;"(57) (5) 6690359";"Dg22 44-63 L-1 Colombia, Cartagena"
"GRUPO ALFA S.A.S.";;;"(57) (1) 7119498";"Cr69 A 36-46 Sur Bogotá Colombia, Bogotá"
"MACONS REFRIGERACIÓN";;;"(57) (7) 6598019";"- Colombia, Bucaramanga"
"FRÍO MODERNO REFRIGERACIÓN";;;"(57) (1) 2258168";"Cl 72 28 A-19 Colombia, Bogotá"
"REFRIGERACIÓN CORREA Y CÁRDENAS LTDA.";;;"(57) (1) 8254432";"Cr4 13-20 Madrid Colombia, Bogotá"
"FRIOTECNICA DEL CARIBE S.A.S";;;"(57) (5) 3706701";"Cr39 43-18 Colombia, Barranquilla"
"THERMOCENTER E.U.";;;"(57) (1) 4110679";"Av Ciudad de Cali 7 D-14 Colombia, Bogotá"
"SERVICIO TÉCNICO DE REFRIGERACIÓN OLIVERIO PÉREZ";;;"(57) (4) 2761464";"Cr38 39-S 75 Envigado Colombia, Envigado"
"COLD HOMG REFRIGERACIÓN";;;"(57) (7) 5799868";"Cl 1 4-67 La Merced Colombia, Cúcuta"
"TECNIFRIOS RODRÍGUEZ";;;"(57) (8) 8670564";"Cl 64 # 1 W-10 Colombia, Neiva"
HELADFRIO;;;"(57) (1) 3340313";"Cr16 19-26 Colombia, Bogotá"
"PALLOMARO S.A.";;;"(57) (1) 3108728";"Cr65 80-06 Colombia, Bogotá"
"BOGOYA MARTÍNEZ ALEXIS";;;"(57) (1) 3410240";"Av19 16-97 Colombia, Bogotá"
"FRÍO ELÉCTRICOS BOLÍVAR";;;"(57) (5) 6648100";"Urb. San Pedro Cl30 F Manzana 37 8 P1 Apto.8 Colombia, Cartagena"
"ALMACÉN DE REFRIGERACIÓN EL COMPRESOR";;;"(57) (5) 7272735";"Cl15 12B-20 Colombia, Riohacha"
"SOLUTIONS GROUP LTDA.";;;"(57) (1) 7436278";"Atp Medellin Km 7 Parque Empresarial Celta Bdg 44 Colombia, Bogotá"
"ALMACÉN SERVIREFRILAVADORAS";;;"(57) (8) 8722933";"Cr1 H 8-54 L-2376 Colombia, Neiva"
"CENTRO FRIO";;;"(57) (4) 5129337";"Cl 49 52-60 Ap 105 Colombia, Medellín"
FRIOSÁN;;;"(57) (1) 2813214";"Cl 19 15-59 Colombia, Bogotá"
"REPARACIONES PÉREZ";;;"(57) (5) 2751580";"Cr17 13-188 Cruz de Mayo Colombia, Sincelejo"
REFRISÁNCHEZ;;;"(57) (1) 2813214";"Cl 19 15-37 Colombia, Bogotá"
"FRINCOL S.A.S.";;;"(57) 3118144690";"Av5 0-109 La Insula Colombia, Cúcuta"
"FRIO NEVADO JL LTDA";;;"(57) (5) 3635250";"Cl 40 9 C-54 Colombia, Barranquilla"
"REFRIGERACION Y LAVADORAS";;;"(57) (4) 8871035";"Cr22 18-45 Colombia, Yarumal"
"SERVI-REPUESTOS J.J. POPAYÁN";;;"(57) (2) 8212376";"Cl 7 8-69 Colombia, Popayán"
"JCM INGENIERÍA DEL AIRE";;;"(57) 3108762353";"Av5 0-109 La Insula Colombia, Cúcuta"
"First Name";"Email Address";Url;Telephone;Address
REFRIAIR;;;"(57) (8) 2726846";"Villa Cindy Manz A Casa 6 Vía Salado Colombia, Ibagué"
"PARAIRES LTDA.";;;"(57) (1) 8352528";"Dg8 30-56 Colombia, Girardot"
"REFRIGERACIÓN MANIZALES";;;"(57) (6) 8868790";"Cr20 A 71-10 Colombia, Manizales"
"CABARRIA Y CÍA. S.A.";;;"(57) (2) 4306177";"Cl 56 5 N-65 Bdg 6 Colombia, Cali"
"WIL FRÍOS";;;"(57) (2) 3716640";"Cr16 17-42 Colombia, Cali"
ELECTROFRÍO;;;"(57) (1) 8600291";"Calera Vda Altamar Colombia, Bogotá"
"TERMOFRÍO EL NEVADO";;;"(57) (1) 2770142";"Cl 12 19 A-32 Colombia, Bogotá"
"JIREH REFRIGERACIÓN";;;"Nal: (57) (5) 1";"Barranquilla Colombia, Barranquilla"
"MAXILINE DE FRÍO LTDA.";;;"(57) (1) 2836400";"Cl 19 18-35 Colombia, Bogotá"
"TECNISERVICIOS GUEVARA";;;"(57) (2) 8219482";"Cl 9 A 20-77 Colombia, Popayán"
"GUTIÉRREZ PEDRO LUIS";;;"(57) (1) 2800473";"Cr9 2-99 Colombia, Bogotá"
"COLD HOME REFRIGERACIÓN LTDA.";;;"(57) (7) 5781475";"Cl 1 4-67 La Merced Colombia, Cúcuta"
TUELECTRODOMÉSTICO.COM;;;"Domic.: (57) (1) 5407700";"Cl 70 A 16-43 Colombia, Bogotá"
"REFRIGERACIÓN TORRES";;;"(57) (7) 6472695";"Cl 11 26-58 Colombia, Bucaramanga"
"HOYOS JAVIER";;;"(57) (4) 2182457";"Cr43 49-44 Int 1602 Colombia, Medellín"
"FABRICAMOS S.A.";;;"(57) (4) 5119853";"Cl 50 56-31 Colombia, Medellín"
"TODO FRIO";;;"(57) (4) 5142475";"Cr52 59-19 Colombia, Medellín"
"LAB REFRIGERACIÓN COMERCIAL E INDUSTRIAL";;;"(57) (4) 5124802";"Cl 59 52-69 Colombia, Medellín"
FRIOTEC;;;"(57) (8) 8721987";"Cr9 17-40 Colombia, Neiva"
"REFRI ELECTRO";;;"(57) (4) 5614721";"Cr48 47-66 Rionegro Colombia, Medellín"
"PÉREZ ESCUDERO ISMAEL";;;"(57) (5) 2810784";"Cr10 15-31 Colombia, Sincelejo"
"REFRI LINE";;;"(57) (5) 6532223";"San Pedro Manz 10 Lt 11 Colombia, Cartagena"
"REMATES USADOS";;;"(57) (5) 6692093";"El Toril Cl 32 22-283 Av Pedro de Heredia Colombia, Cartagena"
"AUTOMATIZACIÓN Y OPTIMIZACIÓN DE PROCESOS INDUSTRIALES AUTOPRIND E.U.";;;"(57) (8) 6714083";"Cr13 Este 36-231 Bosques de Abajam 3 Vía Catama Colombia, Villavicencio"
"ALMACEN ELECTROPARTES & REPUESTOS";;;"(57) (8) 6469403";"Cl 15 19-18 Brr. Cooperativo Colombia, Acacías"
"First Name";"Email Address";Url;Telephone;Address
"G & M REFRIGERACIÓN S.A.S.";;;"(57) (2) 6817415";"Cl 24 N 2 D N-40 Colombia, Cali"
"AIRE PURO PARA TODOS";;;"(57) (4) 4440407";"Cr52 62-21 Colombia, Medellín"
"REDES Y SUMINISTROS ELÉCTRICOS LTDA.";;;"(57) (5) 7276217";"Cr6 10-34 Colombia, Riohacha"
"REFRIGERACIÓN AUTOMOTRIZ MARMOLEJO";;;"(57) (5) 3685920";"Cr47 72-178 Colombia, Barranquilla"
"REFRIATLÁNTICO LTDA.";;;"(57) (5) 3794508";"Cl 44 41-55 Colombia, Barranquilla"
"JUNIOR REFRIGERACIÓN AUTOMOTRIZ";;;"(57) (5) 6566056";"Popa Cr20 30-102 L-B-1 Av Mompox Colombia, Cartagena"
"SERVICIO TÉCNICO M Y R";;;"(57) (8) 6722933";"Cl 17 C 12 B-32 Colombia, Villavicencio"
"REFRIGERANDO FORMEX";;;"(57) (4) 7917677";"Cl 41 10A-65 Colombia, Montería"
SUPERFRÍO;;;"(57) (8) 8721443";"Cr3 10-49 Colombia, Neiva"
"DISTRIBUIDORA DE REPUESTOS CLAUDIA";;;"(57) (6) 7411840";"Cr22 18-42 Colombia, Armenia"
"REPARACIONES SIMARRA";;;"(57) (5) 6767015";"Caracoles Et 2 Manz 36 Lt 16 P-2 Colombia, Cartagena"
"TERMOFRÍO VILLAVICENCIO";;;"(57) (8) 6670579";"Cr10 A 30-20 Colombia, Villavicencio"
"AGENCIA AUTORIZADA TECNIHOGAR OK";;;"(57) (8) 8716161";"Cr3 10-16 Centro Colombia, Neiva"
"COLFRIOS PITALITO";;;"(57) (8) 8365994";"Cr2 9-39 Colombia, Pitalito"
"CENTRO DE SERVICIOS DE REFRIGERACION DEL HUILA";;;"(57) (8) 8757091";"Cl 32 8-05 Colombia, Neiva"
"FRÍO TECNIC";;;"(57) 3113290593";"Cl 81 C 26 C-1 -7 Colombia, Barranquilla"
"TERMO SOLUCIONES";;;"(57) (5) 3685064";"Cr49 B 75-42 América Colombia, Barranquilla"
"INDUSTRIAL TAYLOR LTDA.";;;"(57) (1) 3578400";"Tr 93 51-98 Colombia, Bogotá"
"CONSTRUFRIO DEL CARIBE";;;"(57) 3114137120";"Lo Amador Cl 32 No 19-33 Colombia, Cartagena"
"REFRIHOGARES DEL VALLE";;;"(57) 3148803415";"Cr24 22-14 Colombia, Buga"
"COMFRIAIRE LTDA.";;;"(57) (1) 5484072";"Cl 22 H 118-10 Colombia, Bogotá"
"CENTRALES WHIRLPOOL REFRIGERACIÓN";;;"(57) (4) 4215077";"Cl 65 78-43 Colombia, Medellín"
"AIRE FRIO REPARACIÓN Y MANTENIMIENTO";;;"(57) (5) 4102800";"Cr. 5 19 89 Cienaga Colombia, Ciénaga"
"FULL HOGAR";;;"(57) (4) 2516688";"Cl 50 52-33 Colombia, Medellín"
"MMR REFRIGERACIÓN";;;"(57) (5) 3748007";"Cl 24B3 4-41 Simón Bolívar Colombia, Barranquilla"
INDUCOL;;;"(57) (6) 3359581";"Cl 19 Bis 10-04 Colombia, Pereira"
"FRIOFER E.U.";;;"(57) (1) 2842773";"Cl 19 14-14 Colombia, Bogotá"
"IMPORTADORA DE REPUESTOS PARA REFRIGERACIÓN Y LAVADORAS DEL VALLE";;;"(57) (2) 6630200";"Cr26 M Dg71 A-15 Colombia, Cali"
"VINTO E.U.";;;"(57) (2) 3251378";"Cl 31 A 33 B-16 Colombia, Cali"
"REFRIMONTAJES ANTIOQUIA";;;"Nal: (57) (4) 4817401";"Dg55 55-41 Colombia, Medellín"
"SUPER COLD REFRIAGIL";;;"Nal: (57) (4) 4440573";"Cl 60 53-40 Colombia, Medellín"
"AIRE ACONDICIONADO S.A.S";;;"(57) (1) 8353157";"Av Bavaria Cl 29 N. 7 A-04 Esquina Colombia, Girardot"
"EVA AIRE ACONDICIONADO";;;"(57) (4) 5806798";"Cl 96A 82-15 Colombia, Medellín"
ACONDIAIRE;;;"(57) (7) 6835573";"Cl 60 17 D-13 Colombia, Bucaramanga"
REFRICOL;;;"(57) (1) 8313422";"Cr10 22-01 Colombia, Girardot"
"NM REFRIGERACIÓN LTDA.";;;"(57) (7) 6342692";"Cl 22 20-53 Alarcón Colombia, Bucaramanga"
"REFRILAVADORAS Y T.V.";;;"(57) 6604573";"Vista Hermosa Cr57 30 A-26 Colombia, Cartagena"
"TECNISERVICIOS GUEVARA";;;"(57) (2) 8219482";"Cl 9 A 20-77 Colombia, Popayán"
REFRINOVA;;;"(57) (4) 5119441";"Cr52 58-58 Colombia, Medellín"
REFRICOSTE;;;"(57) (4) 5130729";"Cl 56 52-36 Colombia, Medellín"
"PIR C.I. S.A.";;;"(57) (5) 3344680";"Cl 30 5 A-35 Colombia, Barranquilla"
"SERVIAIRES ACONDICIONADO Y REFRIGERACIÓN";;;"(57) (2) 4400786";"Cr1A3A 70 C Bis-13 B-146 Ap 101 Colombia, Cali"
REFRIYORK;;;"(57) (5) 6628127";"Cl 30 50 A-35 Colombia, Cartagena"
SUPERFRIO;;;"(57) (4) 4440528";"Cl 50 68-49 Colombia, Medellín"
"REFRIPARTES Y SERVICIOS";;;"(57) (5) 6533626";"San Pedro Plan 24 Manz 37 Lt 8 L-1 Colombia, Cartagena"
"SOLUTEC SOLUCIONES TÉCNICAS CASTELLÓN";;;"(57) (5) 3566099";"Cr48 74-38 Colombia, Barranquilla"
"INDUSTRIAL TAYLOR LTDA.";;;"(57) (1) 3578400";"Tr 93 51-98 Colombia, Bogotá"
"IMPORT LINE REFRINDUSTRIAL";;;"(57) (5) 3401364";"Cl 44 41-119 Colombia, Barranquilla"
"SERVICIO ELECTRODOMÉSTICO E INDUSTRIAL LTDA";;;"(57) (8) 6620318";"Cl 36 26-31 San Isidro Colombia, Villavicencio"
"DISTRIMPRESOS Y EQUIPOS";;;"(57) (7) 6302882";"Cl 22 19-24 L-2 Colombia, Bucaramanga"
"AIRE ACONDICIONADO MANTIARIE";;;"(57) (7) 6405133";"Cr18 C 8 AN-20 Brr 13 de Junio Colombia, Bucaramanga"
FRIGO;;;"(57) (6) 8837178";"Cl 21 9-134 Colombia, Manizales"
CREDILLANO;;;"(57) (7) 6340282";"Cr25 34-66 L-6 Antonia Santos Colombia, Bucaramanga"
"CENTRO FRIO";;;"(57) (4) 5129337";"Cl 49 52-60 Ap 105 Colombia, Medellín"
"REFRIGERACION Y LAVADORAS";;;"(57) (4) 8871035";"Cr22 18-45 Colombia, Yarumal"
"First Name";"Email Address";Url;Telephone;Address
"COCINAS MGC &CIA LTDA";;;"(57) (1) 2770188";"Cl 12 39-09 Colombia, Bogotá"
"REFRISERVICIOS TALLER";;;"(57) (5) 6537761";"Urb Simón Bolívar Manz 30 Lt 12 Colombia, Cartagena"
"CONSTRUFRIO DEL CARIBE";;;"(57) 3114137120";"Lo Amador Cl 32 No 19-33 Colombia, Cartagena"
CLIMATIZA;;;"(57) (5) 3693150";"Cl 76 66-72 Colombia, Barranquilla"
"TATIS ORDOSGOITIA CARLOS";;;"(57) (5) 3490874";"Cr46 56-61 Apto 201 A Colombia, Barranquilla"
"INGENIERÍA REFRICENTER";;;"(57) (8) 6727241";"Cl 35 35-11 L-1 Colombia, Villavicencio"
"INGENIERÍA EN REFRIGERACIÓN Y AIRE ACONDICIONADO";;;"(57) (1) 6944287";"Cr141 A 137-52 Colombia, Bogotá"
"FRIO LOS ANDES";;;"(57) 3202154083";"Cl 7 4-29 San Lis Colombia, Cúcuta"
"IMPORT LINE REFRINDUSTRIAL";;;"(57) (5) 3401364";"Cl 44 41-119 Colombia, Barranquilla"
"ALMACÉN DE REMATES EL MOLINITO";;;"(57) (4) 4130545";"Cr77 43-50 Colombia, Medellín"
"OTTO GUGGENBERGER F. Y CÖA. LTDA";;;"(57) (4) 2354993";"Cl 49 B 69-09 Colombia, Medellín"
"REFRIGERACIÓN EFREGO";;;"(57) (4) 2126751";"Cr51 67-84 Colombia, Medellín"
"AIRE ACONDICIONADO RAPIAIRES";;;"(57) (4) 2542200";"Cr47 65-114 Colombia, Medellín"
"ABC ACCESORIOS A DOMICILIO SERVICIO TECNICO Y MANTENIMIENTO JAIME";;;"(57) (1) 3113190";"Cl 78 Bis 69 A 07 Colombia, Bogotá"
REFRIAIR;;;"(57) (8) 2726846";"Villa Cindy Manz A Casa 6 Vía Salado Colombia, Ibagué"
"ELECTRODÓMÉSTICOS WIRLPOOL ESPIN HOUSE";;;"(57) (8) 2669053";"C.C. Fontaineibleau L-101 Colombia, Ibagué"
"AIRE ACONDICIONADO REFRICENTER CARRIER";;;"(57) (5) 3401771";"Cr46 54-55 Colombia, Barranquilla"
"REFRIGERACION GARCIA ROVIRA";;;"(57) (7) 6994735";"Cl 14 C 12 A-69 Villas De San Juan Girón Colombia, Girón"
ACONDIAIRE;;;"(57) (7) 6835573";"Cl 60 17 D-13 Colombia, Bucaramanga"
"ALMACÉN FRÍO CARIBE";;;"(57) (5) 4236380";"Cl 10 7-27 Colombia, Santa Marta"
"REFRI JIREH";;;"(57) (6) 3243087";"Cl 19 Bis 10-71 Colombia, Pereira"
"CASTELLANOS LUQUE SAULO GUILLERMO";;;"(57) (1) 8361969";"Cl 6 23-40 Colombia, Girardot"
"REFRI EXPRESS";;;"(57) (2) 5512468";"Cl 3 Oe 53-23 Colombia, Cali"
"CENTRO DE SERVICIOS TÉCNICOS";;;"(57) 3124229875";"Cr6 10-59 Colombia, Pitalito"
"REFRIGERACIÓN JD";;;"(57) (2) 4202215";"Cr26 121-12 Colombia, Cali"
"INDUSTRIAS DE REFRIGERACIÓN OSPINA";;;"(57) (8) 6686991";"Cr33 18-53 La Florida Colombia, Villavicencio"
"EDGAR CORRALES REFRIGERACIÓN";;;"(57) (1) 7402187";"Cl 6 D 88 D-59 Colombia, Bogotá"
"ZERO GRADOS";;;"(57) (4) 5123543";"Cl 51 56 A-26 Colombia, Medellín"
"ICOMAGER S.A.";;;"(57) (1) 2697353";"Cr19 22 C-53 Colombia, Bogotá"
"TEMP KONTROL COLOMBIA S.A.";;;"(57) (2) 4464445";"Cl 50 N 7 N-37 Colombia, Cali"
"SERVICIO TÉCNICO DE REFRIGERACIÓN OLIVERIO PÉREZ";;;"(57) (4) 2761464";"Cr38 39-S 75 Envigado Colombia, Envigado"
CARDIN;;;"(57) (1) 2632535";"Cl 49A 68B-17 Colombia, Bogotá"
"A AMERICANN SERVICE OK";;;"(57) (5) 3591160";"Cr26 C 79 A-10 Colombia, Barranquilla"
VITRIFRIO;;;"(57) (4) 5126058";"Cl 59 51 D-74 Colombia, Medellín"
ACROPOL;;;"(57) (7) 6703865";"Cr15 30-53 Colombia, Bucaramanga"
"TALLER MÓVIL J.J";;;"(57) (4) 2910357";"Cl 65 39-57 Ap 201 Colombia, Medellín"
"ERA ELECTROREFRIAIRE";;;"(57) (4) 3413102";"Cl 31 D 89 D 30 Colombia, Medellín"
REFRISERVICIOS;;;"(57) (4) 4418856";"Cr74 88 A-44 Int. 302 Colombia, Medellín"
"COLD HOMG REFRIGERACIÓN";;;"(57) (7) 5799868";"Cl 1 4-67 La Merced Colombia, Cúcuta"
"J.M. INGENIERÍA Y REFRIGERACIÓN LTDA.";;;"(57) (5) 3490872";"Cr54 55-39 Of 404 Colombia, Barranquilla"
"First Name";"Email Address";Url;Telephone;Address
"REFRIGERACIÓN INDUSTRIAL NORIEL ARENAS";;;"(57) (2) 6659792";"Cl 43 N 6 B N-36 Colombia, Cali"
"REFRIGERACIÓN COMERCIAL REFRIMEL E.U.";;;"(57) (4) 3024088";"Cl 25 S 42-40 L-602 Envigado Colombia, Envigado"
"MATER FRÖO";;;"(57) (4) 2393403";"Cl 55 43-45 Int 802 Colombia, Medellín"
"AIR'S REFRIGERACIÓN";;;"(57) (8) 8700869";"Cl 7 19-41 Colombia, Neiva"
"ALMACEN DE REFRIGERACION TODO EN FRIO";;;"(57) (7) 6222418";"Av Los Fundadores 16-44 Colombia, Barrancabermeja"
"PIR C.I. S.A.";;;"(57) (5) 3344680";"Cl 30 5 A-35 Colombia, Barranquilla"
"AIRE ACONDICIONADO SEINTEL E.U.";;;"(57) (5) 6568017";"Crespo Av2 70-26 Colombia, Cartagena"
"INTERFRÍO DE LA COSTA LTDA";;;"(57) (5) 3606754";"Cr38 69 C-97 Colombia, Barranquilla"
MERCAFRIO;;;"(57) (1) 2820936";"Cl 19 16-10 Colombia, Bogotá"
ACUAREFRI;;;"(57) (5) 3482889";"Cr30 113-26 La Pradera Colombia, Barranquilla"
"ALMACÉN REFRIGERACIÓN ANGEL ESCOBAR & CÍA.";;;"(57) (4) 2505539";"Cr79 45 GG-64 Int 902 Colombia, Medellín"
"REYMSA COLOMBIA S.A.S";;;"(57) (1) 2850418";"Cr37 75-11 Colombia, Bogotá"
"ELECTRODÓMÉSTICOS WIRLPOOL ESPIN HOUSE";;;"(57) (8) 2669053";"C.C. Fontaineibleau L-101 Colombia, Ibagué"
"MENESES MUÑOZ LUIS EDUARDO";;;"(57) (2) 8212147";"Cl 2 18 A-22 Colombia, Popayán"
THERMOMAR;;;"(57) (4) 3796375";"Cl 65 44 B-44 Int 401 Itagui Colombia, Itagüí"
"REFRIGERACIONES COSSIO";;;"(57) (4) 5710545";"Cl 59 52-47 Colombia, Medellín"
"TECNIFRISA LTDA.";;;"(57) (1) 2902883";"Tr45 B 8 C-41 Colombia, Bogotá"
REFRIBLAS;;;"(57) (5) 6662780";"Lo Amador Cl 32 32-03 Av Pedro de Heredia Colombia, Cartagena"
"INVERCONSTRUCCIONES L.R.";;;"(57) (8) 6727241";"Cl 35 35-11 L-1 Colombia, Villavicencio"
INFRICOL;;;"(57) (2) 7290294";"Cl 13 23-63 Colombia, Pasto"
SERVI-REFRIGERACIÓN;;;"(57) (8) 6655070";"Cr18 A 25 A-49 Colombia, Villavicencio"
"REFRIGERACIÓN EFREGO";;;"(57) (4) 2126751";"Cr51 67-84 Colombia, Medellín"
"AIRE ACONDICIONADO & REFRIGERACIÒN";;;"(57) 3167573811";"Cl 36 41 E-25 Colombia, Cali"
REFRISANGIL;;;"(57) (7) 7240343";"Cl 10 10-28 Of 201 San Gil Colombia, San Gil"
"TALLER DE REFRIGERACION SERVI SERRANO";;;"(57) (7) 6590476";"Cl 39 16-36 Rincon de Girón Colombia, Girón"
SOCRES;;;"(57) (5) 6901674";"Av 7 71-48 Ap 1-B Edif Daniela Colombia, Cartagena"
"PÉREZ ESCUDERO ISMAEL";;;"(57) (5) 2810784";"Cr10 15-31 Colombia, Sincelejo"
"AGENCIA REFRISERVICIOS";;;"(57) (1) 2704613";"Cr34 49 A-22 S Colombia, Bogotá"
A.ACOLFRESH;;;"(57) 3017181992";"Cl 75 Cr42 H Colombia, Barranquilla"
"First Name";"Email Address";Url;Telephone;Address
"SERVICIO DE REFRIGERACIÓN GÓMEZ WILSON";;;"(57) 3123303965";"Av20 de Julio E Port Arthur Cl 4-A 5-47 Colombia, San Andrés"
"AIRE PURO PARA TODOS";;;"(57) (4) 4440407";"Cr52 62-21 Colombia, Medellín"
"REMBERTO CORREA Y/O REFRINORTE E.U";;;"(57) (2) 6830122";"Cr15 36 A-47 Colombia, Cali"
THERMONT;;;"(57) (5) 3518939";"Cl 44 41-11 Colombia, Barranquilla"
"REFRIPARTES NOGUERA LTDA.";;;"(57) (5) 3517209";"Cl 38 45-36 Colombia, Barranquilla"
"FRIGOREX LTDA.";;;"(57) (5) 3535167";"Cr60 74-35 Colombia, Barranquilla"
"DARTICO S.A.S.";;;"(57) (2) 8843558";"Cl 24 8-64 Colombia, Cali"
"COMERCIAL DE REFRIGERACIÓN";;;"(57) 3115134144";"Cl 12 A 27-37 Colombia, Bogotá"
"TODO ELÉCTRICOS";;;"(57) (2) 2257529";"Cr23 24-63 Colombia, Tuluá"
"ALMACEN INDUSTRIAL DE REFRIGERACIÓN REFRICOL";;;"(57) (8) 2751237";"Cr 20 60-97 Ambala Colombia, Ibagué"
SUPERFRÍO;;;"(57) (8) 8721443";"Cr3 10-49 Colombia, Neiva"
"SÁNCHEZ JAVIER";;;"(57) (1) 2824770";"Av19 14-67 Colombia, Bogotá"
"CONSTRUFRIO DEL CARIBE";;;"(57) 3114137120";"Lo Amador Cl 32 No 19-33 Colombia, Cartagena"
"CASTELLANOS LUQUE SAULO GUILLERMO";;;"(57) (1) 8361969";"Cl 6 23-40 Colombia, Girardot"
CLIMATIZA;;;"(57) (5) 3693150";"Cl 76 66-72 Colombia, Barranquilla"
"REFRIGERACIµN DINÃMICA S.A.S.";;;"(57) (1) 4020643";"Cl 26 S 89 C - 36 Casa B-29 Colombia, Bogotá"
"INGENIERIA R.A.REFRIAIRES";;;"Nal: (57) (1) 2780943";"Av1 de Mayo-14 -86 Sur Colombia, Bogotá"
REFRITODO;;;"(57) (7) 6203885";"Cr28 46-71 Ap 301 El Recreo Colombia, Barrancabermeja"
"REFRIGERACION MAXI FRIO";;;"(57) (7) 6110659";"Cr28 47-39 Recreo Colombia, Barrancabermeja"
"MAXI MÁS REFRIGERACIÓN";;;"(57) 3212008039";"Cr10 17-19 Colombia, Florencia"
"VITRINAS LA ESPECIAL E.U.";;;"(57) (2) 3263458";"Cl 19 43-26 Colombia, Cali"
"FRIOSAI S.A.S";;;"(57) 3183736199";"Av Antioquia 2-44 Colombia, San Andrés"
"REFRIGERACIONES JAVIER ISAZA E.";;;"(57) (4) 8273410";"Cra 15 Cl 100-12 Colombia, Turbo"
"REFRIGERACIÓN URAM";;;"(57) (8) 4361240";"Cl 14 9-55 Raicero Colombia, Florencia"
"FRÍO GLACIAL";;;"(57) (4) 8318054";"Cl La Banca 53-67 Colombia, Segovia"
"REFRIPOLO NORTE & CÍA LTDA.";;;"(57) (5) 3680977";"Cr71 70-21 Colombia, Barranquilla"
"INVER DESCUENTOS LTDA.";;;"(57) (1) 2498403";"Cr24 65-20 Colombia, Bogotá"
"INDUSTRIAS BELLOFRIO";;;"(57) (8) 6714715";"Cl 26 34-75 Brr. San Benito Colombia, Villavicencio"
"QUALITY COOLING SERVICE";;;"(57) (5) 3179538";"Clo 116 37-25 Colombia, Barranquilla"
"SERVICIO TÉCNICO DE REFRIGERACIÓN OLIVERIO PÉREZ";;;"(57) (4) 2761464";"Cr38 39-S 75 Envigado Colombia, Envigado"
"OTTO GUGGENBERGER F. Y CÖA. LTDA";;;"(57) (4) 2354993";"Cl 49 B 69-09 Colombia, Medellín"
"TALLERES REFRICASA";;;"(57) (2) 5571251";"Cr26 6 A-23 Colombia, Cali"
"CENTRO TÉCNICO DE MARCAS";;;"(57) (1) 4738334";"Cr95 A 128 B-60 P 2 Colombia, Bogotá"
"REFRIGERACIÓN Y MONTAJES R. Y C. LIMITADA";;;"Nal: (57) (4) 3727570";"Dg40-32-93 L-101 Itaguí Colombia, Medellín"
"ALMACENES J.M.T.";;;"(57) (8) 2649555";"Cr6 27-49 El Carmen Colombia, Ibagué"
"CENTRO DE SERVICIO EN AIRE ACONDICIONADO";;;"(57) (2) 8892671";"C.C. Petecuy Of 314 Colombia, Cali"
"REFRIGERACIÓN DEL CAQUETÁ";;;"(57) (8) 4344189";"Cr10 19-30 Colombia, Florencia"
"REFRIGERACIÓN INDUSTRIAL NORIEL ARENAS";;;"(57) (2) 6659792";"Cl 43 N 6 B N-36 Colombia, Cali"
REFRICENTRO;;;"(57) (8) 2601590";"Av Guavinal 44-39 Colombia, Ibagué"
"REFRIGERACIONES EXITOS";;;"(57) (4) 2514259";"Cr53 56-06 Colombia, Medellín"
REFRIELÉCTRICOS;;;"(57) 5763291";"Cl 7 3-12 San Luis Colombia, Cúcuta"
"GIRA FRÍOS";;;"(57) (1) 8310827";"Cr10 20-51 Colombia, Girardot"
"REFRIMAYOR S.A.S";;;"(57) (6) 3341263";"Cr10 19-33 Colombia, Pereira"
"REFRIARTICO CARIBE";;;"(57) (5) 6562020";"Cl 43 43-3 Esq Colombia, Cartagena"
"REFRIBLAS CONFORT S.A.S.";;;"(57) (5) 6695083";"Bosque Tranv. 51 21-63 L-107 Colombia, Cartagena"
"SERVITÉCNICOS SÁNCHEZ";;;"(57) (8) 8719978";"Cr2 15-26 Colombia, Neiva"
"REFRIGERACIÓN REFRI NO FROST";;;"(57) (7) 6112859";"Cl 51 14-49 Colombia, Barrancabermeja"
"ELECTRI GAVI";;;"(57) (7) 6211364";"Cr12 49 A-39 Colombia, Barrancabermeja"
"CENTRO DE SERVICIOS TÉCNICOS";;;"(57) 3124229875";"Cr6 10-59 Colombia, Pitalito"
"ALMACEN Y TALLER LA MAGIA DE LA LAVADORA";;;"(57) (7) 6582227";"Cr5 A E 28 A-38 La Cumbre Colombia, Bucaramanga"
"VITRINAS LA ESPECIAL E.U.";;;"(57) (2) 3263458";"Cl 19 43-26 Colombia, Cali"
"First Name";"Email Address";Url;Telephone;Address
"REFRI-AIRES DEL HUILA";;;"(57) 3152366742";"Cl 19 A 40-19 Colombia, Neiva"
"First Name";"Email Address";Url;Telephone;Address
"TECNIFRIO CLIMA";;;"(57) (4) 2915168";"Cr47 65-114 Colombia, Medellín"
"TERMO SOLUCIONES";;;"(57) (5) 3685064";"Cr49 B 75-42 América Colombia, Barranquilla"
"REFRIGERACIÓN REINA";;;"(57) (2) 8963933";"Cl 16 4-38 Colombia, Cali"
"REFRIAIRES DEL VALLE";;;"(57) (2) 2316007";"Cr29 29-75 Colombia, Tuluá"
METROFRÍO;;;"(57) (4) 5121436";"Cr52 59-92 Colombia, Medellín"
"CENTRO DE SERVICIO EN AIRE ACONDICIONADO";;;"(57) (2) 8892671";"C.C. Petecuy Of 314 Colombia, Cali"
SOLUMEC;;;"(57) (5) 6431388";"Urb Barlovento Manz E Lt 2 Colombia, Cartagena"
"INGENIERÍA EN REFRIGERACIÓN Y AIRE ACONDICIONADO";;;"(57) (1) 6944287";"Cr141 A 137-52 Colombia, Bogotá"
"ANA CELY ARIAS/WILLIAM SÚAREZ";;;"(57) (7) 6360728";"Cl 90 20-60 Diamante II Colombia, Bucaramanga"
"MACONS REFRIGERACIÓN";;;"(57) (7) 6598019";"- Colombia, Bucaramanga"
REFRISERVICIOS;;;"(57) (1) 4819109";"Av19 16-60 Colombia, Bogotá"
FRIGO;;;"(57) (6) 8837178";"Cl 21 9-134 Colombia, Manizales"
"SERVITÉCNICOS SÁNCHEZ";;;"(57) (8) 8719978";"Cr2 15-26 Colombia, Neiva"
"ACONDICIONAMIENTO AMBIENTAL TECNICONFORT";;;"(57) (1) 2497476";"Cr19 63 A-45 Colombia, Bogotá"
"SERRANO CASTRO EDGAR FERNANDO";;;"(57) 3107177626";"Cl 136 A 4-75 Mirador Arhuaco Sector Bello Horizonte Colombia, Santa Marta"
"REFRIGERACIONES CUCO";;;"(57) (7) 5795242";"Cl 17 1-83 Ospina Perez Atalaya Colombia, Cúcuta"
"WIL FRÍOS";;;"(57) (2) 3716640";"Cr16 17-42 Colombia, Cali"
"CASTELLANOS LUQUE SAULO GUILLERMO";;;"(57) (1) 8361969";"Cl 6 23-40 Colombia, Girardot"
"REFRIGERACIÓN GERMÁN PAYOME";;;"(57) (1) 5666627";"Cr23 6-35 S Colombia, Bogotá"
"RODRÍGUEZ RODRÍGUEZ LEONEL FERNANDO";;;"(57) (7) 6390249";"Cl 15 5-39 Sta Ana Floridablanca Colombia, Floridablanca"
ELECTROMECÁNICA;;;"(57) (1) 8353288";"Manz C-3 Casa 11 Magdalena III Colombia, Girardot"
FRIOANDES;;;"(57) (7) 6459906";"Cl 32 46-17 Colombia, Bucaramanga"
"REFRIGERACIÓN ORLANDO MARÍN";;;"(57) (2) 6634788";"Dg71 26 H-3-33 Colombia, Cali"
ELECTROFRÍO;;;"(57) (1) 8600291";"Calera Vda Altamar Colombia, Bogotá"
"SERVILUX IBAGUÉ";;;"(57) (8) 2614766";"Cl 17 4-10 Centro Colombia, Ibagué"
"REFRIPARTE IGLOO S.A.S.";;;"(57) (4) 5119030";"Cr53 58-72 Int 202 Colombia, Medellín"
"ELECTRODOMÉSTICOS EL BARATÓN";;;"(57) (2) 6801762";"Cl 27 43 B-18 Colombia, Cali"
"TALLER DE REFRIGERACIÓN OSPINA";;;"(57) (2) 8961871";"Cl 21 11 B-67 Colombia, Cali"
ELECTROLUX;;;"(57) (4) 4440528";"Cl 50 68-49 Colombia, Medellín"
REFRI-FONCE;;;"(57) (7) 7235864";"Cr12 14-49 Colombia, San Gil"
"GUSTAVO LOPEZ LOPEZ";;;"(57) (7) 5705697";"Quintas del Tamarindo II casa i-5 Colombia, Cúcuta"
"SERVICIOS INDUSTRIALES ICEBERG";;;"(57) (7) 6486142";"Cl 5 14-05 Altamira I Colombia, Bucaramanga"
"ABC SOLUCIONES TECNICAS Y ABACOL LTDA.";;;"(57) (1) 6941054";"Cl 32 S 10 D-40 Colombia, Bogotá"
"ACEROS Y REFRIGERACIÒN";;;"(57) (4) 5119528";"Cr52 59-19 Colombia, Medellín"
"DIAGNOSTICENTRO WHIRLPOOL";;;"(57) (5) 4333098";"Dg33 9-380 Urb Alejandrina Colombia, Santa Marta"
"ACUÑA REFRIGERACIÓN";;;"(57) (7) 6472695";"Cl 38 16 A-41 Rincón de Girón Colombia, Girón"
"INCOPAR LTDA.";;;"(57) (1) 2478203";"Cl 16 33-10 Colombia, Bogotá"
"DUARTE EUGENIO ELADIO";;;"(57) (1) 4153930";"Cl 23F 96H-18 Colombia, Bogotá"
"AIRES ACONDICIONADOS JHONAIRES";;;"(57) (7) 6372262";"Cr12 A 103 D-24 Colombia, Bucaramanga"
"ERA ELECTROREFRIAIRE";;;"(57) (4) 3413102";"Cl 31 D 89 D 30 Colombia, Medellín"
"HOYOS JAVIER";;;"(57) (4) 2182457";"Cr43 49-44 Int 1602 Colombia, Medellín"
"ARLO REFRIGERACIÓN";;;"(57) (6) 3142121";"Cr4 Bis 45 B-112 Colombia, Pereira"
"COLD HOMG REFRIGERACIÓN";;;"(57) (7) 5799868";"Cl 1 4-67 La Merced Colombia, Cúcuta"
"FECO & CIA. LTDA.";;;"(57) (1) 5332079";"Cr24 83 A-13 Colombia, Bogotá"
ICEBERG;;;"(57) (1) 2500166";"Cr29B 67-65 Colombia, Bogotá"
"ALMACÉN REFRIVARIOS";;;"(57) (5) 4211837";"Cl 14 5-28 L-5 Colombia, Santa Marta"
"SERVINÓRDICO LTDA.";;;"(57) (1) 2811888";"Av19 18-69 Colombia, Bogotá"
"REFRIGERACIÓN H-G";;;"(57) (1) 7842376";"Cr89 Bis 50-76 S Colombia, Bogotá"
"SÚAREZ JORGE HUMBERTO";;;"(57) (1) 2484141";"Cr31 63-21 Colombia, Bogotá"
"TOP REFRIGERACIÓN";;;"(57) (8) 4358603";"Dg10 C 14-35 La Bocana Colombia, Florencia"
"FRIOTERMO LTDA.";;;"(57) (1) 2562156";"Cl 102 45 A-28 Colombia, Bogotá"
"MARTÍN KAS LTDA.";;;"(57) (1) 2604004";"Cr67 3-39 Colombia, Bogotá"
"PIR C.I. S.A.";;;"(57) (5) 3344680";"Cl 30 5 A-35 Colombia, Barranquilla"
"REFRIGERACIÓN ANÍBAL VALENCIA";;;"(57) (4) 3711070";"Cl 51 47-18 Ap 201 Itagüí Colombia, Itagüí"
"ACONDICIONADO WHIRLPOOL";;;"(57) (4) 5138076";"Cr49 57-51 L-9954 Colombia, Medellín"
"REFRIGERACIÓN Y BATERÍAS";;;"(57) (5) 6627539";"Tr38 22-16 Colombia, Cartagena"
"AIRES & SOLUCIONES LTDA.";;;"(57) (4) 5131732";"Cl 51 54-56 L-117 Colombia, Medellín"
REFRIFAGO;;;"(57) (4) 2272352";"Cr21 33-118 Colombia, Medellín"
"COLD HOMG REFRIGERACIÓN";;;"(57) (7) 5799868";"Cl 1 4-67 La Merced Colombia, Cúcuta"
"ALMACÉN REFRI ELÉCTRICO";;;"(57) (5) 5707275";"Cr8 19-14 Colombia, Valledupar"
"INGENIERÍA Y SERVICIOS GENERALES";;;"(57) (8) 6703712";"Cl 26 B 25-32 Colombia, Villavicencio"
"SERVI TÉCNICO";;;"(57) (5) 3603058";"Cr49 B 79-248 Colombia, Barranquilla"
EXHIBIR;;;"(57) (1) 3119784";"Cr68 H 78-69 Colombia, Bogotá"
"REFRIGERACION YEN-FRIO";;;"(57) (5) 6611592";"San Pedro Manz 37 Lt 6 L-4 diagonal Bomba Texaco Colombia, Cartagena"
REFRIBLAS;;;"(57) (5) 6662780";"Lo Amador Cl 32 32-03 Av Pedro de Heredia Colombia, Cartagena"
"FRIOTERMO LTDA.";;;"(57) (1) 2562156";"Cl 102 45 A-28 Colombia, Bogotá"
"REFRI POLAR";;;"(57) (2) 3910961";"Cl 46 A N 5 N-74 Colombia, Cali"
"G & M REFRIGERACIÓN S.A.S.";;;"(57) (2) 6817415";"Cl 24 N 2 D N-40 Colombia, Cali"
"CLEAN AIRE";;;"(57) 3015504646";"Tr17 30 C-72 San Pedro Alejandrino Colombia, Santa Marta"
"EU REFRIGERACIÓN";;;"(57) (5) 3562395";"Cl 76 75-20 L 16 Colombia, Barranquilla"
"ALMACEN DE CONGELADORES TECNIFRIO";;;"Conm.: (57) (4) 5124227";"Cr52 59-24 Colombia, Medellín"
"CENTRAL DE SERVICIOS";;;"(57) (4) 2343762";"Cr81 48 B-03 Ap 902 Colombia, Medellín"
"CONSTRUFRÍO CARTAGENA";;;"(57) (5) 6676918";"Nuevo Bosque Et 6 Manz 53 Lt 30 P-2 Colombia, Cartagena"
"REMBERTO CORREA Y/O REFRINORTE E.U";;;"(57) (2) 6830122";"Cr15 36 A-47 Colombia, Cali"
"CENTRO TÉCNICO DE MARCAS";;;"(57) (1) 4738334";"Cr95 A 128 B-60 P 2 Colombia, Bogotá"
"REFRIGERACION CRG";;;"(57) (2) 3752693";"Cl 53 3-49 Colombia, Cali"
"SERVIR INGENIEROS";;;"(57) (8) 2700683";"Cl 37 4 F-67 B/ Cádiz Colombia, Ibagué"
"FRIO FRIMAC";;;"(57) (1) 3511123";"Av (cl) 19 22 56 Colombia, Bogotá"
FREEZE;;;"(57) (6) 3361607";"Cr12 31-35 Colombia, Pereira"
"First Name";"Email Address";Url;Telephone;Address
"TERMOFRÍO EL NEVADO";;;"(57) (1) 2770142";"Cl 12 19 A-32 Colombia, Bogotá"
"ALMACEN INDUSTRIAL DE REFRIGERACIÓN REFRICOL";;;"(57) (8) 2751237";"Cr 20 60-97 Ambala Colombia, Ibagué"
"CLÍNICA DEL HOGAR";;;"(57) (2) 2209357";"Cr10 7-23 Colombia, Zarzal"
"BROTONS REINA & CÍA. S.C.S.";;;"(57) (2) 2434378";"Cl 3 5-19 La Videla Colombia, Buenaventura"
"FRIOGOMEZ LTDA.";;;"(57) (7) 6320495";"Cl 35 33-45 Colombia, Bucaramanga"
"BOGOYA MARTÍNEZ ALEXIS";;;"(57) (1) 3410240";"Av19 16-97 Colombia, Bogotá"
"INGENIERÍA DE REFRIGERACIÓN";;;"(57) (8) 6662741";"Cl 35 13-72 Urb Castilla Av Catama Colombia, Villavicencio"
REFRICENTRO;;;"(57) (2) 8854680";"Cl 6 13-68 Colombia, Cali"
SUPERFRÍO;;;"(57) (8) 8721443";"Cr3 10-49 Colombia, Neiva"
"REFRIGERACIµN JM S.A.S.";;;"(57) (1) 7952028";"Cr90 D 127-02 Colombia, Bogotá"
"SOLUTEC SOLUCIONES TÉCNICAS CASTELLÓN";;;"(57) (5) 3566099";"Cr48 74-38 Colombia, Barranquilla"
"First Name";"Email Address";Url;Telephone;Address
"REMATES LA ROCA";;;"(57) (4) 2933372";"Cr55 52-62 Colombia, Medellín"
"A G REFRIGERACIÓN Y CÍA. LTDA.";;;"(57) (2) 8941924";"Av6 Oe 15 Oe-22 Colombia, Cali"
"AIRE ACONDICIONADO AIRES ASOCIADOS LTDA.";;;"(57) (6) 3367506";"Cr6 26-74 Of 201 Colombia, Pereira"
MAYEKAWA;;;"(57) (4) 3134343";"Cr43 B 8 -S-10 Int 404 Colombia, Medellín"
"AIRE LA 15";;;"(57) 3157181077";"Cr15 9 A-50 Colombia, Valledupar"
"MAXI - AIRES";;;"(57) (8) 8602949";"Cr6 20-25 S Colombia, Neiva"
"G & M REFRIGERACIÓN S.A.S.";;;"(57) (2) 6817415";"Cl 24 N 2 D N-40 Colombia, Cali"
"SHILLERS Y ENFRIAMIENTOS";;;"(57) (4) 4827824";"Av37 A 65 A-58 Bello Colombia, Bello"
"DISTRIBUIDORA REFRIMAYOR S.A.";;;"(57) (1) 3362277";"Cl 19 15-56 Colombia, Bogotá"
"ALMACENES VEA";;;"(57) (6) 8847800";"Cr23 28-58 Colombia, Manizales"
"TECNIFRISA LTDA.";;;"(57) (1) 2902883";"Tr45 B 8 C-41 Colombia, Bogotá"
"REFRICALEFACCIÓN Y VARIEDADES CELESTE";;;"(57) (4) 2720732";"Cr47 51 -50 Bello Colombia, Bello"
"AGO SERVICIOS";;;"(57) (2) 5575353";"Cr23 11-12 Colombia, Cali"
"AIR'S REFRIGERACIÓN";;;"(57) (8) 8700869";"Cl 7 19-41 Colombia, Neiva"
"AGENCIA REFRIGERACION DEL SUR & CIA. LTDA.";;;"(57) (7) 6391980";"Cl 29 11-20 Colombia, Bucaramanga"
"BASCULAS Y BALANZAS IBEROTEC";;;"(57) (4) 4441223";"Cr42 54 A-71 Bdg 115 Itagüí Colombia, Itagüí"
"JOHNSON CONTROL COLOMBIA LTDA";;;"(57) (5) 3604672";"Cr53 74-49 L-2 Colombia, Barranquilla"
"AGENCIA DE REMATES EL PADRINO";;;"(57) (4) 2932106";"Cr57 51-72 Colombia, Medellín"
REFRIELECTRONIKA;;;"(57) (7) 6578910";"Cl 43 A 25-63 El Recreo Colombia, Barrancabermeja"
"REFRIGERACIÓN JARPRO S.A.S.";;;"(57) (5) 3403684";"Cl 44 41-140 Colombia, Barranquilla"
"AIRES TÉCNICOS LTDA.";;;"(57) (1) 8333826";"Manz 21 Casa 20 Esperanza Colombia, Girardot"
"REFRIPARTES Y SERVICIOS";;;"(57) (5) 6533626";"San Pedro Plan 24 Manz 37 Lt 8 L-1 Colombia, Cartagena"
MERCAFRIO;;;"(57) (1) 2820936";"Cl 19 16-10 Colombia, Bogotá"
"AC EL INDUSTRIAL";;;"(57) (1) 2116733";"Cl 58 15 A-22 Colombia, Bogotá"
ACUAREFRI;;;"(57) (5) 3482889";"Cr30 113-26 La Pradera Colombia, Barranquilla"
REFRIFAGO;;;"(57) (4) 2272352";"Cr21 33-118 Colombia, Medellín"
VELFRIO;;;"(57) (4) 3712319";"Cl 67 54 B-74 Itaguí Colombia, Medellín"
"AIRE ACONDICIONADO INVERPRIMOS REFRIGERACIÓN";;;"(57) (4) 3604440";"Cl 14   S 51 C-05 Colombia, Medellín"
"REFRIGERACIÓN Y LAVADORAS JORGE E. LANDAZÁBAL";;;"(57) (7) 5764204";"Cl 13 3-66 San Luis Colombia, Cúcuta"
AIREMEK;;;"(57) (7) 6596654";"Cl 20 A 24-92 Girón Colombia, Girón"
"GARCÍA PERTÚZ ROGER ANTONIO";;;"(57) (1) 2437417";"Cr16 19-23 Colombia, Bogotá"
"SUPER NORDICO";;;"(57) (8) 6632029";"Cr22 8 C-112 Vía Puerto López Colombia, Villavicencio"
"NOVAFRIOS LTDA.";;;"(57) (1) 2625246";"Cr63 A 13-50 Colombia, Bogotá"
"FRÍO REAL";;;"(57) (2) 3909583";"Cr15 34-68 Colombia, Cali"
"CENTRO TÉCNICO DE MARCAS";;;"(57) (1) 4738334";"Cr95 A 128 B-60 P 2 Colombia, Bogotá"
"TALLER DE REFRIGERACION ARRIETA";;;"(57) (5) 3526205";"Cl 71 34-56 Colombia, Barranquilla"
ACONDIAIRE;;;"(57) (7) 6835573";"Cl 60 17 D-13 Colombia, Bucaramanga"
"TERMEC LTDA.";;;"(57) (5) 3795442";"Cl 51 41-45 Colombia, Barranquilla"
"TRS PARTES S.A.";;;"(57) (1) 8050163";"Cr29 B 79-38 Colombia, Bogotá"
"GIRA FRÍOS";;;"(57) (1) 8310827";"Cr10 20-51 Colombia, Girardot"
FRIGO;;;"(57) (6) 8837178";"Cl 21 9-134 Colombia, Manizales"
INALFRÍOS;;;"(57) (1) 5424934";"Cr 105 C 16 F-68 Colombia, Bogotá"
REFRIDÍAZ;;;"(57) (8) 8369861";"Cl 10 3-48 Colombia, Pitalito"
"THERMOSYSTEMS S.A.S";;;"(57) (4) 3540153";"Cr43 E 5-65 Colombia, Medellín"
"THERMOREPUESTOS S.A.S";;;"(57) (2) 6640280";"Cr32 15-165 Colombia, Cali"
ACONDIAIRE;;;"(57) (7) 6835573";"Cl 60 17 D-13 Colombia, Bucaramanga"
"REFRIGERACIONES CUCO";;;"(57) (7) 5795242";"Cl 17 1-83 Ospina Perez Atalaya Colombia, Cúcuta"
"CABARRIA Y CÍA. S.A.";;;"(57) (2) 4306177";"Cl 56 5 N-65 Bdg 6 Colombia, Cali"
"H.Z. INGENIERÍA LTDA.";;;"(57) (2) 6614115";"Cl 23 D 5 A N-62 L-202 Colombia, Cali"
"GARCÍA PERTÚZ ROGER ANTONIO";;;"(57) (1) 2437417";"Cr16 19-23 Colombia, Bogotá"
"LIZCANO CARVAJAL LUIS EDUARDO";;;"(57) (1) 4750643";"Cr16 48-10 Colombia, Bogotá"
"MULTI HOGAR";;;"(57) (1) 8115909";"Cr29 B 76-09 Colombia, Bogotá"
"EDGAR CORRALES REFRIGERACIÓN";;;"(57) (1) 7402187";"Cl 6 D 88 D-59 Colombia, Bogotá"
"ZERO GRADOS";;;"(57) (4) 5123543";"Cl 51 56 A-26 Colombia, Medellín"
"AIRE ACONDICIONADO REFRIGERACIÓN REFRITERMO";;;"(57) (1) 2254967";"Cl 72 63-47 Colombia, Bogotá"
"INVER DESCUENTOS LTDA.";;;"(57) (1) 2498403";"Cr24 65-20 Colombia, Bogotá"
"REFRIGERACION Y LAVADORAS";;;"(57) (4) 8871035";"Cr22 18-45 Colombia, Yarumal"
"MUNDO GAS Y REFRIGERACIÓN";;;"(57) (4) 5125481";"Cr57 51 -26 Colombia, Medellín"
"MATER FRÖO";;;"(57) (4) 2393403";"Cl 55 43-45 Int 802 Colombia, Medellín"
"COSMOFRIO LTDA.";;;"(57) (1) 2711385";"Cl 122 45 A-63 Of 301 Colombia, Bogotá"
"AIRE ACONDICIONADO PARTES Y REPUESTOS";;;"(57) (4) 4446440";"Cl 14 S 51 C-05 Colombia, Medellín"
"J.M. INGENIERÍA Y REFRIGERACIÓN LTDA.";;;"(57) (5) 3490872";"Cr54 55-39 Of 404 Colombia, Barranquilla"
"EXTRUPERFILES Y PLÁSTICOS LTDA.";;;"(57) (1) 3112444";"Cr 28B 74 64 Colombia, Bogotá"
"ELECTROMECÁNICA GARCÍA";;;"(57) (1) 5401857";"Cr 78A # 78-40 Colombia, Bogotá"
"IGLU REFRIGERAR E.A.T.";;;"(57) (4) 7918170";"Cr11 40-18 Nariño Colombia, Montería"
"REFRIGERACIÓN POLAR";;;"(57) 3146042261";"Cl 5 27 A-37 Colombia, Popayán"
"INGENIERÍA BUENOS AIRES LTDA";;;"(57) (8) 6642405";"Cl 40 24 A-35 Emporio Colombia, Villavicencio"
"REFRI-AIRES DEL HUILA";;;"(57) 3152366742";"Cl 19 A 40-19 Colombia, Neiva"
MERCAFRIO;;;"(57) (1) 2820936";"Cl 19 16-10 Colombia, Bogotá"
"First Name";"Email Address";Url;Telephone;Address
TECNICENTRALESSERVICIO;;;"(57) (6) 8824702";"Cr21 31-16 Colombia, Manizales"
REFRIGAS;;;"(57) (6) 3350867";"Cl 14 4-05 Colombia, Pereira"
SERVIFRÍO;;;"(57) (8) 8733215";"Cr12 2 E-20 Colombia, Neiva"
"First Name";"Email Address";Url;Telephone;Address
"ALMACÉN Y TALLER DE REFRIGERACIÓN GIBSON";;;"(57) 7266166";"Cl 9 12-28 Colombia, Maicao"
"CENTRO DE SERVICIOS TÉCNICOS";;;"(57) 3124229875";"Cr6 10-59 Colombia, Pitalito"
REFLYLAV;;;"(57) (4) 4773106";"Cl 96 A 76-102 Colombia, Medellín"
REFRITODO;;;"(57) (7) 6203885";"Cr28 46-71 Ap 301 El Recreo Colombia, Barrancabermeja"
"ALMACÉN REFRI LAVA";;;"(57) (8) 2634372";"Cr4 17-44 Colombia, Ibagué"
"ELECTRODOMÉSTICOS EL BARATÓN";;;"(57) (2) 6801762";"Cl 27 43 B-18 Colombia, Cali"
"VITRINAS LA ESPECIAL E.U.";;;"(57) (2) 3263458";"Cl 19 43-26 Colombia, Cali"
ALFRIGOR;;;"(57) (5) 3400557";"Cr44 58-02 L 1 Colombia, Barranquilla"
"CENTRO FRIO";;;"(57) (4) 5129337";"Cl 49 52-60 Ap 105 Colombia, Medellín"
"REFRILAVADORAS Y T.V.";;;"(57) 6604573";"Vista Hermosa Cr57 30 A-26 Colombia, Cartagena"
"GALLIUM DE COLOMBIA LTDA";;;"(57) (1) 8764577";"K.m 2.5 Autop.Medellin C.I.E.M OIKOS Colombia, Bogotá"
"ICOMAGER S.A.";;;"(57) (1) 2697353";"Cr19 22 C-53 Colombia, Bogotá"
"REFRIGERACIÓN AL INSTANTE";;;"(57) (2) 8207207";"Cl 17 8-43 Colombia, Popayán"
"EXHIVIT S.A.S.";;;"(57) (1) 4737257";"Cl 35 B S 72 K-36 Colombia, Bogotá"
"AIRE ACONDICIONADO REFRIGERACIÓN REFRITERMO";;;"(57) (1) 2254967";"Cl 72 63-47 Colombia, Bogotá"
"FUENTE DE HELADOS EL ANTOJO";;;"(57) (4) 5618574";"Cl 40 66-28 Rionegro Colombia, Medellín"
"CNA EQUIPOS DE REFRIGERACIÓN";;;"(57) (4) 5135988";"Cr54 60-51 Colombia, Medellín"
TECNICHALLENGER;;;"(57) (2) 8807071";"Cl 18 6-79 Colombia, Cali"
"LAB REFRIGERACIÓN COMERCIAL E INDUSTRIAL";;;"(57) (4) 5124802";"Cl 59 52-69 Colombia, Medellín"
"ALMACÉN SERVIFRÍO PABLO AYURE";;;"(57) (1) 2825237";"Cl 19 16-89 Colombia, Bogotá"
"TECNILAVADORAS Y REFRIGERACIÓN";;;"(57) (1) 3645344";"Cl 48 A 1-69 Colombia, Bogotá"
"REFRIGERACIÓN INDUSTRIAL JAIRO ESTEBAN DÍAZ";;;"(57) (8) 8733361";"Cl 20 A S 30 A-08 Casa 19 Colombia, Neiva"
"ALMACÉN REFRI ELÉCTRICO";;;"(57) (5) 5707275";"Cr8 19-14 Colombia, Valledupar"
"TERMO VENTILACIÓN LTDA.";;;"(57) (1) 2103586";"Cr20 A 73-83 Colombia, Bogotá"
"TECNI MANTENIMIENTO WHIRLPOOL";;;"Nal: (57) (2) 3845834";"Cl 25 17 B-87 Colombia, Cali"
"SHILLERS Y ENFRIAMIENTOS";;;"(57) (4) 4827824";"Av37 A 65 A-58 Bello Colombia, Bello"
"PIR C.I. S.A.";;;"(57) (5) 3344680";"Cl 30 5 A-35 Colombia, Barranquilla"
"CLEAN AIRE";;;"(57) 3015504646";"Tr17 30 C-72 San Pedro Alejandrino Colombia, Santa Marta"
TECNI-MARCAS;;;"(57) (8) 8702728";"Cl 2 10 A-39 Colombia, Neiva"
"AIRE ACONDICIONADO TROPIAIRES";;;"(57) (5) 3515882";"Cl 58 43-65 L-52 Colombia, Barranquilla"
"COMERCIALIZADORA REFRIATLANTICO LTDA.";;;"(57) (5) 3790632";"Cl 44 N° 41-55 Colombia, Barranquilla"
"AGUIRRE EMILIANO";;;"(57) (1) 2433867";"Cl 19 16-31 Colombia, Bogotá"
"CASA DE REPARACIONES";;;"(57) (1) 2400566";"Cr69 D 68-20 Colombia, Bogotá"
"REFRI ANDES";;;"(57) 3114640206";"Cl 17 8-73 Colombia, Barbosa"
CLIMATIZA;;;"(57) (5) 3693150";"Cl 76 66-72 Colombia, Barranquilla"
"TERMOFRÍO VILLAVICENCIO";;;"(57) (8) 6670579";"Cr10 A 30-20 Colombia, Villavicencio"
"COLFRIOS PITALITO";;;"(57) (8) 8365994";"Cr2 9-39 Colombia, Pitalito"
"REFRIHOGARES DEL VALLE";;;"(57) 3148803415";"Cr24 22-14 Colombia, Buga"
METROFRÍO;;;"(57) (4) 5121436";"Cr52 59-92 Colombia, Medellín"
"INDUSTRIAL TYLOR LTDA";;;"(57) (4) 3125104";"Cl 10 B 36-28 Int 201 Colombia, Medellín"
"First Name";"Email Address";Url;Telephone;Address
"ROBAYO JOEL";;;"(57) (1) 2508304";"Cr29 66-50 Colombia, Bogotá"
ABACENTER;;;"(57) (6) 7379494";"Et I Manz 36 Casa 4 La Cecilia Colombia, Armenia"
"TÉCNICO EN REFRIGERACIÓN Y AIRE ACONDICIONADO SIGIFREDO CUELLAR";;;"(57) (8) 8742147";"Cl 45 6-35 Colombia, Neiva"
"ALMACÉN GIO FRÍO";;;"(57) (5) 6625949";"Alcibia Cl 31 39-128 Av Pedro de Heredia Colombia, Cartagena"
DIAC;;;"(57) (1) 6600305";"Cr68 H 74 B-54 Colombia, Bogotá"
"REFRIMAC CALI";;;"(57) (2) 5242787";"Cl 12 31-33 Colombia, Cali"
"SERVICIOS REFRIG-ELECTRICOS";;;"Nal: (57) (4) 3065185";"Cl 67 S 45-52 Int 1103 Colombia, Medellín"
"ALMACÉN FRIO KALI";;;"(57) (2) 8960594";"Cr1 24-71 Colombia, Cali"
"ALMACENES J.M.T.";;;"(57) (8) 2649555";"Cr6 27-49 El Carmen Colombia, Ibagué"
"REFRIGERACIÓN REINA";;;"(57) (2) 8963933";"Cl 16 4-38 Colombia, Cali"
"QUALITY LINE SERVICE";;;"(57) (5) 3012235";"Cr44 69-137 L-1 Colombia, Barranquilla"
"TALLER WESTINGHOUSE";;;"(57) (2) 2368916";"Cr14 9-27 Colombia, Buga"
"FURGONES THERMO COLD";;;"(57) (7) 6760948";"Cr1 3-59 Vía Chimitá Colombia, Bucaramanga"
"AIRE ACONDICIONADO REFRICENTER CARRIER";;;"(57) (5) 3401771";"Cr46 54-55 Colombia, Barranquilla"
"FÁBRICA MODICO";;;"(57) (1) 2814620";"Av (Cl) 19 16 A-56 Colombia, Bogotá"
"NEVADA AIRE ACONDICIONADO";;;"(57) 3158119753";"Cl 13 5-105 Colombia, Neiva"
"REFRISERVICIOS LTDA.";;;"(57) (1) 2070695";"Cl 31A S 3-45E Colombia, Bogotá"
"AIR FRESH INGENIEROS LTDA.";;;"(57) (2) 5134402";"Cr 58 # 3-74 Colombia, Cali"
"FRIGOVAL LTDA.";;;"(57) (1) 7105410";"Cr72 RBis 46-03 S Colombia, Bogotá"
"CABARRIA Y CÍA. S.A.";;;"(57) (2) 4306177";"Cl 56 5 N-65 Bdg 6 Colombia, Cali"
"ERACOL INGENIERÍA S.A.S.";;;"(57) (2) 3314195";"Cr37 10-162 Colombia, Cali"
"ACEVEDO FREDY SERVICIO TECNICO";;;"(57) 3208398974";"Cl 50 20-33 Colombia Colombia, Barrancabermeja"
REFRI-FONCE;;;"(57) (7) 7235864";"Cr12 14-49 Colombia, San Gil"
"SERVICIO TECNICO J.R.";;;"(57) (7) 6585245";"Cl 55 140 A-32 Ciudad 2000 Floridablanca Colombia, Floridablanca"
"ALMACÉN Y TALLER DE REFRIGERACIÓN GIBSON";;;"(57) 7266166";"Cl 9 12-28 Colombia, Maicao"
"NM REFRIGERACIÓN LTDA.";;;"(57) (7) 6342692";"Cl 22 20-53 Alarcón Colombia, Bucaramanga"
REFLYLAV;;;"(57) (4) 4773106";"Cl 96 A 76-102 Colombia, Medellín"
"SERVILUX IBAGUÉ";;;"(57) (8) 2614766";"Cl 17 4-10 Centro Colombia, Ibagué"
"TALLER ELECTROREFRIGERACIÓN BUGA";;;"(57) (2) 2277349";"Cl 16 9-76 Colombia, Buga"
"TALLER DE REFRIGERACIÓN H DE Z GOMEZ";;;"(57) (7) 5870915";"Av2 0-160 Aeropuerto Colombia, Cúcuta"
"INDUSTRIAS DE REFRIGERACIÓN OSPINA";;;"(57) (8) 6686991";"Cr33 18-53 La Florida Colombia, Villavicencio"
ELECTROLUX;;;"(57) (4) 4440528";"Cl 50 68-49 Colombia, Medellín"
"ABASTECEDORA SI CENTRALES";;;"(57) (4) 4115052";"Cr 82 45 C-08 Colombia, Medellín"
"TALLER DE REFRIGERACIÓN EMIR";;;"(57) (2) 8366304";"Cr5 11-27 El Empedrado Colombia, Popayán"
"INSTALACIÓN Y MANTENIMIENTO EQUIPOS DE GAS";;;"(57) (2) 7323236";"Cr1 B 23 A-52 Gualcalá Colombia, Pasto"
"REFRIGERACIÓN URAM";;;"(57) (8) 4361240";"Cl 14 9-55 Raicero Colombia, Florencia"
REFRINOVA;;;"(57) (4) 5119441";"Cr52 58-58 Colombia, Medellín"
SERVIFRÍO;;;"(57) (8) 8733215";"Cr12 2 E-20 Colombia, Neiva"
"A AMERICANN SERVICE OK";;;"(57) (5) 3591160";"Cr26 C 79 A-10 Colombia, Barranquilla"
"MUNDO GAS Y REFRIGERACIÓN";;;"(57) (4) 5125481";"Cr57 51 -26 Colombia, Medellín"
"First Name";"Email Address";Url;Telephone;Address
"AC EL INDUSTRIAL";;;"(57) (1) 2116733";"Cl 58 15 A-22 Colombia, Bogotá"
"REFRIHOGARES DEL VALLE";;;"(57) 3148803415";"Cr24 22-14 Colombia, Buga"
"INGENIERÍA EN REFRIGERACIÓN Y AIRE ACONDICIONADO";;;"(57) (1) 6944287";"Cr141 A 137-52 Colombia, Bogotá"
"AIRE FRIO REPARACIÓN Y MANTENIMIENTO";;;"(57) (5) 4102800";"Cr. 5 19 89 Cienaga Colombia, Ciénaga"
"SERVIFRÍO A SU SERVICIO";;;"(57) 3126205007";"Carrt La Cordialidad 30-35 Sabanalarga Colombia, Barranquilla"
"FULL HOGAR";;;"(57) (4) 2516688";"Cl 50 52-33 Colombia, Medellín"
"REFRIGERACION INDUSTRIAL S.A.S.";;;"(57) 3125108074";"Cl 111 E 64 A-74 Colombia, Medellín"
"TALLER DE REFRIGERACION ARRIETA";;;"(57) (5) 3526205";"Cl 71 34-56 Colombia, Barranquilla"
"FRIO LOS ANDES";;;"(57) 3202154083";"Cl 7 4-29 San Lis Colombia, Cúcuta"
"REFRI-LAVADORA DE LA GUAJIRA";;;"(57) (5) 7286539";"Cl 32 Cra 7 Esq Colombia, Riohacha"
"SERVI TÉCNICO";;;"(57) (5) 3603058";"Cr49 B 79-248 Colombia, Barranquilla"
INDUCOL;;;"(57) (6) 3359581";"Cl 19 Bis 10-04 Colombia, Pereira"
"TÉCNICO EN REFRIGERACIÓN Y AIRE ACONDICIONADO SIGIFREDO CUELLAR";;;"(57) (8) 8742147";"Cl 45 6-35 Colombia, Neiva"
REFRISERVICIOS;;;"(57) (1) 4819109";"Av19 16-60 Colombia, Bogotá"
"ALMACÉN REFRIREPUESTOS";;;"(57) (4) 2517226";"Cl 58 53-14 Colombia, Medellín"
"REFRIGERACIÓN EFREGO";;;"(57) (4) 2126751";"Cr51 67-84 Colombia, Medellín"
"CENTRO DE SERVICIO EN AIRE ACONDICIONADO";;;"(57) (2) 8892671";"C.C. Petecuy Of 314 Colombia, Cali"
"REFRIGERACIÓN Y CONTROLES DISTRIBUCIÓN TOTAL LTDA.";;;"(57) (2) 4474939";"Cr1 50-47 Colombia, Cali"
"DISTRIMPRESOS Y EQUIPOS";;;"(57) (7) 6302882";"Cl 22 19-24 L-2 Colombia, Bucaramanga"
FUNITEL;;;"(57) (7) 6200068";"Dg56 17-40 Pueblo Nuevo Colombia, Barrancabermeja"
REFRICENTRO;;;"(57) (8) 2601590";"Av Guavinal 44-39 Colombia, Ibagué"
REFRIELÉCTRICOS;;;"(57) 5763291";"Cl 7 3-12 San Luis Colombia, Cúcuta"
"BOJANINI INGENIEROS LTDA.";;;"(57) (6) 3348804";"Cr10 22-18 Colombia, Pereira"
"ENFRÍO E.U.";;;"(57) (7) 6424136";"Cr24 28-40 Colombia, Bucaramanga"
REFRIGAS;;;"(57) (6) 3350867";"Cl 14 4-05 Colombia, Pereira"
"A DOMICILIO SOLO LAVADORAS";;;"(57) (8) 8700909";"Cr18 9-96 Colombia, Neiva"
REFRICENTRO;;;"(57) (2) 8854680";"Cl 6 13-68 Colombia, Cali"
"FRIGOVAL LTDA.";;;"(57) (1) 7105410";"Cr72 RBis 46-03 S Colombia, Bogotá"
"WIL FRÍOS";;;"(57) (2) 3716640";"Cr16 17-42 Colombia, Cali"
"ACEVEDO FREDY SERVICIO TECNICO";;;"(57) 3208398974";"Cl 50 20-33 Colombia Colombia, Barrancabermeja"
"REFRI ELECTRO";;;"(57) (4) 5614721";"Cr48 47-66 Rionegro Colombia, Medellín"
ELECTROMECÁNICA;;;"(57) (1) 8353288";"Manz C-3 Casa 11 Magdalena III Colombia, Girardot"
"JIREH REFRIGERACIÓN";;;"Nal: (57) (5) 1";"Barranquilla Colombia, Barranquilla"
AIREMEK;;;"(57) (7) 6596654";"Cl 20 A 24-92 Girón Colombia, Girón"
"FRIDVAL LTDA.";;;"(57) (2) 5244440";"Cl 33 8 A-04 Colombia, Cali"
"AIRES CONFORT H & F";;;"(57) (8) 8713592";"Cr2 14-12 Los Mártires Colombia, Neiva"
"CASTILLO GUTIÜRREZ LTDA.";;;"(57) (6) 3296624";"Cr8 40 B-13 Colombia, Pereira"
"SERVICIOS TÉCNICOS MARTÍNEZ E.U.";;;"(57) (8) 6718440";"Cl 38 A 15-04 Madrigal Colombia, Villavicencio"
"SURTIPAG S.A.S. AGUIRRE SURTI PAG S.A.S";;;"(57) (5) 6626292";"Camino del Medio Cl 31 A 39/47 Colombia, Cartagena"
"MAXILINE DE FRÍO LTDA.";;;"(57) (1) 2836400";"Cl 19 18-35 Colombia, Bogotá"
"First Name";"Email Address";Url;Telephone;Address
"TÉCNICOS ASOCIADOS";;;"(57) (4) 5214693";"Cl 97 51 B-22 Int 136 Colombia, Medellín"
SOLUMEC;;;"(57) (5) 6431388";"Urb Barlovento Manz E Lt 2 Colombia, Cartagena"
"ELECTRODOMESTICOS Y GASODOMESTICOS LA ECONOMIA";;;"(57) (4) 2313814";"Cl 58 54-20 Colombia, Medellín"
"ELECTRODÓMÉSTICOS WIRLPOOL ESPIN HOUSE";;;"(57) (8) 2669053";"C.C. Fontaineibleau L-101 Colombia, Ibagué"
REFRIDÍAZ;;;"(57) (8) 8369861";"Cl 10 3-48 Colombia, Pitalito"
"REFRIGERACION GARCIA ROVIRA";;;"(57) (7) 6994735";"Cl 14 C 12 A-69 Villas De San Juan Girón Colombia, Girón"
"ALMACÉN TODOFRIO LTDA.";;;"(57) (1) 2559287";"Av Caracas 69-61 Colombia, Bogotá"
CREDILLANO;;;"(57) (7) 6340282";"Cr25 34-66 L-6 Antonia Santos Colombia, Bucaramanga"
"DISTRIBUIDORA DE REPUESTOS PARA REFRIGERACIÓN Y LAVADORAS LOS PAISAS";;;"(57) (2) 4425365";"Cl 44 11 D-25 Colombia, Cali"
"FRIOTEC LTDA.";;;"(57) (5) 3582189";"Cr52 75-27 L-19 Colombia, Barranquilla"
"FRÍO MODERNO REFRIGERACIÓN";;;"(57) (1) 2258168";"Cl 72 28 A-19 Colombia, Bogotá"
"MENESES MUÑOZ LUIS EDUARDO";;;"(57) (2) 8212147";"Cl 2 18 A-22 Colombia, Popayán"
"ZERO GRADOS";;;"(57) (4) 5123543";"Cl 51 56 A-26 Colombia, Medellín"
"FRÍO TÉCNICO";;;"(57) 3103327378";"Cl 20 S 15-16 Timanco Colombia, Neiva"
"REFRIGERACION Y LAVADORAS";;;"(57) (4) 8871035";"Cr22 18-45 Colombia, Yarumal"
ACROPOL;;;"(57) (7) 6703865";"Cr15 30-53 Colombia, Bucaramanga"
"ERA ELECTROREFRIAIRE";;;"(57) (4) 3413102";"Cl 31 D 89 D 30 Colombia, Medellín"
REFRICOLOMBIA;;;"(57) (4) 5124725";"Cl 60 51-45 Colombia, Medellín"
"TODO FRIO";;;"(57) (4) 5142475";"Cr52 59-19 Colombia, Medellín"
"ALMACÉN Y TALLER COSTAFRÍO";;;"(57) (5) 2828975";"Cr20 27-66 Centro Colombia, Sincelejo"
"FRIOMIX DEL CAUCA S.A.";;;"(57) (1) 4132929";"Cr 127 22 B-08 Colombia, Bogotá"
PROYECTAIRE;;;"(57) (4) 7913232";"Cl 37 5-12 Colombia, Montería"
MAXIFRÍO;;;"Nal: (57) (4) 42620067";"Cr 50 35-07 Colombia, Medellín"
"FRIOTERMO LTDA.";;;"(57) (1) 2562156";"Cl 102 45 A-28 Colombia, Bogotá"
"GRUPO ALFA S.A.";;;"(57) (1) 7110120";"Cl 6 C 73-40 Int 30 Colombia, Bogotá"
"ALMACEN FABRCA FRIO.COM";;;"(57) (4) 5122757";"Cr52 59-13 Colombia, Medellín"
"H M REFRIMAS";;;"(57) (1) 8313422";"Cr10 22-01 Esq. Colombia, Girardot"
"AIRE ACONDICIONADO TROPIAIRES";;;"(57) (5) 3515882";"Cl 58 43-65 L-52 Colombia, Barranquilla"
"TATIS ORDOSGOITIA CARLOS";;;"(57) (5) 3490874";"Cr46 56-61 Apto 201 A Colombia, Barranquilla"
"INGENIERÍA REFRICENTER";;;"(57) (8) 6727241";"Cl 35 35-11 L-1 Colombia, Villavicencio"
"COMFRIAIRE LTDA.";;;"(57) (1) 5484072";"Cl 22 H 118-10 Colombia, Bogotá"
"INDUSTRIAL TAYLOR LTDA.";;;"(57) (1) 3578400";"Tr 93 51-98 Colombia, Bogotá"
"CENTRALES WHIRLPOOL REFRIGERACIÓN";;;"(57) (4) 4215077";"Cl 65 78-43 Colombia, Medellín"
"AIRE FRIO REPARACIÓN Y MANTENIMIENTO";;;"(57) (5) 4102800";". Colombia, Santa Marta"
"SERVIFRÍO A SU SERVICIO";;;"(57) 3126205007";"Carrt La Cordialidad 30-35 Sabanalarga Colombia, Barranquilla"
"TALLER UNIVERSAL";;;"(57) (4) 3035259";"Cl 137 S 50 A-01 Caldas Colombia, Medellín"
"TERMIAIRES LTDA.";;;"(57) (5) 3687010";"Cl 84 43 B-48 Colombia, Barranquilla"
INDUCOL;;;"(57) (6) 3359581";"Cl 19 Bis 10-04 Colombia, Pereira"
"VARGAS ISRAEL";;;"(57) (1) 6311147";"Cr51 71-48 Colombia, Bogotá"
SERVI-REFRIGERACIÓN;;;"(57) (8) 6655070";"Cr18 A 25 A-49 Colombia, Villavicencio"
"First Name";"Email Address";Url;Telephone;Address
"RENEVAR E.U.";;;"(57) (1) 2769550";"Av Cl 63 70-98 Colombia, Bogotá"
"REFRI ELÉCTRICOS";;;"(57) (8) 6680757";"Cl 4 C 24-47 Alborada Colombia, Villavicencio"
"ALMACÉN REFRIREPUESTOS";;;"(57) (4) 2517226";"Cl 58 53-14 Colombia, Medellín"
"CENTRAL DE LAVADORAS Y REFRIGERACIÓN";;;"(57) (2) 2262020";"Cr24 22-84 Colombia, Tuluá"
"G.S. REFRIPARTES";;;"(57) (5) 3197234";"Cr38 48-63 Colombia, Barranquilla"
"TALLER DE REFRIGERACIÓN MUNDIAL";;;"(57) 7266231";"Cl 16 10-58 Colombia, Maicao"
"QUINTERO ALEGRÍA NELSON";;;"(57) (2) 4373120";"Cr33 A 38-04 Colombia, Cali"
"QUALITY LINE SERVICE";;;"(57) (5) 3012235";"Cr44 69-137 L-1 Colombia, Barranquilla"
"SUPER COLD REFRIAGIL";;;"Nal: (57) (4) 4440573";"Cl 60 53-40 Colombia, Medellín"
"REFRIGERACIÓN ADONAI";;;"(57) (2) 6541584";"Av8 1 N-50 -113 Colombia, Cali"
"TALLER WESTINGHOUSE";;;"(57) (2) 2368916";"Cr14 9-27 Colombia, Buga"
"DISTRIMPRESOS Y EQUIPOS";;;"(57) (7) 6302882";"Cl 22 19-24 L-2 Colombia, Bucaramanga"
FUNITEL;;;"(57) (7) 6200068";"Dg56 17-40 Pueblo Nuevo Colombia, Barrancabermeja"
"SERVICIO DE REFRIGERACIÓN";;;"(57) (8) 2633632";"Cl 23 4-73 Colombia, Ibagué"
"MACONS REFRIGERACIÓN";;;"(57) (7) 6598019";"- Colombia, Bucaramanga"
"ELECTRODÓMÉSTICOS WIRLPOOL ESPIN HOUSE";;;"(57) (8) 2669053";"C.C. Fontaineibleau L-101 Colombia, Ibagué"
HERMA;;;"(57) (6) 3292649";"Cr3 33-64 P-2 Colombia, Pereira"
"FECO & CIA. LTDA.";;;"(57) (1) 5332079";"Cr24 83 A-13 Colombia, Bogotá"
FREEZE;;;"(57) (6) 3361607";"Cr12 31-35 Colombia, Pereira"
"MAXI - AIRES";;;"(57) (8) 8602949";"Cr6 20-25 S Colombia, Neiva"
"THERMOSYSTEMS S.A.S";;;"(57) (4) 3540153";"Cr43 E 5-65 Colombia, Medellín"
"ATLANPACIFIC LTDA.";;;"(57) (4) 3114105";"Cr34 7-73 Int 305 Colombia, Medellín"
"AIR FRESH INGENIEROS LTDA.";;;"(57) (2) 5134402";"Cr 58 # 3-74 Colombia, Cali"
"CABARRIA Y CÍA. S.A.";;;"(57) (2) 4306177";"Cl 56 5 N-65 Bdg 6 Colombia, Cali"
REFRISANGIL;;;"(57) (7) 7240343";"Cl 10 10-28 Of 201 San Gil Colombia, San Gil"
"REFRI ELECTRO";;;"(57) (4) 5614721";"Cr48 47-66 Rionegro Colombia, Medellín"
PROFRIO;;;"(57) (8) 2639108";"Cr7 22-06 Colombia, Ibagué"
"PROYECTOS Y SERVICIOS LTDA.";;;"(57) (7) 6348821";"Cr22 21-26 Colombia, Bucaramanga"
"GARCÍA PERTÚZ ROGER ANTONIO";;;"(57) (1) 2437417";"Cr16 19-23 Colombia, Bogotá"
"ALMACÉN FRÍO DELTA";;;"(57) (2) 8853183";"Cr13 A 21-18 Colombia, Cali"
"CABARRÍA Y CÍA S.A.";;;"(57) (1) 3190100";"Cr14 77-59 Colombia, Bogotá"
MAYEKAWA;;;"(57) (4) 3134343";"Cr43 B 8 -S-10 Int 404 Colombia, Medellín"
"C.I. ROJAS RUBIO S.C.S. - ECOFRÍO";;;"(57) (1) 6230118";"Cr19 A 79-18 Of 210 Colombia, Bogotá"
REFRISUR;;;"(57) (7) 6312075";"Cr33 112-15 Caldas Colombia, Bucaramanga"
"GALLIUM DE COLOMBIA LTDA";;;"(57) (1) 8764577";"K.m 2.5 Autop.Medellin C.I.E.M OIKOS Colombia, Bogotá"
"GRUPO ALFA S.A.S.";;;"(57) (1) 7119498";"Cr69 A 36-46 Sur Bogotá Colombia, Bogotá"
"EL PALACIO DE LOS REMATES";;;"(57) (4) 2311475";"Cr52 58-61 Colombia, Medellín"
"REMATES LA ROCA";;;"(57) (4) 2933372";"Cr55 52-62 Colombia, Medellín"
"AGENCIA DE REMATES EL PADRINO";;;"(57) (4) 2932106";"Cr57 51-72 Colombia, Medellín"
"TECNIFRÍAL LTDA.";;;"(57) (1) 2772813";"Cr28 11-65 Of 435 Colombia, Bogotá"
"First Name";"Email Address";Url;Telephone;Address
"AIRES ACONDICIONADOS JHONAIRES";;;"(57) (7) 6372262";"Cr12 A 103 D-24 Colombia, Bucaramanga"
"AC AIRES";;;"(57) (7) 6834444";"Cr17 C 56-52 Colombia, Bucaramanga"
"REMATES LA ROCA";;;"(57) (4) 2933372";"Cr55 52-62 Colombia, Medellín"
REFRIFAGO;;;"(57) (4) 2272352";"Cr21 33-118 Colombia, Medellín"
"RUIDÍAZ LEONEL";;;"(57) (2) 6807102";"Cl 52 1C2-03 Colombia, Cali"
"VIGOYA WILLIAN";;;"(57) (1) 2816136";"Cl 19 16 A-67 Colombia, Bogotá"
"FRIOTECNICA DEL CARIBE S.A.S";;;"(57) (5) 3706701";"Cr39 43-18 Colombia, Barranquilla"
"FRÍO PART";;;"(57) (4) 7918256";"Cl 41 B 16 B L-11 Urb Alto de la Floresta Colombia, Montería"
"TALLER DE NEVERAS Y LAVADORAS LA 14";;;"(57) 3006531512";"Cl 13 11-57 Colombia, Santa Rosa de Cabal"
"REFRIGERACIÓN PB";;;"(57) (1) 3349576";"Cl 19 16-02 Colombia, Bogotá"
"G & M REFRIGERACIÓN S.A.S.";;;"(57) (2) 6817415";"Cl 24 N 2 D N-40 Colombia, Cali"
"EL ABASTECEDOR";;;"(57) (5) 6692281";"El Toril Cl 30 22-252 Av Pedro de Heredia Colombia, Cartagena"
"CLEAN AIRE";;;"(57) 3015504646";"Tr17 30 C-72 San Pedro Alejandrino Colombia, Santa Marta"
"TERMO EQUIPOS LTDA.";;;"(57) (1) 4103444";"Cl 52 A 85 A-58 Colombia, Bogotá"
"REFRIT ACNICA";;;"Domic.: (57) (1) 6080790";"Av19 16A-34 Colombia, Bogotá"
"TRANSAIRE S.A.S.";;;"(57) (1) 4130303";"Cr127 22 G-15 Bdg 1 Colombia, Bogotá"
SUPERFRÍO;;;"(57) (8) 8721443";"Cr3 10-49 Colombia, Neiva"
CLIMATIZA;;;"(57) (5) 3693150";"Cl 76 66-72 Colombia, Barranquilla"
"ENGICOLD S.A.S.";;;"(57) (1) 2992762";"Av Boyacá 35-43 S Colombia, Bogotá"
"AIRE FRIO REPARACIÓN Y MANTENIMIENTO";;;"(57) (5) 4102800";". Colombia, Santa Marta"
"SERVICIO DE NEVERAS Y LAVADORAS BERNARDO POSADA";;;"(57) (4) 2115481";"Cl 68 48-103 Colombia, Medellín"
REFRIWILLIAM;;;"Telefax: (57) (5) 3340456";"Cl 42 B 8 A-23 Colombia, Barranquilla"
"TECNIFRIOS RODRÍGUEZ";;;"(57) (8) 8670564";"Cl 64 # 1 W-10 Colombia, Neiva"
"ALMACÉN DE REFRIGERACIÓN EL COMPRESOR";;;"(57) (5) 7272735";"Cl15 12B-20 Colombia, Riohacha"
"ALMACÉN CARCO";;;"(57) (5) 5844444";"Cr9 18-13 Colombia, Valledupar"
"TERMIAIRES LTDA.";;;"(57) (5) 3687010";"Cl 84 43 B-48 Colombia, Barranquilla"
"TRS PARTES S.A.";;;"(57) (1) 8050163";"Cr29 B 79-38 Colombia, Bogotá"
HELADFRIO;;;"(57) (1) 3340313";"Cr16 19-26 Colombia, Bogotá"
"ORGANIZACIÓN SERÍN LTDA.";;;"(57) (2) 5242488";"Cl 10 65 A-36 Colombia, Cali"
"AAA SERVIWHIRPOOL DE ANTIOQUIA";;;"(57) (4) 4489033";"Cr96 43-53 Int 401 Colombia, Medellín"
"G.S. REFRIPARTES";;;"(57) (5) 3197234";"Cr38 48-63 Colombia, Barranquilla"
"AIREXPRESS AIRE ACONDICIONADO";;;"(57) 2324093";"Cr33 21-57 Colombia, Tuluá"
"SERVIFRIO DEL VALLE";;;"(57) (2) 6679121";"Cl 21 N 8 N-16 Colombia, Cali"
"TALLER WESTINGHOUSE";;;"(57) (2) 2368916";"Cr14 9-27 Colombia, Buga"
"MARFRIO S.A.S.";;;"(57) (5) 6769519";"Bosque Tr54 27-24 L-1 Sector San Isidro Colombia, Cartagena"
"ANA CELY ARIAS/WILLIAM SÚAREZ";;;"(57) (7) 6360728";"Cl 90 20-60 Diamante II Colombia, Bucaramanga"
"REYMSA COLOMBIA S.A.S";;;"(57) (1) 2850418";"Cr37 75-11 Colombia, Bogotá"
"TALLER INDUFRÍO MARIO JARAMILLO";;;"(57) (1) 8327112";"Manz 21 Casa 17 Kndy Colombia, Girardot"
"ENFRÍO E.U.";;;"(57) (7) 6424136";"Cr24 28-40 Colombia, Bucaramanga"
"REFRIGERACIÓN MANIZALES";;;"(57) (6) 8868790";"Cr20 A 71-10 Colombia, Manizales"
"First Name";"Email Address";Url;Telephone;Address
"MARFRIO S.A.S.";;;"(57) (5) 6769519";"Bosque Tr54 27-24 L-1 Sector San Isidro Colombia, Cartagena"
"CAFETERÍA MECATO RICO Y BARATO";;;"(57) (7) 6347024";"Cl 34 23-33 Antonia Santos Colombia, Bucaramanga"
"AIRES TÉCNICOS LTDA.";;;"(57) (1) 8333826";"Manz 21 Casa 20 Esperanza Colombia, Girardot"
"MACONS REFRIGERACIÓN";;;"(57) (7) 6598019";"- Colombia, Bucaramanga"
"REFRIGERACION GARCIA ROVIRA";;;"(57) (7) 6994735";"Cl 14 C 12 A-69 Villas De San Juan Girón Colombia, Girón"
"COOLNESS REFRIGERACIÓN Y MANTENIMIENTO";;;"(57) (8) 8736275";"Cl 20 A 34 A-24 Colombia, Neiva"
"ACEVEDO FREDY SERVICIO TECNICO";;;"(57) 3208398974";"Cl 50 20-33 Colombia Colombia, Barrancabermeja"
"ALMACÉN FRÍO CARIBE";;;"(57) (5) 4236380";"Cl 10 7-27 Colombia, Santa Marta"
"PRECCO LTDA.";;;"(57) (1) 3121621";"Cr9 72-81 Of 206 Colombia, Bogotá"
REFRICOL;;;"(57) (1) 8313422";"Cr10 22-01 Colombia, Girardot"
CREDILLANO;;;"(57) (7) 6340282";"Cr25 34-66 L-6 Antonia Santos Colombia, Bucaramanga"
"REFRIGERACION JAIRO CALDERON";;;"(57) (7) 6397884";"Cr40 A 148 A-35 Urb Escoflor Floridablanca Colombia, Floridablanca"
"REFRIGERACIÇN VEGA";;;"(57) (2) 8853209";"Cr8 A 20-70 Colombia, Cali"
"CASA CARRIER";;;"(57) (2) 6601008";"Av8 N 21-47 Colombia, Cali"
"ABAFRIO REFRIGERACION";;;"Domic.: (57) (7) 6533157";"Cl 35 29 A-86 Colombia, Bucaramanga"
"REFRILAVADORAS Y T.V.";;;"(57) 6604573";"Vista Hermosa Cr57 30 A-26 Colombia, Cartagena"
"GALLIUM DE COLOMBIA LTDA";;;"(57) (1) 8764577";"K.m 2.5 Autop.Medellin C.I.E.M OIKOS Colombia, Bogotá"
"AIRE ACONDICIONADO INGEREFRIAIRE";;;"(57) (1) 4041775";"Cl 22 99-26 Colombia, Bogotá"
"ALMÁCEN REFRIELECTRIC S.A.";;;"(57) (5) 4217600";"Cr11 10-12 Colombia, Santa Marta"
"REFRIGERACIÓN AL INSTANTE";;;"(57) (2) 8207207";"Cl 17 8-43 Colombia, Popayán"
"MULTISERVICIOS LOS HÉROES";;;"(57) (1) 7906747";"Cr20 B 75 A-17 Colombia, Bogotá"
"ALMACÉN FRÍO COSTA E.U.";;;"(57) (5) 6565841";"Av Pedro de Heredia Sector Lo Amador 19-47 Colombia, Cartagena"
"REFRIHERMANOS JC";;;"(57) (4) 5133299";"Cr53 56-23 Colombia, Medellín"
"HOYOS JAVIER";;;"(57) (4) 2182457";"Cr43 49-44 Int 1602 Colombia, Medellín"
"RUIDÍAZ LEONEL";;;"(57) (2) 6807102";"Cl 52 1C2-03 Colombia, Cali"
"SERVICIOS LOGISTICOS TELLEVAMOS MB S.A.";;;"(57) (1) 7428082";"Cr68 B 96-16 B-1001 Colombia, Bogotá"
"FRINCOL S.A.S.";;;"(57) 3118144690";"Av5 0-109 La Insula Colombia, Cúcuta"
IBEROTEC;;;"Conm.: (57) (4) 4441223";"Cr48 48 S-75 L-105 Envigado Colombia, Envigado"
"ALMACÉN Y TALLER COSTAFRÍO";;;"(57) (5) 2828975";"Cr20 27-66 Centro Colombia, Sincelejo"
PROYECTAIRE;;;"(57) (4) 7913232";"Cl 37 5-12 Colombia, Montería"
"TALLER AMADEUS";;;"(57) (5) 3689481";"Cr46 76-155 Colombia, Barranquilla"
THERMOAIRES;;;"(57) (7) 6544030";"Km 7 Vía Piedecuesta Sector La Española Colombia, Bucaramanga"
"INGECÓN DE LA COSTA S.A.S.";;;"(57) (5) 6900202";"Bosque Tr54 21 C-147 Colombia, Cartagena"
"ACONDICIONADO WHIRLPOOL";;;"(57) (4) 5138076";"Cr49 57-51 L-9954 Colombia, Medellín"
"FRÍOS DEL NORTE";;;"(57) (6) 3383321";"Cr11 44-256 Colombia, Pereira"
"REFRI SISTEMAS DEL CARIBE";;;"(57) (5) 6690359";"Dg22 44-63 L-1 Colombia, Cartagena"
"DISTRIBUIDORA DE AIRE TOTAL LTDA.";;;"(57) (5) 3596958";"Cr 42 H 82-203 L-3 Colombia, Barranquilla"
"FRIGOREX LTDA.";;;"(57) (5) 3535167";"Cr60 74-35 Colombia, Barranquilla"
ALUMINAIRE;;;"(57) (5) 3493269";"Cl 45 52-74 Colombia, Barranquilla"
REFRIMUNDIAL;;;"(57) (1) 2500075";"Cl 77 69 P-58 Colombia, Bogotá"
"First Name";"Email Address";Url;Telephone;Address
MERCAFRIO;;;"(57) (1) 2820936";"Cl 19 16-10 Colombia, Bogotá"
FRIOTÉCNICOS;;;"(57) (8) 5121215";"Av Antioquia 2-44 Colombia, San Andrés"
"FRÍO GLACIAL";;;"(57) (4) 8318054";"Cl La Banca 53-67 Colombia, Segovia"
"REFCON LTDA.";;;"(57) (1) 2261572";"Cr58 C 152 B-66 Colombia, Bogotá"
"FULL HOGAR";;;"(57) (4) 2516688";"Cl 50 52-33 Colombia, Medellín"
"MMR REFRIGERACIÓN";;;"(57) (5) 3748007";"Cl 24B3 4-41 Simón Bolívar Colombia, Barranquilla"
"ALMACÉN GIO FRÍO";;;"(57) (5) 6625949";"Alcibia Cl 31 39-128 Av Pedro de Heredia Colombia, Cartagena"
"TALLER DE REFRIGERACIÓN ALFONSO MONSALVE";;;"(57) (4) 2722551";"Cl 52 44-76 Bello Colombia, Bello"
"TALLERES REFRICASA";;;"(57) (2) 5571251";"Cr26 6 A-23 Colombia, Cali"
"REFRIGERACIÓN ELECTROMÉCANICA OVIDIO";;;"(57) (2) 8890146";"Cr9 21-22 Colombia, Cali"
"AIRE ACONDICIONADO MANTIARIE";;;"(57) (7) 6405133";"Cr18 C 8 AN-20 Brr 13 de Junio Colombia, Bucaramanga"
"J Y S INDUSTRIAS METÁLICAS";;;"(57) (6) 3348986";"Cl 14 9-53 Colombia, Pereira"
"FRIO FRIMAC";;;"(57) (1) 3511123";"Av (cl) 19 22 56 Colombia, Bogotá"
"FABRICA REFRINORTE PITALITO";;;"(57) 3162577203";"Cl 10 9-28 Colombia, Pitalito"
"CESAL E.U.";;;"(57) 4290082";"Cr8 5 A-86 Brr. Unión Colombia, Orito"
"TERMOPAK REFRIGERACIÓN S.A.S.";;;"(57) (1) 3429305";"Av (Cl) 19 16-25 P-2 Colombia, Bogotá"
CONFRIO;;;"(57) (1) 5430150";"Cr17 70-46 Colombia, Bogotá"
"REFRI ELECTRO";;;"(57) (4) 5614721";"Cr48 47-66 Rionegro Colombia, Medellín"
"REFRI EXPRESS";;;"(57) (2) 5512468";"Cl 3 Oe 53-23 Colombia, Cali"
REFLYLAV;;;"(57) (4) 4773106";"Cl 96 A 76-102 Colombia, Medellín"
FRIOELECTRIC;;;"(57) (7) 6316122";"Cl 100 36-39 Trr 2 Ap 204 Girasol Colombia, Bucaramanga"
"ALMACÉN REFRI LAVA";;;"(57) (8) 2634372";"Cr4 17-44 Colombia, Ibagué"
CONSTRUREFRI;;;"(57) (2) 6821132";"Cr16 32 B-11 P-2 Colombia, Cali"
"MULTIFRIO PALMIRA";;;"(57) (2) 2724939";"Cr24 6-87 Colombia, Palmira"
"REFRIGERACIÓN JD";;;"(57) (2) 4202215";"Cr26 121-12 Colombia, Cali"
"LIZCANO CARVAJAL LUIS EDUARDO";;;"(57) (1) 4750643";"Cr16 48-10 Colombia, Bogotá"
"JIREH REFRIGERACIÓN";;;"Nal: (57) (5) 1";"Barranquilla Colombia, Barranquilla"
"ICE CUBE";;;"(57) (5) 3463053";"Cr29 47-03 Colombia, Barranquilla"
"MAXILINE DE FRÍO LTDA.";;;"(57) (1) 2836400";"Cl 19 18-35 Colombia, Bogotá"
"TALLER DE REFRIGERACIÓN GUSTAVO DUARTE";;;"(57) (7) 5825215";"Cl 21 15-36 Alfonso Lopez Colombia, Cúcuta"
"INVER DESCUENTOS LTDA.";;;"(57) (1) 2498403";"Cr24 65-20 Colombia, Bogotá"
"REFRIGERACION Y LAVADORAS";;;"(57) (4) 8871035";"Cr22 18-45 Colombia, Yarumal"
"ABA ABC";;;"Domic.: (57) (1) 6156248";"Chapinero Cr6 57-27 Colombia, Bogotá"
"AIRES ACONDICIONADOS JHONAIRES";;;"(57) (7) 6372262";"Cr12 A 103 D-24 Colombia, Bucaramanga"
"AC AIRES";;;"(57) (7) 6834444";"Cr17 C 56-52 Colombia, Bucaramanga"
"DISTRIBUIDORA REFRIMAYOR S.A.";;;"(57) (1) 3362277";"Cl 19 15-56 Colombia, Bogotá"
VITRIFRIO;;;"(57) (4) 5126058";"Cl 59 51 D-74 Colombia, Medellín"
"EL PALACIO DE LOS REMATES";;;"(57) (4) 2311475";"Cr52 58-61 Colombia, Medellín"
REFRICOLOMBIA;;;"(57) (4) 5124725";"Cl 60 51-45 Colombia, Medellín"
"REFRIHERMANOS JC";;;"(57) (4) 5133299";"Cr53 56-23 Colombia, Medellín"
"First Name";"Email Address";Url;Telephone;Address
TECNICHALLENGER;;;"(57) (2) 8807071";"Cl 18 6-79 Colombia, Cali"
"INGESERVI E.U.";;;"(57) (5) 3791102";"Cl 57 45-60 P-1 L-2 Boston Colombia, Barranquilla"
EXHIBIR;;;"(57) (1) 3119784";"Cr68 H 78-69 Colombia, Bogotá"
