"First Name";"Email Address";Url;Telephone;Address
"TAX-INDIVIDUAL S.A.";tax-individual@une.net.co;www.tax-individual.com.co;"(57) (4) 4444444";"Cl 11   S 50-294 Sector La Aguacatala Colombia, Medellín"
"GENERALES DE COLOMBIA S.A MAPFRE SEGUROS";contactenos@mapfre.com.co;www.mapfre.com.co;"(57) (1) 6503300";"Cr14 96-34 Colombia, Bogotá"
"CEMENTERIO JARDINES DE PAZ LOS OLIVOS";contactenoscartagena@losolivos.co;www.losolivos.co;"(57) (5) 6621324";"Tr54 31 J-27 Colombia, Cartagena"
"FUNERALES LOS OLIVOS";contactenoscartagena@losolivos.co;www.losolivos.co;"(57) (5) 6621324";"Tr54 31 J-27 Colombia, Cartagena"
"POSITIVA COMPAÑÍA DE SEGUROS S.A.";nicolas.contreras@positiva.gov.co;www.positiva.gov.co;"(57) (1) 6502200";"Autop Norte Cr45 94-64 Colombia, Bogotá"
"BATERÍAS FAICO LTDA.";gerencia@bateriasfaico.com.co;www.bateriasfaico.com;"(57) 6445998";"Cl 56 17 A-91 Colombia, Bucaramanga"
"ALUVALCA S.A.S. COMERCIALIZADORA";comercial@aluvalca.com;www.aluvalca.com.co;"(57) (1) 3703543";"Av (Cl) 3 30 A-48 Colombia, Bogotá"
"GIL ROA ABOGADOS S.A.S";nelsonroa@gilroaabogados.com.co;www.gilroaabogados.com;"(57) (2) 6676780";"Av5 A   N 21   N-79 Colombia, Cali"
"COMPAÑÍA DE SEGUROS BOLÍVAR S.A.";segurosbolivarcolombia@gmail.com;www.segurosbolivar.com;"Conm.: (57) (1) 3410077";"Cr10 16-39 P-1 Colombia, Bogotá"
"SEGUROS CENTRALIZADOS, S A";asistente.presidencia@sistemcobro.com;www.seguroscentralizados.com;"(57) (2) 7495000";"Cl 18 N 3 N-24 Colombia, Cali"
"CHARRIA SEGUROS LTDA.";gerencia@charriaseguros.com;www.charriaseguros.com;"(57) (6) 3170500";"Cr7 19-28 Of 501 Edif Trr Bolívar Colombia, Pereira"
"FUNERARIA LA COLINA LAGOS DEL CACIQUE";servicioalcliente@jardineslacolina.com;www.jardineslacolina.com;"(57) (7) 6432020";"Cr27 45-99 Colombia, Bucaramanga"
"JARDINES LA COLINA";servicioalcliente@jardineslacolina.com;www.jardineslacolina.com;"(57) (7) 6432020";"Cr27 45-99 Colombia, Bucaramanga"
"FUNERARIA BETANCUR";info@funerariabetancur.com;www.funerariabetancur.com;"(57) (4) 4447262";"Cr80 39-163 Colombia, Medellín"
"IN LEGEM CONSULTORES SAS";eder.castro@inlegem.com;www.inlegem.co;"(57) (1) 2888431";"Cr7 33-49 Of 304 Colombia, Bogotá"
"LOS OLIVOS";mmartinezbucaramanga@losolivos.co;www.bucaramanga.losolivos.co;"(57) (7) 6570058";"Cr31 52 A-16 Colombia, Bucaramanga"
"AUTOMOTORES LLANO GRANDE S.A.";oswaldo.guerrero@llanogrande.com.co;www.llanogrande.com.co;"(57) (8) 6614333";"Cl 1 39-04 Anillo Vial Colombia, Villavicencio"
"OROZCO & LAVERDE CÍA. LTDA.";oroverde@telmex.net.com;www.orozcoylaverde.com;"(57) (1) 6210200";"Cr49 98-32 La Castellana Colombia, Bogotá"
"INMOBILIARIA OROZCO & LAVERDE";oroverde@telmex.net.com;www.orozcoylaverde.com;"(57) (1) 6210200";"Cr49 98-32 La Castellana Colombia, Bogotá"
"MANEJAR LTDA";servicioalcliente@grupomanejar.com;www.grupomanejar.com;"(57) (7) 6832500";"Cr21 17-05 Glorieta del Parque San Francisco Colombia, Bucaramanga"
"AGENCIA DE SEGUROS BONANZA LTDA.";bonanza@segurosbonanza.com.co;www.segurosbonanza.co;"(57) (2) 6676739";"Av5 A   N 23   N-67 Colombia, Cali"
"ALGAR SEGUROS";alejandro.alba@algar.com.co;www.algar.com.co;"(57) (1) 4129218";"Av(Cl) 13 68 D 42 Colombia, Bogotá"
"DEYSU S.A.S";karen.celi@deysu.com;www.deysu.com;"(57) (1) 3597024";"Av (Cl) 24 95 A-80 Of 517 Colombia, Bogotá"
"FUTURO LTDA AGENCIA DE SEGUROS";administrativo@futuroltda.com;www.segurosfuturoltda.com;"(57) (2) 8921747";"Cr9 4-105 Colombia, Cali"
"CHEVROLET CAMINOS";mercadeo@caminos.com.co;www.caminos.com.co;"(57) (6) 3135000";"Av. 30 de Agosto 94-165 Colombia, Pereira"
"METLIFE COLOMBIA SEGUROS DE VIDA S.A.";servicio.cliente@metlife.com.co;www.metlife.com.co;"(57) (1) 6388240";"Cr7 99-53 P-1 Colombia, Bogotá"
"COOPROSEGUROS AGENCIA DE SEGUROS LTDA.";hernan.londono@provision.com.co;www.provision.com.co;"(57) (4) 4444909";"Cr71 Cq 4-22 Colombia, Medellín"
PROVISIÓN;hernan.londono@provision.com.co;www.provision.com.co;"(57) (4) 4444909";"Cr71 Cq 4-22 Colombia, Medellín"
"IMPORTADORAS ASOCIADAS";iceleste-med@importadoraceleste.com;www.importadoraceleste.com;"(57) (4) 2320660";"Cr50 35-13 Colombia, Medellín"
COLPATRIA;nancy.prieto@axacolpatria.co;www.axacolpatria.co;"Telefax: (57) (1) 3364677";"Cr7 24-89 Mezz Colombia, Bogotá"
"SEGUROS MUNDIAL";;www.segurosmundial.com.co;"(57) (1) 2855600";"Cl 33 6 B-24 Mezz 1-2-3-y 4 Colombia, Bogotá"
"AUTO TAXI EJECUTIVO S.A.";autotaxibogota@yahoo.com;www.autotaxiejecutivo.com;"(57) (1) 4342000";"AvCl 80 89-24 Colombia, Bogotá"
"W.F.E. SEGUROS";wecheverri@une.net.co;www.wfe.com.co;"(57) (4) 4485757";"Av33 74 E-90 Colombia, Medellín"
"HBL SEGUROS";hblseguros202@telecom.com.co;www.hblseguros.com;"(57) (5) 6602149";"Centro Cl 36 7-70 L-202 Colombia, Cartagena"
"HBL SEGUROS LTDA";hblseguros202@telecom.com.co;;"(57) (5) 6602149";"Centro Cl 36 7-70 L-202 Colombia, Cartagena"
"COLSANITAS AMPARO SAS.";agenciacolsanitas@amparosas.com;www.amparosas.com;"(57) (1) 2564611";"Cr22 101-56 Of 202 Colombia, Bogotá"
"CANGURO ACARREO SEGURO";canguroacarreo@gmail.com;www.canguroacarreoseguro.com.co;"(57) (6) 3323113";"Dg25 F 18 T-32 L-6 Media Cuadra del Paqueadero del C.C. Unico Dosq Colombia, Pereira"
"MULTICENTRO DE SERVICIOS S.A.S.";texacoenvigado@une.net.co;www.multicar.com.co;"(57) (4) 4480474";"Cl 33   S 43-33 Envigado Colombia, Medellín"
CINASCAR;mercadeo@centralmotor.com.co;www.yoquierocinescar.com;"(57) (7) 6437275";"Cr27 52-55 Colombia, Bucaramanga"
FORD;mercadeo@centralmotor.com.co;www.yoquierounford.com;"(57) (7) 6571444";"Cr28 110-05 Autopista a Floridablanca Colombia, Bucaramanga"
"First Name";"Email Address";Url;Telephone;Address
HYUNDAI;mercadeo@centralmotor.com.co;www.yoquierounhyundai.com;"(57) (7) 6313001";"Autop a Floridablanca Paralela Oriental 112-111 Colombia, Bucaramanga"
KIA;mercadeo@centralmotor.com.co;www.yoquierounkia.com;"(57) (7) 6476711";"Cl 58 27-07 Colombia, Bucaramanga"
"PROMOTORA DE SEGUROS DE ARRENDAMIENTOS LTDA.";arozo@sura.com.co;www.arriendetranquilo.com.co;"(57) (1) 6381000";"Cl 72 7-50 Colombia, Bogotá"
"SEGUROS DE ARRENDAMIENTO PROSEAR LTDA.";arozo@sura.com.co;www.arriendetranquilo.com.co;"(57) (1) 6381000";"Cl 72 7-50 Colombia, Bogotá"
"DEFENDER LTDA. CONSORCIO JURIDICO";defender@etb.net.co;www.defenderseguros.com;"(57) (1) 3410566";"Cl 25 12-27 Pisos 3 y 4 Colombia, Bogotá"
"TU SOAT COLOMBIA";operaciones@tusoatcolombia.com;www.tusoatcolombia.com;"(57) (1) 5333630";"Tr56 108-21 Colombia, Bogotá"
"PRONTO Y SEGUROS DEL VALLE";servicioalcliente@prontoyseguros.com;www.prontoyseguros.com;"(57) (2) 4851105";"Cr66 A 10-15 Limonar Colombia, Cali"
"ROYAL & SUN ALLIANCE SEGUROS COLOMBIA S.A.";carolina.correa@co.rsagrouo.com;www.rsagroup.com.co;"(57) (4) 4936440";"Cr43 A 1   S-188 Of 1106 Av.el Poblado Colombia, Medellín"
MARLLANTAS;mariomunera@marllantas.com;www.marllantas.com;"(57) (4) 2308811";"Cr63 A 44-125 Colombia, Medellín"
"LA NACIONAL AGENCIA DE SEGUROS CIA. LTDA.";seguros@intercable.net.co;www.lanacionalagenciadeseguros.com;"(57) (7) 6575577";"Cl 50 29-10 Colombia, Bucaramanga"
"SEGUROS ALFA S.A.";juana.sabogal@segurosalfa.com.co;www.segurosalfa.com.co;"(57) (1) 7435333";"Av (Cl) 24 A 59-42 Trr 4 P-4 Colombia, Bogotá"
"ASEGURADORA SOLIDARIA DE COLOMBIA";drios@solidaria.com;www.solidaria.com.co;"(57) (1) 6464330";"Cl 100 9 A-45 P-12 Trr 3 Colombia, Bogotá"
"PREVI-EXEQUIAS LA CAPILLA";previ_la_capilla@hotmail.com;www.previlacapilla.com;"(57) (7) 6708888";"Cl 45 13-47 Colombia, Bucaramanga"
"ARESS CORREDORES DE SEGUROS S.A.";aress@aress.com.co;aress.com.co;"(57) (4) 5111172";"Cl 52 47-42 P-20 Colombia, Medellín"
"COMPAÑIA ASEGURADORA DE FIANZAS S.A. CONFIANZA";atorres@confianza.com.co;www.confianza.com.co;"(57) (1) 6108866";"Cl 82 11-37 P-7 Colombia, Bogotá"
"SEGUROS DEL ESTADO S.A.";guillermo.sierra@segurosdelestado.com;www.segurosdelestado.com;"(57) (1) 3078288";"Cr11 90-20 Colombia, Bogotá"
"SEKURITAS S.A. CORREDORES DE SEGUROS";sekuritas@sekuritas.com.co;www.sekuritas.com.co;"(57) (1) 7466464";"Cr11 86-60 Of 403 Colombia, Bogotá"
SURA;contactenos@suramericana.com.co;www.sura.com;"(57) (4) 2602100";"Cr64 B 49 A-30 Colombia, Medellín"
"DELIMA MARSH S.A.";carmenza.moreno@marsh.com;www.delimamarsh.com;"(57) (1) 4269999";"Av El Dorado 69 B-45 P-10 Colombia, Bogotá"
"CENTRO DE DIAGNÓSTICO AUTOMOTOR LA 79 LTDA.";cdala79@hotmail.com;www.cdala79.co;"(57) (5) 3580713";"Cr46 Cl 79 Esq Colombia, Barranquilla"
"ALMACÉN SERVITAXI";comercial@servitaxi.com.co;www.almacenservitaxi.com;"(57) (4) 5718282";"Cl 58 52-16 Colombia, Medellín"
"BUSSINES HOUSE SAS";saulos90@hotmail.com;www.bhouse.com.co;"(57) (1) 3205623";"Cr19 36-11 Colombia, Bogotá"
"RC & SEGUROS S.A.S.";mcatalinamartinez@gmail.com;;"(57) (4) 3122417";"Cl 5 A 43 B-25 Of 710 Colombia, Medellín"
"MAPFRE COLOMBIA";mercadeo@mapfre.com.co;www.mapfre.com.co;"(57) (4) 3846700";"Cr43 A 31-55 Colombia, Medellín"
"QBE SEGUROS S.A.";;www.qbe.com.co;"(57) (1) 3190730";"Cr7 76-35 Ps. 7 Colombia, Bogotá"
"ADMON. DE PROPIEDAD HORIZONTAL VALCAS S.A.";info@valcas.net;www.grupovalcassa.com;"Telefax: (57) (1) 2329945";"Tr25 Número 53 B-41 Colombia, Bogotá"
"ACE SEGUROS S.A.";;www.aceseguros.com;"(57) (1) 3190300";"Cl 72 10-51 P-7 Colombia, Bogotá"
"DUBERSEG LTDA.";m-pereira@duberseg.com;www.duberseg.com;"(57) (1) 5305370";"Cr19 A 82-40 Of 301 Colombia, Bogotá"
"RAVE SEGUROS Y ARL";cumplimiento@rave.com.co;www.rave.com.co;"(57) (4) 4443800";"Cr43 A 19-17 Of 706 Colombia, Medellín"
"ACCIÓN DETECTIVE LEGAL COLOMBIA";zonasegura07@hotmail.com;www.detectivelegalcolombia.com;"(57) 3187999993";"Cl 53 46-192 P-3 C.C. Portal del Prado Colombia, Barranquilla"
"CDA AUTOFULL LA 80";tecnic.colores@une.net.co;www.tecnicentroloscolores.com;"(57) (4) 3229266";"Cr81 28-42 Colombia, Medellín"
"GOMOSEC LTDA.";gomosec_gerencia@intercable.net.vo;www.gomosec.com;"(57) (7) 6345858";"Cr34 38-46 Colombia, Bucaramanga"
"MAIL CENTER";leon_paola@yahoo.es;www.mailcenter.com.co;"(57) (2) 3799279";"Cl 9 B# 49-50 Colombia, Cali"
"SU SEGURO DEL VALLE";susegurodelvalle@gmail.com;www.suseguro.co;"(57) (2) 6675616";"Av5 BN# 20-65 Colombia, Cali"
"ALBERSEGUROS CIA. LTDA.";alberseguros92@hotmail.com;www.alberseguros.com;"(57) (1) 3763084";"Cr60 79 B-46 U 2-T 10 Of 310 Colombia, Bogotá"
"CLAVE 2000 S.A.";nnaranjo@clave2000.com.co;www.clave2000.com.co;"(57) (2) 4880505";"Cl 64   N 5 B-146 L-23 Colombia, Cali"
"REN INMOBILIARIA - SEGUROS";asesor.ren@hotmail.com;www.reninmobiliaria.com;"(57) (5) 6640930";"Manga Cl 26 21-100 L-2 Edif Puerto Vallarta Av Jiménez Colombia, Cartagena"
"SAFE GROUP S.A.";grupo.safe@hotmail.com;www.gruposafe.com;"(57) (6) 7359204";"Av Bolívar 12 N-31 L-1 Colombia, Armenia"
"CHS ASESORES DE SEGUROS";servicioalcliente@chsasesores.com;www.chsasesoresdeseguros.com;"(57) (2) 6607590";"Av6   N 17   N-92 Of 410 Colombia, Cali"
"SEGUROS MEDICOS INTERNACIONALES LTDA.";daniela.tabares@carvajal.com;www.segurosmedicosinternacionales.com.co;"(57) (1) 7441440";"Cr13 93-40 Of 310 Colombia, Bogotá"
"First Name";"Email Address";Url;Telephone;Address
"AGENCIA DE SEGUROS QUINCE LTDA.";segurquince@une.net.co;;"(57) (4) 4485001";"Cr74 31-69 Colombia, Medellín"
"CARYMA LTDA.";caryma.margarita@telecom.com.co;;"(57) (7) 6020249";"Cr12 49 A-15 Colombia Colombia, Barrancabermeja"
"SANTIAGO VELEZ & ASOCIADOS CORREDORES DE SEGUROS S.A.";geradm@sanvelez.com;www.sanvelez.com;"(57) (1) 6358808";"Cr16 A 78-11 Of 202 Colombia, Bogotá"
"LOGITRAMITES S.A.S.";b.zapata@logitramites.com;;"(57) (4) 4443206";"Cl 85 48-01 B-31 L-206 Colombia, Medellín"
"CENTRO CARROS DEL NORTE";centrocarros@emtel.net.co;;"(57) (2) 8326035";"Cr9 56   N-115 E Villa del Viento Colombia, Popayán"
"AMS IMPOEXPORT S.A.S.";info@amsimpoexport.com;;"(57) (4) 4482104";"Cr32 60   S-62 Sabaneta Colombia, Medellín"
"SEGUROS MEDICOS INTERNACIONALES LTDA.";daniela.tabares@carvajal.com;www.segurosmedicosinternacionales.com.co;"(57) (1) 7441440";"Cr13 93-40 Of 310 Colombia, Bogotá"
"TIENDA PAPELERA PALERMO";tiendapapelerapalermo@gmail.com;;"(57) (6) 8872071";"Cr27 69 A-12 Palermo Colombia, Manizales"
"DETROIT SALVAMENTOS Y SINIESTROS DE VEHÍCULOS";salvamentosdetroit@yahoo.com;;"(57) (4) 3812954";"Cr52 A 40-48 Colombia, Medellín"
"OPCION CIERTA SEGUROS LTDA";opcioncierta@opcioncierta.com;;"(57) (4) 4447113";"Cl 33 78-141 Int 200 Colombia, Medellín"
"FENIX CENTRO DE ENSEÑANZA AUTOMOVILÍSTICA";fenixec1@hotmail.com;www.fenixescueladeconduccion.com;"(57) (4) 4481282";"Cl 81   S 61-88 La Estrella Colombia, Medellín"
"MONICA SAMPEDRO SEGUROS";monica.sanpedro@hotmail.com;;"(57) (4) 4115147";"Circular 74 76 E 49 Of 106 Colombia, Medellín"
"COOPERATIVA MULTIACTIVA DE APORTE Y CREDITO SOLIDARIOS";gerencia@cooperativasolidarios.com;www.cooperativasolidarios.com;"(57) (2) 6853044";"Cl 5 59 A-51 Colombia, Cali"
"CENTRO DE DIAGNÓSTICO AUTOMOTOR BANCAUTOS S.A.";gerencia@bancautos.com;www.bancautos.com;"(57) (4) 4484161";"Cl 30 A 65 B-62 Colombia, Medellín"
"SWETT & CRAWFORD COLOMBIA LTDA.";pedro.carreno@cgmedellin.com.co;;"(57) (4) 4449949";"Cr37 A 15-24 Colombia, Medellín"
"UNISEGUROS LTDA.";cristina@uniseguros.com.co;www.uniseguros.com.co;"(57) (4) 4480711";"Cl 55 46-14 Of 904 Colombia, Medellín"
"RESTREPO HENAO S.A.";rpohenao@une.net.co;www.restrepohenao.co;"(57) (4) 2310855";"Cl 50 51-29 Of 615 Colombia, Medellín"
"ACADEMIA DE CONDUCCIÓN PRACTICAR";institutopracticar@yahoo.es;;"(57) (4) 2317782";"Cl 56 56-67 P-3 Colombia, Medellín"
"CAICEDOS HOLGUINES & CÍA. ABOGADOS S.A.S";jeholguin@caicedosholguinesabogados.com.co;www.caicedosholguinesabogados.com.co;"(57) (2) 6680039";"Av5 A   N 21-95 Colombia, Cali"
"MENSAJERIA SERVI FLSH";rodriguezserviflshmensajeria@hotmail.com;www.mensajeriaserviflash.com;"(57) (7) 6220741";"Cr20 48-15 Br Colombia Colombia, Barrancabermeja"
"SUMA FERRETERÍA S.A.S.";comercial@sumaferreteria.com.;www.sumaferreteria.com.co;"(57) (6) 8801700";"Cl 25 16-46 Colombia, Manizales"
"LA EQUIDAD SEGUROS";;www.laequidadseguros.coop;"(57) (7) 6211169";"Cl 48 16-62 B. Buenos Aires Colombia, Barrancabermeja"
"ANTILLAS ASESORES DE SEGUROS";segurosantillas@gmail.com;;"(57) (6) 8841510";"Cr23 A 74-71 Of 902 Colombia, Manizales"
"SURAMERICANA DE SEGUROS AMERICA GUERRERO";america.guerrero@asesorsura.com;www.americaguerreroseguros.com;"(57) (1) 2742127";"Av (Cl) 127 11 B-60 Colombia, Bogotá"
"GRÚAS FERRE & SERVICIOS";ferreteriayservicios@gmail.com;www.gruasferreyservicios.com;"(57) (6) 7450011";"Cr23 Cl 8 L-19 C.C. Murano Colombia, Armenia"
"C&M CORPORATE CONSULTORES ASOCIADOS LTDA";ecalderon@grupocorporate.com;www.brokercymcorporate.co;"(57) (1) 4110119";"Bogotá Colombia, Bogotá"
CERTIPRUEBA;daniel.palacino@hotmail.com;www.certiprueba.com;"Conm.: (57) (4) 4117232";"Tr39 A 70-40 Colombia, Medellín"
"AUTOS DE RISARALDA S.A.";citas@autosderisaralda.com;www.facebook.com/autosrisaralda;"(57) (6) 3351951";"Cr14 A 20 A-43 Colombia, Pereira"
"AGENCIA DE VIAJES ADESCUBRIR TRAVEL & ADVENTURES.A.S";eventos2@adescubrir.com;www.adescubrir.com;"(57) (6) 8811565";"Cr24 A 56-28 Sector Belén Colombia, Manizales"
"LUIS CARLOS PAZ DELGADO AGENCIA DE SEGUROS";luiscapaz@yahoo.com.mx;www.luiscarlospaz.com;"(57) 3002854853";"Cr3 4-69 P-2 Bocagrande Colombia, Cartagena"
"CENTRO DE DIAGNÓSTICO AUTOMOTOR DE POPAYÁN LTDA.";cdapopayan@hotmail.com;www.centrodediagnosticoautomotordepopayanltda.com;"(57) (2) 3183303333";"Vía al Huila Contiguo a Talleres Municipales Colombia, Popayán"
"C.U. ASESORES";recepcion@cuasesores.net;www.cuasesores.com;"(57) (7) 6701380";"Cr17 36-41 L-1 B-13 P-2 C.C. Omnicentro Colombia, Bucaramanga"
COODESS;coodess@gmail.com;coodess.com.co;"(57) (6) 8834076";"Cl 22 22-26 Of 405 Edif Del Comercio Colombia, Manizales"
"LUIS GABRIEL RIVERA GÓMEZ";luisga727@hotmail.com;;"(57) 3186770575";"Pie de la Popa Calle de la Asamblea Edif Maralago Ap 4-C Colombia, Cartagena"
"LA PREVISORA";diegotorres@previsora.gov.co;www.previsora.gov.co;"(57) (6) 3152399";"Cr7 19-28 Of 202 Colombia, Pereira"
"EURO SUPERMERCADO";crueda@eurosupermercados.com;www.eurosupermercados.com;"(57) (4) 4440366";"Cr47 83 A-40 B-25-L 13 Itagüí Colombia, Medellín"
"DRA. ELVA MARÍA";elvasanta44@hotmail.com;www.elvamariasanchezabogados.com;"Nal: (57) (7) 6707703";"Cl 35 12-31 Of 709 Calle Real Colombia, Bucaramanga"
RENTAVALOR;ccamero@rentavalor.com;www.rentavalor.com;"(57) (4) 4449029";"Cr43 A 8 Sur-15 Of 303 Edif Torre Oviedo Colombia, Medellín"
"LINKS CONSULTORÍA FINANCIERA LTDA.";cliente@links-cf.com;www.links-cf.com;"(57) (4) 4440804";"Cr43 A 1-50 Trr 3 Of 805 Colombia, Medellín"
"MULTICOCHES S.A.";multicoches@une.net.co;www.multicochessa.com;"(57) (4) 4440723";"Cr45 No. 14-157 Brr. Colombia Colombia, Medellín"
"First Name";"Email Address";Url;Telephone;Address
"CARLOS J. MOLINA C. Y CÍA LTDA.";cjmolina@etb.net.co;www.carlosjmolinaseguros.com;"(57) (1) 2810089";"Cl 17 7-60 Of 1020 Colombia, Bogotá"
"VARIAUTOS BYG S.A.S.";variautostaller@une.net.co;;"(57) (4) 5322180";"Cl 38 55 A-151 Int 104 Colombia, Rionegro"
SEGURISTAN;seguristan@hotmail.com;;"(57) (4) 8415728";"Cl 49 49 A-38 Frente Al Transito Colombia, Andes"
"ASEGURAMOS ROBERTO ARANGO JARAMILLO Y CÍA. LTDA.";aseguramosltda@une.net.co;;"(57) (4) 4446391";"Cq 7 66 B-35 Colombia, Medellín"
"GMAC FINANCIERA DE COLOMBIA S.A";contacto.cliente@gmacfs.com;www.gmac.com.co;"(57) (1) 6380900";"Cl 98 22-64 P-9 Colombia, Bogotá"
"GERMÁN DUQUE SEGUROS Y CÍA LTDA.";gerduquecia@une.net.co;;"(57) (6) 8847591";"Cr23 25-61 Of 1406 Colombia, Manizales"
"SALUD & SEGUROS S.A.S";agenciacolmedica@gmail.com;www.saludyseguros.com.co;"(57) (1) 4660255";"Cl 90 14-16 Of 304 Colombia, Bogotá"
"TORO ARIAS T A ASESORES DE SEGUROS CIA. LTDA.";servicioalcliente@toroautos.com;toroautos.com;"(57) (2) 6081111";"Av Vásquez Cobo 25 N-68 Colombia, Cali"
"AGENCIA DE SEGUROS CREDITRÁMITES LTDA.";creditramitesltda@gmail.com;;"(57) (4) 7852469";"Cr9 56-41 La Castellana Colombia, Montería"
"MEDIAR SEGUROS";mediarseguros@une.net.co;;"(57) (4) 4488810";"Cl 13 43 E-35 Colombia, Medellín"
"AGENCIA DE SEGUROS JUAN CARLOS ALZATE MEDINA Y CÍA. LTDA.";juanc.alzate@asesorsura.com;;"(57) (4) 4144350";"Cr77 36-51 Int 403 Colombia, Medellín"
"GÓMEZ & SERRANOS LTDA.";clemencia.serrano@gmail.com;www.gomezyserranos.com;"(57) (7) 6352491";"Cr37 37-38 Colombia, Bucaramanga"
"GILBERTO ROBLEDO Y CÍA. ASESORES EN SEGUROS";robledog@une.net.co;;"(57) (6) 8875100";"Cr23 A 74-71 Edif Andi Colombia, Manizales"
"PARADA CAICEDO Y ALVAREZ BETANCOURT S.A.S";pyaabogadossas@gmail.com;;"(57) (1) 3125251";"Cl 70 7-60 Of 603 Colombia, Bogotá"
"ASESORES DE SEGUROS ODESA LTDA.";odesaltda@une.net.co;;"(57) (4) 2510375";"Cl 55 46-14 Of 807 Colombia, Medellín"
"AVIA CORREDORES DE SEGUROS S.A.";avia.alcliente@aviatur.com.co;www.aviaseguros.com;"(57) (1) 5877120";"Cl 72 6-44 Of 1001 Colombia, Bogotá"
"RODRIGO GÓMEZ R Y CÍA LTDA.";juan.gomez@rodrigogomez.com.co;www.rodrigogomez.com.co;"(57) (6) 3256235";"Cr8 23-09 Of 1304 Colombia, Pereira"
"QUINTERO ASOCIADOS LTDA.";comercial@quinteroasociados.com;www.quinteroasociados.com;"(57) (6) 3296677";"Av30 de Agosto-40 -65 Colombia, Pereira"
"AUTO ESCUELA DEL PACÍFICO";autoescueladelpacifico@yahoo.es;;"(57) (2) 2809479";"Cl 31 39-03 Colombia, Palmira"
"PITRE VELÁSQUEZ & CÍA. AGENCIA DE SEGUROS";pitvelseguros@hotmail.com;;"(57) (5) 4211587";"Cl 23 4-27 L-108 Edif Centro Ejecutivo Colombia, Santa Marta"
"CARLOS ALBERTO MESA Y CÍA.";mdcamesa@une.net.co;;"(57) (4) 2606677";"Cr64 C 48-206 B-6 L-103 Colombia, Medellín"
"MARIO AVALO LÓPEZ ASESORES EN SEGUROS Y CÍA. LTDA.";mcavalo@marioavalolopezycia.com;;"(57) (4) 3216666";"Cl 4   S 43 A-109 Of 401 Colombia, Medellín"
"SEGUROS DEL NORDESTE S.A.S.";seguros@segurosdelnordeste.com;www.segurosdelnordeste.com;"(57) (4) 2321212";"Cr51 41-144 Int 137 Colombia, Medellín"
"GRUPO EMPRESARIAL SERVINTEGRAL";servintegral1@hotmail.com;www.servintegralcolombia.com;"(57) (2) 6678008";"Av3   N 26   N-39 P-2 Colombia, Cali"
"A. ACADEMIA DE CONDUCCION SENA CALI";academiaconducsena@hotmail.com;www.academiadeconduccionsena.com;"(57) (2) 4464695";"Cr2 49-46 Colombia, Cali"
"ALIANZASEGUROS LTDA.";alianzaseguroscucuta@hotmail.com;;"(57) (7) 5836185";"Cl 10 5-50 L-9 Edif Agrobancario Colombia, Cúcuta"
"INMOBILIARIA TORREÓN";gerencia@inmobiliariatorreon.com;www.inmobiliariatorreon.com;"(57) (6) 8840212";"Cr24 22-02 Of 210 Edif Plaza Centro Colombia, Manizales"
"FABIO ENRIQUE BECERRA VALDERRAMA";fabioebecerra@yahoo.com;;"(57) (7) 5714460";"Cl 14 3-65 L-3 La Previsora Colombia, Cúcuta"
"ACCIONES TORREON";torreonasesoresdeseguros@hotmail.com;;"(57) (6) 8840101";"Cr24 22-02 Of 210 Colombia, Manizales"
"MULTICOCHES S.A.";multicoches@une.net.co;www.multicochessa.com;"(57) (4) 4440723";"Cr45 No. 14-157 Brr. Colombia Colombia, Medellín"
"GAMA LTDA.";ventas@oegama.com;www.oegama.com;"(57) (5) 3610500";"Cr52 75-111 P-7 Colombia, Barranquilla"
"ESTUDIO JURÍDICO GRACIA BARÓN";estudio@graciabaron.com;www.graciabaron.com;"(57) (1) 6025606";"Cl 74 15-80 Int 1 Of 514 Colombia, Bogotá"
"AGENCIA DE SEGUROS MARIA NOHEMY SALAZAR";maria.salaza@asesorsura.co;;"(57) (4) 2605122";"Cr67 B 51 A-72 Int 302-B Colombia, Medellín"
"CHARTUNI ASESORES PROFESIONALES EN SEGUROS LTDA.";chartuni.asesores@gmail.com;chartuniasesores.com.co;"(57) (5) 6686372";"Manga Cr17 24-178 Of 205 Av California Colombia, Cartagena"
"LIBERTY SEGUROS S.A.";olga.paz@libertycolombia.com;www.libertycolombia.com.co;"(57) (2) 7233698";"Cr25 19-12 Of 202 Colombia, Pasto"
"COBERTURAS LTDA.";"coberturasltda@une.net.co               coberturasltda@gmail.com";coberturasltda.co;"(57) (4) 4138708";"Cr76 30 A-36 Int 110 Colombia, Medellín"
"DIEGO SOAT";diegosoat@hotmail.com;www.diegosoat.com;"(57) (2) 2240731";"Cr31 24-70 Colombia, Tuluá"
"CONDUAUTO LTDA.";conduauto@une.net.co;;"(57) (4) 2600931";"Cr67 48-18 Colombia, Medellín"
"DURANGOS AGENCIA DE SEGUROS";info@durangos.com.co;;"(57) (4) 8280034";"Cr101 95-18 Of 108 Colombia, Apartadó"
"INNOVA SEGUROS LTDA.";innovaseguros@gmail.com;;"(57) (7) 6433444";"Cl 51 35-28 Colombia, Bucaramanga"
"First Name";"Email Address";Url;Telephone;Address
"AVALAR SEGUROS DE COLOMBIA";avalar.cumplimiento@gmail.com;;"(57) (6) 3341500";"Cl 19 6-48 Of 318 Colombia, Pereira"
"ARGÓN LTDA.";argon@une.net.co;www.argon.com.co;"(57) (4) 3522700";"Cl 11 A 43 D-96 Colombia, Medellín"
SEGURISTAN;seguristan@hotmail.com;;"(57) (4) 8415728";"Cl 49 49 A-38 Frente Al Transito Colombia, Andes"
"QUALITAS ASSISTANCE S.A.S";colombia@qualitasassistance.com;www.qualitasassistance.com;"(57) (1) 3003022";"Cl 30 A 6-22 Of 203 Colombia, Bogotá"
"CREAR SEGUROS BPO";flopez.beltran@gmail.com;;"(57) (4) 3323931";"Cr43 A 27 A-S 86 Int 143 Colombia, Medellín"
"A. ACADEMIA DE CONDUCCION SENA CALI";academiaconducsena@hotmail.com;www.academiadeconduccionsena.com;"(57) (2) 4464695";"Cr2 49-46 Colombia, Cali"
"FABIO ENRIQUE BECERRA VALDERRAMA";fabioebecerra@yahoo.com;;"(57) (7) 5714460";"Cl 14 3-65 L-3 La Previsora Colombia, Cúcuta"
ASOINTEGRAL;asointgral@une.net.co;;"(57) (4) 2933373";"Cl 53 43-43 Of 206 Edif La Ermita 2 Colombia, Medellín"
"AGENCIA DE SEGUROS JUAN CARLOS ALZATE MEDINA Y CÍA. LTDA.";juanc.alzate@asesorsura.com;;"(57) (4) 4144350";"Cr77 36-51 Int 403 Colombia, Medellín"
"MUNDO MOTOS";carlosjem@hotmail.com;;"(57) (7) 5838307";"Av1 7-32 Latino Colombia, Cúcuta"
"EFICACIA S.A.";servicliente@eficacia.com.co;www.eficacia.com.co;"(57) (1) 3255200";"Dg75 Bis No. 20-37 Colombia, Bogotá"
"ASISTENCIA & TRANSPORTES VALDES";aytvaldes@yahoo.es;;"(57) (5) 4331905";"Av. del Rio 23 110 Colombia, Santa Marta"
"MAXILLANTAS LTDA.";anamaxillantas@hotmail.com;;"(57) (8) 8602577";"Cr5 3 Sur-153 Colombia, Neiva"
"VARIAUTOS BYG S.A.S.";variautostaller@une.net.co;;"(57) (4) 5322180";"Cl 38 55 A-151 Int 104 Colombia, Rionegro"
"MAFRE SEGUROS ANGELA MARÍA";contactenos@mapfre.com.co;;"(57) (7) 7240997";"Cr9 10-65 Of 201 Edif Venecia Colombia, San Gil"
"SERVISEGUROS LTDA.";serviseguros@serviseguros.com.co;;"(57) (4) 2517151";"Cl 55 46-14 Of 1006 Colombia, Medellín"
"ARRENDAMIENTOS SINITABE";sinitabe1@hotmail.com;;"(57) (4) 8394559";"Palacio Municipal B-2 Of 7 Caucasia Colombia, Caucasia"
"GERMÁN DUQUE SEGUROS Y CÍA LTDA.";gerduquecia@une.net.co;;"(57) (6) 8847591";"Cr23 25-61 Of 1406 Colombia, Manizales"
"ASEGURAMOS ROBERTO ARANGO JARAMILLO Y CÍA. LTDA.";aseguramosltda@une.net.co;;"(57) (4) 4446391";"Cq 7 66 B-35 Colombia, Medellín"
"QUINTERO ASOCIADOS LTDA.";comercial@quinteroasociados.com;www.quinteroasociados.com;"(57) (6) 3296677";"Av30 de Agosto-40 -65 Colombia, Pereira"
"GAMA LTDA.";ventas@oegama.com;www.oegama.com;"(57) (5) 3610500";"Cr52 75-111 P-7 Colombia, Barranquilla"
"AMPARO L. DE BOTERO Y CÍA. LTDA.";adriana.botero@amparoldeb.com;;"(57) (6) 3339933";"Cr7 Bis 18 B-09 L-8 Colombia, Pereira"
"LIVARDO SERNA CARVAJAL Y CIA. LIMITADA AGENCIA DE SEGUROS";livardoserna@une.net.co;;"(57) (4) 2517380";"Cl 52 47-28 Of 1202 Colombia, Medellín"
"MULTIMARCAS SAN JUAN S.A.S.";multimarcas@hotmail.com;;"(57) (4) 2508502";"Cr79 44-01 Colombia, Medellín"
"SEGUROS DEL ESTADO-PROMOTORA DE SEGUROS CUCUTA";sepulvedaseguros@hotmail.com;;"(57) (7) 5711769";"Av4 10-46 Of 206/205 Colombia, Cúcuta"
"ACCIONES TORREON";torreonasesoresdeseguros@hotmail.com;;"(57) (6) 8840101";"Cr24 22-02 Of 210 Colombia, Manizales"
"TECNASER SEGUROS Y CÍA. LTDA.";tecnaser@hotmail.com;;"(57) (4) 4167687";"Cr70 B 44 B-09 Int 1006 Colombia, Medellín"
"CONASEGUROS LIMITADA";clientes@conaseguros.com;www.conaseguros.com;"(57) (5) 3569400";"Cl 74 50-53 Of 204 Colombia, Barranquilla"
"SEGUROS E INVERSIONES ISAZA Y CÍA.";info@seguroseinversiones.com.co;www.seguroseinversiones.com.co;"(57) (4) 4442506";"Cr35 A 15 B-35 Of 204 Colombia, Medellín"
"GMAC FINANCIERA DE COLOMBIA S.A";contacto.cliente@gmacfs.com;www.gmac.com.co;"(57) (1) 6380900";"Cl 98 22-64 P-9 Colombia, Bogotá"
"AJUSTADORES DE OCCIDENTE S.A.S.";mariac.caicedo@ajustadoresdeoccidente.com;www.ajustadoresdeoccidente.com;"(57) (2) 6672323";"Cl 23   N 4   N-50 Of 401 Colombia, Cali"
"DANIEL MALO & CÍA LTDA.";danielmyciasesores@yahoo.es;www.danielmaloyciasesoresdeseguros.com;"(57) (2) 6676582";"Cl 30   N 2 A-29 L-137 Int-12 Colombia, Cali"
"GÓMEZ & SERRANOS LTDA.";clemencia.serrano@gmail.com;www.gomezyserranos.com;"(57) (7) 6352491";"Cr37 37-38 Colombia, Bucaramanga"
"ASESORES DE SEGUROS ODESA LTDA.";odesaltda@une.net.co;;"(57) (4) 2510375";"Cl 55 46-14 Of 807 Colombia, Medellín"
"SALUD & SEGUROS S.A.S";agenciacolmedica@gmail.com;www.saludyseguros.com.co;"(57) (1) 4660255";"Cl 90 14-16 Of 304 Colombia, Bogotá"
"AUTO ESCUELA DEL PACÍFICO";autoescueladelpacifico@yahoo.es;;"(57) (2) 2809479";"Cl 31 39-03 Colombia, Palmira"
"MARIO AVALO LÓPEZ ASESORES EN SEGUROS Y CÍA. LTDA.";mcavalo@marioavalolopezycia.com;;"(57) (4) 3216666";"Cl 4   S 43 A-109 Of 401 Colombia, Medellín"
"RODRIGO GÓMEZ R Y CÍA LTDA.";juan.gomez@rodrigogomez.com.co;www.rodrigogomez.com.co;"(57) (6) 3256235";"Cr8 23-09 Of 1304 Colombia, Pereira"
"FUNERARIA ANGELES DE PAZ";angelesdepaz2011@hotmail.com;;"(57) (4) 4441912";"Cr51 129   S-16 Caldas Antioquia Colombia, Medellín"
"R Y R ASEGURADORES Y CIA LTDA";ryraseguradores@une.net.co;;"(57) (6) 8813434";"Cl 64 A 21-50 Edif Portal del Cable Of  1404 Colombia, Manizales"
"First Name";"Email Address";Url;Telephone;Address
"ESTUDIO JURÍDICO GRACIA BARÓN";estudio@graciabaron.com;www.graciabaron.com;"(57) (1) 6025606";"Cl 74 15-80 Int 1 Of 514 Colombia, Bogotá"
"CORPORACIÓN EMPRESARIA ANTIOQUEÑA";ceacorporacion@gmail.com;;"(57) (4) 4481033";"Cl 52 47-28 Int 1024 Colombia, Medellín"
"FUNERARIA ANGELES DE PAZ";angelesdepaz2011@hotmail.com;;"(57) (4) 4441912";"Cr51 129   S-16 Caldas Antioquia Colombia, Medellín"
"AVIA CORREDORES DE SEGUROS S.A.";avia.alcliente@aviatur.com.co;www.aviaseguros.com;"(57) (1) 5877120";"Cl 72 6-44 Of 1001 Colombia, Bogotá"
"SEGUROS DEL ESTADO-PROMOTORA DE SEGUROS CUCUTA";sepulvedaseguros@hotmail.com;;"(57) (7) 5711769";"Av4 10-46 Of 206/205 Colombia, Cúcuta"
"FABIO ENRIQUE BECERRA VALDERRAMA";fabioebecerra@yahoo.com;;"(57) (7) 5714460";"Cl 14 3-65 L-3 La Previsora Colombia, Cúcuta"
"LIBERTY SEGUROS S.A.";olga.paz@libertycolombia.com;www.libertycolombia.com.co;"(57) (2) 7233698";"Cr25 19-12 Of 202 Colombia, Pasto"
"MULTISEGUROS LATINOS LTDA.";gerencia@multiseguroslatinos.com;www.multiseguroslatinos.com;"(57) (4) 4448920";"Cl 7   S 42-70 Of 609 Edif Forum Colombia, Medellín"
RENTAVALOR;ccamero@rentavalor.com;www.rentavalor.com;"(57) (4) 4449029";"Cr43 A 8 Sur-15 Of 303 Edif Torre Oviedo Colombia, Medellín"
"GRAN FE Y CÍA. LTDA. ASESORES DE SEGUROS";granfeasesores@gmail.com;;"(57) (4) 7929292";"Av1 28-18 Centro Colombia, Montería"
"LACOUTURE ASESORES DE SEGUROS";merleospina@lasesores.com;;"(57) (5) 3686900";"Cr53 75-138 Of 3-y 10 Colombia, Barranquilla"
"GÓMEZ & SERRANOS LTDA.";clemencia.serrano@gmail.com;www.gomezyserranos.com;"(57) (7) 6352491";"Cr37 37-38 Colombia, Bucaramanga"
"AGENCIA SEGUROS BETA";contactenos@segurosbeta.com;www.segurosbeta.com;"(57) (1) 6439363";"Cr63 98 B-54 Colombia, Bogotá"
"TAX POBLADO LTDA.";taxpoblado@taxpoblado.com.co;www.taxpoblado.com.co;"(57) (4) 3353535";"Cr43 A 45 B   S-51 Envigado Colombia, Medellín"
"ACADEMIA DE CONDUCCION OLIMPICA DE CALI";olimpicadecali@hotmail.com;;"(57) (2) 3711160";"Cl 10 58-19 Colombia, Cali"
"AVIT COLOMBIA";gerencia@avit.com.co;;"(57) (7) 6578006";"Cr35 46-115 Of 201 Colombia, Bucaramanga"
"AVANTE SEGUROS LTDA.";gerencia@avanteseguros.com;;"(57) (1) 2564006";"Cr21 87-22 Colombia, Bogotá"
"RENÉ OVIEDO Y CÍA. LTDA. ASESORES DE SEGUROS";;;"(57) (4) 4361011";"Cr69 44 B-28 Colombia, Medellín"
"ASUR ASESORES DE SEGUROS LTDA.";;;"(57) (1) 6801778";"Cl 135 105-03 Colombia, Bogotá"
"DIASEGUROS LTDA.";;;"(57) (1) 2845580";"Cr8 16-51 Of 804 Colombia, Bogotá"
"NELLY MIRANDA SEGUROS LTDA";;;"Domic.: (57) (1) 6202136";"Cr 11 114-20P-1 Colombia, Bogotá"
"CARLOS JARA Y CÍA. LTDA.";;;"(57) (1) 6368626";"Cr16 A 80-06 Of 306 Colombia, Bogotá"
"CORREDOR HERMANOS Y ASOCIADOS LTDA.";;;"(57) (1) 2492425";"Cl 59 A 8-83 P-2 Colombia, Bogotá"
"SEGUROS - ERNESTO SANCHEZ C & CIA LTDA";;;"(57) (6) 7421254";"Cr26 39-16 L-12 Colombia, Calarcá"
"SOCIEDAD ADMINISTRADORA DE RIESGOS, SAR LTDA.";;;"(57) (1) 6197155";"Cr11 Bis 124 A-50 Trr 5 Ph 1104 Colombia, Bogotá"
"LEONARDO ABAUAT Y CÍA. LTDA.";;;"(57) (8) 8723400";"Cl 15 5-39 Int 7 Carulla Colombia, Neiva"
"RAMÍREZ HERNÁNDEZ DIANA";;;"(57) (2) 2098968";"Cr4 25-28 Colombia, Cartago"
"INVERSIONES COMERCIALES SAN GERMÁN";;;"Telefax: (57) (1) 6222932";"Cr10 94 A-28 Colombia, Bogotá"
"URREA ARBELAEZ RODRIGO";;;"(57) (6) 7463135";"Cl 10 13-20 L-1 Colombia, Armenia"
"HELFA ADMINISTRADORES DE SEGUROS Y CÍA. LTDA.";;;"(57) (6) 7466116";"Cr15 13 N-53 P-2 Colombia, Armenia"
"ASARÚ LTDA.";;;"(57) (1) 6580808";"Cr7 113-43 Of 1108 Colombia, Bogotá"
"AGENCIA DE SEGUROS JARAMILLO RICAURTE Y CIA";;;"(57) 2120414";"Tr3 55-21 Colombia, Bogotá"
"SOLO MOTOS KAWASAKI";;;"(57) (28) 8262174";"Cr7 2-49 Colombia, El Bordo"
"ALONSO BOTERO J. Y CÍA. LTDA.";;;"Conm.: (57) (4) 2518190";"Cl 53 47-59 Of 901 Colombia, Medellín"
CENPROTEC;;;"(57) (4) 4346889";"Cr88 44-42 Int 501 Colombia, Medellín"
"AJARDO URIBE JORGE IVÁN";;;"(57) (4) 3113087";"Cr23 10 B-88 Casa 118 Colombia, Medellín"
"GESTIONE SICURA ADMINISTRADORA DE SEGUROS LTDA.";;;"(57) (1) 4661889";"Cr7 72-64 Int t 4 Colombia, Bogotá"
"ASEGUROS LTDA.";;;"(57) (8) 8711979";"Cl 9 3-50 Of 320 C.C. Megacentro Colombia, Neiva"
"CAICEDO JOSE EDUARDO";;;"(57) (8) 8711980";"Cr7 11-74 L-4 Edif La Plazuela Colombia, Neiva"
"CARVAJAL PALACIOS LTDA.";;;"(57) (1) 2181147";"Cl 90 14-26 Of 408 Colombia, Bogotá"
"First Name";"Email Address";Url;Telephone;Address
"COLINA SEGUROS";;;"(57) (8) 8711451";"Cl 8 6-42 Of 107 Colombia, Neiva"
"HOREB CONSULTORES LTDA. SEGUROS E INVERSIONES";;;"(57) (1) 3000379";"Cl 122 7 A - 31 Ap 101 Colombia, Bogotá"
"MUÑOZ JOSÉ FERNANDO";;;"Conm.: (57) (4) 3121180";"Cr43 A 1-S 100 Int 1602 Colombia, Medellín"
"DÍAZ MAESTRE ALVARO JOSÉ";;;"(57) (5) 3560370";"Cl 75 66-36 Colombia, Barranquilla"
"PROTECCIÓN PÉREZ E HIJOS";;;"Nal: (57) (4) 2509712";"Cr70 C2-27 Colombia, Medellín"
"CERALZA AGENCIA DE SEGUROS CIA. LTDA.";;;"(57) (4) 4484428";"Cl 10 41 - 20 Of 201 Colombia, Medellín"
"PROTECTOR SEGUROS LTDA.";;;"(57) (1) 3179811";"Cl 12 79-50 P-6 Colombia, Bogotá"
ECOSEGUROS;;;"(57) (1) 6949446";"Tr19 A 98-12 Of 701 Colombia, Bogotá"
"ASEGURADORA SOLIDARIA DE COLOMBIA LTDA.";;;"(57) (8) 8753200";"Cr7 16-32 Colombia, Neiva"
SURA;;;"(57) (2) 8319186";"Cl 1 N 3-08 Colombia, Popayán"
"CM&M LTDA";;;"(57) (5) 3687826";"Cr58 75-158 Of 501 Colombia, Barranquilla"
"ALICO COLOMBIA SEGUROS DE VIDA S.A.";;;"(57) (5) 3736644";"Cr49 C 79-150 Colombia, Barranquilla"
"LONDOÑO VELEZ ALVARO";;;"(57) (4) 2663106";"Cr34 8 A-04 Int 204 Colombia, Medellín"
"RAMÍREZ RODRÍGUEZ MARÍA CECILIA";;;"(57) (1) 3360370";"Cr13 13-24 Of 826 Colombia, Bogotá"
"ASESORES EN SEGUROS ORLANDO RAMÍREZ HUELGOS";;;"(57) (8) 6626618";"Cr32 38-52 Of M-1-3 C.C. Galerón Colombia, Villavicencio"
"ALIANZ SEGUROS S.A.";;;"(57) (5) 6646839";"Cl 25 9 A-06 Colombia, Cartagena"
"LA PREVISORA S.A.";;;"(57) (8) 4295147";"Cr8 8-06 Colombia, Mocoa"
"HOLGUÍN L. & CÍA. LTDA. ALFONSO";;;"(57) (2) 8812622";"Cr4 13-57 Of 305 Colombia, Cali"
"MIGUEL GONZÁLEZ & CÍA. LTDA.";;;"(57) (2) 6833581";"Cr24 D 6-190 Oe Of 401 Colombia, Cali"
"CARDONA MONTOYA FRANCISCO";;;"(57) (4) 2750328";"Cl 45 A 46-20 Bello Colombia, Bello"
"VILLEGAS PELÁEZ MARÍA ELENA";;;"Nal: (57) (4) 2760585";"Cl 32 S 44 A-73 Envigado Colombia, Medellín"
"CAPARROSO MOTTA & CÍA. LTDA.";;;"(57) (2) 5541876";"Cr24 C Oe 2-74 P-2 Colombia, Cali"
"PELAEZ CANO GILBERTO";;;"(57) (2) 3748326";"Cl 12 N 4 N-17 Of 409 Edif Palacio Rosa Colombia, Cali"
"ASESORÍAS ALONSO HOYOS";;;"(57) (4) 2723190";"Cr49 51-40 Int 108 Bello Colombia, Bello"
"CONDOR AURORA S.A.";;;"(57) (7) 6435218";"Cr29 45-94 Of 1008 Sotomayor Colombia, Bucaramanga"
"SEGUROS INTEGRALES GAMATRADING LTDA.";;;"(57) (4) 4484262";"Cr43 A 1   S-188 Int 1004 Trr Empresarial Davivienda Colombia, Medellín"
"ARANGO BUENO & CÍA. LTDA.";;;"(57) (2) 2724245";"Cl 33 28-51 Colombia, Palmira"
"ESTILO E IMAGEN";;;"(57) (8) 2740240";"Et 2 Manz 18 Casa 13 El Jordán Colombia, Ibagué"
"SEGUROS DEL VALLE";;;"(57) (2) 6608953";"Av5 A N 23 A-53 Colombia, Cali"
"LLOREDA SEGUROS";;;"(57) (2) 5532918";"Cl 8 B 47-10 Colombia, Cali"
"COMPAÑÍA MUNDIAL DE SEGURO S.A.";;;"(57) (6) 3172009";"Cr13 13-40 Of 301 Colombia, Pereira"
"AFIANZAR LTDA.";;;"(57) (7) 6226981";"Cl 49 11-60 Int 1 Of 201 Colombia, Barrancabermeja"
"ASEGURA ALVARO LONDOÑO G.";;;"(57) (6) 3361974";"Av30 de Agosto-40 -65 P-2 Colombia, Pereira"
"GLOBAL SOLUTIONS";;;"(57) (4) 4485455";"Cr48 A 10 S-32 Colombia, Medellín"
"AGENCIA DE SEGUROS RUBIANO Y COMPAÑIA LTDA";;;"(57) (8) 2741654";"Manz D Casa 4 Los Parrales Colombia, Ibagué"
"COLSEGUROS S.A";;;"(57) (8) 2642404";"Cr5 29-32 L-184 Colombia, Ibagué"
"OPTIMA SEGURIDAD SOCIAL";;;"(57) (4) 3119576";"Cr43 A 14-27 Of 302 Colombia, Medellín"
"MARGARITA MARÍA GIRALDO GIRALDO";;;"(57) (6) 3345605";"Cr 6 17-62 Of. 403 Edif. Fegove Colombia, Pereira"
"MUNDIAL DE FIANZAS";;;"(57) (6) 3244368";"Cl19 6 48 of 403 Colombia, Pereira"
"REPRESENTACIONES ADRIANA HADAD";;;"(57) (2) 6594046";"Av 6 A Bis 53 N-100 Colombia, Cali"
"First Name";"Email Address";Url;Telephone;Address
"LUIS FERNANDO MUÑOZ SEGUROS";;;"(57) (6) 3336109";"Cr7 16-50 Of 706 Edif centro del Comercio Colombia, Pereira"
"ASEGURANDO PROFESIONALES EN SEGUROS";;;"(57) (8) 2660609";"C.C. La Quinta L-112 Colombia, Ibagué"
"CENTRO DE ATENCIÓN DE SEGUROS";;;"(57) (1) 8059000";"Cl 67 9-20 Colombia, Bogotá"
"SU PROTECCION";;;"(57) (6) 8811929";"Cr23 62-99 La Rambla Colombia, Manizales"
"ENLACE ASESORES DE SEGUROS";;;"(57) (6) 3274097";"Cl 19 5-73 Of 308 Colombia, Pereira"
"AS SU CARTA MAESTRA";;;"(57) (7) 6424471";"Cr 19 37 - 23 Centro Colombia, Bucaramanga"
"LÓPEZ & CANO ASESORES";;;"(57) (6) 8860249";"Cl 62 23-61 Of 501 Colombia, Manizales"
"ASEGURAMOS SU SALUD";;;"(57) (2) 3241669";"Cr77 3 D-43 Colombia, Cali"
"PROMOTORA SAMUR OCAMPO Y CÍA. LTDA.";;;"(57) (5) 6605919";"Cr17 24-178 Av California Colombia, Cartagena"
"SEGUROS CAPITAL";;;"(57) (2) 8361029";"Cl 3 N 8-15 Colombia, Popayán"
"LIBERTY SEGUROS S.A.";;;"Nal: 018000117224";"Av Eldorado 93-30 L-8 P-2 Colombia, Bogotá"
"LEÓN & ASOCIADOS S.A.";;;"(57) (5) 3567826";"Cr53 75-108 Of 7 P-2 Colombia, Barranquilla"
"MULTIMEDIA SEGURIDAD LTDA.";;;"(57) (1) 2631680";"Cr82 23 C-06 Colombia, Bogotá"
"AGEVISA LTDA.";;;"(57) (1) 3107160";"Av (Cr) 11 71-41 Of 708 Colombia, Bogotá"
"TORRES GUARÍN Y CÍA. LTDA. ASESORES DE SEGUROS";;;"(57) (8) 6622777";"Cl 41 33-11 Of 302 Edif Don José Colombia, Villavicencio"
"TORRES GUARÍN Y CÍA. LTDA. ASESORES DE SEGUROS";;;"(57) (8) 5128784";"Punta Hansa Edif Hansa Reef L-7 A Colombia, San Andrés"
"ASESORES DE SEGUROS GILBERTO PEÑA Y CÍA.";;;"(57) (1) 6722605";"Cr57 172-10 Colombia, Bogotá"
"LA EQUIDAD SEGUROS";;;"(57) (7) 5730309";"Av 0 12-66 Of 202 Edif Domus Center Colombia, Cúcuta"
"MEDALLO SEGUROS";;;"(57) (4) 5112921";"Cr46 56 -63 Of 101 Colombia, Medellín"
"GÓMEZ MONTES Y CIA. LTDA.";;;"(57) (4) 3522048";"Cr43 A 1 S-188 Of 509 Colombia, Medellín"
"LÓPEZ ALVAREZ SEBASTIÁN";;;"(57) (4) 2689413";"Cl 4 S 48-110 Int 427 Colombia, Medellín"
"ARC COLOMBIA LTDA.";;;"(57) (4) 3611066";"Cr65 8 B -91 Int 368 Colombia, Medellín"
"SEGUROS DEL VALLE DE ABURRÁ";;;"(57) (4) 2604487";"Cl 51 A 71-52 Colombia, Medellín"
"N & G SEGUROS";;;"(57) (4) 2602107";"Cl 48 C 65 A-59 Of 102 Colombia, Medellín"
"SEGURISA COLOMBIA";;;"Conm.: (57) (2) 6679999";"Av Estación 5 A N-50 Colombia, Cali"
"ALLIANZ SEGUROS S.A.";;;"(57) (2) 8861400";"Cr5 10-63 P-9 Colombia, Cali"
"SEGUROS HALCÓN LTDA";;;"(57) (4) 4446350";"Cl 36 63-32 Colombia, Medellín"
PRACTISEGUROS;;;"(57) (4) 4446042";"Cr52 29 A-111 L-111 Colombia, Medellín"
"JAVIER H. ARROYAVE & CIA LTDA";;;"(57) (2) 2244529";"Cr 25 30-37 Colombia, Tuluá"
"RUIZ DAZA SEGUROS E INVERSIONES";;;"(57) (2) 8317918";"Cl 4 10-36 Colombia, Popayán"
"ASESORIAS ANCLA";;;"(57) (4) 2228771";"Cl 56 45-41 Colombia, Medellín"
"AON COLOMBIA S.A. CORREDORES DE SEGUROS";;;"(57) (5) 6642311";"Calle del Arsenal 8 B-195 Of 202 Edif Royal Sun Alliance Colombia, Cartagena"
"ACM ASESORES DE SEGUROS";;;"(57) (1) 6250659";"Tr28 136-28 Colombia, Bogotá"
"JORGE SAA & CÍA.";;;"(57) (2) 8241644";"Cl 1 N 3-08 Of 101 Colombia, Popayán"
"R.E. ASESORES DE SEGUROS";;;"(57) (5) 3605655";"Cr52 75-69 Colombia, Barranquilla"
"ADMINISTRADORA DE SEGUROS A.DE S.";;;"(57) (6) 7440912";"Cr14 18-33 P-2 Colombia, Armenia"
ASEINTEGRALES;;;"(57) (6) 7414354";"Cr15 18-31 Of 202 Colombia, Armenia"
"ZADNEL SEGUROS LTDA.";;;"(57) (8) 6733653";"Cl 33 A 36-15 Barzal Colombia, Villavicencio"
"AFR SEGUROS LTDA.";;;"(57) (1) 3465227";"Cl 73 10-10 Of 518 Colombia, Bogotá"
"LÓPEZ Y CÍA. LTDA. HUGO";;;"(57) (4) 2320436";"Cr46 38-62 Of 403 Colombia, Medellín"
"First Name";"Email Address";Url;Telephone;Address
"FERCOR Y CÍA GENCIAS DE SEGUROS LTDA.";;;"(57) (1) 3216588";"Cr11 75-71 Of 505 Colombia, Bogotá"
"ROYAL SUN ALLIANCE";;;"(57) (8) 6825400";"Cr38 26 C-51 L-5 Brr. 7 de Agosto Colombia, Villavicencio"
"CONFIANZA S.A.";;;"(57) (2) 5572753";"Cl 10 23 A-23 P-2 Colombia, Cali"
"RAMÍREZ HERNÁNDEZ DIANA";;;"(57) (2) 2098968";"Cr4 25-28 Colombia, Cartago"
"INTERAMERICANA DE SEGUROS";;;"(57) (1) 5404655";"Cl 53 A 27 B-26 Colombia, Bogotá"
"R.E. ASESORES DE SEGUROS";;;"(57) (5) 3605655";"Cr52 75-69 Colombia, Barranquilla"
"LIBERTY SEGUROS S.A.";;;"(57) (8) 6728999";"Cl 41 32-17 L-7 Centro Colombia, Villavicencio"
"SEGUROS OMEGA";;;"(57) (8) 6717272";"Cr30 41 A-88 Colombia, Villavicencio"
"RESTREPO MARGARITA";;;"(57) (4) 2687671";"Cl 10 42-45 Of 105 Colombia, Medellín"
"PROMOVEMOS SEGUROS LTDA.";;;"Telefax: (57) (7) 5940951";"Cl 15 A N 1 E-67 Caobos Colombia, Cúcuta"
"RAMIRO RIVERA Y CÍA.";;;"(57) (4) 2621586";"Cl 33 43-16 B-1 Of 208 Colombia, Medellín"
"ANACE RESTREPO CÍA. LTDA.";;;"(57) (4) 4342121";"Cr64 C 48-56 Int 1503 Colombia, Medellín"
"AON COLOMBIA S.A. CORREDORES DE SEGUROS";;;"(57) (2) 6881800";"Av5 N 23 N-69 Colombia, Cali"
"GRUPO D6 LTDA.";;;"(57) (4) 4482181";"Cr30 10 C-228 Int 849 Colombia, Medellín"
"MULTISOLUCIONES Y TECNOLOGÍA E.U.";;;"(57) (4) 4449232";"Cl 6 A 29-126 Colombia, Medellín"
"CABANZO & ASOCIADOS S.A.S.";;;"(57) (2) 5242104";"Av 6 Bis N 26 N-34 Of 301 Colombia, Cali"
"RAMÍREZ V. CÍA. LTDA. MARIO";;;"(57) (4) 2313710";"Cr50 48-53 Of 705 Colombia, Medellín"
"M Y C ASESORES DE SEGUROS LTDA.";;;"(57) (1) 6000104";"Cr50 106-20 Colombia, Bogotá"
"VÉRTICE ASESORES DE SEGUROS LTDA.";;;"(57) (1) 6361699";"Cl 93 A 11-07 Of 305 Colombia, Bogotá"
"ASESORAMB LTDA.";;;"(57) (5) 4236326";"Cl 23 4-27 L-227 Colombia, Santa Marta"
"AGENCIA DE SEGUROS REYES Y ASOCIADOS LTDA.";;;"(57) (1) 6166881";"Cl 90 18-35 Of 305 Colombia, Bogotá"
"POLANÍA VEGA Y CÍA. LTDA.";;;"(57) (8) 8722062";"Cl 10 7-52 Of 112 Colombia, Neiva"
"SEGUROS PROTECCIÓN TOTAL";;;"(57) (7) 6020107";"Cr2 50-07 Colombia, Barrancabermeja"
"DA SEGUROS";;;"(57) (7) 5729557";"Av4 14-03 L-108 Esq Edif La Previsora Colombia, Cúcuta"
"PROFISEG LTDA.";;;"(57) (1) 6911788";"Cr19 B 83-02 Colombia, Bogotá"
"CASA DE SEGUROS LTDA.";;;"(57) (1) 3368688";"Cr13 A 28-38 L-117 Parque Bavaria Colombia, Bogotá"
"SA&SA SEGUROS S.A.S.";;;"(57) (1) 3198270";"Cr7 72-13 P-4 Colombia, Bogotá"
"GRUPO ALIADO RIESGOS & SEGUROS LTDA.";;;"(57) 3136453836";"Av 30 de Agosto 68-125 Casa 42 Colombia, Pereira"
"MUÑOZ JOSÉ FERNANDO";;;"Conm.: (57) (4) 3121180";"Cr43 A 1-S 100 Int 1602 Colombia, Medellín"
"FARFÃN CÃCERES Y CÚA. LTDA. ASESORES DE SEGUROS";;;"(57) (1) 6166050";"Cl 93 B 16 - 08 Of 301 Colombia, Bogotá"
"RUIZ SEGUROS";;;"(57) (4) 4449786";"Cr65 B 32D-28 Colombia, Medellín"
"VML Y CÍA. LTDA.";;;"Conm.: (57) (1) 6293985";"Cl 119 11B-41 Colombia, Bogotá"
"RODRÍGUEZ BAUTISTA MARÍA DEL PILAR";;;"(57) (1) 2142718";"Av(Cl) 127 20-85 Colombia, Bogotá"
"PÉREZ Y CÍA. LTDA. DE MARTHA CLEMENCIA";;;"(57) (1) 5223401";"Cr11 B 98-67 Colombia, Bogotá"
"BEJARANO Y CÍA";;;"(57) (1) 6007886";"Cl 62 9A80 Of 615 Colombia, Bogotá"
"DAMARÍN SEGUROS LTDA.";;;"(57) (6) 7410065";"Cl 23 14-25 Colombia, Armenia"
"LIANZA COLOMBIANA DE SEGUROS Y CÍA. LTDA.";;;"(57) (1) 3175295";"Cr13 73-33 Of 202 Colombia, Bogotá"
"ALFONSO AVILÁN NELSA FARIDI";;;"(57) (1) 4484358";"Cl 2 A 72-36 Colombia, Bogotá"
"GRUPO MANEJAR LTDA.";;;"(57) (5) 5849416";"Cl 17 13-06 Colombia, Valledupar"
"ALICO COLOMBIA SEGUROS DE VIDA S.A.";;;"(57) (5) 3736644";"Cr49 C 79-150 Colombia, Barranquilla"
"First Name";"Email Address";Url;Telephone;Address
"JP CONSULTORES DE SEGUROS Y CÍA. LTDA.";;;"(57) (6) 3453340";"Cr7 19-48 Of 1204 Colombia, Pereira"
"DYNAMIS SEGUROS LTDA.";;;"(57) (4) 4445757";"Tr32 A 74 C-13 Colombia, Medellín"
"POLANÍA VEGA Y CÍA. LTDA.";;;"(57) (8) 8722062";"Cl 10 7-52 Of 112 Colombia, Neiva"
"SANABRIA - GRAVIER S G AGENCIA COLOCADORA DE SEGUROS Y CÍA. LTDA.";;;"(57) (5) 3461175";"Cl 45 27-74 Colombia, Barranquilla"
"ALVAREZ GANDUR ASOCIADOS E HIJOS & CÍA. LTDA.";;;"(57) (76) 5650414";"Cr12 3-86 Centro Colombia, Aguachica"
"RUIZ SEGUROS";;;"(57) (4) 4449786";"Cr65 B 32D-28 Colombia, Medellín"
"RODRÍGUEZ BAUTISTA MARÍA DEL PILAR";;;"(57) (1) 2142718";"Av(Cl) 127 20-85 Colombia, Bogotá"
"PROTECCIÓN OPTIMA S.A.S.";;;"(57) (5) 4308417";"Cl 24 2-27 Colombia, Santa Marta"
"SEGUROS GENERAL";;;"Telefax: (57) (5) 3569626";"Cl 76 43 B-08 L-1 Colombia, Barranquilla"
"BEJARANO Y CÍA";;;"(57) (1) 6007886";"Cl 62 9A80 Of 615 Colombia, Bogotá"
"SIABATO RODRÍGUEZ CONSUELO";;;"(57) (1) 3602313";"Cr27 4 A-64 Colombia, Bogotá"
"COMPAÑÍA SURAMERICANA DE SEGUROS";;;"Conm.: (57) (8) 6626000";"Cr32 38-18 L-1 Centro Colombia, Villavicencio"
"CARMEN ANAÚS AGENCIA DE SEGUROS Y CÚA. LTDA.";;;"Telefax: (57) (5) 3557384";"Cr73 79-18 Colombia, Barranquilla"
"ASOCIACIÓN COLOMBIANA DE ASESORES DE SEGUROS";;;"(57) (1) 3345367";"Cl 17 9-21 Of 804 Colombia, Bogotá"
"TORRES GUARÍN Y CÍA. LTDA. ASESORES DE SEGUROS";;;"(57) (5) 7282803";"Cl 2 9-74 Colombia, Riohacha"
"LIBERTY SEGUROS S.A.";;;"(57) (5) 5745491";"Cr14 13 C-60 Of 108-109-Y 110 Colombia, Valledupar"
"JAIME GIRALDO U. ASESORES EN SEGUROS Y CIA. LTDA.";;;"Conm.: (57) (4) 3314430";"Cl 33 B S 44-53 Envigado Colombia, Envigado"
"MORRIZ LTDA.";;;"(57) (6) 8536417";"Cr5 7-05 P-1 Colombia, Anserma"
"COLSEGUROS CNC CALLE 100";;;"(57) (1) 6369870";"Cl 100 19 A-63 Colombia, Bogotá"
"CONTRERAS DE LEÓN OSCAR ENRIQUE";;;"(57) (5) 4851466";"Cr12 3-40 Colombia, Plato"
"LA PREVISORA S.A.";;;"(57) (8) 4295147";"Cr8 8-06 Colombia, Mocoa"
"BARONA VILLA & CÍA. LTDA.";;;"(57) (2) 6675986";"Cl 23 N 4 N-50 Of 403 Colombia, Cali"
"HADAD S.A.";;;"(57) (2) 6840101";"Cl 8 N 2 N-47 Of 203 Colombia, Cali"
"BARRENECHE GÓMEZ MARTA MARÍA";;;"Conm.: (57) (4) 2606864";"Cl 50 71-80 L-112 Colombia, Medellín"
"HIDALGO GÓMEZ JOSÉ FERNANDO";;;"(57) (4) 3681973";"Cl 26 45-106 P-4 Colombia, Medellín"
"V&V SEGUROS";;;"(57) (2) 2247007";"Cr22 22-23 Colombia, Tuluá"
"SEGUROS DEL VALLE";;;"(57) (2) 6608953";"Av5 A N 23 A-53 Colombia, Cali"
"BURITICA SEGUROS";;;"(57) (8) 8723209";"Cr8 7-24 Colombia, Neiva"
"ALINEACION CENSACOL";;;"(57) (7) 6388965";"Autop Floridablanca 204-43 Colombia, Bucaramanga"
"GRUPO EMPRESARIAL SION";;;"(57) (1) 8421878";"Cr3 1-114 Facatativá Colombia, Bogotá"
"JARDÍN GETSEMANÍ";;;"(57) (7) 6563482";"Cl 4 B 4 A-35 Albania Colombia, Bucaramanga"
"NIGRINIS CONSUEGRA FRANCISCO";;;"(57) (7) 6329604";"Cr27 36-14 Of 408 Colombia, Bucaramanga"
"GLOBAL SOLUTIONS";;;"(57) (4) 4485455";"Cr48 A 10 S-32 Colombia, Medellín"
"COMPAÑIA ASEGURADORA DE FIANZAS S.A.";;;"(57) (4) 5119040";"Cl 53 45-112 Colombia, Medellín"
"ALBERGAR LTDA. - SEGUROS";;;"(57) (7) 6430112";"Cl 45 29-19 Colombia, Bucaramanga"
"RINCON SEGUROS";;;"(57) (7) 7245218";"Cr9 11-76 Centro Colombia, San Gil"
"PUNTO SEGURO LTDA.";;;"(57) (7) 6850202";"Cr31 52 A-13 Colombia, Bucaramanga"
"J.L.O. ASESORES DE SEGUROS";;;"(57) (8) 2614857";"Cr3 8-39 Of T-1 Edif El Escorial Colombia, Ibagué"
"POSADA LAGO ASESORES DE SEGUROS LTDA.";;;"(57) (2) 6083170";"Av 4 N 9 N-12 Colombia, Cali"
"LA EQUIDAD SEGUROS AGENCIA IBAGUE";;;"(57) (8) 2663166";"Cr5 38-29 Colombia, Ibagué"
"First Name";"Email Address";Url;Telephone;Address
"MBI ASESORES EN SEGUROS";;;"(57) (4) 4489333";"Cl 48 B 66-07 Of 201 Colombia, Medellín"
"LIBERTY SEGUROS S.A.";;;"(57) (8) 8713372";"Cr5 10-49 Of 502 Colombia, Neiva"
CENTROMOTOS;;;"(57) 3103899137";"Cr24 20-33 Colombia, Manizales"
"ASESORÍA DE SEGUROS JUAN CARLOS LÓPEZ ECHEVERRY";;;"(57) (6) 3353081";"Cl 17 6-42 L-10 Club Rialto Colombia, Pereira"
"ORCA LTDA. ASESORES DE SEGUROS";;;"(57) (1) 6195058";"Cr14 A 112-96 Of 101 Colombia, Bogotá"
"ASMV SEGUROS MERCADEO Y VENTAS";;;"(57) (2) 2873323";"Cr28 33-27 Colombia, Palmira"
"J.G.CORREA SEGUROS LTDA.";;;"(57) (8) 2655656";"Cr5 31-28 L-201 Colombia, Ibagué"
"F.A.C. ASESORES PROFESIONALES";;;"(57) 3165390260";"Cr5 79 C-39 Trr C Ap 302 Edif. El Portal de Las A Colombia, Ibagué"
"JOSÉ MANUEL VÉLEZ Y CÍA. LTDA.";;;"(57) (6) 8853032";"Cr23 57-27 Colombia, Manizales"
"MULTISEGUROS ASESORES LTDA";;;"(57) (7) 6571494";"Cl 62 30-70 Colombia, Bucaramanga"
"HERNANDO CAICEDO & CÍA.";;;"(57) (8) 2646303";"Cr5 30-79 P-3 Colombia, Ibagué"
"GÓMEZ & PRIETO ABOGADOS";;;"(57) (6) 8844447";"Cl 20 22-27 Colombia, Manizales"
"ALIANZA SEGUROS E INVERSIONES";;;"(57) (2) 2296963";"Cr13 5-85 Colombia, La Unión"
"S & F S.A.S.";;;"(57) (7) 6829673";"Cr22 45-13 Colombia, Bucaramanga"
"ASEGURAMOS CALI";;;"(57) (2) 5570407";"Cl 9 D 30-22 Colombia, Cali"
"EDITH PÁEZ ASESORÍA DE SEGUROS";;;"(57) (75) 5690493";"Cl 11 12-48 L-3 Pasaje Colombia Colombia, Ocaña"
"SEGUROS & SERVICIOS";;;"(57) 3137659855";"Cr2 14-17 Of 4 Colombia, La Dorada"
"CENTRO DE ATENCIÓN DE SEGUROS";;;"(57) (1) 8059000";"Cl 67 9-20 Colombia, Bogotá"
"AYALA Y GUZMÁN CIA LTDA.";;;"(57) (8) 6732238";"Cr33 A 40-50 Of 403 Edif Oficce Center Colombia, Villavicencio"
"RIVEROS FABIO ABOGADO ASESOR DE SEGUROS";;;"(57) (1) 3417320";"Cr8 15-49 Of 908 Colombia, Bogotá"
"AS SU CARTA MAESTRA";;;"(57) (7) 6424471";"Cr 19 37 - 23 Centro Colombia, Bucaramanga"
"FAST LTDA.";;;"(57) (6) 8852427";"Cl 59 23 A-45 B Estrella Colombia, Manizales"
"AIG OTEX NEIVA";;;"(57) (8) 8720333";"Cl 11 6-15 Centro Colombia, Neiva"
"ASESORES TÉCNICOS ASOCIADOS DE SEGUROS LTDA.";;;"Telefax: (57) (1) 3465304";"Cl 73 10-10 Of 201 Colombia, Bogotá"
"CARDIF COLOMBIA SEGUROS GENERALES S.A.";;;"(57) (1) 7444040";"Cl 113 7-80 P-11 Trr Ar Colombia, Bogotá"
"CENTRO ADMINISTRATIVO DE SEGUROS BUGA LTDA.";;;"(57) (2) 2271146";"Cl 6 11-62 Colombia, Buga"
"LUNA LOSADA RAMIRO DE JESÚS";;;"(57) (8) 8369680";"Cr6 6-26 Colombia, Pitalito"
"SEGURO OBLIGATORIO LUZ DORIS SÁNCHEZ";;;"(57) (4) 2309006";"Cr67 A C5-36 Colombia, Medellín"
"IMMEDIATE SERVICES LTDA.";;;"(57) (1) 2738718";"Cl 5 B 73-11 Colombia, Bogotá"
"BUNDESEG CONSULTORES DE SEGUROS LTDA.";;;"(57) (1) 2482083";"Cl 75 13-51 Of 502 Colombia, Bogotá"
"ARPA SEGUROS LTDA.";;;"(57) (1) 2368505";"Av (Cr) 15 85-29 Of 507 Colombia, Bogotá"
"OROZCO G. LTDA. ASESORES EN SEGUROS";;;"Conm.: (57) (4) 4115769";"Cl 33 74 B-243 Colombia, Medellín"
"ALIANZA PLATINO";;;"(57) (4) 2505510";"Cl 39 C 73-83 Colombia, Medellín"
"PROFESIONALES EN SEGUROS";;;"(57) (4) 2518634";"Cl 48 48-14 Int 808 Colombia, Medellín"
"OFICINA DE SEGUROS CLARA RAMÍREZ";;;"(57) (4) 4446690";"Cr72 C 2-20 Colombia, Medellín"
"OSPINA GÓMEZ DORA LUZ";;;"(57) (4) 3138366";"Cl 20 S 39 A-72 Int 519 Colombia, Medellín"
"COLSEGUROS S.A.";;;"(57) (1) 5600601";"Cr13 A 29-24 P 11 Colombia, Bogotá"
"RAMÍREZ MARÍN CECILIA";;;"(57) (2) 8205806";"Cr10 7-83 Colombia, Popayán"
"WILLIS COLOMBIA S.A.";;;"(57) (1) 6067575";"Cl 28 13-22 P-7 Colombia, Bogotá"
"S Y S ASESORES DE SEGUROS";;;"(57) (2) 7316298";"Cl 21 A 31 C-71 Colombia, Pasto"
"First Name";"Email Address";Url;Telephone;Address
SERVIVITAL;;;"(57) (7) 5717272";"Cl 12A 0A-77 La playa Colombia, Cúcuta"
"MAS SEGUROS LTDA.";;;"(57) (2) 8923028";"Av2 Oe 7-45 Ap 101 Colombia, Cali"
"GRUPO D6 LTDA.";;;"(57) (4) 4482181";"Cr30 10 C-228 Int 849 Colombia, Medellín"
"ORUS SEGUROS";;;"(57) (4) 4487575";"Cr51 41-222 Int 504 Colombia, Medellín"
"UNANSE UNION NACIONAL DE ASESORES DE SEGUROS";;;"(57) (4) 2650046";"Cl 49 B 78 A-16 Colombia, Medellín"
"AIG SEGUROS COLOMBIA S.A.";;;"(57) (7) 6799966";"Ecoparque Natura Tr2 Of 539 Floridablanca Colombia, Bucaramanga"
"OLD MUTUAL PLANEACIÓN FINANCIERA S.A";;;"(57) (1) 6584000";"Av19 109 A-30 Colombia, Bogotá"
"CENTRO EGURADOR DE PESADOS CAP LTDA.";;;"(57) (1) 2566549";"Cr50 96-97 Colombia, Bogotá"
"DR CONSULTORES";;;"(57) (1) 5207180";"Av15 119-11 Of 319 Colombia, Bogotá"
"PERDOMO EDUARDO";;;"(57) (1) 6103089";"Cr13 90-20 Of 102 Colombia, Bogotá"
"COOPSEGUROS ASESORES DE SEGUROS S.A.";;;"(57) (1) 2505245";"Av (Cr) 68 67 C-70 P-2 Colombia, Bogotá"
"OA OSORIO & ASOCIADOS";;;"(57) 3750300";"Cl 20 19-02 L-1 Soledad Colombia, Soledad"
"SEGUROS GENERALES Y VIDA";;;"(57) (4) 3341342";"Cl 31 S 47 A-15 Colombia, Medellín"
"RESTREPO Y CÍA LTDA ASESORES EN SEGUROS ANTONIO";;;"(57) (4) 2512985";"Cr49 50-41 Of 202 Colombia, Medellín"
"ADMINISTRADORA DE SEGUROS VIRTUAL LTDA.";;;"(57) (1) 3178231";"Av (Cr) 11 71-40 Of 701 Colombia, Bogotá"
"LIANZA COLOMBIANA DE SEGUROS Y CÍA. LTDA.";;;"(57) (1) 3175295";"Cr13 73-33 Of 202 Colombia, Bogotá"
"ASESORAMOS LTDA.";;;"(57) (4) 8330859";"Cl 52 7-09 Colombia, Puerto Berrío"
"ALICO COLOMBIA SEGUROS DE VIDA S.A.";;;"(57) (5) 3736644";"Cr49 C 79-150 Colombia, Barranquilla"
"LONDOÑO VELEZ ALVARO";;;"(57) (4) 2663106";"Cr34 8 A-04 Int 204 Colombia, Medellín"
"GABBY SEGUROS";;;"(57) (2) 6643387";"Av6 N 46 N-27 Colombia, Cali"
"ASESORES EN SEGUROS ORLANDO RAMÍREZ HUELGOS";;;"(57) (8) 6626618";"Cr32 38-52 Of M-1-3 C.C. Galerón Colombia, Villavicencio"
"GS SEGUROS";;;"(57) (1) 2950695";"Av Boyacá 51-15 Colombia, Bogotá"
"SHOCK PROTECTION LTDA.";;;"(57) (5) 5844065";"Av. Fundaciõn 20-98 Colombia, Valledupar"
"COLOMBIANA DE SEGURIDAD CM & A";;;"(57) (1) 8415563";"Autopista Medellín Vía Siberia Km 3.5 Centro Empr Colombia, Bogotá"
"ESTACIÓN DE SERVICIO CERÓN ZAPATA Y CIA.";;;"(57) (2) 2718751";"Cl 42 31-71 Colombia, Palmira"
NORTESEGUROS;;;"(57) (6) 8868597";"Vía Cerro de Oro 67-70 OF 701 Colombia, Manizales"
"ROJAS HORMAZA RAMIRO";;;"(57) (2) 2298212";"Cr8 6-11 Colombia, Roldanillo"
"CENTRO NACIONAL DE SEGUROS";;;"(57) (7) 7272085";"Cl 15 13-02 Colombia, Socorro"
"GOMEZ JORGE";;;"(57) (7) 6760220";"Centroabastos Bdg-2 P-2 L-2-15 Zona Industrial Girón Colombia, Girón"
"R.G.M SEGUROS";;;"(57) (6) 3454235";"Cr10 21-15 Of 402 Colombia, Pereira"
"SEGUROS LOS ALMENDROS";;;"(57) (2) 2125155";"Cr 5 8-68 Colombia, Cartago"
"AGENCIA DE SEGUROS RUBIANO Y COMPAÑIA LTDA";;;"(57) (8) 2741654";"Manz D Casa 4 Los Parrales Colombia, Ibagué"
"RINCON SEGUROS";;;"(57) (7) 7245218";"Cr9 11-76 Centro Colombia, San Gil"
"COOPROGRESAN C.T.A";;;"(57) (7) 6526184";"Cr17 34-40 Of 307 Colombia, Bucaramanga"
"SEGUROS MEGA SEGUROS D.J.";;;"(57) (7) 6029338";"Cr12 57-68 Colombia, Barrancabermeja"
"SEGUROS JULIO GARCÍA";;;"(57) (2) 7275050";"Cl Sucre con Calle Mosquera Esq. P-2 Colombia, Tumaco"
"JARDINE LLOYD THOMPSON";;;"(57) (4) 3138095";"Cr43 A 16 A S-38 Of 403 Colombia, Medellín"
"SOMOS INTEGRALES R.C. S.A.S.";;;"(57) (2) 6643962";"Cl 46 N 2 A N-20 Colombia, Cali"
"MAPFRE SEGUROS";;;"(57) (2) 2252868";"Cr33 24-47 Colombia, Tuluá"
"PLATA SERRANO ZOILA ROSA";;;"(57) (7) 6326100";"Cr25 37-34 Colombia, Bucaramanga"
"First Name";"Email Address";Url;Telephone;Address
"PLANNERS S.A";;;"(57) (4) 4114576";"Cr80 A 32 EE-72 Int 1001 Colombia, Medellín"
"RAPISEGUROS DEL VALLE";;;"(57) (2) 8834478";"Cr7 11-21 Of 410 Colombia, Cali"
"SONIA M. OSPINA CONSULTORES S.A.S.";;;"(57) (1) 4798934";"Cl 100 7-45 Colombia, Bogotá"
"RIVERA ACEVEDO NORAIMA AGENTE DE SEGUROS";;;"(57) (2) 2432211";"Av Simón Bolívar Cl 6 41 C-23 Colombia, Buenaventura"
"CORREDOR HERMANOS Y ASOCIADOS LTDA.";;;"(57) (1) 2492425";"Cl 59 A 8-83 P-2 Colombia, Bogotá"
TELEBROKER;;;"(57) (1) 2101611";"Cl 72 10-51 P-2 Colombia, Bogotá"
"CDS LTDA.";;;"(57) (1) 5300205";"Cr19 B 84-60 Colombia, Bogotá"
"DELIMA GRUPO EMPRESARIAL";;;"(57) (1) 2842990";"Cr8 14-35 Of 704 Colombia, Bogotá"
"JVC .ASESORES DE SEGUROS LTDA.";;;"(57) (1) 6249190";"Av (Cl) 100 60-04 Colombia, Bogotá"
"JAVIER ESCOBAR URIBE Y CÍA. LTDA.";;;"(57) (4) 4183525";"Cl 7 D 43 A-99 Of 505 Colombia, Medellín"
"AGENCIA ZURE";;;"(57) (6) 7369517";"Cr16 3 N-34 Colombia, Armenia"
"ALVAREZ GANDUR ASOCIADOS E HIJOS & CIA.LTDA.";;;"(57) (75) 5693608";"Cr11 12-56 Colombia, Ocaña"
"MAPFRE CREDISEGUROS S.A";;;"(57) (1) 6021180";"Cr 14 96-34 P-2 Colombia, Bogotá"
"SEGUROS Y FIANZAS";;;"(57) (8) 8712076";"Cr5 8-88 Int 5 Colombia, Neiva"
"COLINA SEGUROS";;;"(57) (8) 8711451";"Cl 8 6-42 Of 107 Colombia, Neiva"
"RINCÓN SIERRA PROMOTORA BOLIVARIANA LTDA.";;;"Conm.: (57) (4) 4124977";"Cl 39 C 73-83 Colombia, Medellín"
"ARTUSEG LTDA.";;;"(57) (1) 6134504";"Cr70 101-35 Of 301 Colombia, Bogotá"
"AGENCIA DE SEGUROS CUBRISACOL LTDA.";;;"(57) (2) 6535473";"Av 4 N 21 N-59 Colombia, Cali"
"HADAD S.A.";;;"(57) (2) 6840101";"Cl 8 N 2 N-47 Of 203 Colombia, Cali"
"ALBERTO GUERRERO REY Y CÍA. LTDA.";;;"(57) (2) 6612737";"Av7 N 23 N-46 Colombia, Cali"
"SOTO MEJÍA MAURICIO";;;"(57) (4) 4112844";"Cq 73 B 39 B-115 Of 305 Colombia, Medellín"
"ASESORÍAS ALONSO HOYOS";;;"(57) (4) 2723190";"Cr49 51-40 Int 108 Bello Colombia, Bello"
"JRD ASESORES LTDA";;;"(57) (1) 5201739";"Av 9 100-07 Of 605 Colombia, Bogotá"
"R.G.M SEGUROS";;;"(57) (6) 3454235";"Cr10 21-15 Of 402 Colombia, Pereira"
"SANCHEZ MARTINEZ JAIRO ALONSO";;;"(57) (7) 6385608";"Cl 15 28-30 Molinos Bajos Floridablanca Colombia, Floridablanca"
"AGENCIA DE SEGUROS QUINTERO GONZÁLEZ";;;"(57) (7) 6359959";"Cl 36 23-17 Of 203 Antonia Santos Colombia, Bucaramanga"
"KIT AGENCIA DE SEGUROS LTDA";;;"(57) (1) 3113166";"Cr65 67 A-59 Of 202 Colombia, Bogotá"
"AGENCIA JAKSON VASQUEZ";;;"(57) (7) 6812816";"Cl 43 26-75 L-1 El Poblado Girón Colombia, Girón"
"MULTIASEGURADORA DE COLOMBIA";;;"(57) (1) 6124984";"Av15 124-91 Of-408 Colombia, Bogotá"
"ASDESEGUROS LTDA.";;;"(57) (6) 8840797";"Cl 24 22-13 Of 405 Centro Colombia, Manizales"
"CENTRO DE DIAGNÓSTICO AUTOMOTOR BUENATMOSFERA";;;"(57) (2) 2361859";"Cl 4 Cr18 Esq Colombia, Buga"
"C & RODRIGUEZ CIA LTDA.";;;"(57) (7) 6214616";"Cr12 49 A-19 Colombia, Barrancabermeja"
"AGENCIA DE SEGUROS - ASEGURISA LTDA";;;"(57) (7) 6428565";"Cl 36 19-18 Of 902 Colombia, Bucaramanga"
"AM ARISTIZABAL MADRIÑAN LTDA.";;;"(57) (2) 3130629";"Cl 11 Oe 3-98 Colombia, Cali"
"BURSÁTIL DE SEGUROS LTDA.";;;"(57) (1) 2120810";"Cl 79 A 8-45 Colombia, Bogotá"
"BERMÚDEZ BUENO MARÍA ESPERANZA";;;"(57) (4) 2532162";"Cl 40 116-169 Colombia, Medellín"
"GARCÍA MEDINA G.M. ASESORES DE SEGUROS & CÍA. LTDA.";;;"(57) (5) 4214749";"Cr3 17-27 Of 207 C.C. Rex Colombia, Santa Marta"
"COOMEVA SOLIDARIDAD Y SEGUROS";;;"(57) (5) 3619800";"Cl 74 52-46 Colombia, Barranquilla"
"ALIANZA PLUS LTDA.";;;"(57) (5) 6601811";"Centro Calle Del Tablón Con Escallón Edif Báladi Of 34-63 Colombia, Cartagena"
"ASESORÍAS EN SEGUROS SANTAMARÍA";;;"(57) (2) 7310898";"Cr32 19-51 Colombia, Pasto"
"First Name";"Email Address";Url;Telephone;Address
"TORRES GUARÍN Y CIA. LTDA. ASESORES DE SEGUROS";;;"(57) (5) 3564495";"Cr53 68 B-57 P-2 Of 207 C.C. Gran Centro Colombia, Barranquilla"
"COMPAÑÍA DE SEGUROS DE VIDA AURORA S.A.";;;"(57) (1) 3192930";"Cr7 74-21 Colombia, Bogotá"
"ASISTENCIA EXEQUIAL S.A.";;;"(57) (1) 6004600";"Cl 93 19 B-84 Colombia, Bogotá"
"OLD MUTUAL PLANEACIÓN FINANCIERA S.A.";;;"(57) (7) 6472426";"Cr31 51-74 Of 606 Colombia, Bucaramanga"
"DELIMA MARSH S.A.";;;"(57) (1) 4269999";"Av Eldorado 69 B-45 P-10 Colombia, Bogotá"
"BELMONTE FRANCISCO";;;"(57) (1) 2633600";"Cr73 55-98 Colombia, Bogotá"
"GENERALI COLOMBIA";;;"(57) (8) 2659347";"C.C La Quinta Local 105 Colombia, Ibagué"
ASEINTEGRALES;;;"(57) (6) 7414354";"Cr15 18-31 Of 202 Colombia, Armenia"
"AMARILES MEJÍA CARLOS ALBERTO";;;"(57) (6) 7444244";"Cr13 22-10 L-15 Colombia, Armenia"
"SEGUROS OMEGA";;;"(57) (8) 6717272";"Cr30 41 A-88 Colombia, Villavicencio"
"ALFONSO ROZO Y CIA.SEGUROS";;;"(57) (1) 3179817";"Cl 72 9-55 Of 203 Colombia, Bogotá"
"ASARÚ LTDA.";;;"(57) (1) 6580808";"Cr7 113-43 Of 1108 Colombia, Bogotá"
"DELIMA GRUPO EMPRESARIAL";;;"(57) (1) 2842990";"Cr8 14-35 Of 704 Colombia, Bogotá"
"HARKER M. & CÍA. LTDA. ALVARO";;;"(57) (1) 2600911";"Av Américas 51-39 Colombia, Bogotá"
"AM AJUSTADORES S.A.S.";;;"(57) (4) 4442034";"Cr65 B 32 D-28 Colombia, Medellín"
"YEPES YEPES CARLOS";;;"(57) (4) 2348215";"Cl 47 DD 82 A-84 Colombia, Medellín"
"DURANGO E CIA. LTDA. AGENCIA DE SEGUROS";;;"(57) (4) 2515957";"Cl 53 47-59 Ofc 502 Colombia, Medellín"
"DOLMEN ASESORES LTDA.";;;"(57) (4) 3111390";"Cl 10 30-30 L-313 Colombia, Medellín"
"AGENCIA ZURE";;;"(57) (6) 7369517";"Cr16 3 N-34 Colombia, Armenia"
"CARLOS ANGEL CONSULTORÍA";;;"(57) (8) 8721717";"Cr4 11-29 L-101 Colombia, Neiva"
"ASESORAMB LTDA.";;;"(57) (5) 4236326";"Cl 23 4-27 L-227 Colombia, Santa Marta"
"POLANÍA VEGA Y CÍA. LTDA.";;;"(57) (8) 8722062";"Cl 10 7-52 Of 112 Colombia, Neiva"
"SEGUROS PROTECCIÓN TOTAL";;;"(57) (7) 6020107";"Cr2 50-07 Colombia, Barrancabermeja"
"CONEXS-COLOCADORES NACIONALES EXCLUSIVOS DE SEGUROS LTDA.";;;"(57) (8) 8712106";"Cl 9 4-19 Colombia, Neiva"
"GUERRERO PINZÓN CÓRDOBA SEGUROS LTDA. - GPC SEGUROS LTDA.";;;"(57) (1) 3616817";"Cl 18 S 20-47 Colombia, Bogotá"
"PROCOL DE COLOMBIA S.A.";;;"(57) (5) 3609737";"Cl 76 54-11 Of 1407 Country Colombia, Barranquilla"
ADIS;;;"(57) (4) 4443380";"Cl 53 47-59 Int 502 Colombia, Medellín"
"COMPAÑÍA CONTINENTAL DE VALLORACIÓN Y RIESGOS LTDA";;;"(57) (4) 4441051";"Cl 53 43-43 Int 206 Colombia, Medellín"
"ADALBERTO NAVARRO & CÍA. LTDA.";;;"(57) (5) 3720316";"Cl 54 45-51 L-104 Colombia, Barranquilla"
"GAVIRIA MORALES ASESORES";;;"(57) (4) 2120085";"Cl 77 49-05 Colombia, Medellín"
"PUENTES VILLAMIL JORGE HUMBERTO";;;"(57) (1) 4156008";"Cr97 16D-44 P-3 Colombia, Bogotá"
HACOL;;;"(57) (2) 8206880";"Cl 3 6-72 Colombia, Popayán"
"CARMEN ANAÚS AGENCIA DE SEGUROS Y CÚA. LTDA.";;;"Telefax: (57) (5) 3557384";"Cr73 79-18 Colombia, Barranquilla"
"JCG SEGUROS";;;"(57) (5) 7286205";"Cl 7 6-32 L-2 Colombia, Riohacha"
"MORRIZ LTDA.";;;"(57) (6) 8536417";"Cr5 7-05 P-1 Colombia, Anserma"
"LA CARINTÍA ASESORES DE SEGUROS LTDA.";;;"(57) (1) 2354016";"Cr9 59-75 P-4 Colombia, Bogotá"
"MPARANDO GENCIA DE SEGUROS LTDA.";;;"(57) (1) 6139522";"Tr60 115-58 Of 208/209 Trr B Colombia, Bogotá"
"GIRALDO BUITRAGO SARA INÈS";;;"(57) (6) 3245021";"Cr6 17-62 Of 403 Edif Fegove Colombia, Pereira"
"SATELITE DE SEGUROS";;;"(57) (1) 3457325";"Cr23 72-08 Colombia, Bogotá"
"LUIS CARLOS BETANCUR Y CIA. LTDA.";;;"(57) (4) 2668762";"Cr79 A 45 D-107 Colombia, Medellín"
"First Name";"Email Address";Url;Telephone;Address
"CRUZ ACOSTA ARLEX";;;"(57) (2) 8891407";"Cr5 12-16 Of 401 Colombia, Cali"
"G.E. SERVICIOSEGUROS";;;"(57) (2) 4215013";"Cl 75 B 20-170 L-370 Zona 8 Colombia, Cali"
"AGENCIA DE SEGUROS CUBRISACOL LTDA.";;;"(57) (2) 6535473";"Av 4 N 21 N-59 Colombia, Cali"
"LONDON SEGUROS";;;"(57) (2) 3319630";"Cr100 11-60 Of 113-H Colombia, Cali"
"JOPI SEGUROS";;;"(57) (2) 6602878";"Av3 N 8-24 Of 235 Colombia, Cali"
"AGENCIA DE SEGUROS OCAMPO ARANGO & CIA LTDA";;;"(57) (2) 2244292";"Cl 26 24-81 Ed. Nancy Of. 202 Colombia, Tuluá"
"ASETRANS SEGUROS Y TRÁNSITO";;;"(57) (2) 2756964";"Cl 30 30-49 Colombia, Palmira"
"MARIO ANGEL SEGUROS";;;"Nal: (57) (4) 2709227";"Cl 37 B S 27 E-53 Ap 218 Envigado Colombia, Medellín"
"AGENCIA DE SEGUROS ORGANIZACIÓN JORGE PIEDRAHÍTA ARANGO Y CÍA LTDA.";;;"(57) (4) 3814646";"Cr43 B 14-51 Int 405 Colombia, Medellín"
"AGENCIA DE SEGUROS RUBIANO Y COMPAÑIA LTDA";;;"(57) (8) 2741654";"Manz D Casa 4 Los Parrales Colombia, Ibagué"
"RINCON SEGUROS";;;"(57) (7) 7245218";"Cr9 11-76 Centro Colombia, San Gil"
"POTE SEGUROS";;;"(57) (8) 8717800";"Cr4 10-55 Colombia, Neiva"
"FIANZACOL S.A.";;;"(57) (1) 5314277";"Cl 95 13-09 Colombia, Bogotá"
"MEDINA OLGA LUCÍA BAHAMÓN DE";;;"(57) (8) 8715316";"Cl 10 6-68 Of 206 Colombia, Neiva"
"CONSULTORES DE SEGUROS";;;"(57) (6) 3338484";"Cr7 18-21 Of 503 Edif Antonio Correa Colombia, Pereira"
SERVIPAGO;;;"(57) 7250493";"Cr 9 13-24 Colombia, Maicao"
"ASETÉCNICOS VILLA DE ROBLEDO LTDA.";;;"(57) (2) 2124109";"Cr4 7-23 Colombia, Cartago"
"TRÁMITES Y SEGUROS";;;"(57) (2) 2365400";"Cl 1 11-88 Colombia, Buga"
"PREVENCOL AGENCIA DE SEGUROS";;;"(57) (7) 6311248";"Av El Tejar 104-25 L-12 E Colombia, Bucaramanga"
"LUIS FERNANDO MUÑOZ SEGUROS";;;"(57) (6) 3336109";"Cr7 16-50 Of 706 Edif centro del Comercio Colombia, Pereira"
"SOAT- LUZ PIEDAD ZULUAGA A.";;;"(57) (6) 8847955";"Cl 20 22-27 Edif Cumanday Of 804 Colombia, Manizales"
"TORRES GUARÍN CÍA. LTDA.";;;"(57) (6) 3340271";"Cr7 19-48 Of 502-B Colombia, Pereira"
VITALSEGUROS;;;"(57) (7) 6578296";"Cl 48 32-14 Of 512 Colombia, Bucaramanga"
"M Y M LOGISTICA LTDA.";;;"(57) (4) 2315484";"Cl 52 49-71 Colombia, Medellín"
"ALIANZA SEGUROS DE OCCIDENTE";;;"(57) (2) 6675257";"Av5 N 17-76 Colombia, Cali"
"UNINCO SEGUROS";;;"(57) (2) 6815528";"Cl 52 A 2 G N-79 Colombia, Cali"
"SEGUROS PREVISORA";;;"(57) (7) 7272961";"Cr15 15-15/19 Colombia, Socorro"
"GARCÉS GIRALDO";;;"(57) (2) 8808441";"Cl 11 1-07 Of 301 Colombia, Cali"
"FERREIRA ASOCIADOS";;;"(57) (6) 8830926";"Cl 22 22-26 Of 504 Colombia, Manizales"
"OFICINA DE SEGUROS SANDRA MILENA PEÑARANDA";;;"(57) (8) 7610009";"Cl 16 16-66 Of 303 Colombia, Duitama"
"SEGUROS & SERVICIOS";;;"(57) 3137659855";"Cr2 14-17 Of 4 Colombia, La Dorada"
"TRACTO SEGUROS M.A. LTDA.";;;"(57) (8) 7631828";"Av Américas 23 80 Colombia, Duitama"
"DAFE ASESORES DE SEGUROS LTDA.";;;"(57) 3204116111";"Cl 165 54 C-45 Colombia, Bogotá"
"ABADÍA JURÍDICA LITIGANTES Y CONSULTORES ASOCIADOSLTDA.";;;"(57) (1) 3367810";"Cl 19 13-16 Of 402 Colombia, Bogotá"
"SERVICIO INTEGRAL DE SERVICIO OBLIGATORIO SIS LTDA";;;"(57) (2) 8209390";"Cl 4 8-16 L-201 Colombia, Popayán"
"AIG OTEX NEIVA";;;"(57) (8) 8720333";"Cl 11 6-15 Centro Colombia, Neiva"
MILENIUM;;;"(57) (5) 3685109";"Cl 74 53-23 Of 303 Colombia, Barranquilla"
"PIZANO ECHEVERRI Y ASOCIADOS LTDA.";;;"(57) (1) 2553042";"Cr13 55-23 Of 302 Colombia, Bogotá"
"GUTIÉRREZ & ASOCIADOS LTDA";;;"(57) (7) 5836757";"Av5 11-63 L-331/335 Centro Internacional Lecs Colombia, Cúcuta"
"INTERNALSEG LTDA";;;"(57) (1) 3684777";"Cl 48 27-21 Colombia, Bogotá"
"First Name";"Email Address";Url;Telephone;Address
"SEGUROS JAIME ORTIZ LOSADA J & C";;;"(57) (8) 8361437";"Cr1 A 3-58 Colombia, Pitalito"
"AL CLAU LTDA.";;;"(57) (4) 3310189";"Cl 36 A S 46 A-81 L-205 Envigado Colombia, Envigado"
"MOLINA B. ANGELA MARÍA";;;"(57) (4) 2626070";"Cr53 35-42 Colombia, Medellín"
"LÓPEZ ALVAREZ SEBASTIÁN";;;"(57) (4) 2689413";"Cl 4 S 48-110 Int 427 Colombia, Medellín"
"VALOR SEGUROS LDA";;;"(57) (4) 3213330";"cl7s 42-70 int1007 Colombia, Medellín"
"EVELIO MESA Y CIA";;;"Domic.: (57) (4) 2664300";"Cl 7 49 - 115 Oficina 901 Colombia, Medellín"
"NOREÑA AMANDA";;;"(57) (4) 3132688";"Cl 20 S 39 A-72 Int 615 Colombia, Medellín"
"ALFREDO GARCÍA / A.G. SEGUROS";;;"(57) (2) 6806383";"Cr66 10-79 Colombia, Cali"
"LONJA DE PROPIEDAD RAÍZ DE CALI Y VALLE DEL CAUCA";;;"(57) (2) 6657597";"Cl 64   N 5 B   N-146 L-102-G Colombia, Cali"
"AGENCIA DE SEGUROS ASESORAMOS 1203";;;"(57) (5) 6685287";"Manga Cl 29 28-42 L-1 Av 4 Colombia, Cartagena"
"DELIMA MARSH S.A.";;;"(57) (1) 4269999";"Av Eldorado 69 B-45 P-10 Colombia, Bogotá"
"SOLUCIONES & LTDA.";;;"(57) (1) 2815947";"Av (Cl) 13 4-70 Of 206 Colombia, Bogotá"
"ASUR ASESORES DE SEGUROS LTDA.";;;"(57) (1) 6801778";"Cl 135 105-03 Colombia, Bogotá"
"PROCARSEGUROS LTDA.";;;"(57) (5) 6551962";"Bgde Cr4 7-30 Colombia, Cartagena"
"CARLOS JARA Y CÍA. LTDA.";;;"(57) (1) 6368626";"Cr16 A 80-06 Of 306 Colombia, Bogotá"
"CYMA SEGUROS LTDA.";;;"(57) (1) 3674958";"Cl 30 A S 1-66 E Ap 202 Colombia, Bogotá"
"HIKANOS LTDA.";;;"(57) (1) 3177245";"Cl 72 12-75 P-10 Colombia, Bogotá"
"BEDOYA CARDONA ELKIN DE JESÚS";;;"(57) (4) 2727267";"Cl 28 57-117 Bello Colombia, Bello"
"CREDISOAT SEGUROS";;;"(57) (2) 2251816";"Cl 29 26-41 Colombia, Tuluá"
"RAMÍREZ CLAUDIA";;;"(57) (4) 2699033";"Cr 30 40 A- 66 Ap 301 Colombia, Medellín"
"SU CARGA LTDA.";;;"(57) (1) 4764210";"Cl 93 A 11-07 Of 305 Colombia, Bogotá"
"CUBRIENDO LTDA.";;;"(57) (1) 6575888";"Av(Cr) 45 118-30 Of 701 Colombia, Bogotá"
"PROBROKER LTDA.";;;"Conm.: (57) (1) 6369499";"Cr16 96-64 Of 609 Colombia, Bogotá"
"DA SEGUROS";;;"(57) (7) 5729557";"Av4 14-03 L-108 Esq Edif La Previsora Colombia, Cúcuta"
"SEGUROS MAXIMUM ASESORIAS EN SEGUROS LTDA.";;;"Telefax: (57) (5) 3116995";"Cr62 76-170 Of 15 Colombia, Barranquilla"
"ASOCIACIÓN COLOMBIANA DE ASESORES DE SEGUROS";;;"(57) (1) 3345367";"Cl 17 9-21 Of 804 Colombia, Bogotá"
"SATELITE DE SEGUROS";;;"(57) (1) 3457325";"Cr23 72-08 Colombia, Bogotá"
"CONSORCIO EN SEGUROS";;;"(57) (4) 4180794";"Cl 8 B 65-191 Int 205 Colombia, Medellín"
"NUTIBARA DE TRANSPORTES S.A.";;;"(57) (4) 3781656";"Cl 79 Sur 47 D-85 Sabaneta Colombia, Sabaneta"
"VIGIA ASESORES LTDA";;;"Nal: (57) (4) 4445344";"Cr47 20 S-25 Colombia, Medellín"
"FERNÁNDEZ Y LONDOÑO & CÍA.";;;"Conm.: (57) (4) 3124833";"Cl 11 A 43 E-46 Of 202 Colombia, Medellín"
"HERNÁN CASTILLO Y CIA LTDA";;;"(57) (4) 3695680";"Cr48 A 10 S-51 Colombia, Medellín"
"LLOREDA SEGUROS";;;"(57) (2) 5532918";"Cl 8 B 47-10 Colombia, Cali"
"MARIO ANGEL SEGUROS";;;"Nal: (57) (4) 2709227";"Cl 37 B S 27 E-53 Ap 218 Envigado Colombia, Medellín"
"R.G.M SEGUROS";;;"(57) (6) 3454235";"Cr10 21-15 Of 402 Colombia, Pereira"
"AGENCIA DE SEGUROS ORGANIZACIÓN JORGE PIEDRAHÍTA ARANGO Y CÍA LTDA.";;;"(57) (4) 3814646";"Cr43 B 14-51 Int 405 Colombia, Medellín"
"UNIMOS S.A. CORREDORES DE SEGUROS";;;"(57) (7) 6320504";"Cr36 42-55 Colombia, Bucaramanga"
"PROTECCION TOTAL EN SEGUROS";;;"(57) (7) 6450323";"Cl 14 35-43 Of 404 Colombia, Bucaramanga"
"AGENCIA DE SEGUROS RAMIREZ FORERO Y CIA. LTDA";;;"(57) (7) 6573974";"Cl 58 30-85 Colombia, Bucaramanga"
"AGENCIA DE SEGUROS QUINTERO GONZÁLEZ";;;"(57) (7) 6359959";"Cl 36 23-17 Of 203 Antonia Santos Colombia, Bucaramanga"
"First Name";"Email Address";Url;Telephone;Address
"FORTIUS S.A";;;"(57) (1) 3210600";"Cr7 73-55 P-9 Colombia, Bogotá"
"AGOR LTDA";;;"(57) (1) 2499041";"Cr 13 61-65 Of 103 Colombia, Bogotá"
"SEGUROS - ERNESTO SANCHEZ C & CIA LTDA";;;"(57) (6) 7421254";"Cr26 39-16 L-12 Colombia, Calarcá"
"GENERALI COLOMBIA";;;"(57) (8) 2659347";"C.C La Quinta Local 105 Colombia, Ibagué"
"SEGUROS GENERALI COLOMBIA";;;"(57) (7) 6325880";"Cl 43 34-75 Colombia, Bucaramanga"
"AMR INSPECCIÓN DE RIESGOS Y AJUSTE";;;"(57) (1) 6135545";"Cr 71 D 97 A-14 Ap 302 Colombia, Bogotá"
"R.E. ASESORES DE SEGUROS";;;"(57) (5) 3605655";"Cr52 75-69 Colombia, Barranquilla"
"RAYO CANDELO GERMÁN";;;"(57) (2) 2373868";"Cr17 9-21 Colombia, Buga"
"MANOA ESTÉTICA PELUQUERÍA";;;"(57) (1) 2578857";"Cr19 80-46 Colombia, Bogotá"
"ARISTIZÁBAL LUIS";;;"(57) (6) 7445839";"Cr12 20-30 Of 102 Colombia, Armenia"
"PROMOVEMOS SEGUROS LTDA.";;;"Telefax: (57) (7) 5940951";"Cl 15 A N 1 E-67 Caobos Colombia, Cúcuta"
ASEGURACTIVOS;;;"(57) (8) 6713333";"Cr32 41-50 Centro Colombia, Villavicencio"
"SOLO MOTOS KAWASAKI";;;"(57) (28) 8262174";"Cr7 2-49 Colombia, El Bordo"
SUASESORÍA;;;"(57) (4) 4449100";"Cl 18 35-69 Of 9945 Colombia, Medellín"
"RAMÍREZ V. CÍA. LTDA. MARIO";;;"(57) (4) 2313710";"Cr50 48-53 Of 705 Colombia, Medellín"
"SEGUROS LA EQUIDAD";;;"(57) (5) 5707332";"Cl 16 10-30 Colombia, Valledupar"
"SEGUROS Y MERCADEO LTDA.";;;"(57) (1) 6154655";"Cr19 145 A-49 Of 202 Colombia, Bogotá"
"PROSEGUROS LTDA.";;;"(57) 3133302930";"Cr19 30 N-65 Manz F Casa 3 Colombia, Armenia"
"J.D. ADVISORS LTDA.";;;"(57) (5) 3688070";"Cr54 74-106 Of 1 Colombia, Barranquilla"
"COLSEGUROS S.A";;;"(57) (4) 7822110";"Cl 24 2-61 L-3 Colombia, Montería"
"AGENCIA ZURE";;;"(57) (6) 7369517";"Cr16 3 N-34 Colombia, Armenia"
"FINANCIAL INVESTMENT GROUP HSESORES DE SEGUROS LTDA";;;"(57) (1) 6371821";"Cl 118 16-61 Of 503 Colombia, Bogotá"
"CARVAJAL PALACIOS LTDA.";;;"(57) (1) 2181147";"Cl 90 14-26 Of 408 Colombia, Bogotá"
"PROBROKER LTDA.";;;"Conm.: (57) (1) 6369499";"Cr16 96-64 Of 609 Colombia, Bogotá"
"CONEXS-COLOCADORES NACIONALES EXCLUSIVOS DE SEGUROS LTDA.";;;"(57) (8) 8712106";"Cl 9 4-19 Colombia, Neiva"
"JIMÉNEZ PEÑA SANDRA ISABEL";;;"(57) (6) 7497610";"Av Bolívar 12 N-39 Colombia, Armenia"
"H & E ASESORES DE SEGUROS LTDA.";;;"(57) (1) 7020453";"Cr14 A 101 - 11 Of 202 Colombia, Bogotá"
"CARDINAL COMPAÞÚA DE SEGUROS S.A.";;;"(57) (1) 7039052";"Cl 98 21 - 50 Colombia, Bogotá"
"MUÑOZ JOSÉ FERNANDO";;;"Conm.: (57) (4) 3121180";"Cr43 A 1-S 100 Int 1602 Colombia, Medellín"
"JARDINES DEL EDEN SEGUROS DE COLOMBIA";;;"(57) (7) 6200091";"Cr28 49-07 Esquina Colombia, Barrancabermeja"
"MULTISERVICIOS CONSULJAIME S.A.S";;;"(57) (1) 3819615";"Tr26 57-26 Of 3 Colombia, Bogotá"
"HÉCTOR RUIZ RICO SEGUROS";;;"(57) (1) 2492646";"Cl 53 21-69 Ap 401 Colombia, Bogotá"
"DAMARÍN SEGUROS LTDA.";;;"(57) (6) 7410065";"Cl 23 14-25 Colombia, Armenia"
SURA;;;"(57) (2) 8319186";"Cl 1 N 3-08 Colombia, Popayán"
"MUNDO SEGUROS";;;"(57) (8) 5122611";"Sagrada Familia 3-80 Colombia, San Andrés"
"AGENCIA DE SEGUROS TALLER METALVAR";;;"(57) (5) 5706262";"Cl 22 12 A-11 Colombia, Valledupar"
"ESQUIVIA BARRERA MAURICIO ANTONIO";;;"(57) (1) 2518828";"Cl 80 89 A-40 L-206 Colombia, Bogotá"
"GESS SEGUROS LTDA.";;;"(57) (1) 3232736";"Cl 41 21 A-16 P-2 Colombia, Bogotá"
"GENCIA DE SEGUROS DARPO LTDA.";;;"(57) (1) 2571268";"Cl 92 15-62 L-103 Colombia, Bogotá"
"C&G ASESORES EN SEGUROS";;;"(57) (8) 8718807";"Cl 24 5 Bis-37 Sevilla Colombia, Neiva"
"First Name";"Email Address";Url;Telephone;Address
"BERNAL RESTREPO Y CÍA";;;"(57) (4) 4121200";"Cl 40 74-38 Colombia, Medellín"
"SEGUROS INTEGRADOS PARA LA FAMILIA E.U.";;;"(57) (4) 4460841";"Cl 77 C.C.-82 A-18 Colombia, Medellín"
ASINTRA;;;"(57) (4) 2886542";"Cl 49 S 46-43 Colombia, Medellín"
"WILLIAM BUSTILLO Y CÍA. LTDA.";;;"(57) (5) 6649743";"Matuna Cl 32 8-33 L-201 A C.C. La Matuna Colombia, Cartagena"
"GENERALI COLOMBIA";;;"(57) (8) 2659347";"C.C La Quinta Local 105 Colombia, Ibagué"
"AMR INSPECCIÓN DE RIESGOS Y AJUSTE";;;"(57) (1) 6135545";"Cr 71 D 97 A-14 Ap 302 Colombia, Bogotá"
"FERNANDO TORO Y CÍA.";;;"(57) (4) 4222220";"Cl 50 81 B-102 Colombia, Medellín"
"AJARDO URIBE JORGE IVÁN";;;"(57) (4) 3113087";"Cr23 10 B-88 Casa 118 Colombia, Medellín"
"AGENCIA REPRESENTANTE DESEGUROS LTDA";;;"(57) (8) 7435758";"Cl 28 9-14 P-2 Colombia, Tunja"
"HIKANOS LTDA. ADMINISTRADORES DE SEGUROS";;;"(57) (1) 3177245";"Cl 74 15-80 Int 1 Of 206 Colombia, Bogotá"
"COMPAÑÍA SURAMERICANA DE SEGUROS";;;"Conm.: (57) (8) 6626000";"Cr32 38-18 L-1 Centro Colombia, Villavicencio"
"COLSEGUROS CNC CALLE 100";;;"(57) (1) 6369870";"Cl 100 19 A-63 Colombia, Bogotá"
COLPROSEGUROS;;;"(57) (1) 6034877";"Cr70 D 116-24 Colombia, Bogotá"
ASCYJOL;;;"(57) (2) 4467792";"C.C. La 14 de Calima L-197 Colombia, Cali"
"FINE-SEGUROS LTDA.";;;"(57) (2) 6606630";"Cl 26 N 2 B N-140 Colombia, Cali"
"AFIANZAR LTDA.";;;"(57) (7) 6226981";"Cl 49 11-60 Int 1 Of 201 Colombia, Barrancabermeja"
"ARANGOS Y ASOCIADOS PROFESIONALES EN SEGUROS";;;"(57) (6) 8810801";"Cl 53A 23-29 Colombia, Manizales"
"PROMOTEC S.A. CORREDORES DE SEGUROS";;;"(57) (5) 6666672";"Crespo Cl 70 1 D 124 L 4 Colombia, Cartagena"
"COROTÚ LTDA.";;;"(57) (8) 2652424";"Cr4 D 32-18 Cádiz Colombia, Ibagué"
"ASESORAMOS SEGUROS FERNANDO LIZARRALDE";;;"(57) (2) 6812412";"Av8 N 22-55 Colombia, Cali"
"ARBELÀEZ ARBELÁEZ BERNARDO";;;"(57) (6) 8804696";"Cr21 30-03 Of 601 Colombia, Manizales"
"ASESORES TÉCNICOS ASOCIADOS DE SEGUROS LTDA.";;;"Telefax: (57) (1) 3465304";"Cl 73 10-10 Of 201 Colombia, Bogotá"
"JARGU S.A. CORREDORES DE SEGUROS";;;"(57) (1) 6171411";"Cr19 B 83-02 Of 602 Sector 603 Colombia, Bogotá"
"AGENTE DE SEGUROS B&B";;;"(57) (8) 7430586";"Cr11 17-23 Colombia, Tunja"
"MOLINA B. ANGELA MARÍA";;;"(57) (4) 2626070";"Cr53 35-42 Colombia, Medellín"
"SERISEGUROS LTDA.";;;"Conm.: (57) (4) 4228400";"Cr74 48-37 Int 1021 Colombia, Medellín"
"PLANNERS S.A";;;"(57) (4) 4114576";"Cr80 A 32 EE-72 Int 1001 Colombia, Medellín"
"CONFIANZA S.A.";;;"(57) (2) 5572753";"Cl 10 23 A-23 P-2 Colombia, Cali"
"AMPARAMOS LTDA.";;;"(57) (8) 6722903";"Cl 39 33-40 Centro Colombia, Villavicencio"
"AON COLOMBIA S.A. CORREDORES DE SEGUROS";;;"(57) (1) 6381700";"Cr11 No 86-53 P-1 , 4 , 8 , 9 , 10-y 14 Colombia, Bogotá"
"GRUPO ALIADO RIESGOS & SEGUROS LTDA.";;;"(57) 3136453836";"Av 30 de Agosto 68-125 Casa 42 Colombia, Pereira"
"PRIETO ASOCIADOS ASESORES DE SEGUROS LTDA.";;;"(57) (1) 3133001";"Cr14 75 - 77 Of 506 Colombia, Bogotá"
"PUENTES VILLAMIL JORGE HUMBERTO";;;"(57) (1) 4156008";"Cr97 16D-44 P-3 Colombia, Bogotá"
"BBVA SEGUROS COLOMBIA";;;"(57) (1) 6000010";"Cr11 87-51 L-5 Colombia, Bogotá"
"AGENCIA DE SEGUROS ARANGO PAREJA Y CÍA LTDA";;;"(57) (4) 2519452";"Cr46 52-140 Of 1104 Colombia, Medellín"
"ALBERTO GUERRERO REY Y CÍA. LTDA.";;;"(57) (2) 6612737";"Av7 N 23 N-46 Colombia, Cali"
"NUTIBARA DE TRANSPORTES S.A.";;;"(57) (4) 3781656";"Cl 79 Sur 47 D-85 Sabaneta Colombia, Sabaneta"
"LUCILA BOTERO Y CÍA. ASESORES DE SEGUROS LTDA.";;;"(57) (4) 2518031";"Cr49 52-61 Of 407 Colombia, Medellín"
"CARLOS A. PARDO Y CÍA. LTDA.";;;"(57) (4) 2327175";"Cl 23 43 A-81 Of 138 Colombia, Medellín"
PRYMAX;;;"(57) (6) 7466974";"Cr15 13 N-55 L-1 Colombia, Armenia"
"First Name";"Email Address";Url;Telephone;Address
"L Y M INGENIEROS CONSULTORES LTDA.";;;"(57) (1) 2456524";"Dg45 D 20-74 Colombia, Bogotá"
"ATUESTA SEGUROS";;;"(57) (1) 2575773";"Tr34 96-46 P-1 Colombia, Bogotá"
"COMPAÑÍA SURAMERICANA DE SEGUROS";;;"Conm.: (57) (8) 6626000";"Cr32 38-18 L-1 Centro Colombia, Villavicencio"
"BBVA SEGUROS COLOMBIA";;;"(57) (1) 6000010";"Cr11 87-51 L-5 Colombia, Bogotá"
"ALBERT GAITÁN LOSADA ASESORES DE SEGUROS";;;"(57) (2) 6608625";"Av3 N 35 N 55 Colombia, Cali"
"CATAÑO & COMPAÑÍA AGENCIA DE SEGUROS";;;"(57) (2) 5240931";"Cl 17 A N 8 N-53 Colombia, Cali"
"CONDOR AURORA S.A.";;;"(57) (7) 6435218";"Cr29 45-94 Of 1008 Sotomayor Colombia, Bucaramanga"
"V&V SEGUROS";;;"(57) (2) 2247007";"Cr22 22-23 Colombia, Tuluá"
"AGENCIA DE SEGUROS LUIS CARLOS MORENO";;;"(57) (7) 6576802";"Cr29 55-08 Colombia, Bucaramanga"
"A&S ASESORES PROFESIONALES DE SEGUROS";;;"(57) (7) 6421040";"Cl 35 12-31 Of 104 Colombia, Bucaramanga"
"SEGUROS RIESGOS Y FINANCIACIONES MIGUEL NIÑO";;;"(57) (7) 6316751";"49 N° 73-4 Manz B Casa 19 Urb Tesoro del Cac Colombia, Bucaramanga"
COASIC;;;"(57) (7) 6328774";"Cr38 41-52 Cabecera Colombia, Bucaramanga"
"OPTIMA SEGURIDAD SOCIAL";;;"(57) (4) 3119576";"Cr43 A 14-27 Of 302 Colombia, Medellín"
"INTERSEGUROS DE COLOMBIA S.A.S";;;"(57) (4) 5116804";"Cr49 49-73 Int 1603 Colombia, Medellín"
"SEGUROS MEGA SEGUROS D.J.";;;"(57) (7) 6029338";"Cr12 57-68 Colombia, Barrancabermeja"
"J B SEGUROS";;;"(57) (2) 5242497";"Cr83 A 42-30 Colombia, Cali"
"J Y J SEGUROS";;;"(57) (2) 4478831";"Cr1 Bis 61 A-24 Ap 102-A Colombia, Cali"
"IH ADMINISTRACIONES Y SEGUROS LTDA.";;;"(57) 3218123459";"Cl 44 A 4 E-09 Colombia, Cali"
INTERPROS;;;"(57) (2) 2812412";"Cr30 28-36 Colombia, Palmira"
ASEDE;;;"(57) (4) 2322111";"Cr52 42-73 P-2 Of 208 Colombia, Medellín"
ALIANSEGUROS;;;"(57) (4) 4362416";"Cl 48 C 66-07 INT 202 Colombia, Medellín"
"INTEGRA DE ANTIOQUIA LTDA.";;;"Conm.: (57) (4) 4113311";"Cl 32 EE 76-162 Colombia, Medellín"
"PUERTA SOTO JUAN CARLOS";;;"(57) (4) 2655608";"Cl 36 63 B-89 Int 705 Colombia, Medellín"
"RSA COMPAÑIA DE SEGUROS S.A. - CIS PASTO";;;"(57) (2) 7227996";"Cl 19 27-54 Of 209 Las Palmas Colombia, Pasto"
"EL MUNDO DE LOS SEGUROS TG";;;"(57) (1) 6143614";"Cl 57 13-30 Colombia, Bogotá"
"LÓPEZ OSORIO SERGIO";;;"(57) (6) 7445975";"Cl 20 14-44 Of 304 Colombia, Armenia"
"YEPES YEPES CARLOS";;;"(57) (4) 2348215";"Cl 47 DD 82 A-84 Colombia, Medellín"
"CONEXS-COLOCADORES NACIONALES EXCLUSIVOS DE SEGUROS LTDA.";;;"(57) (8) 8712106";"Cl 9 4-19 Colombia, Neiva"
"RUTA CARIBE E.U.";;;"(57) (5) 3690305";"Cr52 72-114 Of D-46 Colombia, Barranquilla"
"RODRÍGUEZ ZAMBRANO R.Z. ASESORES DE SEGUROS";;;"(57) (5) 3607221";"Cr50 76-41 Colombia, Barranquilla"
"ROJAS MERCADO SHIRLEY MILENA";;;"(57) (5) 4212557";"Cl 16 1 C-91 Of 206 Colombia, Santa Marta"
"VALLEJO Y CÍA. LTDA. CONSULTORES DE SEGUROS";;;"(57) (2) 6609315";"Av5 A N 21 N-57 Of 301 Colombia, Cali"
"MEGA SEGUROS COMPAÑIA LTDA.";;;"(57) (2) 6541324";"Av5 A N 45 N-23 Colombia, Cali"
"JRD ASESORES LTDA";;;"(57) (1) 5201739";"Av 9 100-07 Of 605 Colombia, Bogotá"
"CAMARGO SERGIO NICOLAS";;;"(57) (7) 6420139";"Cl 45 7-41 Alfonso López Colombia, Bucaramanga"
"COMPAÑÍA SUIZA DE REASEGUROS";;;"(57) (1) 6069300";"Cr7 71-21 Trr B Of 1501 Colombia, Bogotá"
"EXEQUIALES ELEGIR";;;"(57) (7) 6454070";"Cl38 33-52 Colombia, Bucaramanga"
"SEGUROS HJSG";;;"(57) (7) 5777675";"Cl 6 0 A-12 L 2 Lleras Colombia, Cúcuta"
"MARGARITA MARÍA GIRALDO GIRALDO";;;"(57) (6) 3345605";"Cr 6 17-62 Of. 403 Edif. Fegove Colombia, Pereira"
"HARKER CIA.";;;"(57) (1) 2363729";"Cr11 86-60 Of. 204 Colombia, Bogotá"
"First Name";"Email Address";Url;Telephone;Address
"MULTISERVICIOS A.R";;;"(57) (8) 7427144";"Tr15 24-05 Sta Lucía Colombia, Tunja"
CREDISEGURO;;;"Telefax: (57) (2) 3182060";"Cr80 6-71 Colombia, Cali"
"INNOVADORA DE SEGUROS S.A.";;;"(57) (1) 4165891";"Cr69 25 B-44 Of. 804 Colombia, Bogotá"
"POLANÍA VEGA Y CÍA. LTDA.";;;"(57) (8) 8722062";"Cl 10 7-52 Of 112 Colombia, Neiva"
"SEGUROS JAMYR & CÍA. LTDA.";;;"(57) (8) 8710863";"Cr5 6-44 Trr A-L 211-216 Colombia, Neiva"
"COBROKER CLUB LTDA.";;;"Telefax: (57) (1) 6160002";"Cl 92 15-48 Of 401 Colombia, Bogotá"
"ASOCIACIÓN A.S.S.C. SERVICIOS Y SOLUCIONES DE COLOMBIA";;;"(57) (6) 7440955";"Cr14 18-56 L-22 C.C. IBG Colombia, Armenia"
"H & E ASESORES DE SEGUROS LTDA.";;;"(57) (1) 7020453";"Cr14 A 101 - 11 Of 202 Colombia, Bogotá"
"CASTRO RUBIANO Y CÚA. LTDA. AGENCIA COLOCADORA DE SEGUROS";;;"(57) (1) 6126169";"Cl 118 22 - 71 Ap 303 Colombia, Bogotá"
OFISEGUROS;;;"(57) (5) 5744276";"Cr9 14-29 Of 103 Colombia, Valledupar"
"RUTA CARIBE E.U.";;;"(57) (5) 3690305";"Cr52 72-114 Of D-46 Colombia, Barranquilla"
"VML Y CÍA. LTDA.";;;"Conm.: (57) (1) 6293985";"Cl 119 11B-41 Colombia, Bogotá"
"GLOBAL ASOCIADOS F&L CONSULTORES EN SEGUROS";;;"(57) (1) 6108377";"Tr18 77-37 L-71 Colombia, Bogotá"
"SEGUROS ESTRATÉGICOS";;;"(57) (1) 6219797";"Cl 94 A 13-42 Of 207 Colombia, Bogotá"
"BEJARANO Y CÍA";;;"(57) (1) 6007886";"Cl 62 9A80 Of 615 Colombia, Bogotá"
SURA;;;"(57) (2) 8319186";"Cl 1 N 3-08 Colombia, Popayán"
"JIMÉNEZ SÁNCHEZ ELIZABETH";;;"(57) (1) 7535127";"Cr77 A 64 C-25 L-102 Colombia, Bogotá"
"ALFONSO AVILÁN NELSA FARIDI";;;"(57) (1) 4484358";"Cl 2 A 72-36 Colombia, Bogotá"
"PREMIUM COLOMBIA LTDA";;;"(57) (1) 2561323";"Cr16 A 79-05 Of 405 Colombia, Bogotá"
"WILCHES & CIA. LTDA. ASESORES DE SEGUROS";;;"(57) (8) 5126575";"Av Colón 1 A-15 L-1 Colombia, San Andrés"
"ADMASEGUROS LTDA.";;;"(57) (1) 2628212";"Cl 20 S 60-35 Int 1 Ap 102 Colombia, Bogotá"
"JAIME GIRALDO U. ASESORES EN SEGUROS Y CIA. LTDA.";;;"Conm.: (57) (4) 3314430";"Cl 33 B S 44-53 Envigado Colombia, Envigado"
"BUENDÍA VELASCO SOLEDAD DE LAS MERCEDES";;;"(57) (1) 6110872";"Cl 90 11-44 Of 502 Colombia, Bogotá"
"PABÓN RODRÍGUEZ ALVARO ENRIQUE";;;"(57) (1) 7562092";"Cl 122 22-61 Colombia, Bogotá"
"GENCIA DE SEGUROS DARPO LTDA.";;;"(57) (1) 2571268";"Cl 92 15-62 L-103 Colombia, Bogotá"
"COLSEGUROS S.A.";;;"(57) (2) 2433565";"Cl 1 2-13 P-1 Colombia, Buenaventura"
"BARONA VILLA & CÍA. LTDA.";;;"(57) (2) 6675986";"Cl 23 N 4 N-50 Of 403 Colombia, Cali"
"FCG ASESOR SEGUROS";;;"(57) (1) 4820330";"Cr79 A 11 B-40 Ap E-406 Colombia, Bogotá"
"ARL SURA";;;"(57) (8) 6725134";"Cl 33 A 37-35 Colombia, Villavicencio"
"O Y P ASESORES EN SEGUROS";;;"Conm.: (57) (1) 6696791";"Cr67 167-61 Colombia, Bogotá"
"PORTAFOLIO ASEGURADOR";;;"(57) (2) 8930047";"Cr1 B Oe 6-38 Colombia, Cali"
"ASESORES DE SEGUROS PALMASECA LTDA";;;"(57) (2) 5512903";"Cl 6 44-37 Of 208 Colombia, Cali"
"ASESORES EN SEGUROS MARÍA ZULEIMA LOTERO";;;"(57) (4) 2514794";"Cl 52 47-28 Of 925 Colombia, Medellín"
"AGUIRRE LEONEL";;;"(57) (2) 4011706";"Cl 107 A 28 A-81 Colombia, Cali"
PRYMAX;;;"(57) (6) 7466974";"Cr15 13 N-55 L-1 Colombia, Armenia"
"AFIANZAR LTDA.";;;"(57) (7) 6226981";"Cl 49 11-60 Int 1 Of 201 Colombia, Barrancabermeja"
"SEGUROS DUKCAR";;;"(57) (1) 8328427";"Cl 19 10-44 Colombia, Girardot"
"AGENCIA JAKSON VASQUEZ";;;"(57) (7) 6812816";"Cl 43 26-75 L-1 El Poblado Girón Colombia, Girón"
"REPRESENTACIONES ADRIANA HADAD";;;"(57) (2) 6594046";"Av 6 A Bis 53 N-100 Colombia, Cali"
"JAIME SUÁREZ & CIA LTDA.";;;"(57) (8) 7434310";"C.C. Plaza Real L.152 Colombia, Tunja"
"First Name";"Email Address";Url;Telephone;Address
"HERNÁNDEZ LUZ MARINA";;;"(57) (2) 3800675";"Cr4 6 N-63 Colombia, Cali"
"PORRAS MUÑOZ SANDRA VIVIANA";;;"(57) 3125886486";"1 Colombia, Bucaramanga"
"SEGUROS ON LINE";;;"(57) (7) 7245472";"Cr9 10-65 Of 202 Centro Colombia, San Gil"
"NIGRINIS CONSUEGRA FRANCISCO";;;"(57) (7) 6329604";"Cr27 36-14 Of 408 Colombia, Bucaramanga"
"GLOBAL SOLUTIONS";;;"(57) (4) 4485455";"Cr48 A 10 S-32 Colombia, Medellín"
"UNIMOS S.A. CORREDORES DE SEGUROS";;;"(57) (7) 6320504";"Cr36 42-55 Colombia, Bucaramanga"
"SEGUROS JAIME GARAVITO";;;"(57) (72) 7485614";"Cl 7 8-57 Colombia, Barbosa"
"EQUIAJUSTES DE COLOMBIA LTDA.";;;"(57) (1) 5408513";"Cr16 A 76-10 Of 303 Colombia, Bogotá"
"ACEVEDO BETTER ABOGADOS";;;"(57) (7) 6991110";"Cl 35 19-41 La Triada Trr Sur Of 609 Colombia, Bucaramanga"
"PUNTO SEGURO LTDA.";;;"(57) (7) 6850202";"Cr31 52 A-13 Colombia, Bucaramanga"
"AGENCIA DE SEGUROS QUINTERO GONZÁLEZ";;;"(57) (7) 6359959";"Cl 36 23-17 Of 203 Antonia Santos Colombia, Bucaramanga"
"SEGUROS HJSG";;;"(57) (7) 5777675";"Cl 6 0 A-12 L 2 Lleras Colombia, Cúcuta"
"OPTIMA SEGURIDAD SOCIAL";;;"(57) (4) 3119576";"Cr43 A 14-27 Of 302 Colombia, Medellín"
"ARIES SEGUROS";;;"(57) (7) 6576726";"Cr34 48-88 Colombia, Bucaramanga"
"R.S.A. COLOMBIA SEGUROS";;;"(57) (2) 7312200";"Cl 20 30-31 P-2 Las Cuadras Colombia, Pasto"
"JARDINE LLOYD THOMPSON";;;"(57) (4) 3138095";"Cr43 A 16 A S-38 Of 403 Colombia, Medellín"
"SEGUROS VEGA ESCOBAR NOHORA";;;"(57) (8) 8715886";"Cl 10 7-52 Of 110 Colombia, Neiva"
"GOMÉZ SEGUROS";;;"(57) (1) 8933420";"Cr5 Este 18-50 Colombia, Bogotá"
"ASETÉCNICOS VILLA DE ROBLEDO LTDA.";;;"(57) (2) 2124109";"Cr4 7-23 Colombia, Cartago"
"J Y J SEGUROS";;;"(57) (2) 4478831";"Cr1 Bis 61 A-24 Ap 102-A Colombia, Cali"
"NAVARRETE PRIETO LTDA";;;"(57) (7) 6313337";"Cl 143 26-02 Provenza Colombia, Bucaramanga"
"F.A.C. ASESORES PROFESIONALES";;;"(57) 3165390260";"Cr5 79 C-39 Trr C Ap 302 Edif. El Portal de Las A Colombia, Ibagué"
"FORERO GÓMEZ NÉSTOR";;;"(57) 3164603087";"Cl 34 19-14 OF 218 Colombia, Bucaramanga"
"INMOBILIARIA BANCA INMOBILIARIA Y DE LOGISTICA";;;"(57) (7) 6111491";"Cl 48 18-22 Colombia, Barrancabermeja"
"ALMACÉN CREDIASOCIADOS";;;"(57) (2) 2320621";"Cl 30 21-60 Colombia, Tuluá"
"PEMS&A SEGUROS PARA PERSONAS";;;"(57) (2) 5520345";"Cr86 38-151 P-6 Colombia, Cali"
"CONFIA SEGUROS YA";;;"(57) (2) 3728578";"Cr50 16-81 P-3 Colombia, Cali"
"LONDOÑO LEMA ANA MARÍA";;;"(57) (6) 8871052";"Cr23 62-16 L-114 Colombia, Manizales"
"RED GLOBAL DE SERVICIOS S.A.S";;;"(57) (4) 5138808";"Cl 51 49-11 Int 906 Colombia, Medellín"
"ENLACE ASESORES DE SEGUROS";;;"(57) (6) 3274097";"Cl 19 5-73 Of 308 Colombia, Pereira"
"PROMOTORA SAMUR OCAMPO Y CÍA. LTDA.";;;"(57) (5) 6605919";"Cr17 24-178 Av California Colombia, Cartagena"
"SEGUROS CAPITAL";;;"(57) (2) 8361029";"Cl 3 N 8-15 Colombia, Popayán"
"LEÓN & ASOCIADOS S.A.";;;"(57) (5) 3567826";"Cr53 75-108 Of 7 P-2 Colombia, Barranquilla"
"AIG OTEX NEIVA";;;"(57) (8) 8720333";"Cl 11 6-15 Centro Colombia, Neiva"
"RISK INSURANCE LTDA.";;;"(57) (1) 6940965";"Cl 19c 28-79 P-1 Colombia, Bogotá"
"SEGUROS & SEGUROS";;;"(57) (2) 8386623";"Cl 4 7-54 Colombia, Popayán"
"ALIANZA PLUS LTDA.";;;"(57) (5) 6601811";"Centro Calle Del Tablón Con Escallón Edif Báladi Of 34-63 Colombia, Cartagena"
MILENIUM;;;"(57) (5) 3685109";"Cl 74 53-23 Of 303 Colombia, Barranquilla"
"ATLANTA SEGUROS";;;"(57) (8) 4354724";"Cl 17 8-65 Colombia, Florencia"
"BUNDESEG CONSULTORES DE SEGUROS LTDA.";;;"(57) (1) 2482083";"Cl 75 13-51 Of 502 Colombia, Bogotá"
"First Name";"Email Address";Url;Telephone;Address
ASINTRA;;;"(57) (4) 2886542";"Cl 49 S 46-43 Colombia, Medellín"
"ALVARO ESCOBAR CH & CÍA. LTDA.";;;"(57) (2) 6679955";"Cl 38 N 6 N-35 Trr Parqueaderos P-6 Of 622 Colombia, Cali"
"M & M ADMNISTRADORESS DE SEGUROS";;;"(57) (8) 8720777";"Cl 10 7-52 L-101 Colombia, Neiva"
"LATORRE Y URIBE CÍA. LTDA.";;;"(57) (1) 3403553";"Cr7 37-25 of 301 Colombia, Bogotá"
"S.I.R. INTERNACIONAL";;;"(57) (1) 3262330";"Sl 72 13-49 Of 402 Colombia, Bogotá"
"AGENCIA DE SEGUROS ASESORAMOS 1203";;;"(57) (5) 6685287";"Manga Cl 29 28-42 L-1 Av 4 Colombia, Cartagena"
"TORRES GUARIN Y CIA LTDA ASESORES DE SEGUROS";;;"(57) (68) 8570168";"Cr6 N° 11-73 Colombia, La Dorada"
"LOAIZA SEGUROS";;;"(57) (2) 3126392";"Cl 5 66 B-49 Of 206 Colombia, Cali"
SURA;;;"(57) (68) 8573924";"Cl 17 3-37 L-101 Colombia, La Dorada"
"JUDITH LONDOÑO OROZCO ASESORES DE SEGUROS";;;"(57) (6) 7469988";"Cl 2 14-01 L-A-13 Colombia, Armenia"
"BELMONTE FRANCISCO";;;"(57) (1) 2633600";"Cr73 55-98 Colombia, Bogotá"
"CONFIANZA S.A.";;;"(57) (2) 5572753";"Cl 10 23 A-23 P-2 Colombia, Cali"
"MEJÍA Y CÍA. ASESORES DE SEGUROS";;;"(57) (8) 2701410";"Cr4 C 33-44 Cádiz Colombia, Ibagué"
"PLAN UNIVERSIDAD GARANTIZADA";;;"(57) (1) 2585519";"Cl 151 A 4-51 Colombia, Bogotá"
"AMPARAMOS LTDA.";;;"(57) (8) 6722903";"Cl 39 33-40 Centro Colombia, Villavicencio"
"CONTINENTAL DE SEGUROS LTDA.";;;"(57) (5) 6642619";"Cl 35 8-06 Of 403 Edif Suramericana Av Venezuela Colombia, Cartagena"
"ZADNEL SEGUROS LTDA.";;;"(57) (8) 6733653";"Cl 33 A 36-15 Barzal Colombia, Villavicencio"
ALLIANZA;;;"(57) (7) 6471111";"Cl 55 29-09 Colombia, Bucaramanga"
"MANOA ESTÉTICA PELUQUERÍA";;;"(57) (1) 2578857";"Cr19 80-46 Colombia, Bogotá"
"LÓPEZ OSORIO SERGIO";;;"(57) (6) 7445975";"Cl 20 14-44 Of 304 Colombia, Armenia"
"JAVIER ESCOBAR URIBE Y CÍA. LTDA.";;;"(57) (4) 4183525";"Cl 7 D 43 A-99 Of 505 Colombia, Medellín"
"DAR SOLUCIONES E.U.";;;"(57) (4) 2327167";"Cr50 52-22 Of 406 Colombia, Medellín"
"SEGUROS CÓNDOR S.A.";;;"(57) (6) 7444910";"Cr13 19-29 Of 3 Colombia, Armenia"
"SEGUROS SURA";;;"(57) (7) 7243645";"Cr10 12-77 Of 207 Centro Colombia, San Gil"
"OCCIDENTAL DE SEGUROS";;;"(57) (1) 8910061";"Cr3 2-01 Parque Santader Facatativa Colombia, Bogotá"
"SER SEGUROS";;;"(57) (1) 2101278";"Cr21 63 B-39 Colombia, Bogotá"
"SEGURO SEGURO";;;"(57) (8) 8718811";"Cr7 26-25 Colombia, Neiva"
"TU SOAT";;;"(57) 3125610926";"L-12 Carrefour C.C. Ventura Plaza Colombia, Cúcuta"
ADIS;;;"(57) (4) 4443380";"Cl 53 47-59 Int 502 Colombia, Medellín"
"CERALZA AGENCIA DE SEGUROS CIA. LTDA.";;;"(57) (4) 4484428";"Cl 10 41 - 20 Of 201 Colombia, Medellín"
"SOAT X 3 MESES";;;"(57) (7) 5946797";"Cl 7 2-54 L-4 Colombia, Cúcuta"
"ASEGURADORA SOLIDARIA DE COLOMBIA LTDA.";;;"(57) (8) 8753200";"Cr7 16-32 Colombia, Neiva"
"LEONARDO GOMEZ MOTO TALLER";;;"(57) (5) 5749058";"Cl 16 B 9-59 Colombia, Valledupar"
"INTERAPOYO CTA";;;"(57) (1) 3463405";"Cl 54 ABis 16-42 Of 202 Colombia, Bogotá"
"JAIME GIRALDO U. ASESORES EN SEGUROS Y CIA. LTDA.";;;"Conm.: (57) (4) 3314430";"Cl 33 B S 44-53 Envigado Colombia, Envigado"
"MORRIZ LTDA.";;;"(57) (6) 8536417";"Cr5 7-05 P-1 Colombia, Anserma"
"ASESORES DE SEGUROS FANNY MEDINA";;;"(57) (8) 6343056";"Cr21 8-67 Colombia, Yopal"
COLSEGUROS;;;"(57) (8) 7423525";"Cr9 19-92 P-2 Colombia, Tunja"
"GRUPO EMPRESARIAL SEGUROS LTDA.";;;"(57) (7) 6346747";"Cl 36 26-12 Of 201 Colombia, Bucaramanga"
"SATELITE DE SEGUROS";;;"(57) (1) 3457325";"Cr23 72-08 Colombia, Bogotá"
"First Name";"Email Address";Url;Telephone;Address
"AIC SEGUROS JOSÉ GREGORIO SUAREZ";;;"(57) (7) 5723127";"Cl 13 10-88 El Contento Colombia, Cúcuta"
"TRACTO SEGUROS M.A. LTDA.";;;"(57) (8) 7631828";"Av Américas 23 80 Colombia, Duitama"
"MAPFRE SEGUROS GENERALES DE COLOMBIA S.A.";;;"Nal: 018000977025";"Cr3 O E 1-70 Colombia, Cali"
"ANALISTAS INTEGRALES EN SEGUROS & COMPAÑÍA LTDA";;;"(57) (6) 3333684";"Cr8 23-09 Of 503 Edif. Cámara de Comercio Colombia, Pereira"
"ARANGO ARANGO AUGUSTO Y CIA.";;;"(57) (6) 8845521";"Cr23 25-61 Of 1005 Centro Colombia, Manizales"
"MOTOCENTER POPAYÁN";;;"(57) (2) 8234803";"Cr9 9 A N-33 L-1 Colombia, Popayán"
"RINCÓN GONZÁLEZ RUTH";;;"(57) (1) 6822933";"Cr95 A 138-65 Casa 116 Colombia, Bogotá"
"DÍAZ HECTOR JESÚS";;;"(57) (2) 7298852";"Cr25 15-62 C.C. El Zaguán del Lago Of 217 Colombia, Pasto"
"SEGUROS PORVENIR DE LA PLATA";;;"(57) (8) 8370238";"Cl 4 4-76 Páez Colombia, La Plata"
"IMMEDIATE SERVICES LTDA.";;;"(57) (1) 2738718";"Cl 5 B 73-11 Colombia, Bogotá"
"SEGUROS ALVAREZ & ALVAREZ CÍA. LTDA.";;;"(57) (1) 4838830";"Cr69 B 95-76 Colombia, Bogotá"
"NÉSTOR DOMÍNGUEZ Y CÍA.";;;"(57) (2) 6841229";"Cl 23 N 6 A N-17 Of 804 Colombia, Cali"
"JARGU S.A. CORREDORES DE SEGUROS";;;"(57) (1) 6171411";"Cr19 B 83-02 Of 602 Sector 603 Colombia, Bogotá"
"BUNDESEG CONSULTORES DE SEGUROS LTDA.";;;"(57) (1) 2482083";"Cl 75 13-51 Of 502 Colombia, Bogotá"
"ARPA SEGUROS LTDA.";;;"(57) (1) 2368505";"Av (Cr) 15 85-29 Of 507 Colombia, Bogotá"
"INSTITUTO NACIONAL DE SEGUROS";;;"(57) (1) 3443080";"Cr7 26-20 P-4 Colombia, Bogotá"
"AGRÍCOLA DE SEGUROS";;;"(57) (8) 2560533";"Cr10 2-51 Centro Colombia, Líbano"
"JAIME SEVILLANO Y CÍA. LTDA.";;;"(57) (4) 3212524";"Cl 17 C S 44-117 Int 705 Colombia, Medellín"
ASEDE;;;"(57) (4) 2322111";"Cr52 42-73 P-2 Of 208 Colombia, Medellín"
"ADIS LTDA.";;;"(57) (4) 2318272";"Cl 51 49-76 Int 513 Colombia, Medellín"
"MARCO MONTENEGRO Y ASOCIADOS LTDA.";;;"(57) (4) 2535127";"Cr86 34-05 Colombia, Medellín"
"FINANCIACIONES Y SEGUROS";;;"(57) (4) 2513698";"Cl 52 47-28 Int 601 Colombia, Medellín"
"PREVISALUD LTDA. TODO EN SEGUROS";;;"(57) (4) 4486767";"cra28 37bsur 51 Envigado Colombia, Envigado"
"ASESORIAS EN SEGUROS CIELO RAMIREZ";;;"(57) (4) 4444910";"Cl 35 A 66 A-66 Int 302 Colombia, Medellín"
"BIBLOS LTDA";;;"(57) (2) 8821340";"Cr6 11-67 Of 201 Colombia, Cali"
"SÁNCHEZ RODRÍGUEZ MARÍA SOFÍA";;;"(57) (2) 5577239";"Cr24 C Oe 6-50 Ap 7 Colombia, Cali"
"DELIMA MARSH S.A.";;;"(57) (1) 4269999";"Av Eldorado 69 B-45 P-10 Colombia, Bogotá"
"SEGUREXPO DE COLOMBIA S.A.";;;"(57) (1) 3266969";"Cl 72 6-44 P-12 Colombia, Bogotá"
"ACHE ASESORES DE SEGUROS & CÍA. LTDA.";;;"(57) (5) 6602773";"Centro Cl 32 5-09 Of 602 Edif Andian Plaza de la Aduana Colombia, Cartagena"
"WILLIAM BUSTILLO Y CÍA. LTDA.";;;"(57) (5) 6649743";"Matuna Cl 32 8-33 L-201 A C.C. La Matuna Colombia, Cartagena"
"GENERALI COLOMBIA S.A.";;;"(57) (2) 6612335";"Av9 N 16-59 Colombia, Cali"
"RAMÍREZ HERMANOS POLIZAS DE SEGUROS";;;"(57) (8) 6626403";"Cl 40 33-39 Centro Colombia, Villavicencio"
"CDS LTDA.";;;"(57) (1) 5300205";"Cr19 B 84-60 Colombia, Bogotá"
"PLAN UNIVERSIDAD GARANTIZADA";;;"(57) (1) 2585519";"Cl 151 A 4-51 Colombia, Bogotá"
"JORGE SAA & CÍA.";;;"(57) (2) 8241644";"Cl 1 N 3-08 Of 101 Colombia, Popayán"
"AMPARAMOS LTDA.";;;"(57) (8) 6722903";"Cl 39 33-40 Centro Colombia, Villavicencio"
"RISK SEGUROS";;;"(57) (2) 4854765";"Cl 17 A N 8 N-26 Colombia, Cali"
ALLIANZA;;;"(57) (7) 6471111";"Cl 55 29-09 Colombia, Bucaramanga"
"PORTAFOLIO DE SEGUROS LTDA";;;"(57) (1) 2715171";"Cl 100 60-4 OF 207 Colombia, Bogotá"
"EQUIDAD SEGUROS";;;"(57) (6) 7410965";"Cr16 21-25 L-7 Colombia, Armenia"
"First Name";"Email Address";Url;Telephone;Address
"CHUBB DE COLOMBIA COMPAÑÍA DE SEGUROS S.A.";;;"(57) (1) 3266200";"Cr7 71-52 Trr B P-10 Colombia, Bogotá"
"OFICINA INTEGRAL DE SEGUROS Y SERVICIOS";;;"(57) (7) 5726546";"Av0 13-92 Colombia, Cúcuta"
REDESEGUROS;;;"(57) (1) 6170025";"Cr19C 85-30 Of 202 Edif. Dinamara Colombia, Bogotá"
"PRIETO ASOCIADOS ASESORES DE SEGUROS LTDA.";;;"(57) (1) 3133001";"Cr14 75 - 77 Of 506 Colombia, Bogotá"
CORRECOL;;;"(57) (4) 2611048";"Cr48 10-45 Colombia, Medellín"
"PÉREZ Y CÍA. LTDA. DE MARTHA CLEMENCIA";;;"(57) (1) 5223401";"Cr11 B 98-67 Colombia, Bogotá"
"VARELA MORALES FABIO";;;"(57) (2) 3393163";"Cr66 A 10-231 Colombia, Cali"
"SEGURO DE COLOMBIA LTDA.";;;"(57) (6) 7440967";"Cl 19 12-41 L-12 Colombia, Armenia"
"BURITICA SEGUROS";;;"(57) (8) 8723209";"Cr8 7-24 Colombia, Neiva"
"PRESEA LTDA.";;;"(57) (7) 6436758";"Cl 44 35-15 Cabecera Colombia, Bucaramanga"
"ESTACIÓN DE SERVICIO AVENIDA";;;"(57) (8) 2612873";"Cr5 21-90 Colombia, Ibagué"
"CASTELLANOS ROLDÁN & CÍA. LTDA.";;;"(57) (1) 3172854";"Cl 73 9-42 Of 205 Colombia, Bogotá"
"POTE SEGUROS";;;"(57) (8) 8717800";"Cr4 10-55 Colombia, Neiva"
"PRI CUENTA AGENCIA";;;"(57) (2) 2385562";"Cr13 18-40 Colombia, Buga"
"COROTÚ LTDA.";;;"(57) (8) 2652424";"Cr4 D 32-18 Cádiz Colombia, Ibagué"
"AGENCIA DE SEGUROS NAVITRANS";;;"Conm.: (57) (4) 3606161";"Cl 11 S 50-50 Colombia, Medellín"
"ASESOR DE SEGUROS EDGAR SÁNCHEZ";;;"(57) (1) 8350700";"Cr10 22-30 P-2 Colombia, Girardot"
"DUARTE RUIZ REYNALDO";;;"(57) (7) 6345759";"Cl 35 29-25 Colombia, Bucaramanga"
"ADMINISTRADORES DE SEGUROS";;;"(57) (2) 6811900";"Av5 A N 21 N-57 Colombia, Cali"
AZEGURANDO;;;"(57) (8) 6837867";"Cl 33 A 38-52 Colombia, Villavicencio"
"LLANO JAIME HERNÁN";;;"(57) (2) 2716369";"Cl 30 21-77 P-2 Colombia, Palmira"
"COMERCIAL COLOMBIANA LTDA.";;;"(57) (1) 3455090";"Cl 57 13-27 P-4 Colombia, Bogotá"
"ARBELÀEZ ARBELÁEZ BERNARDO";;;"(57) (6) 8804696";"Cr21 30-03 Of 601 Colombia, Manizales"
MILENIUM;;;"(57) (5) 3685109";"Cl 74 53-23 Of 303 Colombia, Barranquilla"
"NATALIA ORTIZ SEGUROS & CIA LTDA";;;"(57) (8) 8716261";"Cl 10 5-05 Colombia, Neiva"
"ARPA SEGUROS LTDA.";;;"(57) (1) 2368505";"Av (Cr) 15 85-29 Of 507 Colombia, Bogotá"
"AGRÍCOLA DE SEGUROS";;;"(57) (8) 2560533";"Cr10 2-51 Centro Colombia, Líbano"
"ARD ADMINISTRACIÓN DE RIESGOS Y SEGUROS";;;"(57) (4) 4441479";"Cr43 A 19-17 Of 227 Colombia, Medellín"
"SEGUROS ABG";;;"(57) (4) 2932022";"Cr50 50-48 Int 603 Colombia, Medellín"
"LONJA DE PROPIEDAD RAÍZ DE CALI Y VALLE DEL CAUCA";;;"(57) (2) 6657597";"Cl 64   N 5 B   N-146 L-102-G Colombia, Cali"
"NLA ASESORES EN SEGUROS";;;"(57) 3155483809";"Cl 2 14-01 L-A-3 Colombia, Armenia"
"OCHOA ASEGURADORES";;;"(57) (1) 4047039";"Cl 13 68 D-84 Colombia, Bogotá"
"SOCIEDAD ADMINISTRADORA DE SEGUROS LTDA.";;;"Conm.: (57) (1) 6230030";"Cr28 89-63 P-5 Colombia, Bogotá"
"AGOR LTDA";;;"(57) (1) 2499041";"Cr 13 61-65 Of 103 Colombia, Bogotá"
"TRAMITES Y DOCUMENTOS LEAL LEAL";;;"(57) (8) 8351944";"Cr1 B 4-13 Colombia, Pitalito"
TELEBROKER;;;"(57) (1) 2101611";"Cl 72 10-51 P-2 Colombia, Bogotá"
"R.E. ASESORES DE SEGUROS";;;"(57) (5) 3605655";"Cr52 75-69 Colombia, Barranquilla"
"CELY & CÍA. LTDA.";;;"(57) (1) 6142660";"Dg147 32-81 Of 402 Colombia, Bogotá"
"AGENCIA DE SEGUROS ARENAS Y ARENAS";;;"(57) (6) 7447985";"Cl 22 16-54 Of 406 Colombia, Armenia"
"YEPES YEPES CARLOS";;;"(57) (4) 2348215";"Cl 47 DD 82 A-84 Colombia, Medellín"
"First Name";"Email Address";Url;Telephone;Address
S.G.S;;;"(57) (8) 8713161";"Cl 7 13-74 Altico Colombia, Neiva"
"TORRES GUARÍN Y CÍA. LTDA. ASESORES DE SEGUROS";;;"(57) (8) 6622777";"Cl 41 33-11 Of 302 Edif Don José Colombia, Villavicencio"
"ASETEC LTDA.";;;"(57) (1) 2500127";"Cl 65 26-09 Ap 203 Colombia, Bogotá"
"GUTIÉRREZ & ASOCIADOS LTDA";;;"(57) (7) 5836757";"Av5 11-63 L-331/335 Centro Internacional Lecs Colombia, Cúcuta"
"COLSEGUROS S.A";;;"(57) (7) 5725302";"Av0 15-44 Of 2-Y 3 Edif Madel Cielo Colombia, Cúcuta"
"CONDOR S.A.";;;"(57) (7) 5714658";"Av0 13-31 L-10 Edif Faraón Colombia, Cúcuta"
".P SEGUROS & CÍA. LTDA.";;;"(57) (1) 6234164";"Cl 93 B 17-25 Of 205 Colombia, Bogotá"
"LONDOÑO ALBA DOREY";;;"(57) (4) 4510077";"Cl 52 B 65-93 Casa 17 Bello Colombia, Bello"
"OFICINA DE SEGUROS.";;;"(57) (4) 2761293";"Cl 44 B Sur 40 A -10 Int 201 Envigado. Colombia, Medellín"
"MARCO MONTENEGRO Y ASOCIADOS LTDA.";;;"(57) (4) 2535127";"Cr86 34-05 Colombia, Medellín"
"ARD ADMINISTRACIÓN DE RIESGOS Y SEGUROS";;;"(57) (4) 4441479";"Cr43 A 19-17 Of 227 Colombia, Medellín"
"BERNAL RESTREPO Y CÍA";;;"(57) (4) 4121200";"Cl 40 74-38 Colombia, Medellín"
"VALENCIA SALAZAR MILENA";;;"Conm.: (57) (4) 2602250";"Cl 18 35-69 Int 326 Colombia, Medellín"
"AP SEGUROS";;;"Nal: (57) (4) 4164179";"Cl 39 C 73-83 Colombia, Medellín"
"SONIA M. OSPINA CONSULTORES S.A.S.";;;"(57) (1) 4798934";"Cl 100 7-45 Colombia, Bogotá"
"SEGUROS HALCÓN LTDA";;;"(57) (4) 4446350";"Cl 36 63-32 Colombia, Medellín"
"SEGURAS I.G.S S.A.S";;;"(57) (4) 2316790";"Cl 53 45-18 Int 301 Colombia, Medellín"
"RUIZ DAZA SEGUROS E INVERSIONES";;;"(57) (2) 8317918";"Cl 4 10-36 Colombia, Popayán"
"LIBERTY SEGUROS S.A.";;;"Nal: 018000117224";"Av Eldorado 93-30 L-8 P-2 Colombia, Bogotá"
"AVANZA TAXIS";;;"(57) (4) 2326697";"Cr43 G 25-13 Colombia, Medellín"
"GUTIERREZ FRANCIA/BUSTAMANTE CARLOS MARIO";;;"(57) (6) 8876410";"Cl 68 23 C-16 Ap 101 Colombia, Manizales"
"TORRES GUARIN Y CIA LTDA ASESORES DE SEGUROS";;;"(57) (68) 8570168";"Cr6 N° 11-73 Colombia, La Dorada"
"FORTIUS S.A";;;"(57) (1) 3210600";"Cr7 73-55 P-9 Colombia, Bogotá"
"CDS LTDA.";;;"(57) (1) 5300205";"Cr19 B 84-60 Colombia, Bogotá"
"CM ASESORES EN SEGUROS LTDA.";;;"(57) (4) 3341761";"Cl 41 AA S 43 A-99 Envigado Colombia, Envigado"
"R.E. ASESORES DE SEGUROS";;;"(57) (5) 3605655";"Cr52 75-69 Colombia, Barranquilla"
"INVERSIONES COMERCIALES SAN GERMÁN";;;"Telefax: (57) (1) 6222932";"Cr10 94 A-28 Colombia, Bogotá"
"CONTINENTAL DE SEGUROS LTDA.";;;"(57) (5) 6642619";"Cl 35 8-06 Of 403 Edif Suramericana Av Venezuela Colombia, Cartagena"
"MANZUR TRUJILLO BLANCA CECILIA";;;"(57) (6) 7497610";"Av Bolívar 12 N-39 Colombia, Armenia"
"ALFONSO ROZO Y CIA.SEGUROS";;;"(57) (1) 3179817";"Cl 72 9-55 Of 203 Colombia, Bogotá"
ASEGURACTIVOS;;;"(57) (8) 6713333";"Cr32 41-50 Centro Colombia, Villavicencio"
SUASESORÍA;;;"(57) (4) 4449100";"Cl 18 35-69 Of 9945 Colombia, Medellín"
"BEDOYA CARDONA ELKIN DE JESÚS";;;"(57) (4) 2727267";"Cl 28 57-117 Bello Colombia, Bello"
"OLOMAR GROUP";;;"Nal: (57) (4) 43117955";"Cl 18 35-69 Oficina 359 Colombia, Medellín"
"SEGUROS Y MERCADEO LTDA.";;;"(57) (1) 6154655";"Cr19 145 A-49 Of 202 Colombia, Bogotá"
"OFICINA INTEGRAL DE SEGUROS Y SERVICIOS";;;"(57) (7) 5726546";"Av0 13-92 Colombia, Cúcuta"
"DYNAMIS SEGUROS LTDA.";;;"(57) (4) 4445757";"Tr32 A 74 C-13 Colombia, Medellín"
"GUTIÉRREZ Y CÍA. LTDA. MARTHA";;;"(57) (52) 6877229";"Cr3 12-94 P-2 Colombia, Magangué"
"PROBROKER LTDA.";;;"Conm.: (57) (1) 6369499";"Cr16 96-64 Of 609 Colombia, Bogotá"
"SEGURO SEGURO";;;"(57) (8) 8718811";"Cr7 26-25 Colombia, Neiva"
"First Name";"Email Address";Url;Telephone;Address
"TECNIRIESGOS AGENCIA DE SEGUROS LTDA.";;;"(57) (4) 4160338";"Cl 40 82 A-71 Ap 604 Colombia, Medellín"
"GRUPO SIS LTDA.";;;"Conm.: (57) (1) 6767400";"Cr 23 166-36 Colombia, Bogotá"
"CONFIANZA S.A.";;;"(57) (2) 5572753";"Cl 10 23 A-23 P-2 Colombia, Cali"
"TORRES GUARÍN Y CÍA. LTDA. ASESORES DE SEGUROS";;;"(57) (6) 8531018";"Cr4 9-14 Centro Comercial Valencia Of 209 Colombia, Anserma"
"SEGUROS OMEGA";;;"(57) (8) 6717272";"Cr30 41 A-88 Colombia, Villavicencio"
"ANACE RESTREPO CÍA. LTDA.";;;"(57) (4) 4342121";"Cr64 C 48-56 Int 1503 Colombia, Medellín"
"SÁNCHEZ RUEDA LUZ ANDREIMA";;;"(57) (4) 2614719";"Cr51 41-42 Of 115 Pasaje Comercial Colombia, Medellín"
CHARTIS;;;"Conm.: (57) (4) 2663311";"Cr43 A 3-101 Of 301 Colombia, Medellín"
"SANABRIA - GRAVIER S G AGENCIA COLOCADORA DE SEGUROS Y CÍA. LTDA.";;;"(57) (5) 3461175";"Cl 45 27-74 Colombia, Barranquilla"
"JARDINES DEL EDEN SEGUROS DE COLOMBIA";;;"(57) (7) 6200091";"Cr28 49-07 Esquina Colombia, Barrancabermeja"
"DAMARÍN SEGUROS LTDA.";;;"(57) (6) 7410065";"Cl 23 14-25 Colombia, Armenia"
"CONSULTORES DE SEGUROS HLL SERVICE LTDA.";;;"Conm.: (57) (1) 3382921";"Cr9 47-00 Of 102 Colombia, Bogotá"
"ASEGURADORA SOLIDARIA DE COLOMBIA ENTIDAD COOPERATIVA";;;"(57) (2) 8200427";"Cl 1 7-14 Of 103 Colombia, Popayán"
"CM&M LTDA";;;"(57) (5) 3687826";"Cr58 75-158 Of 501 Colombia, Barranquilla"
COLPROSEGUROS;;;"(57) (1) 6034877";"Cr70 D 116-24 Colombia, Bogotá"
"ERSARF SEGUROS";;;"(57) (8) 8331954";"Cr9 7-78 Centro Colombia, Garzón"
"GARCÉS LLOREDA & CÍA. S.A.";;;"Conm.: (57) (2) 6650390";"Cl 70 N 3 N-45 Colombia, Cali"
"SEGUROS GENERALES DE COLOMBIA";;;"(57) (2) 3700314";"Cr5 10-63 Colombia, Cali"
"R.G.M SEGUROS";;;"(57) (6) 3454235";"Cr10 21-15 Of 402 Colombia, Pereira"
"SEGUROS OLMA LTDA.";;;"(57) (7) 6573623";"Cl 50 28-68 Sotomayor Colombia, Bucaramanga"
"SEGUROS ON LINE";;;"(57) (7) 7245472";"Cr9 10-65 Of 202 Centro Colombia, San Gil"
"COLCORDES LTDA.";;;"(57) (1) 3102130";"Cl 75 13-51 Of 509 Colombia, Bogotá"
"MADERO Y MALDONADO S.A";;;"(57) (1) 2815369";"Cl 26 4 A-45 P-4 Colombia, Bogotá"
"FIANZACOL S.A.";;;"(57) (1) 5314277";"Cl 95 13-09 Colombia, Bogotá"
"F.A.C. ASESORES PROFESIONALES";;;"(57) 3165390260";"Cr5 79 C-39 Trr C Ap 302 Edif. El Portal de Las A Colombia, Ibagué"
"PUYANA & CÍA. LTDA. JOSÉ";;;"(57) (7) 6704995";"Cl 36 20-28 Of 204 Colombia, Bucaramanga"
"SEGUROS ALVARO SANTOS";;;"(57) (2) 2728122";"Cl 30 28-82 Colombia, Palmira"
"MARÍA EUGENIA SIERRA CORTÉS & CÍA. LTDA.";;;"(57) (8) 7426537";"Cl 20 10-36 Of 207 Colombia, Tunja"
"GUTIÉRREZ & ASOCIADOS LTDA";;;"(57) (7) 5836757";"Av5 11-63 L-331/335 Centro Internacional Lecs Colombia, Cúcuta"
"SEGUROS LUCELLY GUISAO MONSALVE";;;"(57) (4) 4524713";"Cl 30 C 50 A-10 Ap 201 Bello Colombia, Bello"
"NICOLÁS CORREA CORREA ASESORIA INTEGRAL DE SEGUROS";;;"(57) (4) 3212732";"Cl 5 S 29 A-151 Int 305 Colombia, Medellín"
PRACTISEGUROS;;;"(57) (4) 4446042";"Cr52 29 A-111 L-111 Colombia, Medellín"
"WILLIS COLOMBIA";;;"(57) (2) 8930893";"Cl 10 Oe 2-50 Colombia, Cali"
"SIEMPRE SEGUROS LTDA.";;;"(57) (4) 2504318";"Cl 47 78 A-15 Colombia, Medellín"
"PREVISORA SEGUROS";;;"(57) (7) 8854517";"Cl 21 20-48 Centro Colombia, Arauca"
"AVANZA TAXIS";;;"(57) (4) 2326697";"Cr43 G 25-13 Colombia, Medellín"
"FIANZAS INMOBILIARIAS DE COLOMBIA";;;"(57) (1) 6297521";"Av. (Cr) 15 124-91 Of 311 Colombia, Bogotá"
"CYMA SEGUROS LTDA.";;;"(57) (1) 3674958";"Cl 30 A S 1-66 E Ap 202 Colombia, Bogotá"
"ALFONSO ROZO Y CIA.SEGUROS";;;"(57) (1) 3179817";"Cl 72 9-55 Of 203 Colombia, Bogotá"
"AGENCIA DE SEGUROS JARAMILLO RICAURTE Y CIA";;;"(57) 2120414";"Tr3 55-21 Colombia, Bogotá"
"First Name";"Email Address";Url;Telephone;Address
"SEGURAS I.G.S S.A.S";;;"(57) (4) 2316790";"Cl 53 45-18 Int 301 Colombia, Medellín"
"SUBA CELULAR";;;"(57) (1) 6819017";"Cl 125 A 92 B-20 Colombia, Bogotá"
"MORA VALENZUELA & CÍA. LTDA.";;;"(57) (5) 4202984";"Cl 14 25-34 Colombia, Santa Marta"
"ASZA CORPORATION S.A.S.";;;"(57) (1) 2843474";"Av Jiménez 7-25 Of 310 Colombia, Bogotá"
"VÁSQUEZ REY ANA ISABEL";;;"(57) (7) 6577631";"Cr24 51-06 L-2 Nuevo Sotomayor Colombia, Bucaramanga"
"GRUPO MANEJAR";;;"(57) (7) 7246257";"Cr9 11-68 L-206 Colombia, San Gil"
"ASESORIAS Y GESTION EMPRESARIAL DRAKKAR";;;"(57) (7) 6480598";"Paseo Comercial Paragüitas L-C-16 Colombia, Bucaramanga"
"RIVEROS FABIO ABOGADO ASESOR DE SEGUROS";;;"(57) (1) 3417320";"Cr8 15-49 Of 908 Colombia, Bogotá"
"SUZUKI-INVERMOTOS ARAUCA";;;"(57) (7) 8853524";"Cr16 20-58 Colombia, Arauca"
"SEGUROS Y TRÁMITES PUERTA DEL NORTE";;;"(57) (4) 4526581";"Cl 51 46-70 Int 125 Bello Colombia, Bello"
"MG BROKERS";;;"(57) (1) 2648034";"Cl 2 73 C-92 Colombia, Bogotá"
"JOSÉ IGNACIO FAJARDO ASESORES";;;"(57) (2) 8850951";"Cl 11 5-61 Of M-108 Colombia, Cali"
"AGENCIA DE SEGUROS JARAMILLO RICAURTE Y CIA";;;"(57) 2120414";"Tr3 55-21 Colombia, Bogotá"
"J.D. ADVISORS LTDA.";;;"(57) (5) 3688070";"Cr54 74-106 Of 1 Colombia, Barranquilla"
"EQUIDAD SEGUROS";;;"(57) (5) 3564216";"Cr56 74-74 Colombia, Barranquilla"
"SEGURO SEGURO";;;"(57) (8) 8718811";"Cr7 26-25 Colombia, Neiva"
"ASEGURADORA SOLIDARIA DE COLOMBIA LTDA.";;;"(57) (8) 8753200";"Cr7 16-32 Colombia, Neiva"
"JIMÉNEZ SÁNCHEZ ELIZABETH";;;"(57) (1) 7535127";"Cr77 A 64 C-25 L-102 Colombia, Bogotá"
"MARCELINO ESCOLAR & CÍA. LTDA.";;;"(57) (5) 3600647";"Cr46 69-130 Of 309 Colombia, Barranquilla"
"LA PREVISORA S.A.";;;"(57) (8) 4295147";"Cr8 8-06 Colombia, Mocoa"
"ALBERTO GUERRERO REY Y CÍA. LTDA.";;;"(57) (2) 6612737";"Av7 N 23 N-46 Colombia, Cali"
"AGENCIA J&J SEGUROS";;;"(57) (8) 8715734";"Cr4 11-18 Colombia, Neiva"
"SEYCO LTDA.";;;"(57) (1) 2368350";"Autop Norte 101-29 Colombia, Bogotá"
"AGUILAR BECERRA & CIA. LTDA.";;;"(57) (7) 6572589";"Cr29 50-20 P-2 Colombia, Bucaramanga"
"AYALA Y GUZMÁN CIA LTDA.";;;"(57) (8) 6732238";"Cr33 A 40-50 Of 403 Edif Oficce Center Colombia, Villavicencio"
"FAREGHAGENCIA DE SEGUROS LTDA.";;;"(57) (1) 6062609";"Cl 68 11-27 Colombia, Bogotá"
"AGENCIA PREVENTIVA SEGUROS";;;"(57) (7) 6524110";"Cr21 36-27 L3 Colombia, Bucaramanga"
"URREA ARBELAEZ RODRIGO";;;"(57) (6) 7463135";"Cl 10 13-20 L-1 Colombia, Armenia"
"MULTISOLUCIONES Y TECNOLOGÍA E.U.";;;"(57) (4) 4449232";"Cl 6 A 29-126 Colombia, Medellín"
"SEGUROS SABANETA";;;"(57) (4) 2884160";"Cr45 72 S-78 Of 206 Sabaneta Colombia, Medellín"
"RAMÍREZ V. CÍA. LTDA. MARIO";;;"(57) (4) 2313710";"Cr50 48-53 Of 705 Colombia, Medellín"
"SEGUROS LA EQUIDAD";;;"(57) (5) 5707332";"Cl 16 10-30 Colombia, Valledupar"
"ALVAREZ GANDUR ASOCIADOS E HIJOS & CÍA. LTDA.";;;"(57) (76) 5650414";"Cr12 3-86 Centro Colombia, Aguachica"
"CST SEGUROS E INVERSIONES CARMENZA SIERRA";;;"(57) (4) 3139227";"Cl 7 S 42-70 Of - 701 Colombia, Medellín"
"SEGUROS INVERTEJ LTDA";;;"(57) (1) 4276226";"Av (Cl) 26 68 C-61 Of 817 Colombia, Bogotá"
"CARDONA MONTOYA FRANCISCO";;;"(57) (4) 2750328";"Cl 45 A 46-20 Bello Colombia, Bello"
"AGENCIA DE SEGUROS COMSIDERAL LTDA";;;"(57) (7) 6321565";"Cl 36 31-39 Of 212 Colombia, Bucaramanga"
VITALSEGUROS;;;"(57) (7) 6578296";"Cl 48 32-14 Of 512 Colombia, Bucaramanga"
"ACCIÓN SOCIAL CORPORACIÓN";;;"(57) (2) 3702496";"Av6 N 16-21 L-2 Colombia, Cali"
"ASEGURAMOS SU SALUD";;;"(57) (2) 3241669";"Cr77 3 D-43 Colombia, Cali"
"First Name";"Email Address";Url;Telephone;Address
"ASEGURADORA SOLIDARIA DE COLOMBIA ENTIDAD COOPERATIVA";;;"(57) (2) 8200427";"Cl 1 7-14 Of 103 Colombia, Popayán"
"SOAT SEGURO OBLIGATORIO";;;"(57) (5) 3775139";"Cr 51B 82-254 C.C.Bahia Of.54 Colombia, Barranquilla"
"ADMASEGUROS LTDA.";;;"(57) (1) 2628212";"Cl 20 S 60-35 Int 1 Ap 102 Colombia, Bogotá"
SOAT;;;"(57) (5) 4213141";"Cl 30 5-10 Colombia, Santa Marta"
"GARCÍA ARENAS MARISOL";;;"(57) (1) 2235241";"Dg63 F 88-22 Colombia, Bogotá"
"AGENCIA DE SEGUROS NEXOS";;;"(57) (6) 8812333";"Cl 47 23-20 Colombia, Manizales"
"SEGUROS CÙCUTA JD";;;"(57) (7) 5793000";"Av 6A 0-133 La Merced Colombia, Cúcuta"
"BUENDÍA VELASCO SOLEDAD DE LAS MERCEDES";;;"(57) (1) 6110872";"Cl 90 11-44 Of 502 Colombia, Bogotá"
"GESS SEGUROS LTDA.";;;"(57) (1) 3232736";"Cl 41 21 A-16 P-2 Colombia, Bogotá"
"PABÓN RODRÍGUEZ ALVARO ENRIQUE";;;"(57) (1) 7562092";"Cl 122 22-61 Colombia, Bogotá"
"ERSARF SEGUROS";;;"(57) (8) 8331954";"Cr9 7-78 Centro Colombia, Garzón"
"BARONA VILLA & CÍA. LTDA.";;;"(57) (2) 6675986";"Cl 23 N 4 N-50 Of 403 Colombia, Cali"
"VARELA MORALES GLORIA INÉS";;;"(57) (2) 3367579";"Cl 12 29 B-78 Ap 103-S Colombia, Cali"
"SEGUROS Y SERVICIOS";;;"(57) (2) 6677241";"Cl 23 N 5 B N-103 P-2 Colombia, Cali"
"ARL SURA";;;"(57) (8) 6725134";"Cl 33 A 37-35 Colombia, Villavicencio"
"ALLIANZ SEGUROS DE VIDA";;;"(57) (7) 5730984";"Av 0 13-76 Colombia, Cúcuta"
"COOMEVA VINCULACIÓN A. AFILIACIÓN A. MEDICINA PREPAGADA";;;"(57) (2) 5580703";"Cr57 11 A-50 Of 802 Trr C Colombia, Cali"
"ANPROSEGUROS S.A.";;;"(57) (4) 3122233";"Cl 12 40-261 Colombia, Medellín"
"CLAUDIA SÁNCHEZ ZÚÑIGA";;;"(57) (2) 5525606";"Cl 10 62-18 Colombia, Cali"
"ANDRÉS CÁCERES & CÍA. LTDA.";;;"(57) (2) 2262855";"Cl 25 30-10 Colombia, Tuluá"
"SAAVEDRA SAAVEDRA & CIA. LTDA.";;;"(57) (2) 6681403";"Cl 28 N 3 A-45 Colombia, Cali"
SERVIEXPRESS;;;"(57) (6) 7449892";"Cr15 19-21 L-11 Colombia, Armenia"
"RESTREPO GIRALDO MARIA TERESA";;;"(57) (2) 3331544";"Cl 34 67 A-17 Ap 301 Colombia, Cali"
"SEGUROS DEL VALLE";;;"(57) (2) 6608953";"Av5 A N 23 A-53 Colombia, Cali"
"AVAL SEGUROS LTDA.";;;"(57) (6) 3337715";"C.C. Alcides Arévalo Of 401 Colombia, Pereira"
"TORRES GUARÍN Y CIA LTDA ASESORES DE SEGUROS";;;"(57) (8) 4351205";"Cl 13 11-48 Of 105 Edif Corevisa Colombia, Florencia"
"PROTECCION TOTAL EN SEGUROS";;;"(57) (7) 6450323";"Cl 14 35-43 Of 404 Colombia, Bucaramanga"
COASIC;;;"(57) (7) 6328774";"Cr38 41-52 Cabecera Colombia, Bucaramanga"
"ACOSEGUR LTDA";;;"(57) (7) 5715841";"Cl 14 3-73 Of 204 Colombia, Cúcuta"
SURA;;;"(57) (1) 6504010";"Cr11 93-46 P 5 Colombia, Bogotá"
PROINCASE;;;"(57) (1) 2578340";"Cl 79 18-34 Of 401 Colombia, Bogotá"
"BLANCA CECILIA FLÓREZ AGENCIA DE SEGUROS Y CÍA. LTDA.";;;"(57) (1) 6191797";"Cl 105 15-72 Of 605 Colombia, Bogotá"
PROVIFUTURO;;;"(57) (7) 6429100";"Cr14 35-22 Of 308 Centro Colombia, Bucaramanga"
"TAPIMOTOS SPECIAL";;;"(57) (1) 8314227";"Cr7 21 A-67 Granada Colombia, Girardot"
"RODRÍGUEZ SALAZAR & CÍA.LTDA. ASESORES DE SEGUROS";;;"(57) (2) 4473614";"Cr3 57-35 Colombia, Cali"
"SEGUROS PREVISORA";;;"(57) (7) 7272961";"Cr15 15-15/19 Colombia, Socorro"
"FIRMEX SEGUROS Y PLANEACIÓN FINANCIERA";;;"(57) (2) 3720101";"Cl 12 N 4-17 Of 513 Colombia, Cali"
"YAÑEZ RANGEL ASESORES";;;"(57) (7) 5714873";"Cl 14 4-01 Colombia, Cúcuta"
"SEGUROS & SERVICIOS";;;"(57) 3137659855";"Cr2 14-17 Of 4 Colombia, La Dorada"
"ASCOLSEG LTDA.";;;"(57) (1) 2350359";"Cl 59 13-52 Of 206 Colombia, Bogotá"
"First Name";"Email Address";Url;Telephone;Address
"SEYCO LTDA.";;;"(57) (1) 2368350";"Autop Norte 101-29 Colombia, Bogotá"
"ENTRESA LTDA.";;;"(57) (7) 6781087";"Cl 31 A 26-15 Of 708 C.E. La Florida Colombia, Bucaramanga"
"F.A.C. ASESORES PROFESIONALES";;;"(57) 3165390260";"Cr5 79 C-39 Trr C Ap 302 Edif. El Portal de Las A Colombia, Ibagué"
"JOSÉ MANUEL VÉLEZ Y CÍA. LTDA.";;;"(57) (6) 8853032";"Cr23 57-27 Colombia, Manizales"
"J. DE J. R. CONSULTORES";;;"(57) (4) 3333855";"Cr. 40A 48Sur-63 Ap 101 Envigado Colombia, Medellín"
"GARCÉS GIRALDO";;;"(57) (2) 8808441";"Cl 11 1-07 Of 301 Colombia, Cali"
"FERREIRA ASOCIADOS";;;"(57) (6) 8830926";"Cl 22 22-26 Of 504 Colombia, Manizales"
"BLINDAR LTDA.";;;"(57) (1) 2869827";"Cl 14 7-33 Of 602 Colombia, Bogotá"
"J RAMIREZ Y ASOCIADOS LTDA.";;;"(57) (6) 8856085";"Cr24 B 58 A-50 Colombia, Manizales"
"LUGO Y CÍA. LTDA. VÍCTOR MANUEL";;;"(57) (8) 6623828";"C.C. Galerón F M-16 Centro Colombia, Villavicencio"
"ANALISTAS INTEGRALES EN SEGUROS & COMPAÑÍA LTDA";;;"(57) (6) 3333684";"Cr8 23-09 Of 503 Edif. Cámara de Comercio Colombia, Pereira"
"PAZ CONCHA MARÍA JOSEFINA";;;"(57) (2) 8201296";"Cl 1 1-13 Casa 13 Urb Caldas Colombia, Popayán"
"SEGUROS CONDOR S.A.";;;"(57) (1) 3192930";"Cr7 74-21 P-2 Colombia, Bogotá"
"SOLUCIONES EN SEGUROS";;;"(57) (2) 8240013";"Cr7 3-50 Of 2 Colombia, Popayán"
"SEFÍN SEGUROS LTDA.";;;"(57) (1) 3178079";"Cr12 70-18 Colombia, Bogotá"
"RISK INSURANCE LTDA.";;;"(57) (1) 6940965";"Cl 19c 28-79 P-1 Colombia, Bogotá"
"COOMEVA SOLIDARIDAD Y SEGUROS";;;"(57) (5) 3619800";"Cl 74 52-46 Colombia, Barranquilla"
"CENPROSIS LTDA";;;"(57) (1) 3463970";"Cr3 62-21 Colombia, Bogotá"
"DÍAZ HECTOR JESÚS";;;"(57) (2) 7298852";"Cr25 15-62 C.C. El Zaguán del Lago Of 217 Colombia, Pasto"
"TORRES GUARÍN Y CÍA. LTDA. ASESORES DE SEGUROS";;;"(57) (8) 6622777";"Cl 41 33-11 Of 302 Edif Don José Colombia, Villavicencio"
"MAPFRE COLOMBIA";;;"(57) (7) 5730107";"Av1 Este 13-112 Caobos Colombia, Cúcuta"
"SEGUROS COMERCIALES BOLÍVAR S.A.";;;"(57) (2) 8889090";"Cr4 12-41 Of 203 Colombia, Cali"
"ALLIANZ SEGUROS";;;"(57) (7) 5725302";"Av0 15-44 Of 2-3 Edif Madel Colombia, Cúcuta"
"PÉREZ Y CÍA LTDA. LUIS FELIPE";;;"(57) (7) 5778596";"Av Gran Colombia 3 E-32 Int 2 Edif Leidy Colombia, Cúcuta"
"LONDOÑO ALBA DOREY";;;"(57) (4) 4510077";"Cl 52 B 65-93 Casa 17 Bello Colombia, Bello"
"OFICINA DE SEGUROS.";;;"(57) (4) 2761293";"Cl 44 B Sur 40 A -10 Int 201 Envigado. Colombia, Medellín"
"INVERSIONES FOREVER";;;"(57) (4) 2549318";"Cl 55 40-14 Int 1304 Colombia, Medellín"
"L.M. ASEGURAMOS LTDA";;;"(57) (4) 5142221";"Cl 53 47-59 Of. 708 Colombia, Medellín"
"RODOLFO QUINTERO Y CIA SEGUROS ACESORIAS E INVE";;;"(57) (4) 3213330";"cl7 S42-70 Int 1007 Colombia, Medellín"
"HELM INSURANCE CORREDORES DE SEGUROS";;;"(57) (4) 6041818";"Cl 7 39-215 Ed. BBVA Colombia, Medellín"
"ASESORÖAS & RECLAMOS CONSULTORES DE SEGUROS";;;"(57) (2) 3730313";"Cl 50 N 5 C N-51 Colombia, Cali"
"DEOSSA CORREA IVÁN DARÍO";;;"(57) (4) 3318665";"Cr43 A 27 A S-86 Of-213 Envigado Colombia, Envigado"
SUFIAUTO;;;"(57) (4) 2304448";"Cr68 49 A-29 Int 302 Colombia, Medellín"
"OFICINA DE SEGUROS MARTÍN ALONSO ZAPATA M.";;;"(57) (4) 5143677";"Cl 54 45-58 Of 314 Colombia, Medellín"
"RAPISEGUROS DEL VALLE";;;"(57) (2) 8834478";"Cr7 11-21 Of 410 Colombia, Cali"
"LA OCCIDENTAL LTDA. ASESORES DE SEGUROS";;;"(57) (2) 4852424";"Av5 A N 22 N-12 Colombia, Cali"
"OMNIPROTECCIÓN ASESORES DE SEGUROS LTDA.";;;"(57) (1) 2995631";"Cl 1S 72C-19 Colombia, Bogotá"
"AVANZA TAXIS";;;"(57) (4) 2326697";"Cr43 G 25-13 Colombia, Medellín"
"NDES LTDA. GENCIA NACIONAL DE SEGUROS";;;"Conm.: (57) (1) 2325377";"Cl 33 19-59 Colombia, Bogotá"
"TORRES GUARIN Y CIA LTDA ASESORES DE SEGUROS";;;"(57) (68) 8570168";"Cr6 N° 11-73 Colombia, La Dorada"
"First Name";"Email Address";Url;Telephone;Address
"AZ SEGUROS LTDA.";;;"(57) (1) 2854430";"Cl 29 6-94 P-5 Colombia, Bogotá"
"CASTRO RUBIANO Y CÚA. LTDA. AGENCIA COLOCADORA DE SEGUROS";;;"(57) (1) 6126169";"Cl 118 22 - 71 Ap 303 Colombia, Bogotá"
"AUTO CENTRO SAN JORGE S.A.";;;"(57) (5) 3581662";"Cr43 68-13 Colombia, Barranquilla"
"HIKANOS LTDA. ADMINISTRADORES DE SEGUROS";;;"(57) (1) 3177245";"Cl 74 15-80 Int 1 Of 206 Colombia, Bogotá"
"RESTREPO Y CÍA LTDA ASESORES EN SEGUROS ANTONIO";;;"(57) (4) 2512985";"Cr49 50-41 Of 202 Colombia, Medellín"
"MULTISEGUROS DE OCCIDENTE";;;"(57) (6) 3256716";"Cl 21 5-72 Colombia, Pereira"
"PÉREZ Y CÍA. LTDA. DE MARTHA CLEMENCIA";;;"(57) (1) 5223401";"Cr11 B 98-67 Colombia, Bogotá"
"ARTUSEG LTDA.";;;"(57) (1) 6134504";"Cr70 101-35 Of 301 Colombia, Bogotá"
"TORRES GUARÍN Y CÍA. LTDA. ASESORES DE SEGUROS";;;"(57) (5) 7282803";"Cl 2 9-74 Colombia, Riohacha"
"BARRERA LTDA";;;"(57) (1) 6485324";"Cr14 151-60 OF 508 Colombia, Bogotá"
"LA CARINTÍA ASESORES DE SEGUROS LTDA.";;;"(57) (1) 2354016";"Cr9 59-75 P-4 Colombia, Bogotá"
"PREVISORA SEGUROS";;;"(57) (7) 8854517";"Cl 21 20-48 Centro Colombia, Arauca"
"MORA TORRES RUBIELA";;;"(57) (2) 3332443";"Cr50 16-68 P-2 Colombia, Cali"
"MULTISEGUROS LTDA.";;;"Telefax: (57) (2) 5582709";"Cl 7 27-63 Colombia, Cali"
"ARL SURA";;;"(57) (8) 6725134";"Cl 33 A 37-35 Colombia, Villavicencio"
"ASESORES DE SEGUROS";;;"(57) (4) 4113398";"Cr74 40-23 L-102 Colombia, Medellín"
"ALBERTO GUERRERO REY Y CÍA. LTDA.";;;"(57) (2) 6612737";"Av7 N 23 N-46 Colombia, Cali"
"LAS TRES EMES AGENCIA DE SEGUROS";;;"(57) (2) 3241111";"Cr3 11-29 Of 106 Colombia, Cali"
"QUIJANO & QUIJANO LTDA.";;;"(57) (2) 4861111";"Av6 N 25-58 P-3 Colombia, Cali"
"CAPARROSO MOTTA & CÍA. LTDA.";;;"(57) (2) 5541876";"Cr24 C Oe 2-74 P-2 Colombia, Cali"
"ESTILO E IMAGEN";;;"(57) (8) 2740240";"Et 2 Manz 18 Casa 13 El Jordán Colombia, Ibagué"
"MARÍA ISABEL PUPIALES VARGAS";;;"(57) (2) 2321090";"Cr24 24-11 Colombia, Tuluá"
"TORRES GUARÍN Y CIA LTDA ASESORES DE SEGUROS";;;"(57) (8) 4351205";"Cl 13 11-48 Of 105 Edif Corevisa Colombia, Florencia"
"JALREY Y CÍA LTDA.";;;"(57) (1) 2818654";"Cr10 16-39 Of 1405 Colombia, Bogotá"
"SEGUROS DUKCAR";;;"(57) (1) 8328427";"Cl 19 10-44 Colombia, Girardot"
"INTEGRAL DE SERVICIOS";;;"(57) (7) 6336243";"Cl 22 18-71 Colombia, Bucaramanga"
"GLOBAL SEGUROS DE VIDA S.A.";;;"(57) (1) 3139200";"Cr9 74-62 Colombia, Bogotá"
"SEGUROS TEASEGUROS LTDA.";;;"(57) (1) 3412829";"Cl 21 6-58 P-5 Colombia, Bogotá"
"ABC SEGUROS";;;"(57) (7) 5714881";"Cl 14 3-73 Of 104 La Playa Colombia, Cúcuta"
"ACOSEGUR LTDA";;;"(57) (7) 5715841";"Cl 14 3-73 Of 204 Colombia, Cúcuta"
"ADMINISTRADORA DE SEGUROS DEL CARIBE S.A.S.";;;"(57) (5) 3583243";"Cr50 76-54 L 3 Colombia, Barranquilla"
"SOMOS INTEGRALES R.C. S.A.S.";;;"(57) (2) 6643962";"Cl 46 N 2 A N-20 Colombia, Cali"
"PUBLISEGUROS LTDA.";;;"(57) (1) 3416619";"Cl 14 8-79 Of. 707 Colombia, Bogotá"
"COLSEGUROS CNC AVENIDA 15";;;"(57) (1) 6232600";"Tr 19 A 98-12 Avenida 15 Colombia, Bogotá"
"ORCA LTDA. ASESORES DE SEGUROS";;;"(57) (1) 6195058";"Cr14 A 112-96 Of 101 Colombia, Bogotá"
"AGENCIA ALBARRACIN Y DELGADO CIA. LTDA.";;;"(57) (1) 3106676";"Cl 70 A 14 A-15 Colombia, Bogotá"
"ASMV SEGUROS MERCADEO Y VENTAS";;;"(57) (2) 2873323";"Cr28 33-27 Colombia, Palmira"
"INTEGRAL DE SEGUROS EJE CAFETERO";;;"(57) (6) 3342996";"Cl 23 8-55 Of 304 Colombia, Pereira"
"ASEGURANDO PROFESIONALES EN SEGUROS";;;"(57) (8) 2660609";"C.C. La Quinta L-112 Colombia, Ibagué"
"ALIANZA SEGUROS DE OCCIDENTE";;;"(57) (2) 6675257";"Av5 N 17-76 Colombia, Cali"
"First Name";"Email Address";Url;Telephone;Address
"ARANGOS Y ASOCIADOS PROFESIONALES EN SEGUROS";;;"(57) (6) 8810801";"Cl 53A 23-29 Colombia, Manizales"
BIOSEGUROS;;;"(57) (4) 4487018";"Cl 33 S 45-14 envigado Colombia, Envigado"
"LOS OLIVOS AGENCIA DE SEGUROS";;;"(57) (7) 6577200";"Cr31 52 A-16 Colombia, Bucaramanga"
"SEGUROS ALVARO SANTOS";;;"(57) (2) 2728122";"Cl 30 28-82 Colombia, Palmira"
"AGENCIA DE SEGUROS NAVITRANS";;;"Conm.: (57) (4) 3606161";"Cl 11 S 50-50 Colombia, Medellín"
"CARDONA DUQUE SEGUROS";;;"(57) (6) 8901099";"Cr23 63-15 Of 903 Edif el Castillo Colombia, Manizales"
"JAIME SEVILLANO Y CÍA. LTDA.";;;"(57) (4) 3212524";"Cl 17 C S 44-117 Int 705 Colombia, Medellín"
REDESEGUROS;;;"(57) (1) 6170025";"Cr19C 85-30 Of 202 Edif. Dinamara Colombia, Bogotá"
"SOTO MEJÍA MAURICIO";;;"(57) (4) 4112844";"Cq 73 B 39 B-115 Of 305 Colombia, Medellín"
"SEGURIRIESGOS LTDA.";;;"(57) (1) 2819200";"Cl 21 6-58 Of 604 Colombia, Bogotá"
"CENPROSIS LTDA";;;"(57) (1) 3463970";"Cr3 62-21 Colombia, Bogotá"
SURAMERICANA;;;"(57) (5) 5744319";"Cl 16 10-37 Valledupar Colombia, Valledupar"
"AGENCIA PROFESIONAL DE SEGUROS LTDA.";;;"(57) (4) 3527371";"Cr43 A 16 A-S-38 Int 1201 Colombia, Medellín"
"LA LEGIÓN";;;"(57) (4) 4444655";"Cr46 B 77 A S-15 Sabaneta Colombia, Medellín"
"ARAMBURO ASESORES LTDA.";;;"(57) (4) 3540154";"Cr43 A 11 B-115 Colombia, Medellín"
EFICACIA;;;"(57) (2) 4854242";"Av5   N 23 A   N-35 Colombia, Cali"
"GLOBALITI SEGUROS";;;"(57) (4) 2517027";"Dg50 49-84 Int 1006 Colombia, Medellín"
"AGENCIA COLOCADORA DE SEGUROS DE LA GUARDA";;;"(57) (5) 6600149";"Cr8 34-63 Of 207 Edif Báladi Colombia, Cartagena"
"CST SEGUROS E INVERSIONES CARMENZA SIERRA";;;"(57) (4) 3139227";"Cl 7 S 42-70 Of - 701 Colombia, Medellín"
"CARDONA MONTOYA FRANCISCO";;;"(57) (4) 2750328";"Cl 45 A 46-20 Bello Colombia, Bello"
"COOPER MANCILLA NAZLY";;;"(57) (8) 2703404";"Cr6 30-55 Colombia, Ibagué"
"R.S.A. COLOMBIA SEGUROS";;;"(57) (2) 7312200";"Cl 20 30-31 P-2 Las Cuadras Colombia, Pasto"
"BLANCA CECILIA FLÓREZ AGENCIA DE SEGUROS Y CÍA. LTDA.";;;"(57) (1) 6191797";"Cl 105 15-72 Of 605 Colombia, Bogotá"
"LA EQUIDAD SEGUROS AGENCIA IBAGUE";;;"(57) (8) 2663166";"Cr5 38-29 Colombia, Ibagué"
"NAVARRETE PRIETO LTDA";;;"(57) (7) 6313337";"Cl 143 26-02 Provenza Colombia, Bucaramanga"
"ARY SEGUROS";;;"(57) (2) 6618541";"Av9 N 15-39 Colombia, Cali"
"METRÓPOLIS DISTRIBUCIONES";;;"(57) (4) 4270132";"Cl 62 130-08 San Cristóbal Colombia, Medellín"
"ASSERTLAN S.A.S.";;;"(57) 3751986";"Cr30 20-25 Hipódromo Soledad Colombia, Soledad"
"PROMOTORA SAMUR OCAMPO Y CÍA. LTDA.";;;"(57) (5) 6605919";"Cr17 24-178 Av California Colombia, Cartagena"
"RÍOS HERNÁNDEZ NELSON";;;"(57) (2) 8234574";"Cr4 E 20 N-08 Colombia, Popayán"
GRANSEGUROS;;;"(57) (4) 4444647";"Cr43 A 27 A S-86 L - 203 Envigado Colombia, Envigado"
"LONJA DE PROPIEDAD RAÍZ DE CALI Y VALLE DEL CAUCA";;;"(57) (2) 6657597";"Cl 64   N 5 B   N-146 L-102-G Colombia, Cali"
"AGENCIA DE SEGUROS ASESORAMOS 1203";;;"(57) (5) 6685287";"Manga Cl 29 28-42 L-1 Av 4 Colombia, Cartagena"
"TRAMITES Y DOCUMENTOS LEAL LEAL";;;"(57) (8) 8351944";"Cr1 B 4-13 Colombia, Pitalito"
"GENERALI COLOMBIA";;;"(57) (8) 2659347";"C.C La Quinta Local 105 Colombia, Ibagué"
"LA EQUIDAD SEGUROS GENERALES";;;"(57) (7) 7246325";"Cr9 11-77 P-2 Colombia, San Gil"
"WILLIS COLOMBIA S.A.";;;"(57) (1) 6067575";"Cl 28 13-22 P-7 Colombia, Bogotá"
"PROBROKER LTDA.";;;"Conm.: (57) (1) 6369499";"Cr16 96-64 Of 609 Colombia, Bogotá"
"MEGA .ASESORES DE SEGUROS";;;"Conm.: (57) (1) 6430920";"Av (Cr) 70 96-05 Colombia, Bogotá"
"RESTREPO Y CÍA LTDA ASESORES EN SEGUROS ANTONIO";;;"(57) (4) 2512985";"Cr49 50-41 Of 202 Colombia, Medellín"
"First Name";"Email Address";Url;Telephone;Address
"SEGUROS & SEGUROS";;;"(57) (2) 8386623";"Cl 4 7-54 Colombia, Popayán"
"AMAYA RANGEL ASESORES DE SEGUROS LTDA";;;"(57) (75) 5695411";"Cl 11 12-06 Centro Colombia, Ocaña"
"LA EQUIDAD SEGUROS O.C.";;;"(57) (2) 6530921";"Av Estación 3 A N-38 Colombia, Cali"
MILENIUM;;;"(57) (5) 3685109";"Cl 74 53-23 Of 303 Colombia, Barranquilla"
"INVERSIONES & SEGUROS";;;"(57) (8) 8712287";"Cl 9 5-92 Of 208 Colombia, Neiva"
"SEGUROS PORVENIR DE LA PLATA";;;"(57) (8) 8370238";"Cl 4 4-76 Páez Colombia, La Plata"
"INMOBILIARIA POPULAR";;;"(57) (7) 5751262";"Cl 7 A 5 E-17 Popular Colombia, Cúcuta"
"BUNDESEG CONSULTORES DE SEGUROS LTDA.";;;"(57) (1) 2482083";"Cl 75 13-51 Of 502 Colombia, Bogotá"
"MARTÍNEZ HORTENCIA";;;"(57) 5781659";"Cl 8 C N 2-37 El Bosque Colombia, Cúcuta"
".P SEGUROS & CÍA. LTDA.";;;"(57) (1) 6234164";"Cl 93 B 17-25 Of 205 Colombia, Bogotá"
"LONDOÑO ALBA DOREY";;;"(57) (4) 4510077";"Cl 52 B 65-93 Casa 17 Bello Colombia, Bello"
"GONZÁLEZ MELGUIZO ROCÍO";;;"(57) (4) 3119787";"Cr41 9 -51 Of 104 Colombia, Medellín"
"PÉREZ ZAPATA JORGE LUIS";;;"(57) (4) 4163382";"Cq 4 71-15 Colombia, Medellín"
UNIONCOOP;;;"(57) (4) 4442993";"Cr80 AA 36-12 Colombia, Medellín"
"TECNIRIESGOS AGENCIA DE SEGUROS LTDA.";;;"(57) (4) 4160338";"Cl 40 82 A-71 Ap 604 Colombia, Medellín"
"HELM INSURANCE CORREDORES DE SEGUROS";;;"(57) (4) 6041818";"Cl 7 39-215 Ed. BBVA Colombia, Medellín"
ASESOR.ES;;;"(57) (4) 3133339";"Cr43 A 15 S-15 Of. 201 Colombia, Medellín"
"FINSEGUROS LTDA";;;"(57) (4) 2515979";"Cl54 45-63 Of 317 Colombia, Medellín"
"MORENO DE BEDOUT DIEGO IGNACIO";;;"(57) (4) 3112737";"Cl 10 42-45 Of-404 Colombia, Medellín"
"ALVARO ESCOBAR CH & CÍA. LTDA.";;;"(57) (2) 6679955";"Cl 38 N 6 N-35 Trr Parqueaderos P-6 Of 622 Colombia, Cali"
"ALLIANZ SEGUROS S.A.";;;"(57) (2) 8861400";"Cr5 10-63 P-9 Colombia, Cali"
"NELLY MIRANDA SEGUROS LTDA";;;"Domic.: (57) (1) 6202136";"Cr 11 114-20P-1 Colombia, Bogotá"
"AON COLOMBIA S.A. CORREDORES DE SEGUROS";;;"(57) (5) 6642311";"Calle del Arsenal 8 B-195 Of 202 Edif Royal Sun Alliance Colombia, Cartagena"
"GENERALI COLOMBIA S.A.";;;"(57) (2) 6612335";"Av9 N 16-59 Colombia, Cali"
"MILENIO CÍA. LTDA. ASESORES DE SEGUROS";;;"(57) (1) 2589891";"Av19 128 B-65 Colombia, Bogotá"
"INTANSEG LTDA.";;;"(57) (5) 3419687";"Cl 37 46-90 Of 603 Colombia, Barranquilla"
"CABRERA CAICEDO ALVARO";;;"(57) (2) 2724175";"Cl 33 25-25 Colombia, Palmira"
"ADMINISTRADORA DE SEGUROS A.DE S.";;;"(57) (6) 7440912";"Cr14 18-33 P-2 Colombia, Armenia"
"HIKANOS LTDA.";;;"(57) (1) 3177245";"Cl 72 12-75 P-10 Colombia, Bogotá"
"REYES G. MARÍA DEL ROSARIO";;;"(57) (2) 2248388";"Cr26 26-20 L-104 Colombia, Tuluá"
"JVC .ASESORES DE SEGUROS LTDA.";;;"(57) (1) 6249190";"Av (Cl) 100 60-04 Colombia, Bogotá"
"SOLO MOTOS KAWASAKI";;;"(57) (28) 8262174";"Cr7 2-49 Colombia, El Bordo"
"LEGAL SEGUROS";;;"(57) (2) 3116687";"Cl 24 N 5 B-63 Colombia, Cali"
"SERVISEGUROS S.A.S.";;;"(57) (4) 5133862";"Cl 48 48-14 Of 1206 Colombia, Medellín"
"MULTISOLUCIONES Y TECNOLOGÍA E.U.";;;"(57) (4) 4449232";"Cl 6 A 29-126 Colombia, Medellín"
"VEROTA LTDA";;;"(57) (4) 4481777";"Cl 48 B 66-7 Of. 201 Colombia, Medellín"
"SEGUROS SABANETA";;;"(57) (4) 2884160";"Cr45 72 S-78 Of 206 Sabaneta Colombia, Medellín"
"RAMÍREZ CLAUDIA";;;"(57) (4) 2699033";"Cr 30 40 A- 66 Ap 301 Colombia, Medellín"
"DOLMEN ASESORES LTDA.";;;"(57) (4) 3111390";"Cl 10 30-30 L-313 Colombia, Medellín"
"COLSEGUROS S.A";;;"(57) (4) 7822110";"Cl 24 2-61 L-3 Colombia, Montería"
"First Name";"Email Address";Url;Telephone;Address
"DAMOS PROTECCIÓN LTDA.";;;"(57) (4) 2649023";"Cr75 77 A C-75 Int 152 Colombia, Medellín"
"ALSEGUROS LTDA.";;;"(57) (2) 2146676";"Cl 12 3-66 Of 1-14 C.C Villa de Robledo Colombia, Cartago"
"SEGUROS GLOBAL";;;"Conm.: (57) (2) 3128181";"Cl 14 68-26 Colombia, Cali"
CONSEGURIDAD;;;"(57) (2) 3306653";"Cr80 5-220 Unidad 3 Edif 4 Ap 313 Colombia, Cali"
"CAMARGO SERGIO NICOLAS";;;"(57) (7) 6420139";"Cl 45 7-41 Alfonso López Colombia, Bucaramanga"
PROENSE;;;"(57) (6) 3160377";"Cl 19 29-80 B-10 Ap 501 El Tulcán II Colombia, Pereira"
"GRUPO EMPRESARIAL SION";;;"(57) (1) 8421878";"Cr3 1-114 Facatativá Colombia, Bogotá"
"SEGUROS JAIME GARAVITO";;;"(57) (72) 7485614";"Cl 7 8-57 Colombia, Barbosa"
"PUNTO SEGURO LTDA.";;;"(57) (7) 6850202";"Cr31 52 A-13 Colombia, Bucaramanga"
"KIT AGENCIA DE SEGUROS LTDA";;;"(57) (1) 3113166";"Cr65 67 A-59 Of 202 Colombia, Bogotá"
"ARANGOS Y ASOCIADOS PROFESIONALES EN SEGUROS";;;"(57) (6) 8810801";"Cl 53A 23-29 Colombia, Manizales"
"INTERSEGUROS DE COLOMBIA S.A.S";;;"(57) (4) 5116804";"Cr49 49-73 Int 1603 Colombia, Medellín"
"SEGUROS TEASEGUROS LTDA.";;;"(57) (1) 3412829";"Cl 21 6-58 P-5 Colombia, Bogotá"
"RIBERO DUQUE EMILSE";;;"(57) (7) 6526375";"Cl 34 20-38 Of 108 Colombia, Bucaramanga"
"HARKER CIA.";;;"(57) (1) 2363729";"Cr11 86-60 Of. 204 Colombia, Bogotá"
"GALLEGO GÓMEZ MARIO";;;"(57) (6) 8804753";"Cl 26 23-15 P-3 Colombia, Manizales"
"SEGURIRIESGOS LTDA.";;;"(57) (1) 2819200";"Cl 21 6-58 Of 604 Colombia, Bogotá"
"SOMOS INTEGRALES R.C. S.A.S.";;;"(57) (2) 6643962";"Cl 46 N 2 A N-20 Colombia, Cali"
"LATIN AMERICAN REINSURANCE COMPANY";;;"Conm.: (57) (1) 5938020";"Cl 7 114-33 Colombia, Bogotá"
"BLANCA CECILIA FLÓREZ AGENCIA DE SEGUROS Y CÍA. LTDA.";;;"(57) (1) 6191797";"Cl 105 15-72 Of 605 Colombia, Bogotá"
"AGENCIA ANTIOQUEÑA DE SEGUROS LTDA.";;;"(57) (4) 2647765";"Cl 53 74-125 Int 407 Colombia, Medellín"
"DÍAZ LUIS";;;"(57) (1) 2839521";"Cr10 14-30 P-10 Colombia, Bogotá"
"J B SEGUROS";;;"(57) (2) 5242497";"Cr83 A 42-30 Colombia, Cali"
"CENTRO DE DIAGNÓSTICO AUTOMOTOR DE LLANOGRANDE S.A.S.";;;"(57) (2) 2751131";"Cr34 31-55 Bdg-3 Colombia, Palmira"
"SEGUROS ALVARO SANTOS";;;"(57) (2) 2728122";"Cl 30 28-82 Colombia, Palmira"
"FORERO GÓMEZ NÉSTOR";;;"(57) 3164603087";"Cl 34 19-14 OF 218 Colombia, Bucaramanga"
"VILLAMIZAR MUTIS EDUARDO CÍA. LTDA.";;;"(57) (7) 6303868";"Cl 35 16-24 Of 605 Colombia, Bucaramanga"
"ASESOR DE SEGUROS EDGAR SÁNCHEZ";;;"(57) (1) 8350700";"Cr10 22-30 P-2 Colombia, Girardot"
"ALIANZACOOP CTA";;;"(57) (7) 6450982";"Cl 35 29-25 Mejoras Públicas Colombia, Bucaramanga"
"ALIANZA SEGUROS DE OCCIDENTE";;;"(57) (2) 6675257";"Av5 N 17-76 Colombia, Cali"
"ANDREA GARCÍA SEGUROS LTDA.";;;"(57) (2) 4383642";"Cl 30 A 11 A-67 P-2 Colombia, Cali"
"J.G.R. SU ASESOR";;;"(57) (2) 3350519";"Cr36 B 13-36 Colombia, Cali"
"FERREIRA ASOCIADOS";;;"(57) (6) 8830926";"Cl 22 22-26 Of 504 Colombia, Manizales"
"ARBELÀEZ ARBELÁEZ BERNARDO";;;"(57) (6) 8804696";"Cr21 30-03 Of 601 Colombia, Manizales"
"SEGUROS & SERVICIOS";;;"(57) 3137659855";"Cr2 14-17 Of 4 Colombia, La Dorada"
"J RAMIREZ Y ASOCIADOS LTDA.";;;"(57) (6) 8856085";"Cr24 B 58 A-50 Colombia, Manizales"
"RIVEROS FABIO ABOGADO ASESOR DE SEGUROS";;;"(57) (1) 3417320";"Cr8 15-49 Of 908 Colombia, Bogotá"
"COLSEGUROS S.A.";;;"Nal: 018000513500";"Cr13 A 29-24 P-11 Ala Norte Bogotá Colombia, Bogotá"
"LUGO Y CÍA. LTDA. VÍCTOR MANUEL";;;"(57) (8) 6623828";"C.C. Galerón F M-16 Centro Colombia, Villavicencio"
"ORGANIZACIÓN DE SEGUROS ORJUELA Y CÍA. LTDA.";;;"(57) (1) 2494021";"Cr6 67-09 Colombia, Bogotá"
"First Name";"Email Address";Url;Telephone;Address
"UNINCO SEGUROS";;;"(57) (2) 6815528";"Cl 52 A 2 G N-79 Colombia, Cali"
"TORRES GUARÍN Y CÍA LTDA. ASESORES DE SEGUROS";;;"(57) (8) 8715458";"Cr5 9-53 Colombia, Neiva"
"AC SEGUROS LTDA.";;;"(57) (1) 2329272";"Cl 36 18-23 Of. 203 Colombia, Bogotá"
"INSTITUTO NACIONAL DE SEGUROS";;;"(57) (1) 3443080";"Cr7 26-20 P-4 Colombia, Bogotá"
"PREVISORA S.A";;;"(57) (5) 3604545";"cr 51B 76-136 Piso 1 y 2 Colombia, Barranquilla"
"ACHE ASESORES DE SEGUROS & CÍA. LTDA.";;;"(57) (5) 6602773";"Centro Cl 32 5-09 Of 602 Edif Andian Plaza de la Aduana Colombia, Cartagena"
"EQUIDAD SEGUROS";;;"(57) (6) 7410965";"Cr16 21-25 L-7 Colombia, Armenia"
SUASESORÍA;;;"(57) (4) 4449100";"Cl 18 35-69 Of 9945 Colombia, Medellín"
"CARDINAL COMPAÞÚA DE SEGUROS S.A.";;;"(57) (1) 7039052";"Cl 98 21 - 50 Colombia, Bogotá"
"GUILLERMO PENAGOS JUSTES E.U";;;"(57) (1) 6267838";"Cl 154 17-42 Colombia, Bogotá"
"SANCHEZ ACUÑA DOLLY ESPERANZA";;;"(57) (1) 2830938";"Cr10 14-30 Of 200 Colombia, Bogotá"
"VIGÍA LTDA.";;;"(57) (4) 3135353";"Cl 16 A S 48-29 Colombia, Medellín"
"C.M. CONSULTEC";;;"(57) (2) 8920491";"Cl 17 Oe 15-200 Colombia, Cali"
"OREJUELA BRANCH MYRIAM";;;"(57) (2) 8846765";"Cr9 11-50 P-3 Of 19 Colombia, Cali"
PRYMAX;;;"(57) (6) 7466974";"Cr15 13 N-55 L-1 Colombia, Armenia"
NORTESEGUROS;;;"(57) (6) 8868597";"Vía Cerro de Oro 67-70 OF 701 Colombia, Manizales"
"GLOBAL SEGUROS DE VIDA S.A.";;;"(57) (1) 3139200";"Cr9 74-62 Colombia, Bogotá"
"SEGUROS TEASEGUROS LTDA.";;;"(57) (1) 3412829";"Cl 21 6-58 P-5 Colombia, Bogotá"
"SOMOS INTEGRALES R.C. S.A.S.";;;"(57) (2) 6643962";"Cl 46 N 2 A N-20 Colombia, Cali"
"RINCÓN GOMEZ EDUARDO & CÍA. LTDA";;;"(57) (7) 6435000";"Dg31 53-90 Colombia, Bucaramanga"
"FINSAL LTDA.";;;"(57) (1) 2320347";"Cr7 35-33 Colombia, Bogotá"
"RÍOS HERNÁNDEZ NELSON";;;"(57) (2) 8234574";"Cr4 E 20 N-08 Colombia, Popayán"
"GALVES DIANA";;;"(57) (4) 2382616";"Cl 32 C 78-30 Ap 401 Colombia, Medellín"
"SEGUROS INTERNACIONALES DE COLOMBIA";;;"(57) (4) 2606179";"Cr74 48-37 Int 1044 Colombia, Medellín"
"AGENCIA DE SEGUROS ASESORAMOS 1203";;;"(57) (5) 6685287";"Manga Cl 29 28-42 L-1 Av 4 Colombia, Cartagena"
"MULTICREDITO Y SEGUROS";;;"(57) (4) 5114372";"Cl 51 49-11 Int 715 Colombia, Medellín"
"PREVISORA S.A. COMPAÑÍA DE SEGUROS";;;"(57) (2) 7222891";"Cl 19 22-70 Colombia, Pasto"
"AMPARAMOS LTDA.";;;"(57) (8) 6722903";"Cl 39 33-40 Centro Colombia, Villavicencio"
"REYES G. MARÍA DEL ROSARIO";;;"(57) (2) 2248388";"Cr26 26-20 L-104 Colombia, Tuluá"
"AM AJUSTADORES S.A.S.";;;"(57) (4) 4442034";"Cr65 B 32 D-28 Colombia, Medellín"
"YEPES YEPES CARLOS";;;"(57) (4) 2348215";"Cl 47 DD 82 A-84 Colombia, Medellín"
"UNANSE UNION NACIONAL DE ASESORES DE SEGUROS";;;"(57) (4) 2650046";"Cl 49 B 78 A-16 Colombia, Medellín"
"CHARTUNI GONZÁLEZ SALÚA";;;"(57) (5) 6605875";"Cr17 24-178 Av California Colombia, Cartagena"
"F & F SEGUROS LTDA";;;"(57) (1) 5234567";"Dg109 21-05 Of 207 Colombia, Bogotá"
"OCCIDENTAL DE SEGUROS";;;"(57) (1) 8910061";"Cr3 2-01 Parque Santader Facatativa Colombia, Bogotá"
"SERVICIO INMEDIATO DE SEGUROS SIS DEL CARIBE LTDA.";;;"(57) (5) 3494235";"Cl 54 45-51 L-104-105 Colombia, Barranquilla"
"SAAVEDRA SAAVEDRA & CIA. LTDA.";;;"(57) (2) 6681403";"Cl 28 N 3 A-45 Colombia, Cali"
"DECAPITAL SEGUROS";;;"(57) (7) 6704442";"Cl 35 12-31 Of 405 Colombia, Bucaramanga"
"AGENCIA DE SEGUROS EL MOLINO";;;"(57) (7) 6541062";"Km 2 Vía Bogotá L-11 Estación de Servicio Molino Colombia, Piedecuesta"
"KIT AGENCIA DE SEGUROS LTDA";;;"(57) (1) 3113166";"Cr65 67 A-59 Of 202 Colombia, Bogotá"
"First Name";"Email Address";Url;Telephone;Address
"AGENCIA DE SEGUROS VALENCIA JIMÉNEZ Y CÍA. LTDA";;;"(57) (4) 3116500";"Cl 7 D 43 A-99 Of 1305 Colombia, Medellín"
"ASEPROZDA LTDA.";;;"(57) (4) 5115303";"Cr46 49A-27 Of.602 Colombia, Medellín"
BELLOTAX;;;"(57) (4) 2610909";"Cr43 A 33-09 Colombia, Medellín"
"NDES LTDA. GENCIA NACIONAL DE SEGUROS";;;"Conm.: (57) (1) 2325377";"Cl 33 19-59 Colombia, Bogotá"
"NELLY MIRANDA SEGUROS LTDA";;;"Domic.: (57) (1) 6202136";"Cr 11 114-20P-1 Colombia, Bogotá"
"FORTIUS S.A";;;"(57) (1) 3210600";"Cr7 73-55 P-9 Colombia, Bogotá"
"BALUARTE DE SEGUROS & CÍA. LTDA.";;;"(57) (5) 6601924";"Cl 37 9-14 Calle Quero Colombia, Cartagena"
"CORREDOR HERMANOS Y ASOCIADOS LTDA.";;;"(57) (1) 2492425";"Cl 59 A 8-83 P-2 Colombia, Bogotá"
"ASESORES DE SEGUROS MARTHA JIMENEZ & CIA";;;"(57) (1) 3408783";"Cl 39 29-21 Colombia, Bogotá"
"INTANSEG LTDA.";;;"(57) (5) 3419687";"Cl 37 46-90 Of 603 Colombia, Barranquilla"
"SEGUTRANS LTDA.";;;"(57) (1) 5704112";"Tr66 35-04 Of 405 Colombia, Bogotá"
"H. RODRIGUEZ MORA CIA LTDA";;;"(57) (8) 8722189";"Cr7 10-79 Centro Colombia, Neiva"
EFICACIA;;;"(57) (2) 4854242";"Av5   N 23 A   N-35 Colombia, Cali"
"FELISA ZAMBRANO ADMINISTRACIONES";;;"(57) (4) 3514671";"Cr72 A 30 A-20 Colombia, Medellín"
"UNANSE UNION NACIONAL DE ASESORES DE SEGUROS";;;"(57) (4) 2650046";"Cl 49 B 78 A-16 Colombia, Medellín"
"RAMÍREZ CLAUDIA";;;"(57) (4) 2699033";"Cr 30 40 A- 66 Ap 301 Colombia, Medellín"
"RAMÍREZ V. CÍA. LTDA. MARIO";;;"(57) (4) 2313710";"Cr50 48-53 Of 705 Colombia, Medellín"
"GÓMEZ OSSA JOSÉ RODRIGO";;;"(57) (4) 4164780";"Cr71 AC 5-04 Colombia, Medellín"
"CENTRO EGURADOR DE PESADOS CAP LTDA.";;;"(57) (1) 2566549";"Cr50 96-97 Colombia, Bogotá"
"SEGUROS & FINANZAS DENNIS ACOSTA";;;"(57) (8) 8362484";"Cl 5 3-11 Colombia, Pitalito"
"SEGUROS ALCIRA CASTELLANOS";;;"(57) (72) 7486180";"Cr10 5-262 El Mirador Colombia, Barbosa"
"MULTISERVICIOS A.R";;;"(57) (8) 7427144";"Tr15 24-05 Sta Lucía Colombia, Tunja"
"CORPORACIÓN ASEGURANDO";;;"(57) (1) 8351595";"Cr8 20-10 Colombia, Girardot"
"PERDOMO EDUARDO";;;"(57) (1) 6103089";"Cr13 90-20 Of 102 Colombia, Bogotá"
"EQUIDAD SEGUROS";;;"(57) (8) 8714240";"Cr7 10-36 L-1-2 Colombia, Neiva"
"DA SEGUROS";;;"(57) (7) 5729557";"Av4 14-03 L-108 Esq Edif La Previsora Colombia, Cúcuta"
"CONEXS-COLOCADORES NACIONALES EXCLUSIVOS DE SEGUROS LTDA.";;;"(57) (8) 8712106";"Cl 9 4-19 Colombia, Neiva"
"SA&SA SEGUROS S.A.S.";;;"(57) (1) 3198270";"Cr7 72-13 P-4 Colombia, Bogotá"
"CONEXIÓN LTDA.";;;"(57) (5) 3682922";"Cr52 75-27 L-2 Colombia, Barranquilla"
"ANTONIO BARROS & CÍA. LTDA.";;;"(57) (5) 3409763";"Cl 40 No. 44-91 Colombia, Barranquilla"
"CERALZA AGENCIA DE SEGUROS CIA. LTDA.";;;"(57) (4) 4484428";"Cl 10 41 - 20 Of 201 Colombia, Medellín"
"FUNERARIA AVELLANEDA";;;"(57) (7) 7272328";"Cr14 11-70 Colombia, Socorro"
"PÉREZ Y CÍA. LTDA. DE MARTHA CLEMENCIA";;;"(57) (1) 5223401";"Cr11 B 98-67 Colombia, Bogotá"
"PUENTES VILLAMIL JORGE HUMBERTO";;;"(57) (1) 4156008";"Cr97 16D-44 P-3 Colombia, Bogotá"
"SEGUROS GENERAL";;;"Telefax: (57) (5) 3569626";"Cl 76 43 B-08 L-1 Colombia, Barranquilla"
"SEGUROS ESTRATÉGICOS";;;"(57) (1) 6219797";"Cl 94 A 13-42 Of 207 Colombia, Bogotá"
"SEGUROS J.S.";;;"(57) (4) 8284175";"Cr107 98-16 Colombia, Apartadó"
"URIBE POLANCO BEATRIZ HELENA";;;"(57) (1) 6434205";"Av (Cl) 127 70 D-27 Colombia, Bogotá"
"LA CASTILLA";;;"Conm.: (57) (1) 6131666";"Cl 106 43 A-26 Colombia, Bogotá"
"AFIANZAR SOCIEDAD ASESORA EN SEGUROS LTDA.";;;"(57) (1) 6224530";"Cl 93 14-20 Of 311 Colombia, Bogotá"
"First Name";"Email Address";Url;Telephone;Address
"GALVIS A. CIRO & CÍA.";;;"(57) (7) 6456657";"Cl 35 29-25 Colombia, Bucaramanga"
"AGENCIA DE SEGUROS QUINTERO GONZÁLEZ";;;"(57) (7) 6359959";"Cl 36 23-17 Of 203 Antonia Santos Colombia, Bucaramanga"
"AGENCIA JAKSON VASQUEZ";;;"(57) (7) 6812816";"Cl 43 26-75 L-1 El Poblado Girón Colombia, Girón"
"MADERO Y MALDONADO S.A";;;"(57) (1) 2815369";"Cl 26 4 A-45 P-4 Colombia, Bogotá"
"POLIZAS Y SEGUROS";;;"(57) (2) 5150364";"Cr10 8-56 Jamundí Colombia, Jamundí"
"CONSULTORES DE SEGUROS";;;"(57) (6) 3338484";"Cr7 18-21 Of 503 Edif Antonio Correa Colombia, Pereira"
"MAPFRE SEGUROS GENERALES DE COLOMBIA S.A.";;;"Nal: 018000977025";"Cr3 O E 1-70 Colombia, Cali"
"BERSIS LTDA.";;;"Conm.: (57) (2) 6670750";"Cl 29 N 6 A-35 Colombia, Cali"
"BERSEGUROS LTDA.";;;"(57) (2) 6536140";"Av9 N 16 N-18 Of 201 Colombia, Cali"
"ACM ASESORES DE SEGUROS";;;"(57) (1) 6250659";"Tr28 136-28 Colombia, Bogotá"
"INTERAMERICANA DE SEGUROS";;;"(57) (1) 5404655";"Cl 53 A 27 B-26 Colombia, Bogotá"
"VARGAS SEGUROS";;;"(57) (4) 3347018";"Cl 33 S 43-33 Envigado Colombia, Envigado"
"ASESORIAS AM";;;"Nal: (57) (4) 4440302";"Cr49 49-73 Colombia, Medellín"
"CENTRO EGURADOR DE PESADOS CAP LTDA.";;;"(57) (1) 2566549";"Cr50 96-97 Colombia, Bogotá"
"HOREB CONSULTORES LTDA. SEGUROS E INVERSIONES";;;"(57) (1) 3000379";"Cl 122 7 A - 31 Ap 101 Colombia, Bogotá"
"CM Y M ASESORES DE SEGUROS LTDA.";;;"(57) (1) 2118688";"Cl 67 6-60 Of 1402 Colombia, Bogotá"
"HERNÁNDEZ MEJÍA & CÍA. LTDA.";;;"(57) (8) 5123426";"Cr5 1 A-38 Int Colombia, San Andrés"
"RAMÍREZ RODRÍGUEZ MARÍA CECILIA";;;"(57) (1) 3360370";"Cr13 13-24 Of 826 Colombia, Bogotá"
"PROSER Y CÍA. LTDA.";;;"(57) (8) 7427006";"Cl 20 10-61 Of 201 Colombia, Tunja"
"PAN AMERICAN LIFE DE COLOMBIA";;;"Nal: (57) (1) 3267400";"Cr7 75-09 Colombia, Bogotá"
"ASESORES EN SEGUROS ORLANDO RAMÍREZ HUELGOS";;;"(57) (8) 6626618";"Cr32 38-52 Of M-1-3 C.C. Galerón Colombia, Villavicencio"
"ALIANZA CARVAJAL Y CÍA.LTDA.";;;"(57) (2) 6536855";"Cl 24 N 5 B N-56 Colombia, Cali"
"FONSECA SANCLEMENTE S.A CORREDORES DE SEGUROS";;;"(57) (2) 4873055";"Av8 N 24 A N-65 Colombia, Cali"
"LUCILA BOTERO Y CÍA. ASESORES DE SEGUROS LTDA.";;;"(57) (4) 2518031";"Cr49 52-61 Of 407 Colombia, Medellín"
"GLOBAL SOLUTIONS";;;"(57) (4) 4485455";"Cr48 A 10 S-32 Colombia, Medellín"
"PLUK TIENDA Y GALERÍA";;;"(57) (7) 6356094";"29 N° 42-47 Tempo II Parque Las Palmas Colombia, Bucaramanga"
COASIC;;;"(57) (7) 6328774";"Cr38 41-52 Cabecera Colombia, Bucaramanga"
"MARGARITA MARÍA GIRALDO GIRALDO";;;"(57) (6) 3345605";"Cr 6 17-62 Of. 403 Edif. Fegove Colombia, Pereira"
"ABC SEGUROS";;;"(57) (7) 5714881";"Cl 14 3-73 Of 104 La Playa Colombia, Cúcuta"
"CORRALES VILLEGAS FÉLIX ANTONIO";;;"(57) (6) 8507508";"Cl 11 7-51 Colombia, Chinchiná"
"PELÁEZ OCCIDENTE LTDA - SEGUROS CONFIANZA";;;"(57) (6) 8840811";"Cl 21 23-14 Colombia, Manizales"
"RINCÓN GOMEZ EDUARDO & CÍA. LTDA";;;"(57) (7) 6435000";"Dg31 53-90 Colombia, Bucaramanga"
"RIZO BERMÚDEZ ALEJANDRO ANTARES";;;"(57) (2) 6616835";"Cl 1 62-41 Colombia, Cali"
"INTERENLACE C.T.A.";;;"(57) (1) 5405563";"Cl 53 A 27 B-26 Colombia, Bogotá"
"LEÓN & ASOCIADOS S.A.";;;"(57) (5) 3567826";"Cr53 75-108 Of 7 P-2 Colombia, Barranquilla"
"LUIS FERNANDO CAICEDO ERASO Y CÍA . LTDA.";;;"(57) (2) 7235897";"Cr24 17-75 Edif Concasa Of 401 Colombia, Pasto"
"SEGUROS JAIME ORTIZ LOSADA J & C";;;"(57) (8) 8361437";"Cr1 A 3-58 Colombia, Pitalito"
"ARPA SEGUROS LTDA.";;;"(57) (1) 2368505";"Av (Cr) 15 85-29 Of 507 Colombia, Bogotá"
"RIESGOS Y SEGUROS SOLUCIONES INTEGRALES";;;"(57) (4) 4485020";"Cr29 E 4 S-131 Int 1404 Colombia, Medellín"
"SEGUROS MORENO LTDA.";;;"(57) (4) 4441955";"Tr39 74-28 Colombia, Medellín"
"First Name";"Email Address";Url;Telephone;Address
"SEGUROS COMERCIALES BOLÍVAR S.A.";;;"(57) (2) 8889090";"Cr4 12-41 Of 203 Colombia, Cali"
"MARTÍNEZ HORTENCIA";;;"(57) 5781659";"Cl 8 C N 2-37 El Bosque Colombia, Cúcuta"
ALIANSEGUROS;;;"(57) (4) 4362416";"Cl 48 C 66-07 INT 202 Colombia, Medellín"
"BERNAL RESTREPO Y CÍA";;;"(57) (4) 4121200";"Cl 40 74-38 Colombia, Medellín"
"LA LEGIÓN";;;"(57) (4) 4444655";"Cr46 B 77 A S-15 Sabaneta Colombia, Medellín"
"AL CLAU LTDA.";;;"(57) (4) 3310189";"Cl 36 A S 46 A-81 L-205 Envigado Colombia, Envigado"
"MOLINA B. ANGELA MARÍA";;;"(57) (4) 2626070";"Cr53 35-42 Colombia, Medellín"
"SEGUROS INTERNACIONALES DE COLOMBIA";;;"(57) (4) 2606179";"Cr74 48-37 Int 1044 Colombia, Medellín"
"AP SEGUROS";;;"Nal: (57) (4) 4164179";"Cl 39 C 73-83 Colombia, Medellín"
"GYAR SEGUROS";;;"(57) (4) 2685117";"Cl 2 S 46-55 Int 113 Colombia, Medellín"
"PÉREZ VICTORIA Y CIA. LTDA";;;"(57) (2) 6653853";"Cl 45 N 3 E-117 Colombia, Cali"
"BIBLOS LTDA";;;"(57) (2) 8821340";"Cr6 11-67 Of 201 Colombia, Cali"
"SEGUROS HALCÓN LTDA";;;"(57) (4) 4446350";"Cl 36 63-32 Colombia, Medellín"
"ESCOBAR & CÍA. LTDA. JOSÉ FERNANDO";;;"(57) (2) 6608775";"Cl 17 N 8-38 Colombia, Cali"
"SEGUROS S.L.H.";;;"(57) (2) 2298171";"Cl 9 2-02 Colombia, Roldanillo"
"AGENCIA DE SEGUROS ASESORAMOS 1203";;;"(57) (5) 6685287";"Manga Cl 29 28-42 L-1 Av 4 Colombia, Cartagena"
"NLA ASESORES EN SEGUROS";;;"(57) 3155483809";"Cl 2 14-01 L-A-3 Colombia, Armenia"
"WILLIS COLOMBIA S.A.";;;"(57) (1) 6067575";"Cl 28 13-22 P-7 Colombia, Bogotá"
"VIDA & BIENES ASESORES DE SEGUROS";;;"(57) (7) 6808343";"Cl 35 29-25 Colombia, Bucaramanga"
"LIBERTY SEGUROS S.A.";;;"Nal: 018000117224";"Av Eldorado 93-30 L-8 P-2 Colombia, Bogotá"
"NDES LTDA. GENCIA NACIONAL DE SEGUROS";;;"Conm.: (57) (1) 2325377";"Cl 33 19-59 Colombia, Bogotá"
"TORRES GUARIN Y CIA LTDA ASESORES DE SEGUROS";;;"(57) (68) 8570168";"Cr6 N° 11-73 Colombia, La Dorada"
"RSA COMPAÑIA DE SEGUROS S.A. - CIS PASTO";;;"(57) (2) 7227996";"Cl 19 27-54 Of 209 Las Palmas Colombia, Pasto"
"OLD MUTUAL PLANEACIÓN FINANCIERA S.A.";;;"(57) (7) 6472426";"Cr31 51-74 Of 606 Colombia, Bucaramanga"
SURA;;;"(57) (68) 8573924";"Cl 17 3-37 L-101 Colombia, La Dorada"
"MEJÍA Y CÍA. ASESORES DE SEGUROS";;;"(57) (8) 2701410";"Cr4 C 33-44 Cádiz Colombia, Ibagué"
ASEINTEGRALES;;;"(57) (6) 7414354";"Cr15 18-31 Of 202 Colombia, Armenia"
"HIKANOS LTDA.";;;"(57) (1) 3177245";"Cl 72 12-75 P-10 Colombia, Bogotá"
"ALLIANZ SEGUROS S.A.";;;"(57) (2) 2370262";"Cl 7 15-49 Colombia, Buga"
"SEGUROS OMEGA";;;"(57) (8) 6717272";"Cr30 41 A-88 Colombia, Villavicencio"
BELLOTAX;;;"(57) (4) 2610909";"Cr43 A 33-09 Colombia, Medellín"
"SOLO MOTOS KAWASAKI";;;"(57) (28) 8262174";"Cr7 2-49 Colombia, El Bordo"
"DURANGO E CIA. LTDA. AGENCIA DE SEGUROS";;;"(57) (4) 2515957";"Cl 53 47-59 Ofc 502 Colombia, Medellín"
"SERVISEGUROS S.A.S.";;;"(57) (4) 5133862";"Cl 48 48-14 Of 1206 Colombia, Medellín"
"GUSTAVO PINZµN Y CÚA. LTDA.";;;"(57) (1) 4660791";"Cl 19 6-68 Of 507 Colombia, Bogotá"
"FUNDACION ACTIVA J&P";;;"(57) (2) 8380100";"Cl 8 7-09 Colombia, Popayán"
WILLIS;;;"(57) (2) 8926054";"Cl 10 Oe 2-50 Colombia, Cali"
"DOLMEN ASESORES LTDA.";;;"(57) (4) 3111390";"Cl 10 30-30 L-313 Colombia, Medellín"
"CHARTUNI GONZÁLEZ SALÚA";;;"(57) (5) 6605875";"Cr17 24-178 Av California Colombia, Cartagena"
"SEGUROS SURA";;;"(57) (7) 7243645";"Cr10 12-77 Of 207 Centro Colombia, San Gil"
"First Name";"Email Address";Url;Telephone;Address
"MORRIZ LTDA.";;;"(57) (6) 8536417";"Cr5 7-05 P-1 Colombia, Anserma"
"ASESORES DE SEGUROS N.C.H. LTDA.";;;"(57) (8) 4220280";"Cl 9 19-38 C.C. El Bosque Colombia, Puerto Asís"
"AGENCIA INTEGRAL DE SEGUROS";;;"Telefax: (57) (7) 5830309";"Cl 10 3-75 Of 5 C.C. La Diez Colombia, Cúcuta"
"LATORRE ECHEVERRI & CÍA LTDA.";;;"(57) (2) 6814443";"Cr16 13-50 Colombia, Cali"
AMPARAR;;;"(57) (2) 6615234";"Cr100 5-169 Colombia, Cali"
"LUIS CARLOS BETANCUR Y CIA. LTDA.";;;"(57) (4) 2668762";"Cr79 A 45 D-107 Colombia, Medellín"
"QUINTERO G. Y CÍA. ARNOLDO";;;"(57) (4) 5119479";"Cl 51 49-76 Ap 505 Colombia, Medellín"
"MIGUEL GONZÁLEZ & CÍA. LTDA.";;;"(57) (2) 6833581";"Cr24 D 6-190 Oe Of 401 Colombia, Cali"
"MULTISEGUROS LTDA.";;;"Telefax: (57) (2) 5582709";"Cl 7 27-63 Colombia, Cali"
"TORRES Y VILLEGAS SEGUROS LTDA.";;;"Nal: (57) (4) 5830029";"Cl 19 B 80-124 Int 201 Colombia, Medellín"
"AGENCIA DE SEGUROS FABIO UPEGUI Y CÍA. LTDA.";;;"(57) (2) 6671284";"Av2 N 21-101 Colombia, Cali"
"MAX GUAYAS";;;"(57) (6) 3267725";"Av 30 de Agosto 27-12 Colombia, Pereira"
"DAMOS PROTECCIÓN LTDA.";;;"(57) (4) 2649023";"Cr75 77 A C-75 Int 152 Colombia, Medellín"
"CARDONA R. FRANCISCO DE J.";;;"(57) (2) 2722231";"Cr27 21-44 Colombia, Palmira"
"GRUPO MANEJAR";;;"(57) (7) 7246257";"Cr9 11-68 L-206 Colombia, San Gil"
"SAAVEDRA SAAVEDRA & CIA. LTDA.";;;"(57) (2) 6681403";"Cl 28 N 3 A-45 Colombia, Cali"
"SYNERGIA & ASESORIAS S.A";;;"Conm.: (57) (2) 6662780";"Cl 64N 5BN-26 L-43 P2 Colombia, Cali"
"SEGUROS GLOBAL";;;"Conm.: (57) (2) 3128181";"Cl 14 68-26 Colombia, Cali"
"COLCORDES LTDA.";;;"(57) (1) 3102130";"Cl 75 13-51 Of 509 Colombia, Bogotá"
"SEGUROS JAIME GARAVITO";;;"(57) (72) 7485614";"Cl 7 8-57 Colombia, Barbosa"
"EXEQUIALES ELEGIR";;;"(57) (7) 6454070";"Cl38 33-52 Colombia, Bucaramanga"
"PLUK TIENDA Y GALERÍA";;;"(57) (7) 6356094";"29 N° 42-47 Tempo II Parque Las Palmas Colombia, Bucaramanga"
"PUNTO SEGURO LTDA.";;;"(57) (7) 6850202";"Cr31 52 A-13 Colombia, Bucaramanga"
"GLOBAL SEGUROS DE VIDA S.A.";;;"(57) (1) 3139200";"Cr9 74-62 Colombia, Bogotá"
"AGENCIA DE SEGUROS QUINTERO GONZÁLEZ";;;"(57) (7) 6359959";"Cl 36 23-17 Of 203 Antonia Santos Colombia, Bucaramanga"
"OPTIMA SEGURIDAD SOCIAL";;;"(57) (4) 3119576";"Cr43 A 14-27 Of 302 Colombia, Medellín"
"AGENCIA DE SEGUROS ROSARIO DE LOPEZ";;;"(57) (7) 6943053";"Cl 20 20-23 Colombia, Bucaramanga"
"COOPROGRESAN C.T.A";;;"(57) (7) 6526184";"Cr17 34-40 Of 307 Colombia, Bucaramanga"
"GIGASEGUROS LTDA";;;"(57) (1) 5332358";"Cl 93 46-15 Colombia, Bogotá"
BIOSEGUROS;;;"(57) (4) 4487018";"Cl 33 S 45-14 envigado Colombia, Envigado"
"G.M. SEGUROS";;;"(57) (2) 7226803";"Cr26 19-79 Of 201 Colombia, Pasto"
"MAPFRE SEGUROS GENERALES DE COLOMBIA S.A.";;;"(57) (2) 7226761";"Cl 19 30-80 Las Cuadras Colombia, Pasto"
"GALLEGO GÓMEZ MARIO";;;"(57) (6) 8804753";"Cl 26 23-15 P-3 Colombia, Manizales"
"R.S.A. COLOMBIA SEGUROS";;;"(57) (2) 7312200";"Cl 20 30-31 P-2 Las Cuadras Colombia, Pasto"
"SISTEM CAR CANAÁN";;;"(57) (7) 5751397";"Dg Santander 0-54 Colombia, Cúcuta"
"LA EQUIDAD SEGUROS AGENCIA IBAGUE";;;"(57) (8) 2663166";"Cr5 38-29 Colombia, Ibagué"
"LIBEGSEGUROS LTDA.";;;"(57) (1) 4124893";"Cr82 23-28 Of 201 Colombia, Bogotá"
"MEDINA OLGA LUCÍA BAHAMÓN DE";;;"(57) (8) 8715316";"Cl 10 6-68 Of 206 Colombia, Neiva"
MAPFRE;;;"(57) (6) 7463434";"Cl 5 N 18-98 L-27 Colombia, Armenia"
"AGENCIA ALBARRACIN Y DELGADO CIA. LTDA.";;;"(57) (1) 3106676";"Cl 70 A 14 A-15 Colombia, Bogotá"
"First Name";"Email Address";Url;Telephone;Address
"FINE-SEGUROS LTDA.";;;"(57) (2) 6606630";"Cl 26 N 2 B N-140 Colombia, Cali"
"BARRENECHE GÓMEZ MARTA MARÍA";;;"Conm.: (57) (4) 2606864";"Cl 50 71-80 L-112 Colombia, Medellín"
"LUCILA BOTERO Y CÍA. ASESORES DE SEGUROS LTDA.";;;"(57) (4) 2518031";"Cr49 52-61 Of 407 Colombia, Medellín"
"AURA ASESORES";;;"(57) (7) 6347606";"Cl 32 32-64 P-2 Of 5 Edif Riviera Colombia, Bucaramanga"
"H.V.P. SEGUROS";;;"(57) (2) 6608378";"Av3 A N 24-31 Colombia, Cali"
"BURSÁTIL DE SEGUROS LTDA.";;;"(57) (1) 2120810";"Cl 79 A 8-45 Colombia, Bogotá"
"A LO SEGURO";;;"(57) (5) 6641742";"Get C.C. Getsemaní L-2-B-10 Colombia, Cartagena"
"BLACKPOINT SEGUROS Y RECARGAS";;;"(57) 3136253036";"Cr10 5-81 Brr. Centro Colombia, Santander de Quilichao"
"PREVISORA S.A. COMPAÑÍA DE SEGUROS";;;"(57) (2) 7222891";"Cl 19 22-70 Colombia, Pasto"
"GUTIÉRREZ GUTIÉRREZ HUMBERTO";;;"(57) (6) 7412450";"Cl 21 16-37 Of 402 Colombia, Armenia"
"MESA GÓMEZ BERNARDO";;;"(57) (6) 7412152";"Cr15 18-22 Of 202 Edif. Solidaridad Colombia, Armenia"
"ADALBERTO NAVARRO & CÍA. LTDA.";;;"(57) (5) 3720316";"Cl 54 45-51 L-104 Colombia, Barranquilla"
"CARDONA MONTOYA FRANCISCO";;;"(57) (4) 2750328";"Cl 45 A 46-20 Bello Colombia, Bello"
"HEMISFÉRICA DE SEGUROS";;;"(57) (4) 4440155";"Cl 37 63-58 Colombia, Medellín"
PRYMAX;;;"(57) (6) 7466974";"Cr15 13 N-55 L-1 Colombia, Armenia"
"SEGUROS RIESGOS Y FINANCIACIONES MIGUEL NIÑO";;;"(57) (7) 6316751";"49 N° 73-4 Manz B Casa 19 Urb Tesoro del Cac Colombia, Bucaramanga"
"ASMV SEGUROS MERCADEO Y VENTAS";;;"(57) (2) 2873323";"Cr28 33-27 Colombia, Palmira"
"SOAT- LUZ PIEDAD ZULUAGA A.";;;"(57) (6) 8847955";"Cl 20 22-27 Edif Cumanday Of 804 Colombia, Manizales"
"FINSAL LTDA.";;;"(57) (1) 2320347";"Cr7 35-33 Colombia, Bogotá"
"SU PROTECCION";;;"(57) (6) 8811929";"Cr23 62-99 La Rambla Colombia, Manizales"
"AS SU CARTA MAESTRA";;;"(57) (7) 6424471";"Cr 19 37 - 23 Centro Colombia, Bucaramanga"
"LIBERTY SEGUROS S.A.";;;"(57) (5) 4319472";"Cl 23 6-18 L-24 Colombia, Santa Marta"
"CENPROSIS LTDA";;;"(57) (1) 3463970";"Cr3 62-21 Colombia, Bogotá"
"SEGUROS INTERNACIONALES DE COLOMBIA";;;"(57) (4) 2606179";"Cr74 48-37 Int 1044 Colombia, Medellín"
"PROCARSEGUROS LTDA.";;;"(57) (5) 6551962";"Bgde Cr4 7-30 Colombia, Cartagena"
"WILLIAM BUSTILLO Y CÍA. LTDA.";;;"(57) (5) 6649743";"Matuna Cl 32 8-33 L-201 A C.C. La Matuna Colombia, Cartagena"
"PORTAFOLIO DE SEGUROS LTDA";;;"(57) (1) 2715171";"Cl 100 60-4 OF 207 Colombia, Bogotá"
"INTEGRAL DE SEGUROS Y ASESORIAS DEL ORIENTE";;;"(57) (7) 6114232";"Cl 50 22-02 Esq Colombia Colombia, Barrancabermeja"
"ALVAREZ GANDUR ASOCIADOS E HIJOS & CIA.LTDA.";;;"(57) (75) 5693608";"Cr11 12-56 Colombia, Ocaña"
"LIANZA COLOMBIANA DE SEGUROS Y CÍA. LTDA.";;;"(57) (1) 3175295";"Cr13 73-33 Of 202 Colombia, Bogotá"
"AGENCIA DE SEGUROS WILCHES & CIA. LTDA.";;;"(57) (5) 3708550";"Cr46 42-52 Colombia, Barranquilla"
"HADAD S.A.";;;"(57) (2) 6840101";"Cl 8 N 2 N-47 Of 203 Colombia, Cali"
"CAMARGO SERGIO NICOLAS";;;"(57) (7) 6420139";"Cl 45 7-41 Alfonso López Colombia, Bucaramanga"
"ACEVEDO BETTER ABOGADOS";;;"(57) (7) 6991110";"Cl 35 19-41 La Triada Trr Sur Of 609 Colombia, Bucaramanga"
"PRI CUENTA AGENCIA";;;"(57) (2) 2385562";"Cr13 18-40 Colombia, Buga"
"FABIO GARCÍA F.G. ASESORES DE SEGUROS";;;"(57) (2) 6534650";"Cl 21 N 6-14 Of 305 Colombia, Cali"
"ALIADOS SEGUROS Y SOLUCIONES";;;"(57) (7) 6350808";"Cr37 38-48 L-100 El Prado Colombia, Bucaramanga"
INDESOAT;;;"(57) (2) 6840662";"Cr35 4 D-35 Colombia, Cali"
