"First Name";"Email Address";Url;Telephone;Address
"TAX-INDIVIDUAL S.A.";tax-individual@une.net.co;www.tax-individual.com.co;"(57) (4) 4444444";"Cl 11   S 50-294 Sector La Aguacatala Colombia, Medellín"
BOLIVARIANO;coordinador.crm@bolivariano.com.co;www.bolivariano.com.co;"(57) (1) 4249340";"Av Boyacá 15-69 Colombia, Bogotá"
"AS TRANSPORTES - CARGA";ventas@astransportes.com.co;www.astransportes.com.co;"(57) (4) 4486048";"Cr69 49-06 Colombia, Medellín"
"AS TRANSPORTES - ESCOLAR";ventas@astransportes.com.co;www.astransportes.com.co;"(57) (4) 4486048";"Cr69 49-06 Colombia, Medellín"
"ASOCIACIÓN DE TRANSPORTADORES ESPECIALES - AS TRANSPORTES";ventas@astransportes.com.co;www.astransportes.com.co;"(57) (4) 4486048";"Cr69 49-06 Colombia, Medellín"
"AS TRANSPORTES - EMPRESARIAL";ventas@astransportes.com.co;www.astransportes.com.co;"(57) (4) 4486048";"Cr69 49-06 Colombia, Medellín"
MOVILÍZA-T;gerencia@moviliza-t.com;www.moviliza-t.com;"(57) (5) 3363636";"Cr50 66-53 Colombia, Barranquilla"
"AGENCIA DE VIAJES TU TOUR";viajestutour@yahoo.es;www.viajestutour.com;"(57) (1) 4081717";"Cl 1 B 29-22 Colombia, Bogotá"
COTAXI;controlinterno@cotaxi.com.co;www.cotaxi.com.co;"(57) (7) 6715709";"Cr19 16-58 Colombia, Bucaramanga"
"ENCOMIENDAS FLOTA OCCIDENTAL S.A.";gestioncomercial@flotaocciden;www.flotaoccidental.com;"(57) (6) 3211651";"Terminal de Transportes Nivel 2 Colombia, Pereira"
"FLOTA OCCIDENTAL S.A.";gestioncomercial@flotaocciden;www.flotaoccidental.com;"(57) (6) 3211651";"Terminal de Transportes Nivel 2 Colombia, Pereira"
AVANSSA;avanssa@hotmail.es;www.avanssa.co;"(57) (5) 3781277";"Cr46 95-27 Colombia, Barranquilla"
"TRANSPORTES AMÉRICA LTDA.";transportesamericateam@hotmail.com;www.transportesamerica.co;"(57) (2) 4410241";"Cl 39 16-15 Colombia, Cali"
"TRANSPORTES ALAMEDAS S.A.";dubiana.hernandez@hotmail.com;www.transportesalamedas.com;"(57) (2) 4386830";"Cr40 13-149 Acopi Colombia, Cali"
"AEROBUSES EDWARDTRANS LTDA.";gerencia@edwardtrans.com;www.edwardtrans.com;"Telefax: (57) (1) 3291552";"Cr69 L 65-70 Colombia, Bogotá"
"TRANSPORTES ESPECIALES FD";gerencia@transportesfd.com;www.transportesfd.com;"(57) (2) 5244282";"Cl 35 4-28 Colombia, Cali"
"TRANSPORTES FD S.A.S.";gerencia@transportesfd.com;www.transportesfd.com;"(57) (2) 5244282";"Cl 35 4-28 Colombia, Cali"
"COMPAÑÍA DE TAXIS VERDES S.A.";marcelyavendano@cable.net.co;www.taxisverdes.net;"(57) (1) 0";"Cl 17 68 D-54 Colombia, Bogotá"
"TURIEXPRESS LTDA.";gerencia@turiexpress.com;www.turiexpress.com;"(57) (1) 2555559";"Tr22 A 61 C-44 Colombia, Bogotá"
"AEROBUSES Y AEROVANS TURIEXPRESS LTDA.";gerencia@turiexpress.com;www.turiexpress.com;"(57) (1) 2555559";"Tr22 A 61 C-44 Colombia, Bogotá"
"RUTAS VERDE Y BLANCO S.A.S.";arutasvyb@hotmail.com;rutasverdeyblanco.com.co;"(57) (4) 4411500";"Cr67 78-250 Colombia, Medellín"
"DESCONT S.A. E.S.P.";info@descont.com.conet.co;www.descont.com.co;"(57) (7) 6439999";"Cr38 A 48 A-71 Cabecera Colombia, Bucaramanga"
"PROTURNAL S.A.S.";proturnalsas@gmail.com;www.proturnal.com;"(57) (1) 8764656";"Km 1.5 Vía Parque la Florida Centro Empresarial Terrapuerto Loc. Colombia, Bogotá"
LIDERTUR;comercial@lidertur.com.co;www.lidertur.com.co;"(57) (1) 3118830";"Av (Cr) 68 A 67 B-10 Colombia, Bogotá"
"TRANSSANDER S.A.";guillermolesar@gmail.com;www.transsander.com;"(57) (7) 6475101";"Cl 59 30-06 Conucos Colombia, Bucaramanga"
"ESPECIALES CONDOR S.A.";gerencia@especialescondor.com;www.especialescondor.com;"Telefax: (57) (1) 7240036";"Tr72 F 41-51 S Colombia, Bogotá"
"COOTRANSTAME LTDA.";cootranstamebog@yahoo.com;www.cootranstame.com;"(57) (1) 2018634";"Cl 6 32-50 Colombia, Bogotá"
"SETURCOL LTDA.";seturcolltda@etb.net.co;www.seturcol.com;"(57) (1) 2715172";"Cl 100 60-04 Of 210 Colombia, Bogotá"
"ETM EVENTOS CORPORATIVOS S.A.S.";etmeventoscorp@gmail.com;www.etmeventoscorporativos.com;"(57) (1) 4597257";"Cl 95 N 71-45 Colombia, Bogotá"
"TAX SUPER";taxsuper@une.net.co;www.taxsuper.co;"(57) (4) 4441111";"Cl 60 51-65 Colombia, Medellín"
"TAX LA FERIA";coordinador@taxlaferia.com;www.taxlaferia.com;"(57) (6) 8828912";"Cr17 18-22 Colombia, Manizales"
TRANZAPATA;tranzapata@hotmail.com;www.tranzapata.com;"(57) (2) 5513811";"Cl 9 A 44-31 Colombia, Cali"
"TRANSPORTES ESPECIALES Y TURISTICOS DE COLOMBIA S.A.S.";tcolombia2010@hotmail.com;www.transportescolombia.co;"(57) (2) 6631274";"Cr7 U 93-171 Juanchito Colombia, Cali"
"VANS TOUR";info@vanstour.co;www.vanstour.co;"(57) (5) 3789413";"Cr43 84-74 L-1 Colombia, Barranquilla"
"EXPRESO SIGLO XXI";gerencia@expresosigloxxi.com;www.expresosigloxxi.com;"(57) (2) 5243086";"Cl 4 B 95-76 Colombia, Cali"
"TAX SOCIAL";cootrasocial@une.net.co;cootransocial.com;"(57) (4) 4484044";"Cl 58 43-11 Colombia, Medellín"
"SOLUSANTANDER S.A.S";solusantander@gmail.com;www.solusantander.com;"(57) (7) 6440072";"Cr8 61-137 Metrópolis 2 Colombia, Bucaramanga"
"AUTO TAXI EJECUTIVO S.A.";autotaxibogota@yahoo.com;www.autotaxiejecutivo.com;"(57) (1) 4342000";"AvCl 80 89-24 Colombia, Bogotá"
"TRANSPORTES MARSOL S.A.S";transportesmarsolsas@gmail.com;www.marsol.com.co;"(57) (5) 3690999";"Cr55 74-169 L-D Colombia, Barranquilla"
"TRANSPORTES TÁMESIS S.A.S.";sotrauraba@sotrauraba.com;www.sotrauraba.com;"(57) (4) 3611790";"Terminal de Transportes Sur, Taquilla No. 6 Colombia, Medellín"
"First Name";"Email Address";Url;Telephone;Address
"SOTRAURABÁ S.A.";sotrauraba@sotrauraba.com;www.sotrauraba.com;"(57) (4) 2305859";"Cr64 C 78-580 L-9844 Colombia, Medellín"
"AUTOMÓVILES CLUB RENT A CAR";info@automovilesrentacar.com;www.automovilesrentacar.com;"(57) (1) 6081749";"Av (Cr) 15 112-09 Int 1 L-1 Colombia, Bogotá"
QUINDIMUDANZAS;gerencia@quindimudanzas.com;www.quindimudanzas.com;"(57) (6) 7341271";"Cl 11 A 21-65 B. La Cabaña Colombia, Armenia"
"TRANSPORTES BESIMOR & CÍA. LTDA.";transbesimor-coordinacion@metrotel.net.co;www.transportebesimor.com;"(57) (5) 3795542";"Cl 37 32-101 Colombia, Barranquilla"
"TRANSPORTES SUROESTE ANTIOQUEÑO S.A.";transsuroes@une.net.co;www.transportessuroeste.com;"(57) (4) 3611998";"Cl 8 B 65-191 Int 223 Colombia, Medellín"
"UNIDOS CARTAGENA LTDA.";gerencia@transunidoscartagena.com;www.transunidoscartagena.com;"(57) (5) 6584937";"Torices Cr16 A No. 51-20 Colombia, Cartagena"
COOTEPTUR;cooteptur@yahoo.com;www.cooteptur.com;"(57) (1) 2512183";"Cl 75 A 72-95 Colombia, Bogotá"
"TRANSPORTES UNIDOS CARTAGENA";gerencia@transunidoscartagena.com;www.transunidoscartagena.com;"(57) (5) 6584937";"Torices Cr16 A No. 51-20 Colombia, Cartagena"
"TRANSPORTES R.G. S.A.";transportesrg@une.net.co;www.transportesrg.com;"(57) (4) 4484645";"Cl 79 Sur 47 E-76 Colombia, Medellín"
"COLTUREX LTDA.";colturex@colturex.com;www.colturex.com;"(57) (1) 4304094";"Cl77A 77B-62 Colombia, Bogotá"
"CONTRANSPORTE S.A.S";contransporteltda@une.net.co;;"(57) (4) 4446698";"Cl 6 Sur 52-65 Colombia, Medellín"
"EXPRESO SIDERAL S.A.";julio.rivera@expresosideral.com;www.expresosideral.com;"(57) (4) 3611048";"Terminal de Transportes del Sur Taquilla 7 Colombia, Medellín"
"SANANDANTE TRANSPORTES ESPECIALES S.A.S.";gerencia@sanandante.com;www.sanandante.com;"(57) (1) 6482998";"Cr46 152-46 L-205 C.C Mazurén Colombia, Bogotá"
TRANSCHALO;chalo692010@hotmail.com;www.Transchalo.com;"(57) (1) 4773069";"Cl 74 A 62-75 Colombia, Bogotá"
"ASOCIADOS DEL TRANSPORTE S.A.";atsasa@hotmail.com;www.transporteatsa.com;"(57) (2) 6841261";"Cl 27 10-24 Colombia, Cali"
SOTRAPEÑOL;sotrapenol@une.net.co;www.sotrapenol.com;"(57) (4) 2308814";"Cr64 C 78-580 Of 9836 Colombia, Medellín"
"SENALTUR S.A.";senaltur@hotmail.com;www.senaltur.com;"Telefax: (57) (1) 2306233";"Autop Sur 59 A-50 Colombia, Bogotá"
"SOCIEDAD ANTIOQUEÑA DE TRANSPORTES LTDA. SANTRA";ana.restrepo@sandra.com.co;www.sandra.com.co;"(57) (4) 4447006";"Cr49 52   S-300 Sabaneta Colombia, Medellín"
"TMR TURISMO MERCADEO REPRESENTACIONES";gerencia@tmrcolombia.com;www.tmrcolombia.com;"(57) (1) 6180065";"Cl 95 11 A-84 Colombia, Bogotá"
"TRANSPORTES ESPECIALES CIUDAD DE CALI S.A.S.";transciudadcali@gmail.com;www.transciudadcali.com;"(57) (2) 5523232";"Cr80 13 A-13 L-C-35 C.C. ACUARELA Colombia, Cali"
COOTAXCONTUCAR;gerencia@cootaxcontucar.com;www.cootaxcontucar.com;"(57) (5) 6633800";"Av Pedro de Heredia Sector Los Angeles Cl 31 62 A 08 Colombia, Cartagena"
"COLTRANSNET LTDA.";coltransnet1@hotmail.com;www.coltransnet.com;"(57) (1) 2615920";"Cr58 18-41 S Colombia, Bogotá"
"TRANSPORTE ESPECIALIZADO JR S.A.S.";gerencia@transportesespecializadosjr.com;www.transportesespecializadosjr.com;"Telefax: (57) (1) 4101103";"Cl 52 A 85-22 Colombia, Bogotá"
"TRANSCOLTUR LTDA.";transcolturbogota@gmail.com;www.transcoltur.com;"(57) (1) 2628324";"Cra. 70 No. 2 A-37 Colombia, Bogotá"
"BUSES PANORAMICOS TRANSCOLTUR LTDA.";transcolturbogota@gmail.com;;"(57) (1) 2628324";"Cra. 70 No. 2 A-37 Colombia, Bogotá"
"VÍA TERRESTRE S.A.";danielvallejo84@viaterrestre.com;www.viaterrestre.com;"(57) (4) 4449363";"Cl 5   S 51-85 Colombia, Medellín"
"SOTRAMES S.A.";sotrames@sotrames.com.co;www.sotrames.com.co;"(57) (4) 3050910";"Cr43 A 63   S-35 Colombia, Medellín"
"COOPERATIVA MULTIACTIVA DE TRASPORTADORES OMEGA LTDA";;www.omega.com.co;"(57) (7) 5780356";"Terminal de Transporte Colombia, Cúcuta"
"BELLANITA GROUP";"carmenzh@betransa.com                   carmenzh@betransa.com";www.bellanitagroup.co;"(57) (4) 4563322";"Cr59 63-10 Bello Colombia, Medellín"
"BUS-CAR S.A.S.";buscarturismo@une.net.co;www.buscarturismo.co;"(57) (4) 3622562";"Cr65 8 B-91 L-363 Colombia, Medellín"
"VIAJES SELECTOS LTDA";andres.largacha@pasajes.co;www.pasajes.co;"(57) (1) 2699661";"Cl 85 16 A-32 Colombia, Bogotá"
"TRANSPORTES CHACHAFRUTO S.A.";tchachafruto@une.net.co;www.transporteschachafruto.com;"(57) (4) 4440786";"Cl 50 50-62 Rionegro Colombia, Medellín"
"SUAUTOMÓVIL S.A.";suautomovil@une.net.co;;"(57) (6) 8787160";"Terminal de Transportes de Manizales Los Cámbulos Taquilla 31 Colombia, Manizales"
"EFITRANS T.C. S.A.S.";efitrans@une.net.co;www.efitrans.com;"(57) (4) 4482248";"Cl 50 68-123 Colombia, Medellín"
"FABRICA NACIONAL DE AMBULANCIAS Y CARROCERIAS FANA S.A.";administracion@carroceriafana.com;www.carroceriasfana.com;"(57) (1) 6215294";"Cl 97 A No. 58-47 Colombia, Bogotá"
"C&T VIAL LOGISTICA S.A.S";daniel_g77@hotmail.com;www.cytlogistica.com;"(57) (4) 4486989";"Cl 62 56-26 Colombia, Medellín"
"CARROCERIAS EL SOL S.A.S";elsol@carroceriaselsol.com;www.carroceriaselsol.com;"Telefax: (57) (1) 7751600";"Autop Sur Kilómetro 8 Cazucá Entrada-2 Tranversal 6 12 5 Colombia, Bogotá"
"TRANSPORTES SEGOVIA TRANSEGOVIA";mercadeo@transegovia.com;www.transegovia.com;"(57) (4) 4480662";"Cl 64 56 A-53 Colombia, Medellín"
"EXPRESO PALMIRA S.A.";servicioalcliente@expresopalmira.com.co;www.expresopalmira.com.co;"(57) (2) 6685341";"Cl 30   N 2 AN-29 Colombia, Cali"
"COOPERATIVA DE TRANSPORTADORES TASAJERO LTDA.";cootranstasajero@telecom.com.co;;"(57) (7) 5792929";"Cl 1   N 5-93 La Merced Colombia, Cúcuta"
"First Name";"Email Address";Url;Telephone;Address
"AUTOBUSES Y CARGA FLOTA MAGDALENA S.A.";secretariaflotamagdalena@gmail.com;www.flotamagdalena.com;"(57) (1) 4287688";"Terminal de Transporte Mód Azul Colombia, Bogotá"
COOMULTRANSCON;info@coomultranscon.com;coomultranscon.com;"(57) (4) 4443306";"Cr80 A 32 B-62 Villa de Aburra Colombia, Medellín"
"TERMINAL INTERMUNICIPAL DE TRANSPORTES DE CALI";comunicaciones@terminalcali.com;www.terminalcali.com;"(57) (2) 6683655";"Cl 30   N 2 A   N-29 P-2 Colombia, Cali"
"C&T VIAL LOGISTICA S.A.S";daniel_g77@hotmail.com;www.cytlogistica.com;"(57) (4) 4486989";"Cl 62 56-26 Colombia, Medellín"
"EFITRANS T.C. S.A.S.";efitrans@une.net.co;www.efitrans.com;"(57) (4) 4482248";"Cl 50 68-123 Colombia, Medellín"
"RÁPIDO OCHOA";scliente@rapidoochoa.com;www.rapidoochoa.com;"(57) (4) 4448888";"Tr78 65-196 Colombia, Medellín"
"COOPERATIVA DE TRANSPORTADORES TASAJERO LTDA.";cootranstasajero@telecom.com.co;;"(57) (7) 5792929";"Cl 1   N 5-93 La Merced Colombia, Cúcuta"
"EXPRESO PALMIRA S.A.";servicioalcliente@expresopalmira.com.co;www.expresopalmira.com.co;"(57) (2) 6685341";"Cl 30   N 2 AN-29 Colombia, Cali"
"CARROCERIAS LASER";comercia.aux@carroceriaslaser.com;www.carroceriaslaser.com;"(57) (1) 7243206";"Autop Sur 64-88 Colombia, Bogotá"
"TRANSPORTES ESPECIALES SET S.A.S";secretaria@sociedadset.com;sociedadset.com;"(57) (2) 5242036";"Cl 47   N 5 AN-109 Colombia, Cali"
"FLOTA VALLE DE TENZA S.A.";info@flotavalledetenza.com;www.flotavalledetenza.com;"(57) (1) 4281008";"Dg23 69-60 Of 406 Colombia, Bogotá"
"TRANSPORTES SEGOVIA TRANSEGOVIA";mercadeo@transegovia.com;www.transegovia.com;"(57) (4) 4480662";"Cl 64 56 A-53 Colombia, Medellín"
COOPETRAN;coopetransa@une.net.co;www.coopetransa.co;"(57) (4) 2933131";"Cr57 61 A-44 Colombia, Medellín"
"SUAUTOMÓVIL S.A.";suautomovil@une.net.co;;"(57) (6) 8787160";"Terminal de Transportes de Manizales Los Cámbulos Taquilla 31 Colombia, Manizales"
"SERVIESPECIALES TOUR S.A.";serviespecialestour@gmail.com;www.serviespecialestour.com;"(57) (1) 5417171";"Cl 74 A 77 B-14 Colombia, Bogotá"
"PRECOLTUR S.A.S.";gerencia@precoltur.com.co;www.precoltur.com.co;"(57) (4) 4447240";"Cr67 B 48 D-148 Colombia, Medellín"
"TAX CENTRAL S.A.";alfredobedoya777@gmail.com;www.transmotebello.com;"(57) (2) 6601156";"Terminal de Transportes L-307-302-201 Colombia, Cali"
"COOPERATIVA MULTIACTIVA DE TRASPORTADORES OMEGA LTDA";;www.omega.com.co;"(57) (7) 5780356";"Terminal de Transporte Colombia, Cúcuta"
"VÍA TERRESTRE S.A.";danielvallejo84@viaterrestre.com;www.viaterrestre.com;"(57) (4) 4449363";"Cl 5   S 51-85 Colombia, Medellín"
"SOTRASANVICENTE & GUATAPÉ LA PIEDRA S.C.A.";stsv@une.net.co;www.sotrasanvicente.com;"(57) (4) 2305119";"Terminal de Transporte N Taquilla 14 Colombia, Medellín"
"SU TAXI";su.taxi@hotmail.com;;"(57) (5) 6725032";"Escallón Villa Cr55-30 E-34 Ap 1 Colombia, Cartagena"
"SU TAXI SUSANA";su.taxi@hotmail.com;www.sutaxisusana.com;"(57) (5) 6725032";"Escallón Villa Cr55-30 E-34 Ap 1 Colombia, Cartagena"
"COOPERATIVA INTEGRAL CHOFERES DE PEREIRA (COOCHOFERES PEREIRA)";cristobaquero@yahoo.es;;"(57) (6) 3215054";"Terminal de Transportes Colombia, Pereira"
"BUSES Y BUSETAS";jairgomezv@gmail.com;;"(57) (4) 3415297";"Cr84 A 28-33 Colombia, Medellín"
"COOCHOFERES PEREIRA";cristobaquero@yahoo.es;;"(57) (6) 3215054";"Terminal de Transportes Colombia, Pereira"
"RAVEL TOURS";raveladmon@gmail.com;www.raveltours.com.co;"(57) (6) 3356014";"Cl 19 5-48 C.C.Novacentro L-203 Colombia, Pereira"
"FLOTAOSPINA SANABRIA & CÍA. S.A.";flotaospina@une.net.co;www.flotaospina.com;"(57) (6) 8826161";"Terminal de Transportes Los Cámbulos Colombia, Manizales"
"TRANS-ESPECIALES Y TURISMO ROYAL EXPRESS";royalexpress2002@yahoo.com;;"(57) (6) 3335401";"Cr13 14-60 L-208 C.C.Marbella Colombia, Pereira"
"AGENCIA DE VIAJES AVENTOURS";aventours.cucuta@hotmail.com;www.aventours.com.co;"(57) (7) 5777555";"Av0 5-72 L-1 Colombia, Cúcuta"
"CARROCERIAS JGB";gerencia@carroceriasjgb.com;www.carroceriasjgb.com;"(57) (1) 2388855";"Cl 40   S 68 A-54 Colombia, Bogotá"
"RADIS S.A.S.";gerencia@radis.co;www.radis.co;"(57) (1) 3056977";"Cl 8 B 78-30 Colombia, Bogotá"
"TRANSPORTES ESPECIALES S & M";transportes-sym@hotmail.com;www.transportesespecialessym.com;"(57) (5) 3782279";"Cr53 91-60 Colombia, Barranquilla"
"VIATUR S.A.S";transportesviatur@hotmail.com;www.viatursa.com;"(57) (1) 4043350";"Cr100 22 H-40 Of 206-207 Colombia, Bogotá"
"TAXIS LA 17 S.A.S.";taxis17s.a.s@hotmail.com;www.taxisla17rodadero.com;"(57) (5) 4224545";"Cr2 12-56 L-109 El Rodadero Colombia, Santa Marta"
"LUSITANIA S.A.";arenasnel@hotmail.com;www.transporteslusitania.com;"(57) (7) 6450077";"Cl 23 15-31 Colombia, Bucaramanga"
"TRANSPORTES ESPECIALES DEL CARIBE LTDA.";bettyher58@hotmail.com;www.transportestecltda.com;"(57) (5) 3021956";"Cr35 45-75 Dg. al Cementerio Universal Colombia, Barranquilla"
"TRANSPORTES Y VIAJES TURISCAR S.A.S.";comercial1@transportesturiscar.com;www.transportesturiscar.com;"(57) (4) 3328241";"Cl 36 A   S 46 A-81 Int 109 Envigado Colombia, Medellín"
"TRANSCALERA LTDA";transcalera_ltda@hotmail.com;www.transcaleraltda.com;"(57) (1) 8600166";"Cl 6 # 5-75 P-3 Edif Mehyda 1 Municipio de la Calera C/marca Colombia, Bogotá"
"TRANESTUR S.A.";tranestur@gmail.com;www.tranestur.com;"(57) (1) 8575487";"Cr5 11-54 Tocancipa Colombia, Bogotá"
"TRANSPORTES INDUSTRIALES PUERTO ISAACS S.A.";transindustriales@emcali.net.co;www.transindustriales.com;"(57) (2) 6611182";"Terminal de Transportes Of 201-2 Colombia, Cali"
"First Name";"Email Address";Url;Telephone;Address
"TRANSPORTES INDUSTRIALES PUERTO ISAACS S.A.";transindustriales@emcali.net.co;www.transindustriales.com;"(57) (2) 6611182";"Terminal de Transportes Of 201-2 Colombia, Cali"
"VENTAXIS S.A.S.";ventaxisamarillos@hotmail.com;www.ventaxis.com;"(57) (4) 4488802";"Cl 59 51 D-66 Colombia, Medellín"
"ATRAES AMIGOS EN TRANSPORTES ESPECIALES S.A.S.";comercialatraes@gmail.com;www.atraes.co;"(57) (4) 4486163";"Cl 42 80 B-102 Colombia, Medellín"
"TRANSPORTES ESPECIALES ACAR LTDA.";acarltda@yahoo.com;www.acarltda.com;"(57) (2) 6644900";"Av4   N 49   N-78 Colombia, Cali"
"GRÚAS CMM.";cmmgil@yahoo.com;cmmgruas.com;"(57) (4) 5701128";"Cl 50 A 86-450 Urb. Calazanz Azul Int 1605 Colombia, Medellín"
"TRANSPORTE EJECUTIVO DEL LLANO LTDA.";transejecutivo@hotmail.com;www.transejecutivodelllano.com;"(57) (8) 6824479";"Cl 26 C 24 A-15 Brr. 20 de Julio Colombia, Villavicencio"
COPETRÁN;gerenciageneral@copetran.com.co;www.copetran.com.co;"(57) (7) 6448167";"Cl 55 17 B-17 Colombia, Bucaramanga"
"VIAJES EUPACLA L'ALIANXA";eupacla@eupacla.lalianxa.net;www.viajeseupacla.com;"(57) (4) 4483881";"Cr43 A 34-95 L-220-221-y 233 Colombia, Medellín"
"TRANSPORTES RÁPIDO EL CARMEN S.A.";rapido_el_carmen@hotmail.com;;"(57) (5) 6645889";"Matuna Cl 32 8-29 L-29 Colombia, Cartagena"
"TRANSPORTADORES DE CARGA URBANA ASOTRACAR";asotracarga@hotmail.com;;"(57) (6) 7408900";"Cr22 Cl 24 Esq Colombia, Armenia"
"TRANSPORTES ESPECIALES AGUAMARINA";transaguamrina@yahoo.com;www.transaguamarina.com;"(57) (4) 2855976";"Cr65 8 B-91 Int 241 Colombia, Medellín"
"AUTO BUSES EL POBLADO LAURELES S.A.";autopobla@une.net.co;;"(57) (4) 2611515";"Cr44 24-91 Colombia, Medellín"
"AGENCIA DE VIAJES PASEXCOL";pasexcol@hotmail.com;www.viajespasexcol.com;"(57) (4) 2935652";"Cl 50 47-28 Of 208 Ed. Genaro Gutiérrez Colombia, Medellín"
"COOPERATIVA DE TRANSPORTE INTEGRADO METROSAN";metrosan@une.net.co;;"(57) (4) 2303946";"Cr74 48-37 Of 837 Colombia, Medellín"
"TAX ANTIOQUIA LTDA.";"E-mail: taxantioquia@une.net.co";;"(57) (4) 3763333";"Cr49 51-74 Of 208 Itagüí Colombia, Medellín"
"COOTRAGUA LTDA";cootragualtda@hotmail.com;;"(57) (5) 4301650";"Cl 41 31-17 L-110 Central de Transportes Colombia, Santa Marta"
"EXTRA RÁPIDO LOS MOTILONES S.A.";gereextrarapidolosmotilones@gmail.com;;"(57) (7) 5727808";"Av6 1-39 P-2 Cj Colombia, Cúcuta"
TAXXI;taxxi_@hotmail.com;;"(57) (5) 4209000";"Cl 22 19 C-45 Colombia, Santa Marta"
"TRANSPORTES GÓMEZ HERNÁNDEZ S.A.";cliente@transportesgomezhernandez.com;www.transportesgomezhernandez.com;"(57) (4) 4487712";"Terminal del Norte L-118 Colombia, Medellín"
"ITCSE LTDA";itcsemedellin@hotmail.com;www.itcse.net;"(57) (4) 4489928";"Cl 2 C 52-15 Brr. Manzanarez Colombia, Medellín"
"SERVIESPECIALES VIP";angi_102009@hotmail.com;;"(57) (5) 4343443";"Manz E Casa 11 Urb Terranova Colombia, Santa Marta"
"TRANSPORTADORA SAN PABLO LTDA.";info@trasportadorasanpablo.co;www.transportadorasanpablo.com.co;"(57) (7) 6020376";"Cl 49 1-63 Sector El Muelle Colombia, Barrancabermeja"
"TRANSPORTE RIVERAMAG LTDA.";rivermag23@hotmail.com;;"(57) (5) 3740703";"Cr18 23-35 Colombia, Barranquilla"
"AEROBUSES SCHOOL TOURING SERVICE LTDA.";stsltda@hotmail.com;;"(57) (1) 4316678";"Cr110 77 D-27 Colombia, Bogotá"
"ACOA TAXI AEROPUERTO JOSE MARIA CORDOVA";acoaservicio@une.net.co;www.acoataxiaeropuerto.com.co;"(57) (4) 2611616";"Cl 40 45-32 Colombia, Medellín"
"TRANSPORTES MULTIMODALES S.A.S.";transmultimodales@hotmail.com;;"(57) (4) 3525675";"Cl 14 40 A-95 Int. 302 Colombia, Medellín"
"AGENCIA DE VIAJES Y TRANSPORTES ESPECIALES TRAVESIAS TOURS S.A.S.";comercial@travesiastours.com;www.travesiastours.com;"(57) (7) 5943104";"Av0 3-53 La Ceiba Colombia, Cúcuta"
"AGENCIA DE VIAJES VISIÓN FUTURO";info@viajesvisionfuturo.com;www.viajesvisionfuturo.com;"(57) (4) 4482218";"Cl 41 51-15 L-150 Colombia, Medellín"
COOTRASANA;cootrasana@cootrasana.com.co;www.cootrasana.com.co;"(57) (4) 4440468";"Cr9 9-19 Colombia, Medellín"
"COOPERATIVA DE TRANSPORTADORES DEL MAGDALENA (COOTRANSMAG)";secretariacootransmag@hotmail.com;cootransmag.org;"(57) (5) 4304505";"Troncal del Caribe frente a la Urb El Parque Colombia, Santa Marta"
"EMPRESA DE TRANSPORTE ENRUTAMOS S.A.S.";enrutamos@une.net.co;www.enrutamos.com;"(57) (4) 4485311";"Cr65 8 B-91 Of 337 Colombia, Medellín"
"AGENCIA DE VIAJES E.A.T. TURCOL TURISMO COLOMBIANO";reservassantamarta@hotmail.com;www.turcol.com;"(57) (5) 4212256";"Cl 13 3-13 L-115 C.C. San Francisco Plaza Colombia, Santa Marta"
VANEXPRESS;vans_express@hotmail.com;;"(57) (5) 4221111";"Cl 7 Cr2 Edif Aventura L-3 al Lado de la Economía Colombia, Santa Marta"
"COOTRANSUNIDOS ITADA-COOTRANSUNIDOS";cootransunidosgerencia@hotmail.com;cootansunidos.com;"(57) (75) 5611050";"Cl 7 44-03 Ciudadela Norte Colombia, Ocaña"
"TRANSCONEXIONES S.A.S";info@transconexiones.com;www.transconexiones.com;"(57) (5) 4308096";"Cr3 9-69 L-3 El Rodadero Colombia, Santa Marta"
"FLOTA ANDRÉS LÓPEZ DE GALARZA S.A.";translogalarza@hotmail.com;;"(57) (8) 2612326";"Cl 23 5-36 Colombia, Ibagué"
"SESCOTUR S.A.S.";coord.adminsescotur@grupojmg-jj.com;;"(57) (4) 3611151";"Cl 8 B 65 191 Of-531 Centro Puerto Seco Colombia, Medellín"
"RADIO TAXI DEL QUINDIO S.A.";radiotaxiqsa@hotmail.com;www.radiotaxidelquindio.com;"(57) (6) 7462222";"Cl 3 13-18 Colombia, Armenia"
TRANSPOMA;servicios@transpomasas.com;www.transpomasas.com;"(57) 3007011122";". Colombia, Barranquilla"
"ATILA RENT A CAR";atilarentacar@hotmail.com;www.atilarentacar.com;"(57) (2) 5243818";"Cr42 A 28 A-29 Colombia, Cali"
"First Name";"Email Address";Url;Telephone;Address
"GRÚAS FERRE & SERVICIOS";ferreteriayservicios@gmail.com;www.gruasferreyservicios.com;"(57) (6) 7450011";"Cr23 Cl 8 L-19 C.C. Murano Colombia, Armenia"
"TRANSPORTES LA CANDELARIA";gerencia@transporteslacandelaria.com;www.transporteslacandelaria.com;"(57) (1) 0";"Cr102 C 139-13 Colombia, Bogotá"
"ALKILAUTOS LA HEROIKA S.A.S.";alkilautoslaheroika@gmail.com;www.alkilautoslaheroika.com;"(57) (5) 6665523";"Cartagena Colombia, Cartagena"
"COOTRAGAS CTA";cootragascta@yahoo.es;www.cootragascta.com;"(57) (7) 6462207";"Cl 37 15-25 Of 1003 Colombia, Bucaramanga"
"EMPRESA FLOTA CACHIRA LTDA";flotacachira.ltda@gmail.com;www.flotacachira.com;"(57) (7) 6836339";"Cr16 24-50 Colombia, Bucaramanga"
"AGENCIA DE VIAJES VIAJAR ES UN PLACER";viajaresunplacer208@hotmail.com;www.viajaresunplacerltda.com;"(57) (7) 5721458";"Av6 8-56 C.C. Nueva Alejandría Entrada 10 P-2 L-24-107 Colombia, Cúcuta"
"AEROVAN TOURS";juanpablomoreno129@hotmail.com;www.aerovantours.com;"(57) (6) 3333870";"Cl 23 16-05 Centenario Colombia, Pereira"
"TAX META";servicioalcliente@taxmeta.com;www.taxmeta.com;"(57) (8) 6717171";"Cl 38 32-41 Of 1205 Edif Parque Santander 0 Colombia, Villavicencio"
"PLATINO TRANSPORTE ESPECIAL Y DE CARGA";gerencia@transplatino.co;www.transplatino.co;"(57) (5) 6460986";"Bosque Sector San Isidro Tr 54 28-25 Edif Movisol Of 306 Colombia, Cartagena"
COOMOTOR;info@coomotor.com;www.coomotor.com.co;"(57) (1) 2772525";"Cr27 13-58 Colombia, Bogotá"
"FLOTA NORDESTE";;;"(57) (4) 2309297";"Cr64 C 78-344 L-209-S Colombia, Medellín"
"GRÚAS ARMENIA S.A.S.";gruasarmenia@hotmail.com;;"(57) 3105444496";"Cl 30 Cr19 Colombia, Armenia"
"TAXI CAR MOTOR'S";taxicarmotors@hotmail.com;taxicarmotors.wix.com/tcmcol;"(57) (7) 5798789";"Av. Libertadores C.C. Villa Centro 15 N 19-23-27 Colombia, Cúcuta"
TRANSCONEXIONES;transconexiones@hotmail.com;www.transconexiones.com;"(57) (8) 8679311";"Cl 2   S 7-30 L-3 Colombia, Neiva"
"DRIVER COLOMBIA S.A.S.";drivercolombia@gmail.com;drivercolombia.com;"(57) (2) 3827007";"Cr5 3-85 Colombia, Cali"
"AUTOMOTORES Y NEGOCIOS BOGOTÁ S.A.S. AUTONEBO S.A.S";comercial@automotoresynegocios.com;www.autonebo.com.co;"(57) (1) 7010007";"Av. Cl 116 70 D-15 Colombia, Bogotá"
"SOTRAUR S.A.";sotraursa@hotmail.com;www.sotraur.com;"(57) (4) 4442750";"Cr65 8 B-91 L-169 L-29-A Colombia, Medellín"
"TRANSPORTES RENACIENTE S.A.";renaciente_01@hotmail.com;;"(57) (5) 6666054";"Popa Cl 32 20-62 C.C. Omniplaza Of 204 Av Pedro de Heredia Colombia, Cartagena"
"TAXIS MAMONAL";taxismamonal@yahoo.es;www.taxismamonal.com;"(57) (5) 6685200";"Mamonal Vía Mamonal Km 10 Colombia, Cartagena"
"SERVICIOS INTEGRALES LAM S.A.S.";servilamsas@gmail.com;;"(57) (2) 8810452";"Av3   N 8   N-24 Of 225/226 Colombia, Cali"
"RUTAS DE AMERICA";reservas@rutasdeamerica.com.co;;"(57) (2) 3963632";"Terminal de Transportes L-308 Colombia, Cali"
"TRANSPORTES ESCOLARES S.A.S.";transportesescolaresltda@hotmail.com;;"(57) (2) 4890327";"Km 2 Vía Jamundí Colombia, Cali"
AVANTE;comunicaciones@avante.gov.co;www.avante.gov.co;"(57) (2) 7314912";"Cl 20 40-63 Av de Los Estudiantes Colombia, Pasto"
"TRANSPORTE PERSONAL SAS";transportepersonalsas@gmail.com;transportepersonalsas.com;"(57) (2) 4837362";"Cr46 10-15 Colombia, Cali"
"A DOMICILIO SPEED";domiciliosspeed@hotmail.com;;"(57) (8) 6727272";"Cr42 32-36 BARZAL Colombia, Villavicencio"
"TRANSPORTE AL AEROPUERTO COMBUSES S.A.";combuses@une.net.co;;"(57) (4) 5114023";"Cr50 A 53-13 Colombia, Medellín"
"TRANSAMERICA TOURS S.A.S.";transamerica2011@gmail.com;www.transamericatours.jimdo.com;"(57) (7) 6385827";"Cr23 150 B-04 Tarragona Floridablanca Colombia, Bucaramanga"
"ESCOTUR HUILA";escoturhuila@yahoo.com;www.escoturhuila.co;"(57) (8) 8716379";"Cr14 7-40 Colombia, Neiva"
"TRANSMAMONAL LTDA.";mercadeo@transmamonalltda.com;www.transmamonalltda.com;"(57) (5) 6698046";"Líbano Cl 31 A 48 C-71 L-6 Av Pedro de Heredia Colombia, Cartagena"
"RADIOTAX S.A.";radiotaxsa@hotmail.com;;"(57) (7) 6414302";"Cl 53 17 A-34 Colombia, Bucaramanga"
MAVETRANS;comercial@mavetrans.com;www.mavetrans.com;"(57) (1) 4910031";"Av Boyacá 53-81 L-5 Colombia, Bogotá"
"TRANSTOURS DEL VALLE";transtourvalle_chigo@hotmail.com;;"(57) (4) 8256055";"Cr103 95-28 Colombia, Chigorodó"
"COTRARIO LTDA";cotra-rio-ltda@hotmail.com;;"(57) (7) 6227614";"Cl 50 6 A-90 L 101 Colombia, Barrancabermeja"
"AVIATUR - TURISMO MAYA";gerenciatml@gmail.com;www.turismomaya.com.co;"(57) (4) 2314666";"Cl 54 45-25 Colombia, Medellín"
"EL PONY ESPECIAL";especial@transportespony.com;;"(57) (8) 8715810";"Cr5 9-53 Of 304 Edif San Jorge Colombia, Neiva"
"ABC TOURS LTDA.";abctours_ltda@hotmail.com;;"(57) (1) 2160506";"Cl 147 11-10 Int 9 Colombia, Bogotá"
"TRANSPORTES ESPECIALES JAMUNDI ®®TEJ.®®S.A.S.";especialesjamundi@hotmail.com;www.facebook.com/pages/trasnportesjamundi/;"(57) (2) 5903675";"Cr8 12-55 Jamundí Colombia, Cali"
"SERVITOLEDO LTDA. - SERVICIOS INTEGRADOS DE TRANSPORTE DEL MUNICIPIO DE TOLEDO";servitoledo@hotmail.com;;"(57) (4) 4446418";"Cl 30 A 58-47 Colombia, Medellín"
"TERMINAL DE TRANSPORTES DE ARMENIA S.A.";terminalarmenia@hotmail.com;www.terminalarmenia.com;"(57) (6) 7474662";"Cl 35 20-68 Colombia, Armenia"
"FLOTA CÓRDOVA RIONEGRO S.A.";;www.flotacordova.com;"(57) (4) 5615104";"Cr52 48-12 Rionegro Colombia, Rionegro"
"First Name";"Email Address";Url;Telephone;Address
"TRANSPACOL LTDA";transpacol40@hotmail.com;;"(57) (2) 3772880";"Cr67 40-18 Colombia, Cali"
"TRANSAMERICA TOURS S.A.S.";transamerica2011@gmail.com;www.transamericatours.jimdo.com;"(57) (7) 6385827";"Cr23 150 B-04 Tarragona Floridablanca Colombia, Bucaramanga"
"OPERTRANS R.D.S. OPERADORES DE TRANSPORTE";opertransrds2012@hotmail.com;;"(57) (5) 4201327";"Av Libertador 15-136 Colombia, Santa Marta"
"GRUPO EMPRESARILA";info@bonairese.com;www.bonaires.com;"(57) (4) 4449778";"Cr65 8 B-91 Of 337 Colombia, Rionegro"
"TRANSIPIALES - TRANSPORTADORES DE IPIALES S.A.";publicidadymercadeo@transipialesvirtual.com;www.transipialesvirtual.com;"(57) (1) 7210546";"Cl 8 A 32-47 Colombia, Bogotá"
"V & J SOLUCIONES";vjsoluciones2@gmail.com;;"(57) 3007809560";"Sector Estadio Colombia, Medellín"
COONORTE;coonorte@une.net.co;www.coonorte.com;"(57) (4) 3696760";"Cl 39 48-46 Colombia, Medellín"
"TRANSTOURS DEL VALLE";transtourvalle_chigo@hotmail.com;;"(57) (4) 8256055";"Cr103 95-28 Colombia, Chigorodó"
"TRANSPORTES HVR";transespecialeshv@gmail.com;;"(57) (6) 3224453";"Manz 7 Casa 10 La Macarena Dosq. Colombia, Pereira"
"RODRÍGUEZ OSORIO Y CÍA.TRANSPORTES SALGAR S.A.";transalgar@une.net.co;;"(57) (4) 2322276";"Cr52 A 39-57 Colombia, Medellín"
"RADIO TAXIS FLOTA PALMIRA DA.";cooflopal@hotmail.com;;"(57) (2) 2715555";"Cr25 40-34 Colombia, Palmira"
"DRIVER COLOMBIA S.A.S.";drivercolombia@gmail.com;drivercolombia.com;"(57) (2) 3827007";"Cr5 3-85 Colombia, Cali"
"TRANSPORTES ESCOLARES S.A.S.";transportesescolaresltda@hotmail.com;;"(57) (2) 4890327";"Km 2 Vía Jamundí Colombia, Cali"
"TRANSPORTE PERSONAL SAS";transportepersonalsas@gmail.com;transportepersonalsas.com;"(57) (2) 4837362";"Cr46 10-15 Colombia, Cali"
"A DOMICILIO SPEED";domiciliosspeed@hotmail.com;;"(57) (8) 6727272";"Cr42 32-36 BARZAL Colombia, Villavicencio"
"ASOCIACIÓN NACIONAL DE TRANSPORTADORES - ATRANSEC";atransec@gmail.com;www.atransec.com;"(57) (6) 3217111";"Terminal de Transportes Nivel 2 Of 202 Colombia, Pereira"
COOMUTRANS;coomutrans2009@hotmail.com;;"(57) (6) 8901060";"Cl 24 21-21 Of. 205 Colombia, Manizales"
"CONALTA DE OCCIDENTE LTDA.";rfiscal@conaltadeoccidente.com;www.conaltadeoccidente.com;"(57) (4) 8893263";"Cr22 23-20 Cali Colombia, Medellín"
"TAX MANILA S.A.S.";taxmanila@hotmail.com;;"(57) (4) 4483630";"Cl 11 A 43 E-42 Colombia, Medellín"
"TRANSPORTES RENACIENTE S.A.";renaciente_01@hotmail.com;;"(57) (5) 6666054";"Popa Cl 32 20-62 C.C. Omniplaza Of 204 Av Pedro de Heredia Colombia, Cartagena"
"RADIO Y TAXI SANTA MARTA";taxisantamarta@hotmail.com;;"(57) (5) 4207000";"Cl 29 20-53 L 9 Colombia, Santa Marta"
"RADIOTAX S.A.";radiotaxsa@hotmail.com;;"(57) (7) 6414302";"Cl 53 17 A-34 Colombia, Bucaramanga"
"AGENCIA DE VIAJES CHAYRAMA";chayrama1@hotmail.com;www.chayrama.com;"(57) (5) 4229520";"Cr1 8-31 L-32 Edif Santa María del Mar El Rodadero Colombia, Santa Marta"
"AGENCIA DE VIAJES GLOBAL DE TURISMO";globaldeturismoytransporte@gm;;"(57) (7) 6654017";"Cr6 8-53 Of 209 Centro Colombia, Piedecuesta"
"COOPERATIVA DE TRANSPORTADORES DE LA FRONTERA NORORIENTAL COOTRANSFRONORTE LTDA.";cootransfronorte@hotmail.com;;"(57) (7) 5951890";"Cl 15 1-150 Brr. Aeropuerto Colombia, Cúcuta"
"LA COOPERATIVA DE MOTORISTAS EL CACIQUE DE CALARCÁ";coopcaciqueltda@hotmail.com;;"(57) (6) 7432222";"Av Centenario 6-300 Frente Coliseo Cubierto Colombia, Calarcá"
"TAXI CAR MOTOR'S";taxicarmotors@hotmail.com;taxicarmotors.wix.com/tcmcol;"(57) (7) 5798789";"Av. Libertadores C.C. Villa Centro 15 N 19-23-27 Colombia, Cúcuta"
"TRANSPORTE AL AEROPUERTO COMBUSES S.A.";combuses@une.net.co;;"(57) (4) 5114023";"Cr50 A 53-13 Colombia, Medellín"
"TRAESCOL LTDA.";traescolltda@hotmail.com;www.traescolcali.com;"(57) (2) 3323802";"Cr75 A 13 A-239 Colombia, Cali"
"RADIO TAXIS PALMERAS";cootranspal@gmail.com;;"(57) (2) 2752000";"Cl 42 30 A-38 Colombia, Palmira"
"SERVITOLEDO LTDA. - SERVICIOS INTEGRADOS DE TRANSPORTE DEL MUNICIPIO DE TOLEDO";servitoledo@hotmail.com;;"(57) (4) 4446418";"Cl 30 A 58-47 Colombia, Medellín"
"TRANSPORTES Y RENTING LTDA";transportesyrentingltda@yahoo.com;;"(57) (1) 2146490";"CA 9 A 119 10 OF 403 Colombia, Bogotá"
TRANSCONEXIONES;transconexiones@hotmail.com;www.transconexiones.com;"(57) (8) 8679311";"Cl 2   S 7-30 L-3 Colombia, Neiva"
"TRANSPORTES SAN PABLO S.A.";info@transportessanpablo.com;;"(57) (7) 6021260";"Cl 49 1-67 Sector Comercial Colombia, Barrancabermeja"
MAVETRANS;comercial@mavetrans.com;www.mavetrans.com;"(57) (1) 4910031";"Av Boyacá 53-81 L-5 Colombia, Bogotá"
"AUTOMOTORES Y NEGOCIOS BOGOTÁ S.A.S. AUTONEBO S.A.S";comercial@automotoresynegocios.com;www.autonebo.com.co;"(57) (1) 7010007";"Av. Cl 116 70 D-15 Colombia, Bogotá"
COOTRANSPORCAR;cootranscaribe@hotmail.com;;"(57) (5) 3753636";"Cr23 23-56 Rebolo Colombia, Barranquilla"
"TRANSANDES LA TEA S.A.";;www.transandeslatea.com;"(57) (7) 6220042";"Cl 49 A 12-31 Of 101 Colombia, Barrancabermeja"
"PASEOS Y EXCURSIONES PEDALIO";pedalio58@hotmail.com;;"(57) (2) 3332098";"Cr68 A 33-08 Colombia, Cali"
"TAXIS MAMONAL";taxismamonal@yahoo.es;www.taxismamonal.com;"(57) (5) 6685200";"Mamonal Vía Mamonal Km 10 Colombia, Cartagena"
"First Name";"Email Address";Url;Telephone;Address
"TAXI CAR MOTOR'S";taxicarmotors@hotmail.com;taxicarmotors.wix.com/tcmcol;"(57) (7) 5798789";"Av. Libertadores C.C. Villa Centro 15 N 19-23-27 Colombia, Cúcuta"
"SOTRAUR S.A.";sotraursa@hotmail.com;www.sotraur.com;"(57) (4) 4442750";"Cr65 8 B-91 L-169 L-29-A Colombia, Medellín"
"TRANSANDES LA TEA S.A.";;www.transandeslatea.com;"(57) (7) 6220042";"Cl 49 A 12-31 Of 101 Colombia, Barrancabermeja"
"TAXIS MAMONAL";taxismamonal@yahoo.es;www.taxismamonal.com;"(57) (5) 6685200";"Mamonal Vía Mamonal Km 10 Colombia, Cartagena"
"FLOTA DE AUTOMÓVILES CALDAS";flotacaldas@gmail.com;;"(57) (4) 3032850";"Cr50 129   S-71 Of 302 Colombia, Medellín"
"GRÚAS ARMENIA S.A.S.";gruasarmenia@hotmail.com;;"(57) 3105444496";"Cl 30 Cr19 Colombia, Armenia"
"GIRATUR S.A.S.";gerencia@giraturtravel.com;www.giratur.net;"(57) (1) 2367991";"Tr19 A 98-12 Of 401 Colombia, Bogotá"
"TAX POBLADO LTDA.";taxpoblado@taxpoblado.com.co;www.taxpoblado.com.co;"(57) (4) 3353535";"Cr43 A 45 B   S-51 Envigado Colombia, Medellín"
"VIAJES ESCONALTUR";esconaltur@hotmail.com;www.viajesesconaltur.com;"(57) (1) 7274633";"Cl 13 42 B-05 Colombia, Bogotá"
"TRANSPORTES CARLOS ESCOBAR";transportescarescobar@gmail.com;;"(57) 3153014026";"Bogotá-Colombia Colombia, Bogotá"
"TRANSPORTE Y TURISMO 1A";administrativo@transporteyturismo1a.com;;"(57) (4) 4446744";"Cl 75 64 B-41 Caribe Colombia, Medellín"
"LINEAS ESCOTUR S.A.";info@lineasescotur.com;;"(57) (1) 3145651";"Cr24 63 C-28 P-6 Colombia, Bogotá"
"SEVIESPECIALES COCHE EXPRESS CARTAGENA";;;"(57) (5) 6561855";"Crespo Av1 67-59 Colombia, Cartagena"
"BVC TURISMO LTDA";;;"(57) (1) 6091358";"cl129#52-12 p.2 Colombia, Bogotá"
COOPTRANSANMATEO;;;"(57) (1) 7123493";"Cr 14e 32-86 Colombia, Bogotá"
"ESCAR TRANSPORTES SOCIADOS LTDA.";;;"(57) (1) 8631014";"Cr14 10-14 Chía Colombia, Chía"
"V.I.P. XPRESS";;;"(57) (5) 6445497";"Cl 20 9-80 Edif Brisas del Mar Colombia, Cartagena"
"METROATLÁNTICO S.A.";;;"(57) (5) 3548550";"Cr10 5-198 La Playa Colombia, Barranquilla"
"TRANSPORTES YAMEYA LTDA.";;;"(57) (4) 2600403";"Cr64 C 78-580 Taquilla 32 Colombia, Medellín"
"CAPI EXPRESS LTDA.";;;"(57) (1) 4117529";"CL 11 D 72 A - 34 Colombia, Bogotá"
SANTRA;;;"(57) (4) 3730039";"Cr49 52 S-300 Sabaneta Colombia, Sabaneta"
"TRANSPORTE FÉLIX CEPEDA";;;"(57) (5) 7281717";"Cr7 22-13 Colombia, Riohacha"
"TURYEXPRESOS LTDA.";;;"(57) (1) 4308778";"Av (Cl) 68 84 A-60 Colombia, Bogotá"
"MAVITURS S.A.";;;"(57) (1) 2952312";"Cl 25 B 80 C-12 Colombia, Bogotá"
"COOTRALPA LTDA.";;;"(57) (2) 7271445";"Cl Mercedes 30 B Piso 2 Colombia, Tumaco"
"TRANSCÓNDOR INTERANDINA S.C.A.";;;"(57) (2) 6667284";"Autop Cali Yumbo Cencar B-A-2 Of 212 Yumbo Colombia, Cali"
"EMPRESA TRANSPATUMA LTDA.";;;"(57) (2) 2299277";"Cr7 7-55 Colombia, Roldanillo"
"RADIO TAXIS A.C.B.C.";;;"(57) (2) 2438811";"Cr38 4-95 Brr. 14 de Julio Colombia, Buenaventura"
"VELOTAX LTDA.";;;"(57) (8) 2522389";"Cl 7 5-39 Villa Holanda Colombia, Mariquita"
"COOTRANSPOLICARPA LTDA.";;;"(57) (2) 7330759";"Cl 17 10-24 Fátima Colombia, Pasto"
"COOPERATIVA D TRANSPORTADORES DE TAMESIS COOPTR";;;"(57) (4) 3611227";"Cr65 8 B-91 Colombia, Medellín"
"METRO VANS LTDA.";;;"(57) (1) 6793217";"Cl 165 7-21 Colombia, Bogotá"
"TRANSPORTE PUERTA A PUERTA LIMUSINAS";;;"(57) (5) 6692255";"Cl 29 D 22 A-18 Colombia, Cartagena"
"K-RIBE EXPRESS TOURS";;;"(57) (5) 6565241";"Cl 70 6 A-28 Colombia, Cartagena"
"SOCIEDAD TRANSPORTADORA LIBERTAD LTDA.";;;"(57) (2) 8304388";"Cl 5 50-201 Colombia, Popayán"
"SERVICOLTUR LTDA.";;;"(57) (1) 4341940";"Cr80 A 77 A-25 Colombia, Bogotá"
"TRANSPORTES URBANOS RIONEGROS.A";;;"(57) (4) 5612488";"cr70 42-09 Colombia, Medellín"
"TRANSPORTES LOLAYA LTDA.";;;"(57) (5) 3446281";"Cr42 D 5-47 Colombia, Barranquilla"
"TAX SATELITE DEL CARIBE S.A.";;;"(57) (5) 3404040";"Cr43 45-102 Colombia, Barranquilla"
"SERVI EXPRESS PUERTA A PUERTA";;;"(57) (4) 8333951";"Cl 51 3-30 Colombia, Puerto Berrío"
"First Name";"Email Address";Url;Telephone;Address
"TRANSPORTES ESPECIALES LIBERTAD S.A.";;;"(57) (1) 6702440";"Cr7 D 153 B-30 Colombia, Bogotá"
"EXPRESO & ESCOLARES S.A.";;;"(57) (1) 6309051";"Cr69 L 65-70 Colombia, Bogotá"
"SOCIEDAD DE TRANSPORTADORES DE PALERMO LTDA.";;;"Telefax: (57) (5) 3741707";"Cl 18 9 B-21 Colombia, Barranquilla"
"TAXY SOLUCIONES S.A.S.";;;"Telefax: (57) (5) 3173653";"Cr43 84 B-11 Colombia, Barranquilla"
COOTRANSDA;;;"(57) (4) 2604810";"Cr64 C 78-580 L-29-B Colombia, Medellín"
COOTRANSUROCCIDENTE;;;"(57) (4) 2309013";"Cr64 C 78-580 Of 9825 Colombia, Medellín"
COOPINTRANSVEGA;;;"(57) (1) 7321966";"Cr8 16-55 Soacha Colombia, Soacha"
"TRANSPORTES BERRÍO LTDA.";;;"(57) (4) 8326761";"Cr4 4-29 Colombia, Puerto Berrío"
"COOPERATIVA INTEGRAL DE TAXIS BELALCÁZAR";;;"(57) (2) 6687921";"Terminal de Transporte P-2 Colombia, Cali"
"EXPRESO BELMIRA S.A.";;;"(57) (4) 8687057";"cL 45aa 51-39 Colombia, San Pedro de los Milagros"
"OBREGON VALVERDE ENRIQUE";;;"(57) (5) 3781277";"Cl 93 46-152 Colombia, Barranquilla"
"BOSSIO DE ARCO LUIS FELIPE";;;"(57) (5) 3559873";"Cl 85 71-46 El Paraíso Colombia, Barranquilla"
"INVERSIONES FUTURISTAS FRAN & MOR S.A.S.";;;"(57) (1) 2921076";"Cr72 A 8-94 Colombia, Bogotá"
"INVERSIONES LEAÞO BARRETO Y CÚA. S. EN C.";;;"(57) (1) 6951012";"Tr77 162-08 Int 47 Colombia, Bogotá"
COOPROVINCIA;;;"(57) (5) 5746236";"Cl 7 10-28 Esq Colombia, Valledupar"
"TRANSPORTES J.I. CARIBE S.A.S.";;;"(57) (5) 3701460";"Cl 51 29-57 Colombia, Barranquilla"
"AGENCIA DE VIAJES PROMOVER";;;"(57) (1) 4110711";"Av Boyacá 8-41 P-2 Colombia, Bogotá"
"TRANSPORTES BERMÚDEZ S.A.";;;"(57) (1) 2696812";"Av Cr 40 24a-71 Colombia, Bogotá"
"CANGURO LOGISTIC & BUSSINES S.A.S.";;;"Telefax: (57) (7) 5729788";"Av4 10-42 Of 502 C.C. Plaza Colombia, Cúcuta"
"TRANSPORTE TURÍSTICO MARLIN S.A.S.";;;"(57) (5) 6567668";"Cr9 22-684 Sector Cielo Mar Colombia, Cartagena"
"SOTRAMAR S.A.";;;"(57) (4) 5484141";"Cr30 28-93 Marinilla Colombia, Medellín"
"TURIMAR CHIVAS Y ALGO MAS";;;"(57) (4) 4828602";"Dg42 F 32 C-10 Bello Colombia, Bello"
"MAHUIDA TOURS";;;"(57) (8) 8720495";"Cl 15 6-67 L-2 Colombia, Neiva"
"MAURICIO MESA";;;"(57) (2) 6542318";"Cl 53 C N 6 E N-02 Colombia, Cali"
"TRANSPORTES EXPRESO PALMIRA S.A.";;;"Telefax: (57) (2) 6644689";"Cr34 10-229 Acopi Yumbo.. Colombia, Cali"
"MAYOLO CHAVEZ PEDRO JAVIER";;;"(57) 3004790421";"Cl 4 73-91 Trr 6 Ap 522 Colombia, Cali"
"TRANSPORTES SAN SILVESTRE S.A.";;;"(57) (7) 6203247";"Cl 51 3-73 Sector Comercial Colombia, Barrancabermeja"
"SOTRATOLIMA LTDA.";;;"(57) (1) 6368486";"Cr29 91-30 Ap 201 Colombia, Bogotá"
"OLYMSA OPERACIONES LOGÍSTICAS S.A.S";;;"(57) (1) 2387308";"Cr68 A 37-75 S Colombia, Bogotá"
"METROPOLITANA DE SERVICIOS S.A.";;;"(57) (7) 6835590";"Cl 62 17 C-63 La Ceiba Colombia, Bucaramanga"
"COOTRANSFUENTE DE ORO";;;"(57) (8) 6524072";"Cr15 14-49 Centro Colombia, Puerto Lleras"
"COTRANSPALONEGRO LTDA.";;;"(57) (7) 6566684";"Cr9 8-32 Lebrija Colombia, Bucaramanga"
"COOTRALPA LTDA.";;;"(57) (2) 7271445";"Cl Mercedes 30 B Piso 2 Colombia, Tumaco"
"LUIS CARLOS 66";;;"(57) 3014560854";"Cr 50 74-139 Edif Calabres Colombia, Riohacha"
"TRANSPORTES EXPRESO PAZ DE RÍO S.A.";;;"(57) (1) 4285499";"Cl 33 B 69-13 Colombia, Bogotá"
"PEGASO TOURS LTDA.";;;"(57) (1) 2273718";"Cr103 75 B-39 Colombia, Bogotá"
"TRANSPORTES CARROS DEL SUR S.A.TRANSCARD S.A.";;;"(57) (1) 4162319";"Cr71 B 54-81 Colombia, Bogotá"
"TRANSPORTES UNIDOS BUGA S.A.";;;"(57) (2) 2280073";"Terminal de Transportes L-11 Colombia, Buga"
"EXPRESO LAS LAJAS S.A.";;;"(57) (2) 7733953";"Cr6 3-118 Colombia, Ipiales"
"TRANSPORTE ARIMERA S.A.";;;"(57) (8) 6561905";"Cr20 13-65 Cooperativo Colombia, Acacías"
"First Name";"Email Address";Url;Telephone;Address
"SEGURISTOUR S.A.S.";;;"Telefax: (57) (1) 4084362";"Cr14 83-26 L 9 Colombia, Bogotá"
"NACIONAL DE EXPRESO TURISTICOS";;;"(57) (1) 6823963";"Cr 94 138A-43 Colombia, Bogotá"
"TRANSPORTES RODRIMAR S.A.S.";;;"Telefax: (57) (1) 6814511";"Cr86 146 - 61 Int 13 Ap 501 Colombia, Bogotá"
"FLOTA AYACUCHO";;;"(57) (1) 4203733";"Av (Cr) 68 10 A-58 Colombia, Bogotá"
"COOPERATIVA DE TRANSPORTE DEL ORIENTE";;;"(57) (5) 4312211";"Cl 11 Cr11 Esq Colombia, Santa Marta"
COOINTRATURISMO;;;"(57) (5) 6632098";"Terminal de Transportes de Cartagena L-1-15 A Colombia, Cartagena"
"AGENCIA DE VIAJES NACIONAL TUR";;;"(57) (1) 7254432";"Av Boyacá 43 C-20 Sur Colombia, Bogotá"
"AGENCIAS DE VIEJES Y TRANSPORTE TAIRONA EXPRESS";;;"(57) (1) 6609460";"cl70#28-20 Colombia, Bogotá"
"VIACOLTUR LTDA.";;;"(57) (1) 4305550";"Dg80 A 86-36 Colombia, Bogotá"
BERLINAS;;;"(57) (7) 5726379";"Central de Transportes Of 2 Colombia, Cúcuta"
"COCHE TOUR";;;"(57) (5) 4227743";"Cr3 Cl 9 Esq Edif El Dorado Colombia, Santa Marta"
"AE TRANSPORTES S.A.S.";;;"Telefax: (57) (1) 3786602";"Cl 106 53 - 56 Of 710 Colombia, Bogotá"
"GRUPO FRANSA LTDA.";;;"(57) (1) 6520557";"Av (Cr) 61 131-28 Int 9 Ap 703 Colombia, Bogotá"
"COOTRADELSA LTDA.";;;"(57) (7) 6703051";"Cr17 21-26 Colombia, Bucaramanga"
"NARIÑENSES DE TRANSPORTISTAS LTDA.";;;"(57) (2) 7210197";"Cl 9 A 16-78 Colombia, Pasto"
"CAPITAL EXPRESS LTDA.";;;"(57) (1) 4141933";"Av (Cl) 17 55-08 Colombia, Bogotá"
TRANSCEAR;;;"(57) (1) 2315269";"Cl 67A 60-63 Colombia, Bogotá"
"COSTATOURS EXPRESS";;;"(57) (5) 4359695";"Cl 32 2-45 P-1 Colombia, Santa Marta"
"SETRANSVEL LTDA.";;;"(57) (1) 2636589";"Cl 26 85 D-55 L-A-145 Colombia, Bogotá"
"ESTACION LA PERLA DEL SINÚ";;;"(57) (4) 7825050";"Cl 44 4-54 Los Laureles Colombia, Montería"
"COOPERATIVA INTEGRAL DE TRANSPORTES LA FLORIDA";;;"(57) (1) 2919045";"Cl 75 A 78-90 Colombia, Bogotá"
"RÁPIDO HUMADEA S.A.";;;"(57) (1) 2921688";"Cl 19 69-97 Colombia, Bogotá"
"COOTRAURES LTDA.";;;"(57) (1) 2277808";"Cr96 73-51 Colombia, Bogotá"
"TRANSPORTE SAN EUGENIO S.A.";;;"(57) (6) 3641717";"Cr13 14-26 Colombia, Santa Rosa de Cabal"
RODRISERVICIOS;;;"(57) (5) 2800022";"Cr40 23-26 Florencia Colombia, Sincelejo"
"AUTURESTE LTDA.";;;"(57) (1) 7209726";"Av (Cr) 50 1 D-11 Colombia, Bogotá"
"FLOTA LA MACARENA S.A.";;;"(57) (1) 4212256";"Dg23 69-60 Mód 2 Of 221 Colombia, Bogotá"
CONALTRACOOP;;;"(57) (4) 2931484";"Cl 52 52-11 Int 611 Colombia, Medellín"
"VEHITRANS S.A.";;;"(57) (5) 6698730";"Tesca Cl 31 48 C-71 L-4 Colombia, Cartagena"
"TRANSPORTES EL PALMAR S.A.";;;"(57) (1) 3706670";"Cl 11 40-35 Colombia, Bogotá"
"NEBRASKA TOURS LTDA.";;;"(57) (1) 4120763";"Tr74 10 D-52 Int 35 L-103 Colombia, Bogotá"
"COOTRANSCAGUÁN LTDA.";;;"(57) (8) 8704592";"Terminal de Transportes L 1-37 Colombia, Neiva"
COTRANSFEBO;;;"(57) (1) 7291786";"Cr7 A 21-10 soacha Colombia, Soacha"
"INVERSIONES URBANAS Y AGROPECUARIAS S.A.S.";;;"(57) (1) 2022341";"Cl 1 C 39 - 58 Colombia, Bogotá"
"TRANSPORTE SERVITOURS";;;"(57) (5) 3607529";"Cr46 No. 61-51 L-104 Colombia, Barranquilla"
"PUBLICIDAD LOGÚSTICA Y MERCADEO S.A.";;;"(57) (1) 3380927";"Cl 39 A 18-12 Colombia, Bogotá"
"ANITUR LTDA.";;;"(57) (1) 4810207";"Cr57 B 68-11 Of 302 Colombia, Bogotá"
"AGENCIA DE TRANSPORTADORES MONSERRAT E.U.";;;"(57) (1) 2852832";"Cl 45 16-08 Colombia, Bogotá"
"INVERSIONES BIRTRAN LTDA.";;;"Telefax: (57) (5) 3737562";"Cr53 82-242 Ap 303 Colombia, Barranquilla"
"TRANSPORTE ENTRERRIOS S.A.S.";;;"Conm.: (57) (4) 2933131";"Cr57 61 A-44 Colombia, Medellín"
"First Name";"Email Address";Url;Telephone;Address
"LOGYSER S.A.S.";;;"Telefax: (57) (1) 5645864";"Cr7 71-21 Colombia, Bogotá"
"AMIGOS DEL TRANSPORTE AMITRANS S.A.";;;"(57) (5) 6817000";"Cr81 24-127 Colombia, Cartagena"
"CIUDAD MOVIL";;;"(57) (1) 6785119";"CL 182 47-99 Colombia, Bogotá"
"ALL TOUR S.A.";;;"(57) (1) 6270293";"Cr10 A 134 B-05 Int 1 Colombia, Bogotá"
"AREVATUR LTDA.";;;"(57) (1) 2907511";"Cl 2 A Bis A 53 A-66 P-3 Colombia, Bogotá"
COOPTRANSANMATEO;;;"(57) (1) 7123493";"Cr 14e 32-86 Colombia, Bogotá"
"RUTEXCOL S.A.";;;"(57) (1) 6081590";"Cl 22 B 62-51 Int 1 Of 404 Colombia, Bogotá"
"UCOTRANS LTDA.";;;"(57) (1) 7772562";"Cl 68 A S 80 M-16 Colombia, Bogotá"
"TRANSPORTE AUTOLLANOS S.A.";;;"(57) (8) 6560582";"Cr20 14-21 Centro Colombia, Acacías"
"ARITUR LTDA.";;;"(57) (1) 2020359";"Cr38 27 B-27 Sur Colombia, Bogotá"
"LÍNEAS METRO EXPRESS LTDA.";;;"(57) (1) 2760915";"Cl 71 A 70 B-44 Colombia, Bogotá"
"TRANSPORTE Y TURISMO BERLINAS DEL FONCE S.A.";;;"(57) (1) 7435050";"Cr68 D 15-15 Colombia, Bogotá"
"ISGO TRANSPORTES ESPECIALES";;;"Conm.: (57) (1) 6792170";"Cl 161 7 B-55 Colombia, Bogotá"
"TUREES DE COLOMBIA LTDA.";;;"(57) (1) 2254554";"cll 67b 60 16 Colombia, Bogotá"
"RÁPIDO LA SANTAMARÍA Y CÍA.";;;"(57) (4) 3763577";"Cr52 D 76-67 Itagüí Colombia, Itagüí"
"TRANSPORTES METROPOLITANOS DEL CARIBE LTDA.";;;"(57) (5) 3348146";"Cr8 18-40 Vía Malambo Colombia, Barranquilla"
"ESTACIÓN DE TAXIS V.I.P.";;;"(57) (5) 3588888";"Cr42 G 82-218 Colombia, Barranquilla"
"ESCAR TRANSPORTES SOCIADOS LTDA.";;;"(57) (1) 8631014";"Cr14 10-14 Chía Colombia, Chía"
"METROPOLITANA DE TRANSPORTE LA CAROLINA";;;"(57) (5) 3230061";"Parqueadero Privado Terminal de Transportes Colombia, Barranquilla"
"MEDELLIN THE TOURS";;;"(57) (4) 5827352";"Cr73 A 30 B-123 Colombia, Medellín"
"AGENCIA DE SERVICIO ESPECIAL TRANSPORTE EJECUTIVO";;;"(57) (5) 3585430";"Cr48 76-123 Colombia, Barranquilla"
"OSTI LTDA";;;"(57) (8) 8722062";"Cl 10 7-52 Of 112 Colombia, Neiva"
"METROATLÁNTICO S.A.";;;"(57) (5) 3548550";"Cr10 5-198 La Playa Colombia, Barranquilla"
"LOGITRANS LLANERO S.A.S.";;;"(57) (8) 6621410";"Cl 37 B 29-32 Of 202 Colombia, Villavicencio"
"H&M GESTIµN Y SERVICIOS EMPRESARIALES S.A.S.";;;"(57) (1) 4107230";"Cr14 B 118-93 Ap 301 Colombia, Bogotá"
COOTRAUNITAX;;;"(57) (5) 3575757";"Cr52 No. 94-216 Colombia, Barranquilla"
"CONDUCTORES ELEGIDOS EL PROGRESO";;;"(57) (1) 6881919";"Cl 144 145-50 Int 49 Colombia, Bogotá"
"STARGATE RENT A CAR LTDA.";;;"(57) (1) 8000834";"Calle 23B Bis 81a69 Colombia, Bogotá"
"PROYECTOS ZETA LTDA";;;"(57) (1) 3290022";"Cr68 G 64 D-52 Of 101 Colombia, Bogotá"
SERVIMILENIUM;;;"(57) (1) 6491670";"C.C. Mazurén L-261 Colombia, Bogotá"
"INVERSIONISTAS DEL TRANSPORTE DE SOLEDAD S A";;;"Telefax: (57) (5) 3766981";"Cr7 S 19-04 Soledad Colombia, Barranquilla"
"TRANSPAG LTDA";;;"(57) (1) 5228162";"Cl 101 14-55 Colombia, Bogotá"
COOTRANSRURAL;;;"(57) (2) 8218222";"Cl 5 19-55 L-1 Colombia, Popayán"
"REMISES SERVICE LTDA.";;;"(57) (1) 6089779";"Cl 67 62-28 Colombia, Bogotá"
"EXPRESOS EL PUERTO EAT";;;"(57) (4) 8333552";"Cr4 50-22 Colombia, Puerto Berrío"
"EXPRESO CISNEROS NUS LTDA. Y CIA. S.C.A.";;;"Conm.: (57) (4) 2933131";"Cr57 61 A-44 Colombia, Medellín"
COOTRASLOMA;;;"(57) (5) 5602838";"Dg21 24-84 Av Fundación Colombia, Valledupar"
"RAMOS TOURS LTDA.";;;"(57) (1) 2399596";"Cl 19 A 26-18 S Colombia, Bogotá"
"TRANSPORTES JERICÓ PUEBLO RICO TARSO LTDA.";;;"(57) (4) 3611384";"Cr65 8 B-91 Of 405 Colombia, Medellín"
TURISMAO;;;"(57) (2) 3907452";"Cr67 1 A-35 Oe Colombia, Cali"
"First Name";"Email Address";Url;Telephone;Address
"COLOMBIANA DE EXPRESOS S.A.";;;"(57) (1) 2626221";"Av68 14-10 S Colombia, Bogotá"
"TRANSPORTES L3 S.A.S.";;;"Telefax: (57) (1) 6746874";"Cr20 169 - 54 Colombia, Bogotá"
"BERLINAS DEL FONCE S.A.";;;"(57) (7) 6370608";"Terminal de Transporte Km 2 Vía Girón Mód 4 Colombia, Bucaramanga"
"VELOTRANS LTDA.";;;"(57) (1) 2616367";"Cr60 5 B-51 Colombia, Bogotá"
"SETCOLTUR LTDA.";;;"(57) (1) 3680344";"Cr37 31-42 Of 102 Colombia, Bogotá"
ASOTRANSTAX;;;"(57) (5) 4216575";"Cl 23 4-27 Of 907 Centro Ejecutivo Colombia, Santa Marta"
"FLOTA AYACUCHO";;;"(57) (1) 4203733";"Av (Cr) 68 10 A-58 Colombia, Bogotá"
"INVERSIONES ROMERO GÓMEZ S.A.S.";;;"Telefax: (57) (1) 2228679";"Cl 23 A 58 - 40 Trr 1 Of 803 Colombia, Bogotá"
"TRANSPORTES ESPECIALES VIP";;;"(57) (1) 4101563";"Cl 56 70 D-06 Colombia, Bogotá"
"TRANSPORTE EJECUTIVO TESA S.A.";;;"(57) (2) 7228329";"Cl 17 12-95 Colombia, Pasto"
"NARIÑENSES DE TRANSPORTISTAS LTDA.";;;"(57) (2) 7210197";"Cl 9 A 16-78 Colombia, Pasto"
"TUR Y TRANS";;;"(57) (8) 8757181";"Cr6 18 A-16 Colombia, Neiva"
"TRANSPORTES ESPECIALES FÉNIX LTDA.";;;"(57) (1) 4527285";"Cl 2 A S 73 B-19 Colombia, Bogotá"
"LÍNEA COLVEN";;;"(57) (7) 5728213";"Central de Transporte Terminal Muelle 1 Colombia, Cúcuta"
"COCHE TOUR";;;"(57) (5) 4227743";"Cr3 Cl 9 Esq Edif El Dorado Colombia, Santa Marta"
"ALAMIO S.A.";;;"Telefax: (57) (2) 3232650";"Cr70 1-57 Colombia, Cali"
"TESMUTOUR LTDA.";;;"(57) (1) 6263995";"Cr47 134 A-67 Colombia, Bogotá"
"SUPERTAXIS DEL SUR";;;"(57) (2) 6615436";"Terminal De Transportes P-2 Colombia, Cali"
COOTRAMOB;;;"(57) (4) 5110400";"Cl 56 53-30 Colombia, Medellín"
"ORBITRANS S.A.";;;"(57) (4) 4448674";"Cr65 8 B-91 L-328 Colombia, Medellín"
"TRANSPORTES RÁPIDO AMAGÁ S.A.";;;"(57) (4) 2785255";"Cr50 129 S-71 Of 205 Caldas Colombia, Medellín"
"TRANSPORTES PAPAGALLO";;;"(57) (2) 6669451";"Tr3 0-116 La Dolores Colombia, Cali"
"CAPITAL EXPRESS LTDA.";;;"(57) (1) 4141933";"Av (Cl) 17 55-08 Colombia, Bogotá"
"TRASNAL LTDA.";;;"(57) (2) 6646710";"Av 6 N 49 Local 7 Las Vallas Colombia, Cali"
"EMPRESA ARAUCA S.A.";;;"(57) (4) 2308602";"Terminal Norte Colombia, Medellín"
"COCHE TOUR EXPRESO BRASILIA";;;"(57) (5) 6660841";"Cl 70 2-64 Colombia, Cartagena"
"TRANSPORTES PORRAS AMAYA LTDA.";;;"(57) (1) 2019391";"Cr34 6 A-96 Colombia, Bogotá"
"EXPRESO DEL SOL S.A.";;;"(57) (1) 2637141";"Cl 24 B 80 B-25 Colombia, Bogotá"
COOPTRANSUNE;;;"(57) (1) 2781896";"Cl 25 S 8-27 Colombia, Bogotá"
"ESTACION LA PERLA DEL SINÚ";;;"(57) (4) 7825050";"Cl 44 4-54 Los Laureles Colombia, Montería"
"CIUDAD MOVIL";;;"(57) (1) 6785119";"CL 182 47-99 Colombia, Bogotá"
"COMPAÑÍA MULTINACIONAL DE TRANSPORTE MASIVO S.A. CMTM S.A. CONNEXIÓN MOVIL S.A.";;;"(57) (1) 7799300";"Cl 57 Q S 65-64 Colombia, Bogotá"
"PROMOTORA DE TRANSPORTES UNIVERSO";;;"(57) (1) 6787893";"Cl 155 Bis 7-23 Colombia, Bogotá"
"EXPRESO GAVIOTA S.A.";;;"(57) (1) 4101300";"Cr71 B 56 A-07 Colombia, Bogotá"
"TORRES GAITÁN GLORIA INÉS";;;"(57) (1) 2959916";"Cl 22 F 83-04 Colombia, Bogotá"
"COOPERATIVA DE TAXIS BELALCÁZAR";;;"(57) (2) 8231111";"Cr8 18 N-49 Colombia, Popayán"
"EXPRESO LA GAITANA S.A.";;;"(57) (1) 5708808";"Terminal de Transportes Módulo Amarillo Of 1-208 Colombia, Bogotá"
"UNIÓN DE TRANSPORTADORES DEL LLANO LTDA.";;;"(57) (8) 6685353";"Cl 27 39-33 Brr. 7 de Agosto Colombia, Villavicencio"
"COOPERATIVA DE TRANSPORTES VELOTAX LTDA.";;;"(57) (8) 6607755";"Cl 15 33-94 La Florida Colombia, Villavicencio"
"TRANSPORTE Y .ALQUILER RODRIGO MUÑOZ E.U.";;;"(57) (1) 3350881";"Cr52 144A-35 Colombia, Bogotá"
"First Name";"Email Address";Url;Telephone;Address
"INTEGRACIÓN DE TRANSPORTADORES COLOMBIANOS DE SERVICIO ESPECIAL LTDA.";;;"(57) (1) 4813865";"Cr37 90-47 Colombia, Bogotá"
"COOPERATIVA DE TRANSPORTADORES DE CONCORDIA";;;"(57) (4) 3528502";"Cl 8 B 65 50 Taquilla-30 Terminal del Sur Colombia, Medellín"
"TAXI TROPICAL";;;"(57) 3178254540";"cl 4 10-45 Colombia, Riohacha"
"AEROBUSES VUAJES CONSUL LTDA";;;"(57) (1) 6092204";"Cr71 F 6 D-29 Colombia, Bogotá"
"PORTRANS LTDA.";;;"(57) (1) 2833181";"Cr13 13-24 Of 426 Colombia, Bogotá"
"SKY DISCO MOVIL";;;"(57) (1) 2211204";"Cr52 44 F-44 Colombia, Bogotá"
TRANSTEBAIDA;;;"(57) (6) 7478991";"Cl 35 28-60 Colombia, Armenia"
"TRANSPORTE CARIBEÑA TOURS LTDA.";;;"(57) (5) 3775800";"Cl 93 49 C-75 Colombia, Barranquilla"
"CONDUCTORES ELEGIDOS EL PROGRESO";;;"(57) (1) 6881919";"Cl 144 145-50 Int 49 Colombia, Bogotá"
"RTG TRANSPORTE Y LOGISTICA S.A.S.";;;"(57) (4) 4488714";"Cl 22 D 45-39 P-2 Colombia, Medellín"
COTAXI;;;"(57) (5) 5826033";"Terminal de Transportes L-1-2 Colombia, Valledupar"
"COOMUTRAN LTDA.";;;"(57) (4) 3614226";"Cr65 B 8 B-91 Int 30 Colombia, Medellín"
"TAXY SOLUCIONES S.A.S.";;;"Telefax: (57) (5) 3173653";"Cr43 84 B-11 Colombia, Barranquilla"
"COOPERATIVA INTEGRAL DE TRANSPORTADORES URABA";;;"(57) (4) 8284243";"Cl 98 104- 80 Terminal de transportes Colombia, Apartadó"
"SOCIEDAD TRANSPORTADORA DE EL PEÑOL";;;"(57) 8515912";"Tr4 7-34 Colombia, El Peñol"
"SERVIESPECIALES JARDIN S.A.S.";;;"(57) (4) 8456063";"Cl 8 2-19 Colombia, Jardín"
"SERVI EXPRESS PUERTA A PUERTA";;;"(57) (4) 8333951";"Cl 51 3-30 Colombia, Puerto Berrío"
"TRANSPORTES LA COSTEÑA";;;"(57) (5) 3785119";"Cl 91 53-250 Ap- 4B Colombia, Barranquilla"
"OBREGON VALVERDE ENRIQUE";;;"(57) (5) 3781277";"Cl 93 46-152 Colombia, Barranquilla"
COOPROVINCIA;;;"(57) (5) 5746236";"Cl 7 10-28 Esq Colombia, Valledupar"
COOTRANSPORTE;;;"(57) (8) 6720936";"Cl 5 15-21 Brr. Macunaima Colombia, Villavicencio"
"EXPRESO SURAMERICANO DE TRANSPORTES";;;"(57) (1) 7214933";"Diagonal 6 Bis # 6-49 Colombia, Bogotá"
"ONALTER - CORPORACIÓN NACIONAL DE TERMINALES D";;;"(57) (1) 6235891";"Cr17 93-82 Of 401 Colombia, Bogotá"
"EXPRESO DEL PAIS";;;"(57) (1) 7242556";"Cra 57 45a-54 S Colombia, Bogotá"
"TRANSPORTE BARBOSA PORCESITO S.A.";;;"(57) (4) 4360996";"Cr64 C 78-580 L-132 Colombia, Medellín"
"TRANSPORTES MONTEBELLO LTDA.";;;"(57) (2) 2758925";"Cr 32 Cl 16 Esq. Colombia, Palmira"
"TRANSPORTES UNIDOS CREMA Y ROJO LTDA UNIROJO LTDA";;;"(57) (2) 3902008";"Cl 121 28- Colombia, Cali"
"TRANSPORTES ESPECIALES BELALCÁZAR LTDA.";;;"(57) (2) 6630831";"Cr7 PBis-61 -16 Colombia, Cali"
"TRANSPORTE ALFONSO LÓPEZ";;;"(57) (2) 4201976";"Cl 121 26 H Bis-05 Colombia, Cali"
"EXPRESO PRADERA";;;"(57) (2) 4037596";"Cl 30 19-21 P-2 Colombia, Cali"
"TRANSPORTES GINEBRA S.A.";;;"(57) 3146853263";"Terminal de Transportes Buga T-41 Colombia, Buga"
"COOPERATIVA DE TRANSPORTADORES VILLA DE CÉSPEDES";;;"(57) (2) 2242424";"Cr31 27-24 Colombia, Tuluá"
"SOTRATOLIMA LTDA.";;;"(57) (1) 6368486";"Cr29 91-30 Ap 201 Colombia, Bogotá"
"SOTRAMAGDALENA S.A.";;;"(57) (7) 6428973";"Cl 31 21-72 Colombia, Bucaramanga"
"COTRANSGAR LTDA";;;"(57) (8) 8601133";"Cr7 3 A-S 76 Lt 33 Colombia, Neiva"
"TRANSPORTES ZAPATA S.A.";;;"(57) (6) 3214221";"Cl 17 23-157 Nivel 1 Colombia, Pereira"
"JIMÉNEZ GLORIA";;;"(57) (1) 6726634";"Cr63 174 B-06 Colombia, Bogotá"
"CLC COMPAÑÍA LOGÍSTICA COLOMBIANA LTDA.";;;"(57) (1) 6966770";"Cr69 77-43 P-1 Colombia, Bogotá"
"COOPERATIVA UNITRANS";;;"(57) (6) 8708199";"Vía La Linda Veracruz Colombia, Manizales"
CONCORDE;;;"(57) (7) 6809554";"Tr Metropolitana Mód 2 Colombia, Bucaramanga"
"First Name";"Email Address";Url;Telephone;Address
COOTRANSNEVADO;;;"(57) (5) 5744115";"Cr7 A 18 B-37 Centro Colombia, Valledupar"
"COOPERATIVA DE TRANSPORTES DE LA COSTA ATLÁNTICA";;;"(57) (5) 3230066";"Terminal de Transporte Colombia, Barranquilla"
"FANG YORK";;;"(57) 3008153295";"Cl 79 42-200 Colombia, Barranquilla"
"COOTRANSNORTE VALLEDUPAR";;;"(57) (5) 5827223";"Cr18 D 43-90 Colombia, Valledupar"
TURISMAO;;;"(57) (2) 3907452";"Cr67 1 A-35 Oe Colombia, Cali"
"AGENCIA DE VIAJES PROMOVER";;;"(57) (1) 4110711";"Av Boyacá 8-41 P-2 Colombia, Bogotá"
COOTRANSGAVAN;;;"(57) (8) 5841669";"Cl 9 19 A-02 Brr. Porvenir Colombia, San José del Guaviare"
"DOLPHIN EXPRESS S.A.";;;"(57) (1) 6748965";"Cl 183 8 A-31 Colombia, Bogotá"
"TRANSTURCOL LTDA";;;"(57) (1) 6731393";"Cl 165 54C-35 Int 22 Colombia, Bogotá"
TAXIGER;;;"(57) (4) 3739263";"Cl 51 42-129 Of 201 Itagüí Colombia, Itagüí"
"EXPRESO PRADERA";;;"(57) (2) 4037596";"Cl 30 19-21 P-2 Colombia, Cali"
"UNIÓN TEMPORAL DE RECAUDO Y TECNOLOGIA UTRYT";;;"Conm.: (57) (2) 6600001";"Cl 5 52-163 Colombia, Cali"
"GIT MASIVO S.A.";;;"(57) (2) 8831442";"Cr3 7-75 Of 601 Colombia, Cali"
"EMPRESA PRIMAVERA LTDA.";;;"(57) (2) 2246873";"Cl 26 Cr21 L-Del Parqueadero Colombia, Tuluá"
"TRANSPORTES PURIFICACIÕN S.A.";;;"(57) (8) 2625098";"Cl 5 5-49 Purificaciõn Colombia, Ibagué"
"SÁNCHEZ CASTAÑO NESTOR E.U";;;"(57) (4) 2556056";"Cl 12 S 52-21 Colombia, Medellín"
COESTUR;;;"(57) (8) 2710614";"Cl 68 5-25 L 20 Colombia, Ibagué"
"AEROBUSES TEBSA";;;"(57) (1) 2748106";"Cl 128 A 45-11 Of 403 Colombia, Bogotá"
"EXPRESO ALCALÁ S.A.";;;"(57) (2) 2004583";"Terminal Transportes Colombia, Alcalá"
"TERMINAL DE TRASNPORTES DE VILLAVICENCIO";;;"(57) (8) 6606535";"Cr1 15-05 Anillo Vial Colombia, Villavicencio"
"PROMASIVO S.A.";;;"(57) (6) 3170680";"Av30 de Agosto 52-476 Colombia, Pereira"
"TRANSPORTES EJECUTIVOS LTDA.";;;"(57) (1) 6097235";"Cr100 26-84 Colombia, Bogotá"
"RADIO TAX ARAUCA LTDA";;;"(57) (1) 3602163";"Av (Cr) 36 4 B-84 Colombia, Bogotá"
"TRANSPORTES ARIMENA S.A.";;;"(57) (1) 5417777";"Cl 64 70-63 Colombia, Bogotá"
"EXPRELDORADO LTDA";;;"(57) (1) 6701534";"Cll 181B 8 52 Colombia, Bogotá"
"EXPRESO DE LA SABANA S.A.";;;"(57) (1) 2834775";"Cl 13 16-07 Of 304 Colombia, Bogotá"
"SOUTH MERICAN TOURS";;;"(57) (1) 2355879";"Cr9 57-73 Of 202 Colombia, Bogotá"
"TRANSPORTES RÁPIDO NARIÑO";;;"(57) (2) 6905025";"Cencar Muelle 1 A 4 Yumbo Colombia, Yumbo"
"TRANESPECIAL BRASILIA LTDA.";;;"(57) (2) 2750156";"Cr28 43-82 Colombia, Palmira"
"FLOTAX S.A.";;;"(57) (7) 6483400";"Cl 6 11-29 Floridablanca Colombia, Floridablanca"
"TRANSPORTES URBANOS CAÑARTE LTDA.";;;"(57) (6) 3348924";"Cr4 Bis 24-09 Colombia, Pereira"
"COOPMOTILÓN LTDA.";;;"(57) (7) 6214801";"Cl 51 6-28 L-53 Comercio Colombia, Barrancabermeja"
"BARRANQUILLA LINDA A MAGANGUÉ DE CALLE EXPRESS";;;"(57) (5) 3566567";"Cl 68 B 31-70 Colombia, Barranquilla"
"HOTEL Y CASA HOGAR VILLA ESPERANZA";;;"(57) (1) 2023433";"Cr24 32-39 S Colombia, Bogotá"
"COOPERATIVA DE TRANSPORTADORES LA ANDINA";;;"(57) (2) 2293142";"Cl 14 14-15 Colombia, La Unión"
"TRANSUCOL LTDA.";;;"(57) (2) 2755066";"Cr29 31-25 Of 105 Colombia, Palmira"
ASTRANSPORTES;;;"(57) (7) 6325646";"Cr35 41-19 Colombia, Bucaramanga"
"LOGÍSTICA EXPRESS DE COLOMBIA S.A.S";;;"Nal: (57) (4) 3116405";"Cr34 7-34 Colombia, Medellín"
"TRASAN S.A.";;;"(57) (7) 5822121";"Av9 N 0 A N-96 Pueblo Nuevo Colombia, Cúcuta"
"TRANS ORIENTAL S.A.";;;"(57) (7) 5791057";"Av7 O-03 N La Merced Colombia, Cúcuta"
"First Name";"Email Address";Url;Telephone;Address
"COOPERATIVA DE TRANSPORTE DE ENVIGADO LTDA.";;;"Domic.: (57) (4) 3025098";"Envigado Colombia, Medellín"
"ESTARTER S.A.S.";;;"(57) (8) 6722671";"Cr19 19 B-35 Colombia, Villavicencio"
"INGENIATUR LTDA.";;;"(57) (1) 6724995";"Cl 161 7 F-24 Colombia, Bogotá"
"EXPRESO DEL SOL S.A.";;;"(57) (1) 2637141";"Cl 24 B 80 B-25 Colombia, Bogotá"
TRANESXPRESS;;;"(57) (1) 7521097";"Cl 12 C 71 B-40 Trr 3 Ap 504 Colombia, Bogotá"
"FÉNIX EXPREX LTDA.";;;"(57) (1) 2457800";"Cr20 46-59 Colombia, Bogotá"
"SETRANSVEL LTDA.";;;"(57) (1) 2636589";"Cl 26 85 D-55 L-A-145 Colombia, Bogotá"
"TELETAXITRANSBORDAR A LA MEDIDA LTDA.";;;"(57) (4) 7815074";"Cr8 40-27 Colombia, Montería"
"RÁPIDO HUMADEA S.A.";;;"(57) (1) 2921688";"Cl 19 69-97 Colombia, Bogotá"
"TORRES GAITÁN GLORIA INÉS";;;"(57) (1) 2959916";"Cl 22 F 83-04 Colombia, Bogotá"
"TRANS - LUIS CEPEDA";;;"(57) (1) 7802981";"Cl 3 7-31 Bosa Colombia, Bogotá"
"COOTRAURES LTDA.";;;"(57) (1) 2277808";"Cr96 73-51 Colombia, Bogotá"
"NUEVA URBANA DE LOS LLANOS LTDA.";;;"(57) (8) 6684810";"Cr33 6 C-03 Brr. Rosa Blanca Colombia, Villavicencio"
"TRANSPORTE Y .ALQUILER RODRIGO MUÑOZ E.U.";;;"(57) (1) 3350881";"Cr52 144A-35 Colombia, Bogotá"
CODECON;;;"(57) (8) 8757412";"Cl 38 1-09 Ap 102 B-7 Sta Inés Colombia, Neiva"
"EXPRESO CAFETERO S.A.";;;"(57) (6) 7474444";"Cl 35 20-68 Terminal de Transporte Colombia, Armenia"
"INTEGRACIÓN DE TRANSPORTADORES COLOMBIANOS DE SERVICIO ESPECIAL LTDA.";;;"(57) (1) 4813865";"Cr37 90-47 Colombia, Bogotá"
COOTRANSARIARI;;;"(57) (8) 6585058";"Cl 17 15-17 Granada Colombia, Granada"
"FLOTA LA MACARENA S.A.";;;"(57) (1) 4212256";"Dg23 69-60 Mód 2 Of 221 Colombia, Bogotá"
SOBUSA;;;"(57) (5) 3282319";"Cl 63 3-75 Soledad frente A Granabastos Colombia, Barranquilla"
"ESTACIÓN DE TAXIS V.I.P.";;;"(57) (5) 3588888";"Cr42 G 82-218 Colombia, Barranquilla"
"COOCHOFAL LTDA.";;;"(57) (5) 3282697";"Cl 65 No. 5 E-65 Soledad Prolongación Murillo Colombia, Barranquilla"
"TRANS 2000UNO LTDA.";;;"(57) (1) 2631314";"Cl 24 B 74-29 Colombia, Bogotá"
TEDECOL;;;"(57) (1) 6304383";"Cl 78 24-41 Colombia, Bogotá"
"AGENCIA DE VIAJES AIR TOURS";;;"(57) (8) 8712700";"Av La Toma 8-60 C.C. Toma Real L-1 Colombia, Neiva"
"COOTRANSMAYO LTDA.";;;"(57) (1) 4057593";"Cr32 8-49 Colombia, Bogotá"
"RENETUR S.A.";;;"(57) (1) 3158006";"Cl 44 57 A-36 Colombia, Bogotá"
"V.I.P. XPRESS";;;"(57) (5) 6445497";"Cl 20 9-80 Edif Brisas del Mar Colombia, Cartagena"
"LATINA S.A.";;;"(57) (2) 7212128";"Cl 17 12-95 Fátima Colombia, Pasto"
TRANSTEBAIDA;;;"(57) (6) 7478991";"Cl 35 28-60 Colombia, Armenia"
"TRANSPORTE MONTERREY";;;"(57) (5) 3563451";"Cl 73 No. 41 B-63 P-2 Colombia, Barranquilla"
"CHIVAS RUMBERAS DE LOS LLANOS";;;"(57) (8) 6702879";"Cl 5 50-09 S Colombia, Villavicencio"
"TRANSPORTE SERVITOURS";;;"(57) (5) 3607529";"Cr46 No. 61-51 L-104 Colombia, Barranquilla"
COOTRAUNITAX;;;"(57) (5) 3575757";"Cr52 No. 94-216 Colombia, Barranquilla"
COLIBERTADOR;;;"(57) (5) 3230023";"Terminal de Transporte L-8 Colombia, Barranquilla"
"BUSETAS EXPRESS S.A.";;;"(57) (4) 2529379";"Cr86 43-22 Colombia, Medellín"
MEGA-TAXI;;;"(57) (8) 5122222";"School House Tr10 A 9-71 Colombia, San Andrés"
"TRANSPORTES VIPSRC LTDA.";;;"(57) (1) 4810198";"Cr97 A 16 G-06 Colombia, Bogotá"
COOTRANSDA;;;"(57) (4) 2604810";"Cr64 C 78-580 L-29-B Colombia, Medellín"
"UNIVERSAL DE EXPRESOS S.A.";;;"(57) (1) 3512581";"Cr 28 11-67 Of. 412 Colombia, Bogotá"
"First Name";"Email Address";Url;Telephone;Address
"EXPRESO BRASILIA S.A.";;;"(57) (5) 3715200";"Cr35 44-63 Colombia, Barranquilla"
"COCHE TOUR EXPRESO BRASILIA";;;"(57) (5) 6660841";"Cl 70 2-64 Colombia, Cartagena"
"AGENCIA DE VIAJES OPERADORA GLOBAL TRAVEL LINE";;;"(57) (5) 6644464";"Cr2 41-218 Of 308 Edif Apolo Calle Real Colombia, Cartagena"
"AEROBUSES ROYAL EXPRESS S.A.";;;"(57) (1) 2248022";"Cl 65 ABis 83-06 P-3 Colombia, Bogotá"
"BUPRESS TOUR S.A.S.";;;"(57) (4) 2529379";"Cr86 43-22 Colombia, Medellín"
SOBUSA;;;"(57) (5) 3282319";"Cl 63 3-75 Soledad frente A Granabastos Colombia, Barranquilla"
"ALIANZA SODIS";;;"(57) (5) 3445030";"Cl 30 No. 12-249 Colombia, Barranquilla"
"METROPOLITANA DE TRANSPORTE LA CAROLINA";;;"(57) (5) 3230061";"Parqueadero Privado Terminal de Transportes Colombia, Barranquilla"
"AGENCIA DE SERVICIO ESPECIAL TRANSPORTE EJECUTIVO";;;"(57) (5) 3585430";"Cr48 76-123 Colombia, Barranquilla"
"ETRANS LTDA.";;;"(57) (5) 6720728";"Popa Cr22 29 D-62 P-1 L-101 Edif Don Quijote Colombia, Cartagena"
"OSTI LTDA";;;"(57) (8) 8722062";"Cl 10 7-52 Of 112 Colombia, Neiva"
"POLANÍA VEGA Y CÍA. LTDA.";;;"(57) (8) 8722062";"Cl 10 7-52 Of 112 Colombia, Neiva"
"COOPERATIVA DE MOTORISTAS DEL QUINDÍO LTDA";;;"(57) (6) 7482222";"Cl 53 16-14 Colombia, Armenia"
"TRANSPORTE COSTASOL";;;"(57) (5) 3562246";"Cr51 No. 82-255 Ap 402 Colombia, Barranquilla"
"VARGAS BECERRA INVERSIONES Y SERVICIOS S.A.S.";;;"(57) (1) 2568112";"Cr28 C 85-24 Colombia, Bogotá"
"COOPERATIVA ESPECIALIZADA SUPERTAXIS DEL SUR LTDA.";;;"(57) (2) 8233797";"Tr9 4 N-115 Colombia, Popayán"
"SERVIESPECIALES JARDIN S.A.S.";;;"(57) (4) 8456063";"Cl 8 2-19 Colombia, Jardín"
"COOTRANSHUILA LTDA.";;;"(57) (8) 2621716";"Terminal de Transportes Taquilla 118 Colombia, Ibagué"
"CORPORACIÓN WORKING SERVICES";;;"(57) (1) 2315243";"Cr69 L 65-70 Colombia, Bogotá"
"ICOLTES LTDA.";;;"(57) (1) 2847937";"Cr 13 13-24 Of 526 Colombia, Bogotá"
COOTRAMO;;;"(57) (4) 5114423";"Cr47 50-24 Of 1106 Colombia, Medellín"
"COLECTIVOS EL SILLETERO";;;"(57) (4) 5381263";"Km. 14 Vía Sta Elena Colombia, Medellín"
SANTRA;;;"(57) (4) 3730039";"Cr49 52 S-300 Sabaneta Colombia, Sabaneta"
"TRANSPORTES ESPECIALES GALINDO";;;"(57) (2) 5160039";"Cr6 8 A-14 Jamundí Colombia, Jamundí"
"ASOCIACIÓN DE TAXISTAS DE FLORIDA";;;"(57) (2) 2638555";"Cl 9 20 Esq Colombia, Florida"
"COTRANSGAR LTDA";;;"(57) (8) 8601133";"Cr7 3 A-S 76 Lt 33 Colombia, Neiva"
"COOP MULTIACTIVA DE TRANSPORTES ESPECIALES COMUSER LTDA.";;;"Conm.: (57) (1) 2917188";"Av (Cl) 68 68-19 Of 201 Colombia, Bogotá"
"TURISMO YEP";;;"(57) (1) 2909177";"Cl 6 B# 71 -F-40 Colombia, Bogotá"
"MAVITURS S.A.";;;"(57) (1) 2952312";"Cl 25 B 80 C-12 Colombia, Bogotá"
"COOPERATIVA UNITRANS";;;"(57) (6) 8708199";"Vía La Linda Veracruz Colombia, Manizales"
"TERMINAL LA DOCTORA";;;"(57) (4) 2889283";"Cr29 73 S-50 Sabaneta Colombia, Sabaneta"
"COOTRANSQUIM LTDA";;;"(57) (6) 7520520";"Cl 15 7-44 Colombia, Quimbaya"
"TRANS. AZUCARERA PEREIRA LTDA.";;;"(57) (6) 3369860";"B-6 L-3 Los Cedros El Jardín Et 2 Colombia, Pereira"
COOTRACHICA;;;"Conm.: (57) (8) 7619999";"Cr42 21-00 Simón Bolívar Colombia, Duitama"
"HERRAMIENTAS Y SERVICIOS DEL NORTE";;;"(57) (7) 5747207";"Av3 2-32 Lleras Colombia, Cúcuta"
"TURES UNIVERSAL LTDA.";;;"(57) (1) 7524998";"Cl 167 A 47-19 L-15 Colombia, Bogotá"
"GRÚAS SALGADO";;;"(57) (6) 8833914";"Cl 12 28 A-19 Colombia, Manizales"
"COOBUS S.A.S.";;;"Telefax: (57) (1) 2691800";"Av26 69 D-91 Trr 1 Of 302 Colombia, Bogotá"
"SI.02 S.A.";;;"(57) (1) 4533349";"Cr86 Bis 45-57 S Colombia, Bogotá"
"VIAJES Y TURISMO MORIKAHUA LTDA.";;;"(57) (5) 3262688";"Cl 19 No. 6-34 Colombia, Barranquilla"
"First Name";"Email Address";Url;Telephone;Address
"SERVICIOS INTEGRALES CAMINOS VILLA S.A.S.";;;"Telefax: (57) (7) 5822611";"Av11 A 21-30 Colombia, Cúcuta"
COOPAMER;;;"(57) (1) 3479266";"Cl 52 27 A-31 Colombia, Bogotá"
"COOTRAGEN LTDA.";;;"(57) (6) 7474530";"Cl 35 20-68 Colombia, Armenia"
"COOPERATIVA DE TRANSPORTES UNIDOS DE COLOMBIA (COOTRAUNICOL).";;;"(57) (4) 2629411";"Cr51 41-42 Of-305. Colombia, Medellín"
"TRANSPORTES DEL CARIBE S.A.";;;"(57) (5) 6566830";"Cr17 30-136 Colombia, Cartagena"
"CITY TOUR S.A.";;;"(57) (7) 6574343";"Cr23 55-03 Colombia, Bucaramanga"
"BERLINAS DEL FONCE S.A.";;;"(57) 3429992";"Cl 72 No. 22 E-105 Villa Estadio Soledad Colombia, Soledad"
"TRANSPORTE EJECUTIVO J.B.P";;;"(57) (5) 6567801";"Popa Cl 30 20-162 Colombia, Cartagena"
"PORTRANS LTDA.";;;"(57) (1) 2833181";"Cr13 13-24 Of 426 Colombia, Bogotá"
"COLOMBIAN TRANSPORTATION LTDA";;;"(57) (1) 4204122";"Cl 4 CBis 54-25 Colombia, Bogotá"
"COOTRANSMAYO LTDA.";;;"(57) (1) 4057593";"Cr32 8-49 Colombia, Bogotá"
"COOPERATIVA DE TRANSPORTADORES DE GARZÓN LTDA.";;;"(57) (8) 8332424";"Av Los Olivos 1 Sur-57 Garzón Colombia, Garzón"
"COOPERATIVA DE TRANSPORTADORES DE BARRANQUILLA";;;"(57) (5) 3641080";"Cr37 33 B-33 Urb La Arboleda Colombia, Barranquilla"
"TRANSPORTE MONTERREY";;;"(57) (5) 3563451";"Cl 73 No. 41 B-63 P-2 Colombia, Barranquilla"
"STARGATE RENT A CAR LTDA.";;;"(57) (1) 8000834";"Calle 23B Bis 81a69 Colombia, Bogotá"
"FLOTA LA MILAGROSA";;;"(57) (4) 2281504";"Cl 47 43-28 Of 405 Colombia, Medellín"
"PROYECTOS ZETA LTDA";;;"(57) (1) 3290022";"Cr68 G 64 D-52 Of 101 Colombia, Bogotá"
"CREFEP CRECIMIENTO EMPRESARIAL FEPIMSA S.A.S.";;;"Telefax: (57) (5) 3718186";"Km 3 VÚa Malambo Sabanagrande Pimsa Colombia, Barranquilla"
"COOPERATIVA INTEGRAL DE TRANSPORTADORES DE NARIÑO LTDA.";;;"(57) (2) 8232659";"Tr9 4 N-125 L-11 Colombia, Popayán"
"COOTRANSLABOYANA LTDA.";;;"(57) (2) 6618680";"Cl 30 N 2 A-29 P-2 Colombia, Cali"
"TRANSPORTES LOS FARALLONES";;;"(57) (4) 8453197";"La Pintada Colombia, La Pintada"
"EXPRESO BELMIRA S.A.";;;"(57) (4) 8687057";"cL 45aa 51-39 Colombia, San Pedro de los Milagros"
"COOPERATIVA MULTIACTIVA DE URIBIA";;;"(57) (54) 7177499";"Dg2 2 A-28 Las Pulgas - Uribia Colombia, Uribia"
"TERMINAL DE TRANSPORTE DE AGUACHICA";;;"(57) (76) 5651370";"Cr12 7-62 Terminal de Aguachica Colombia, Aguachica"
"TRANSPORTE SERVICIO ESPECIAL";;;"(57) (5) 3430737";"Cr11 A No. 47-29 Soledad 2000 Colombia, Barranquilla"
COOTRAXIBUS;;;"(57) (5) 3230039";"Terminal de Transportes Mód 2 Bdg 5 Soledad Colombia, Barranquilla"
"RAMOS TOURS LTDA.";;;"(57) (1) 2399596";"Cl 19 A 26-18 S Colombia, Bogotá"
"TRANS ESPECIAL LTDA";;;"(57) (5) 3706410";"Cl 37 27-76 Colombia, Barranquilla"
"IMPORTADORA CUR S.A.S.";;;"(57) (1) 7045193";"Cr17 A 116-57 Ap 504 Colombia, Bogotá"
"INVERSIONES GUTIÕRREZ VIATELA S.A.S.";;;"(57) (1) 2568188";"Cl 104 21-50 Ap 205 Colombia, Bogotá"
COOTRANSVICE;;;"(57) (5) 5709963";"Dg21 27-16 L-22 Colombia, Valledupar"
"TERMINAL BOGOTÁ COOPROPIEDAD";;;"(57) (1) 7422828";"Dg23 69-11 Mod-02 L-201-202 Colombia, Bogotá"
"ALQUILER DE VANS RODRIGUEZ";;;"(57) (5) 3573475";"Cr54 96-160 Colombia, Barranquilla"
"GONZÁLEZ RODRIGUEZ NANCY";;;"(57) (1) 6950101";"Cl 25B 40-78 Colombia, Bogotá"
COOTRANSPORTE;;;"(57) (8) 6720936";"Cl 5 15-21 Brr. Macunaima Colombia, Villavicencio"
"EXPRESO IMPERIAL S.A.";;;"(57) (1) 2022950";"Tr23 38 B-60 S Colombia, Bogotá"
"TRANSPORTE LUISMA LTDA.";;;"(57) 3162928776";"Manz 5 Casa 16 Colombia, Santa Marta"
"SHADDAI EXPRESS";;;"(57) (1) 6008252";"Cr70 65 A-71 Of 203 Colombia, Bogotá"
"GRUPO NUEVO MILENIO";;;"(57) (4) 3094725";"Cl 80 S 63 B-29 Colombia, Medellín"
"RADIO TAXIS FUNDADORES S.A.";;;"(57) (2) 8939393";"Cr13 26-18 Colombia, Cali"
"First Name";"Email Address";Url;Telephone;Address
"TRANSPAG LTDA";;;"(57) (1) 5228162";"Cl 101 14-55 Colombia, Bogotá"
COOINTUR;;;"(57) (4) 8275323";"Cl 100 14 B-29 Colombia, Turbo"
"TRANSPORTES LA COSTEÑA";;;"(57) (5) 3785119";"Cl 91 53-250 Ap- 4B Colombia, Barranquilla"
"COOPERATIVA DE TRANSPORTADORES LA ANDINA LTDA.";;;"(57) (2) 2207240";"Cl 11 10-40 Colombia, Zarzal"
"ILS LOGÍSTICA INTEGRAL DE SERVICIO LTDA";;;"(57) (1) 5430470";"Cr28 B 79-74 Of 205 Colombia, Bogotá"
"TERMINAL LA DOCTORA";;;"(57) (4) 2889283";"Cr29 73 S-50 Sabaneta Colombia, Sabaneta"
"TRANSPORTES NUEVO HORIZONTE S.A.";;;"Telefax: (57) (1) 3616028";"Cl 22 A S 9 A-15 Colombia, Bogotá"
"COOTAXLUJO LTDA.";;;"(57) (2) 7324507";"Cl 20 A 2-48 Brr. Las Mercedes Colombia, Pasto"
"COPRTRÁN LTDA.";;;"(57) (75) 5682665";"Terminal de Transportes L-22-24 Colombia, Pamplona"
"LA CHIVA DEL AMOR. CHIVAS Y PAPAYERAS";;;"(57) (4) 2182527";"Cr45 44-102 Ap 301 Colombia, Medellín"
CITPSA;;;"Telefax: (57) (1) 2902836";"Tr53 Bis 2 A-64 P-3 Colombia, Bogotá"
"COOPERATIVA DE TAXIS BELALCÁZAR";;;"(57) (2) 8231111";"Cr8 18 N-49 Colombia, Popayán"
"TRANSPVAN CARTAGENA LTDA.";;;"(57) (5) 6662150";"Av4 67-72 Colombia, Cartagena"
"TRANSPORTES URBANOS SAMPER MENDOZA BUSES BLANCOS S.A.";;;"Conm.: (57) (1) 7829688";"Cl 63 S 80-22 Colombia, Bogotá"
CONALTRACOOP;;;"(57) (4) 2931484";"Cl 52 52-11 Int 611 Colombia, Medellín"
COOTRANSNORTE;;;"(57) (1) 6780458";"Cr8D 190-58 Colombia, Bogotá"
COOPCERQUIN;;;"(57) (4) 2510708";"Cl 53 47-59 Of 501 Colombia, Medellín"
"TRANSPORTES LA MAYORITARIA GUAYABAL Y CÍA S.C.A.";;;"Conm.: (57) (4) 3617809";"Cr65 8 B-91 Of 375 Colombia, Medellín"
COOTRANSDELRÍO;;;"(57) (4) 2354080";"Cr 79 A 32 A-105 Colombia, Medellín"
COTRANSPORTE;;;"(57) (4) 2604601";"Cr81 B 49 F 04 Colombia, Medellín"
"TRANSPORTE RODAMAR";;;"(57) (5) 4211965";"Cr1 26-70 Colombia, Santa Marta"
"GRUPO NUEVO MILENIO";;;"(57) (4) 3094725";"Cl 80 S 63 B-29 Colombia, Medellín"
"TRANSPALESTINA S.A.S.";;;"(57) (6) 8750808";"Cl 64 12 A-06 Colombia, Manizales"
"EMPRESA ADMINISTRADORA INTEGRAL";;;"(57) (2) 6616310";"Cl 30 N 2 A-29 Of 201 Colombia, Cali"
"TURYEXPRESOS LTDA.";;;"(57) (1) 4308778";"Av (Cl) 68 84 A-60 Colombia, Bogotá"
COTRANAL;;;"(57) (75) 5682421";"Cr9 3-144 Pamplona Colombia, Pamplona"
"TRANSPORTES EXPRESO PAZ DE RÍO S.A.";;;"(57) (1) 4285499";"Cl 33 B 69-13 Colombia, Bogotá"
COOTRANSGAVIOTA;;;"(57) (2) 2712661";"Cr30 32-25 Of 202 Colombia, Palmira"
"FLOTAX S.A.";;;"(57) (7) 6483400";"Cl 6 11-29 Floridablanca Colombia, Floridablanca"
"AGENCIA DE VIAJES NACIONAL TUR";;;"(57) (1) 7254432";"Av Boyacá 43 C-20 Sur Colombia, Bogotá"
"COOPTMOTILÓN LTDA.";;;"(57) (7) 5711761";"Dg Santander 5-109 Latino Colombia, Cúcuta"
"TAXIS MEDELLÍN";;;"(57) (4) 3454545";"Cr51 C 67-39 Colombia, Medellín"
"SEVIESPECIALES COCHE EXPRESS CARTAGENA";;;"(57) (5) 6561855";"Crespo Av1 67-59 Colombia, Cartagena"
"TRANSPORTES ARMENIA S.A.";;;"(57) (6) 7471442";"Terminal de Transportes Colombia, Armenia"
"CMAS TURISMO, CARGA Y LOGISTICA S.A.S.";;;"(57) (4) 4211327";"Cr74 D 75-19 Int 507 Colombia, Medellín"
"TRANSPORTES S & M";;;"(57) (2) 2250088";"Cr25 B 14 A-09 Colombia, Tuluá"
"METROPOLITANA DE TRANSPORTE LA CAROLINA";;;"(57) (5) 3230061";"Parqueadero Privado Terminal de Transportes Colombia, Barranquilla"
"AGENCIA DE VIAJES TURISMAURO";;;"(57) (1) 4940101";"Av1 de Mayo-72 -21-S Colombia, Bogotá"
"COOMABURQUÍN LTDA.";;;"(57) (6) 7468225";"Cl 2 24-97 Colombia, Armenia"
"AUTO VANSCOSTA ATLANTICA";;;"(57) 3008043556";"Cr38 B 69 D-07 Colombia, Barranquilla"
"First Name";"Email Address";Url;Telephone;Address
"TRANSPORTES DEL CARIBE S.A.";;;"(57) (5) 6566830";"Cr17 30-136 Colombia, Cartagena"
"ESTACIÓN DE TAXIS V.I.P.";;;"(57) (5) 3588888";"Cr42 G 82-218 Colombia, Barranquilla"
"BIP TRANSPORTES";;;"(57) (1) 2020257";"Tr31 11-39 S Of 205 Colombia, Bogotá"
"OLTRAN S.A.S";;;"(57) (4) 3613569";"Cl 1 B 66-77 Colombia, Medellín"
"EXPRESO BOGOTÃNO S.A.";;;"(57) (1) 2709120";"Av Cr 68 43-67 Sur Colombia, Bogotá"
"COLOMBIAN TRANSPORTATION LTDA";;;"(57) (1) 4204122";"Cl 4 CBis 54-25 Colombia, Bogotá"
"RESTAURANTE YORMILA";;;"(57) (5) 3700595";"Cl 54 46-17 Colombia, Barranquilla"
"TRANSCEAL LTDA.";;;"(57) (1) 2310594";"Cl 67 A 60-63 Colombia, Bogotá"
"SABOGAL Y HERRERA INVERSIONES LTDA.";;;"(57) (1) 6570125";"Cl 108 45-30 Trr 2 Of 907B Colombia, Bogotá"
"EMPRESA DE CONDUCCIONES LA ARRIERITA";;;"(57) (4) 3032662";"Cr48 131 S-06 Caldas Colombia, Medellín"
"COOPERATIVA INTEGRAL DE TRANSPORTADORES DE NARIÑO LTDA.";;;"(57) (2) 8232659";"Tr9 4 N-125 L-11 Colombia, Popayán"
COOINTUR;;;"(57) (4) 8275323";"Cl 100 14 B-29 Colombia, Turbo"
"RAMOS TOURS LTDA.";;;"(57) (1) 2399596";"Cl 19 A 26-18 S Colombia, Bogotá"
"APUESTAS ARAUCA";;;"(57) (7) 8854405";"Cr19 22-29 Colombia, Arauca"
"COOPERATIVA ESPECIALIZADA DE TRANSPORTE Y SERVICIOS LA ERMITA LTDA.";;;"(57) (2) 6680043";"Cl 31 N 2 B N-104 Colombia, Cali"
"EXPRESO MEDELLÍN SONSÓN ARGELIA";;;"(57) (4) 2611195";"Cr50 36-20 Colombia, Medellín"
"TRANSPORTE TURÍSTICO MARLIN S.A.S.";;;"(57) (5) 6567668";"Cr9 22-684 Sector Cielo Mar Colombia, Cartagena"
"TRANSPORTES CALIMA S.A.";;;"(57) (2) 6687800";"Terminal de Transportes P-2 Colombia, Cali"
"BONILLA GUZMÁN MARTÍNEZ S.A.";;;"(57) (2) 5565439";"Cl 9 B 30-20 Colombia, Cali"
"TRANS ARGELIA -TRANS MARISCAL ROBLEDO";;;"(57) (2) 2124444";"Cl 16 C 8-45 Colombia, Cartago"
"LÍNEAS UNIVERSITARIAS S.A.";;;"(57) (2) 2855899";"Cl 35 26-51 Colombia, Palmira"
"COOPERATIVA DE TRANSPORTADORES LA NACIONAL LTDA";;;"(57) (1) 2465770";"Cr13 A 3-19 Sur Colombia, Bogotá"
"SOLUCIONES INTEGRALES DE TRANSPORTE LTDA.";;;"(57) (1) 4215898";"Cr100 17 A-27 Of 201 Colombia, Bogotá"
"EXPRESO GAITANA";;;"(57) (8) 8602828";"Cr7 3 A Sur Of.-206 Colombia, Neiva"
"AUTOLEGAL S.A.";;;"(57) (6) 8787511";"Cr43 65-100 Colombia, Manizales"
"COOTRANSDORADO SERVICIO ESPECIAL";;;"(57) (1) 2872666";"Cr23 26-69 Colombia, Bogotá"
"TRANSPORTES UNIDOS BUGA S.A.";;;"(57) (2) 2280073";"Terminal de Transportes L-11 Colombia, Buga"
"TRANSPORTES MARSOL S.A.S.";;;"(57) (5) 5807894";"Cr18 D 23-36 Colombia, Valledupar"
"TRANSPORTES NORESPECIALES LTDA.";;;"(57) (7) 5747207";"Av3 2-32 Br. Lleras Colombia, Cúcuta"
"EXPRESO TREJOS RUANA AZUL";;;"(57) (4) 3613155";"Terminal del Transporte Sur Taquilla 5 Colombia, Medellín"
"PROFESIONALES DEL TRANSPORTE LTDA.";;;"(57) (8) 2621706";"Terminal de Transporte Entrada 2 Of 190 Colombia, Ibagué"
"FUNDADORES EXPRESO PAZ DEL RIO S.A.";;;"(57) 3204112225";"Cr7 16-40 Of 15 Terminal de Transporte de Tunja Colombia, Tunja"
"SI.02 S.A.";;;"(57) (1) 4533349";"Cr86 Bis 45-57 S Colombia, Bogotá"
"SOLUCIONES EN TRANSPORTE INTEGRAL E.U.";;;"(57) (1) 3750436";"Av (Cl) 6 33-15 Colombia, Bogotá"
"FLOTA AYACUCHO";;;"(57) (1) 4203733";"Av (Cr) 68 10 A-58 Colombia, Bogotá"
"SOS ASISTENCIA VEHICULAR S.A.S.";;;"Telefax: (57) (1) 4499110";"Cl 6 A 89 - 47 Casa 532 Colombia, Bogotá"
"EMPRESA DE TRANSPORTES COLECTIVOS CIUDAD DE IPI";;;"(57) (2) 7732982";"Cr6 5 E-20 El Charco Colombia, Ipiales"
"COOPERATIVA INTEGRAL DE TRANSPORTADORES DE BOSA";;;"(57) (1) 7762901";"Cl 65 S 77 H-14 Colombia, Bogotá"
COOTRACARMEN;;;"(57) (4) 5430744";"Cr33 30-41 El Carmen de Viboral Colombia, Medellín"
"EXPRESO CISNEROS NUS LTDA.";;;"Telefax: (57) (4) 2128899";"Cl 62 56 A-110 Colombia, Medellín"
"First Name";"Email Address";Url;Telephone;Address
"TRANSPORTES EJECUTIVOS LTDA.";;;"(57) (1) 6097235";"Cr100 26-84 Colombia, Bogotá"
"COOPERATIVA DE TRANSPORTADORES DE OCCIDENTE";;;"(57) (2) 6611850";"Terminal de Transportes Colombia, Cali"
COOTRACESAR;;;"(57) 7268235";"Cl 14 11-12 Colombia, Maicao"
"TRANSPORTES RÀPIDO TOLIMA S.A.";;;"(57) (8) 2648378";"Cr5A 38-33 P-2 Colombia, Ibagué"
"FEMTAXI S.A.S.";;;"Nal: (57) (4) 4441680";"Tr39 73 B-58 Colombia, Medellín"
"TRANSPORTE INTEGRAL PLATINIUM LTDA.";;;"Telefax: (57) (1) 3100825";"Cl 28 19 B - 91 Colombia, Bogotá"
"COOTAXLUJO LTDA.";;;"(57) (2) 7324507";"Cl 20 A 2-48 Brr. Las Mercedes Colombia, Pasto"
COOTRANS;;;"(57) (4) 2819750";". Colombia, Medellín"
"AGENCIA DE TRANSPORTE ESPECIAL PASEOS POR COLOM";;;"(57) (1) 3107927";"Cr22 52-39 Colombia, Bogotá"
"SOTRAM S.A.";;;"(57) (1) 8255000";"Cl 7 21-23 Colombia, Bogotá"
METROPLUS;;;"(57) (4) 5763730";"Cl 53 No. 45-77 P. 3 y 4 Colombia, Medellín"
"EAGLE TOURS LINES";;;"(57) (1) 8630667";"Cr11 25-51 Chía Colombia, Chía"
"COLOMBIAN TRANSPORTATION LTDA";;;"(57) (1) 4204122";"Cl 4 CBis 54-25 Colombia, Bogotá"
"COOTRANSCAGUÁN LTDA.";;;"(57) (8) 8704592";"Terminal de Transportes L 1-37 Colombia, Neiva"
"AGENCIA DE VIAJES Y TURISMO ALIANTUR LTDA.";;;"(57) (5) 3606147";"Cl 72 41 B-28 L-2-3 Colombia, Barranquilla"
"PRECOTUR DONMATIAS";;;"(57) (4) 8666307";"Cr 30 28-61 Local 201 Colombia, Don Matías"
"INVERSIONES CONTELVAS C.A.";;;"(57) (5) 3702847";"Cr 41 51-03 Colombia, Barranquilla"
"EMPRESA DE TRANSPORTE ESPECIAL Y TURÍSTICO SAN ANTONIO";;;"(57) (5) 4241627";"Cl 9 16-27 Colombia, Ciénaga"
"COOPERATIVA DE TRANSPORTE TAX LA FERIA";;;"(57) (68) 8571195";"Cl 14 4-16 Colombia, La Dorada"
"SERVIRAP EXPRESS";;;"(57) (7) 5728423";"Av7 1-11 Callejón frente al terminal Colombia, Cúcuta"
"TRANSPORTES CARROS DEL SUR S.A.TRANSCARD S.A.";;;"(57) (1) 4162319";"Cr71 B 54-81 Colombia, Bogotá"
"EMPRESA DE TRANSPORTES RÍO CALI";;;"(57) (2) 6653866";"Cl 15 35-215 Acopi Yumbo Colombia, Yumbo"
"REALTUR S.A.";;;"(57) (6) 8805619";"Cl 27 19-49 Colombia, Manizales"
"COOPERATIVA RADIO TAXI";;;"(57) (1) 2888888";"Cl 48 17-26 Colombia, Bogotá"
"TRANSPORTE ARIMENA S.A.";;;"(57) (8) 6871252";"Cl 12 20-14 Centro Colombia, Cumaral"
"BERLINAS DEL FONCE S.A.";;;"(57) (7) 6370608";"Terminal de Transporte Km 2 Vía Girón Mód 4 Colombia, Bucaramanga"
"RAPITUR LTDA.";;;"(57) (1) 6571558";"Cl 121 6-46 Of 116 Colombia, Bogotá"
"TRANSPORTES ARNJUEZ SANTA CRUZ S.A";;;"(57) (4) 5141979";"Cl 61 51 D-57 L-202 Colombia, Medellín"
"CORREVIAL S.A.S";;;"(57) (1) 2453446";"Cl 49 13-33 Of 903 Colombia, Bogotá"
"TRANSPVAN CARTAGENA LTDA.";;;"(57) (5) 6662150";"Av4 67-72 Colombia, Cartagena"
"TRANSPORTES RASGLO";;;"(57) 3008003468";"Cl 81 No. 41 D-146 Ap 201-D Colombia, Barranquilla"
"SERVICIOS INTEGRALES CAMINOS VILLA S.A.S.";;;"Telefax: (57) (7) 5822611";"Av11 A 21-30 Colombia, Cúcuta"
"SISTEMA INTEGRADO DE TRANSPORTE URBANO DE SANTA MARTA S.A.S.";;;"(57) (5) 4230569";"Cl 22 12-63 Of 7 Colombia, Santa Marta"
"ESTACIÓN DE TAXIS V.I.P.";;;"(57) (5) 3588888";"Cr42 G 82-218 Colombia, Barranquilla"
"ESCAR TRANSPORTES SOCIADOS LTDA.";;;"(57) (1) 8631014";"Cr14 10-14 Chía Colombia, Chía"
5.XPRESS;;;"(57) (8) 6677101";"Cr35 22-38 Colombia, Villavicencio"
"MEGATURISMO LTDA.";;;"(57) (1) 3114811";"Cr65 A 75-20 Colombia, Bogotá"
COLIBERTADOR;;;"(57) (5) 3230023";"Terminal de Transporte L-8 Colombia, Barranquilla"
"PUBLICIDAD LOGÚSTICA Y MERCADEO S.A.";;;"(57) (1) 3380927";"Cl 39 A 18-12 Colombia, Bogotá"
"APARTAMENTOS LARGA ESTADÍA ALE";;;"(57) (5) 3564254";"Cr49 75-42 L-1 Colombia, Barranquilla"
"First Name";"Email Address";Url;Telephone;Address
COOTRACEGUA;;;"(57) (5) 5716202";"Cr7 A 44-156 Of 117 Terminal de Transportes Colombia, Valledupar"
"INTER TOUR";;;"(57) (5) 3693725";"Cr48 69-14 Colombia, Barranquilla"
"BOSSIO DE ARCO LUIS FELIPE";;;"(57) (5) 3559873";"Cl 85 71-46 El Paraíso Colombia, Barranquilla"
"COOTRANSNORTE VALLEDUPAR";;;"(57) (5) 5827223";"Cr18 D 43-90 Colombia, Valledupar"
"TRANSPORTES JERICÓ PUEBLO RICO TARSO LTDA.";;;"(57) (4) 3611384";"Cr65 8 B-91 Of 405 Colombia, Medellín"
"TRANSPORTES BERMÚDEZ S.A.";;;"(57) (1) 2696812";"Av Cr 40 24a-71 Colombia, Bogotá"
"TRANSPORTE RODAMAR";;;"(57) (5) 4211965";"Cr1 26-70 Colombia, Santa Marta"
"TRANSPORTE ALFONSO LÓPEZ";;;"(57) (2) 4201976";"Cl 121 26 H Bis-05 Colombia, Cali"
"TRANSPORTES CALIMA S.A.";;;"(57) (2) 6687800";"Terminal de Transportes P-2 Colombia, Cali"
TAXIGER;;;"(57) (4) 3739263";"Cl 51 42-129 Of 201 Itagüí Colombia, Itagüí"
"TRANSPORTES JAIME BENITES";;;"Nal: (57) (4) 3521221";"Cl 9 43 A-31 Int 207 Colombia, Medellín"
"TRANSPORTES GINEBRA S.A.";;;"(57) 3146853263";"Terminal de Transportes Buga T-41 Colombia, Buga"
"CAMPEROS LA ERMITA S.A.S";;;"(57) (2) 8800160";"Cl 22 7 A-50 Colombia, Cali"
"ILS LOGÍSTICA INTEGRAL DE SERVICIO LTDA";;;"(57) (1) 5430470";"Cr28 B 79-74 Of 205 Colombia, Bogotá"
"EXPRESO ALIANZA";;;"(57) (5) 7285664";"Terminal de Transporte L-2 Colombia, Riohacha"
"TURYEXPRESOS LTDA.";;;"(57) (1) 4308778";"Av (Cl) 68 84 A-60 Colombia, Bogotá"
"COTRAGUA LTDA";;;"(57) (75) 5625345";"Cl 10 12-57 L-5 Centro Colombia, Ocaña"
TELE-COPER;;;"(57) (1) 2222111";"Cl 10 A 42 A-37 Colombia, Bogotá"
"TRANSPORTE TURITRANSP LTDA.";;;"(57) (5) 3518908";".. Colombia, Barranquilla"
"EXPRELDORADO LTDA";;;"(57) (1) 6701534";"Cll 181B 8 52 Colombia, Bogotá"
"FLOTAX S.A.";;;"(57) (7) 6483400";"Cl 6 11-29 Floridablanca Colombia, Floridablanca"
"COOTRANAARAUCANA LTDA.";;;"(57) (7) 8856000";"Cl 13 15-157 Brr. Meridiano 70 Colombia, Arauca"
"COLOMBIA SIN FRONTERAS";;;"(57) (1) 7134287";"Cr66 56-40 S Colombia, Bogotá"
"TRANSUCOL LTDA.";;;"(57) (2) 2755066";"Cr29 31-25 Of 105 Colombia, Palmira"
"EMPRESA DE TRANSPORTE SALÓNICA S.A.";;;"(57) (2) 2008028";"Cl 10 2-02 Colombia, Riofrío"
"UNITAX S.A.";;;"(57) (2) 5572752";"Cr23 5-52 Colombia, Cali"
"TRANSPORTES ESCAS S.A.S";;;"(57) (5) 3005054";"CL 41 29-84 Colombia, Barranquilla"
"TRANSPORTES VILLA DEL ROSARIO S.A.";;;"(57) (5) 3409583";"Cl 34 35-41 Colombia, Barranquilla"
"COOPERATIVA DE TRANSPORTES LA MONTAÑA - COOTRANSMON";;;"(57) (4) 2307309";"Cl 50 65-42 Int 203 Colombia, Medellín"
"TRANSPORTES BASTIDAS S.C.A.";;;"(57) (5) 4308888";"Av del Ferrocarril 39 A-112 Colombia, Santa Marta"
"NAVARRO PLAZAS JORGE HERNAN";;;"(57) (1) 2436745";"Cr6 14-48 Of 313 Colombia, Bogotá"
"TRANSPAL LTDA.";;;"Telefax: (57) (1) 2531195";"Cl 127 D 71-54 Colombia, Bogotá"
"RADIO TAXIS A.C.B.C.";;;"(57) (2) 2438811";"Cr38 4-95 Brr. 14 de Julio Colombia, Buenaventura"
"DIGITAX S.A.S.";;;"Telefax: (57) (1) 2774372";"Cr36 1 C - 13 Colombia, Bogotá"
"TRANSMASIVO S.A.";;;"(57) (1) 6853630";"Av Suba Conj Av Ciudad de Cali Colombia, Bogotá"
"COOPERATIVA DE TRANSPORTE DEL ORIENTE";;;"(57) (5) 4312211";"Cl 11 Cr11 Esq Colombia, Santa Marta"
"AGENCIA DE VIAJES NACIONAL TUR";;;"(57) (1) 7254432";"Av Boyacá 43 C-20 Sur Colombia, Bogotá"
"SOTRACAUCA S.A.";;;"(57) (2) 6601936";"Terminal de Transportes Cali Colombia, Cali"
"TRANSPORTES JOSÉ B. E.U.";;;"Telefax: (57) (1) 4031211";"Cl 2 A 72 B-18 Colombia, Bogotá"
"TUR Y TRANS";;;"(57) (8) 8757181";"Cr6 18 A-16 Colombia, Neiva"
"First Name";"Email Address";Url;Telephone;Address
"VARGAS BECERRA INVERSIONES Y SERVICIOS S.A.S.";;;"(57) (1) 2568112";"Cr28 C 85-24 Colombia, Bogotá"
"TAXI PORTAL";;;"Telefax: (57) (5) 3199999";"Cr53 46-192 Colombia, Barranquilla"
"TAXY SOLUCIONES S.A.S.";;;"Telefax: (57) (5) 3173653";"Cr43 84 B-11 Colombia, Barranquilla"
COOTRAUR;;;"(57) (4) 8502583";"Cl 29 30-73 Urrao Colombia, Urrao"
"PODER JURÍDICO LTDA.";;;"(57) (1) 2838470";"Cl 18 6-31 Of 304 Colombia, Bogotá"
SOTRAGOLFO;;;"(57) (4) 8280230";"Cl 100 106-35 Colombia, Apartadó"
"BUSES AMARILLOS Y ROJOS";;;"(57) (1) 2095124";"Av Caracas 15-47 S Colombia, Bogotá"
COOTRASLOMA;;;"(57) (5) 5602838";"Dg21 24-84 Av Fundación Colombia, Valledupar"
"COOPERATIVA MULTIACTIVA DE URIBIA";;;"(57) (54) 7177499";"Dg2 2 A-28 Las Pulgas - Uribia Colombia, Uribia"
"COOPERATIVA DE TRANSPORTE COOCONOSUR";;;"(57) (5) 7281532";"Cr7 15-20 Colombia, Riohacha"
"TRANSPORTE TATTO";;;"(57) 3172688426";"Cr1 33-37 Colombia, Palmira"
ASOTRANBA;;;"(57) (5) 7275372";"Cr7 15-40 El Progreso Colombia, Riohacha"
"TRANSPORTES PUBADI LTDA.";;;"(57) (1) 8250627";"Cr6 16-04 Madrid Colombia, Bogotá"
"EMPRESA DE TRANSPORTES DE SUR -EMTRASUR";;;"(57) (76) 5652507";"Cl 6 10-24 Colombia, Aguachica"
COPSERTRANS;;;"(57) (1) 2923621";"Cl 7D 79-42 Colombia, Bogotá"
"EMPRESA DE TRANSPORTE TERRESTRE AUTOMOTOR ESPECIAL";;;"(57) (5) 4103255";"Cl 16 13-04 Colombia, Ciénaga"
"ONALTER - CORPORACIÓN NACIONAL DE TERMINALES D";;;"(57) (1) 6235891";"Cr17 93-82 Of 401 Colombia, Bogotá"
AEROMUNDO;;;"(57) (7) 6850600";"Cr36 52-141 Colombia, Bucaramanga"
"COOTRANSMETA VILLAVICENCIO";;;"(57) (8) 6626359";"Cl 32 34-86 Colombia, Villavicencio"
"LOGÍSTICA EMPRESARIAL & TURÍSTICA S.A.S.";;;"(57) (8) 6685285";"Cl 20 37 M-24 Colombia, Villavicencio"
"TRANSPORTES ARGELIA CHOCÓ";;;"(57) (2) 2077132";"Cl 8 4-47 Colombia, El Cairo"
"TRANSPORTE FÉLIX CEPEDA";;;"(57) (5) 7281717";"Cr7 22-13 Colombia, Riohacha"
"EXPRESO ALIANZA";;;"(57) (5) 7285664";"Terminal de Transporte L-2 Colombia, Riohacha"
COOTRANSPENSILVANIA;;;"(57) (1) 7205060";"Cl 8 S 35 A-08 Colombia, Bogotá"
"TRANSPORTES ARIMENA S.A.";;;"(57) (1) 5417777";"Cl 64 70-63 Colombia, Bogotá"
COOTRAESCAL;;;"(57) (6) 3211368";"Cl 24 18-53 Colombia, Pereira"
"TAXIS LUXOR";;;"(57) (6) 3311111";"Cr9 5-27 Colombia, Pereira"
"TUREX COLOMBIA S.A.S";;;"(57) (2) 6543620";"Av 3 N 44 N 38 E 1 L 4 Colombia, Cali"
"RAPTOR EXPRESS LTDA.";;;"Conm.: (57) (1) 6772727";"Cr51 176-84 Colombia, Bogotá"
COOTRAGUA;;;"(57) (7) 6373900";"Tr Metropolitana Mód 1 Colombia, Bucaramanga"
"COOPERATIVA DE TRANSPORTES CIUDAD DE YUMBO LTDA.";;;"(57) (2) 6695596";"Cr1 N 8 A N-21 Yumbo Colombia, Yumbo"
"ORGANIZACIÓN AR&D S.A.S.";;;"(57) (2) 6667121";"Cl 12 20 B-140 Colombia, Cali"
"EMPRESA DE TRANSPORTES RÍO CALI";;;"(57) (2) 6653866";"Cl 15 35-215 Acopi Yumbo Colombia, Yumbo"
"EXPRESO LAS LAJAS S.A.";;;"(57) (2) 7733953";"Cr6 3-118 Colombia, Ipiales"
"LINEAS PEREIRANAS S A";;;"(57) (6) 3116890";"Cr16 78-99 La Romelia Colombia, Pereira"
"TRANS GUERRERO";;;"(57) (7) 5761383";"Centro Residenh 6 C.C. Bolívar Colombia, Cúcuta"
"TRANSPORTES NUEVO HORIZONTE S.A.";;;"Telefax: (57) (1) 3616028";"Cl 22 A S 9 A-15 Colombia, Bogotá"
"EXPRESO CAFETERO S.A.S.";;;"(57) (6) 3210137";"Cl 17 23-157 Nivel 1 Colombia, Pereira"
"ANDESA - 7/24";;;"(57) (5) 4380068";"Km 13 Vía Aeropuerto Pozos Colorados Hotel Sanha Plus L-132 Colombia, Santa Marta"
"LIONITRANS S.A.";;;"(57) (1) 7808346";"Av (Cr) 80 55 A-20 S L-11 Colombia, Bogotá"
"First Name";"Email Address";Url;Telephone;Address
"FLOTA OSPINA SANABRIA Y CÍA S.C.A.";;;"(57) (4) 3611196";"Cr65 C 8 B-81 Of 140 Colombia, Medellín"
"FLOTA OSPINA SANABRIA Y CÍA. S.A.";;;"(57) (6) 3213658";"Cl 17 23-157 Colombia, Pereira"
"GRUPO GRAN COLOMBIANA DE TURISMO Y JURIDICOS ASOCIADOS E INMOBILIARIOS S.A.S.";;;"Telefax: (57) (1) 3686871";"Cr32 26 - 21 L-3 Colombia, Bogotá"
"VELOTRANS LTDA.";;;"(57) (1) 2616367";"Cr60 5 B-51 Colombia, Bogotá"
"RADIO TAXIS A.C.B.C.";;;"(57) (2) 2438811";"Cr38 4-95 Brr. 14 de Julio Colombia, Buenaventura"
"TRANSPORTES ESPECIALES VIP";;;"(57) (1) 4101563";"Cl 56 70 D-06 Colombia, Bogotá"
"DASAM TOUR";;;"(57) (2) 3808626";"Cl 23   N 5   N-50 Colombia, Cali"
"RAPITUR LTDA.";;;"(57) (1) 6571558";"Cl 121 6-46 Of 116 Colombia, Bogotá"
"TRANSPORTADORA & COMERCIALIZADORA TRANSPORTAMOS LTDA.";;;"(57) (2) 5244409";"Cl 10 43-55 Of 302 Colombia, Cali"
"FLOTA SUGAMUXI S.A.";;;"(57) (7) 5723339";"Terminal de Transportes Cúcuta L-M-1-70 Colombia, Cúcuta"
"AGENCIA DE TRANSPORTE ESPECIAL PASEOS POR COLOM";;;"(57) (1) 3107927";"Cr22 52-39 Colombia, Bogotá"
"EMPRESA DE BUSES AZUL CREMA LTDA.";;;"(57) (2) 4361100";"Cl 72 Y 28 E-46 Colombia, Cali"
"COOPERATIVA DE TRANSPORTE COLECTIVO AUTOCOL";;;"(57) (4) 5113630";"Cr49 52-170 Int 505 Colombia, Medellín"
"COOPERATIVA DE TRANSPORTES DE OCCIDENTE";;;"(57) (2) 2123411";"Dg3 2 A-24 Colombia, Cartago"
"SOL Y LUNA VIAJES Y TURISMO";;;"(57) (4) 5131346";"Cl 53 49-44 Of 303-304 Colombia, Medellín"
"BERLINAS DEL FONCE S.A.";;;"(57) (7) 6370608";"Terminal de Transporte Km 2 Vía Girón Mód 4 Colombia, Bucaramanga"
"SOTRACAUCA S.A.";;;"(57) (2) 6601936";"Terminal de Transportes Cali Colombia, Cali"
"FLOTA GUAITARA S.A.";;;"(57) (2) 6687680";"Terminal de Transporte P-02 Colombia, Cali"
"SEDITRANS S.A.";;;"(57) (4) 3746161";"Cl 31 41-89 Itagüí Colombia, Itagüí"
"RÁPIDO EL CARMEN LTDA.";;;"(57) (1) 2634968";"Cl 33 B 68 D-13 Colombia, Bogotá"
"TRANSPORTES MONTERO S.A.";;;"(57) (5) 6646486";"Centro Calle de la Universidad Of 302 Edif Salomón Gánem Colombia, Cartagena"
"ROJAS MARIO FERNANDO";;;"(57) (1) 3290659";"Cl 72 A 86-69 Of 210-211 Colombia, Bogotá"
"TRANSPORTES FEDA LTDA.";;;"(57) (1) 5237087";"Cr48 147 A-13 Colombia, Bogotá"
CODECON;;;"(57) (8) 8757412";"Cl 38 1-09 Ap 102 B-7 Sta Inés Colombia, Neiva"
"COOPERATIVA DE TRANSPORTES UNIDOS DE COLOMBIA (COOTRAUNICOL).";;;"(57) (4) 2629411";"Cr51 41-42 Of-305. Colombia, Medellín"
"ULTRAVANS TRANSPORTES";;;"(57) (1) 6008411";"Cl 72 26-33 Colombia, Bogotá"
"ALIANZA SODIS";;;"(57) (5) 3445030";"Cl 30 No. 12-249 Colombia, Barranquilla"
"MEDELLIN THE TOURS";;;"(57) (4) 5827352";"Cr73 A 30 B-123 Colombia, Medellín"
"PORTRANS LTDA.";;;"(57) (1) 2833181";"Cr13 13-24 Of 426 Colombia, Bogotá"
"AGENCIA DE VIAJES OPERADORA EXCURSIONES - EVENTOS & EXPRESOS";;;"(57) (5) 6722392";"Alcibia Conj.R Villa Liliana Trr 3 Ap 703 Colombia, Cartagena"
"COOTRANSMAYO LTDA.";;;"(57) (1) 4057593";"Cr32 8-49 Colombia, Bogotá"
"TRANSPORTE MIXTO DE LA COSTA T.M.C.";;;"(57) (5) 3267297";"Cl 33 37 A-17 Costa Hermosa Soledad Colombia, Barranquilla"
"CHIVAS RUMBERAS DE LOS LLANOS";;;"(57) (8) 6702879";"Cl 5 50-09 S Colombia, Villavicencio"
"COMPAÞÚA RADIO TAXI UNIDOS S.A.S.";;;"(57) (1) 7035336";"Cl 48 17-26 Colombia, Bogotá"
"TRANS UNISA S.A.";;;"(57) (1) 4162328";"Cl 55 71-54 Colombia, Bogotá"
"SOCIEDAD TRANSPORTADORA SANTA BARBARA";;;"(57) (4) 3611890";"CR 65 8B 91 Colombia, Medellín"
"SABOGAL Y HERRERA INVERSIONES LTDA.";;;"(57) (1) 6570125";"Cl 108 45-30 Trr 2 Of 907B Colombia, Bogotá"
"CECUR S.A.S.";;;"(57) (1) 4119810";"Cl 13 A 81 F-13 Colombia, Bogotá"
"SERVIFLOTAS DEL CARIBE";;;"Telefax: (57) (5) 3798845";"Cl 47 21 B-129 Colombia, Barranquilla"
"INVERSIONES AMBAR";;;"(57) (5) 3692204";"Cr49 66-49 Ap 32 B Colombia, Barranquilla"
"First Name";"Email Address";Url;Telephone;Address
"COOPERATIVA MULTIACTIVA DE TRANSPORTADORES DE TIMBÍO COOMULTRAT";;;"(57) (28) 8278958";"Cr21 16-45 Colombia, Timbío"
"METRO DE MEDELLIN LTDA.";;;"Telefax: (57) (4) 4548888";"Cl 37 79-05 Colombia, Medellín"
BUGANVILLA;;;"(57) (4) 2603079";"Cr64 C 78-580 Int 9673 Colombia, Medellín"
"PEGASO TOURS LTDA.";;;"(57) (1) 2273718";"Cr103 75 B-39 Colombia, Bogotá"
"FLOTAX S.A.";;;"(57) (7) 6483400";"Cl 6 11-29 Floridablanca Colombia, Floridablanca"
"TERMINAL DE TRANSPORTES DE PITALITO S.A";;;"(57) (8) 8363718";"Cr4 31-15 Colombia, Pitalito"
"AGENCIA DE VIAJES TODO TURISMO";;;"(57) (7) 5727591";"Av6 12-93 L-206 C.C. Europa Colombia, Cúcuta"
"COOPERATIVA INTEGRAL DE TRANSPORTES LA FLORIDA";;;"(57) (1) 2919045";"Cl 75 A 78-90 Colombia, Bogotá"
"TRANSPORTES MONTERO S.A.";;;"(57) (5) 6646486";"Centro Calle de la Universidad Of 302 Edif Salomón Gánem Colombia, Cartagena"
"ALL TOUR S.A.";;;"(57) (1) 6270293";"Cr10 A 134 B-05 Int 1 Colombia, Bogotá"
"PATOJITOS TOUR H Y E";;;"(57) (2) 8212022";"Cl 7 19-114 Colombia, Popayán"
"EXPRESOS EL PUERTO EAT";;;"(57) (4) 8333552";"Cr4 50-22 Colombia, Puerto Berrío"
COOTRABE;;;"(57) (4) 3611225";"Medellin Colombia, Medellín"
"CANGURO LOGISTIC & BUSSINES S.A.S.";;;"Telefax: (57) (7) 5729788";"Av4 10-42 Of 502 C.C. Plaza Colombia, Cúcuta"
"TRANSPORTES ESPECIALES FLOR DEL VALLE LTDA.";;;"(57) (2) 5519992";"Cr61 3-120 Colombia, Cali"
TAXIGER;;;"(57) (4) 3739263";"Cl 51 42-129 Of 201 Itagüí Colombia, Itagüí"
"COOPERATIVA SUPERTAXIS DEL SUR";;;"(57) (2) 7309197";"Cooperativa Supertaxis del Sur Colombia, Pasto"
"COOTAXLUJO LTDA.";;;"(57) (2) 7324507";"Cl 20 A 2-48 Brr. Las Mercedes Colombia, Pasto"
"TRANSPORTES IRRA S.A.";;;"(57) (6) 8730055";"Cr23 25-61 Of 1005 Colombia, Manizales"
"COOTRAURES LTDA.";;;"(57) (1) 2277808";"Cr96 73-51 Colombia, Bogotá"
"NUEVO RAPIDO QUINDIO LTDA.";;;"(57) (6) 7474747";"Km 1 Vía al Edén Bomba La Villa Colombia, Armenia"
"FLOTA LA MACARENA S.A.";;;"(57) (1) 4212256";"Dg23 69-60 Mód 2 Of 221 Colombia, Bogotá"
"AGENCIA DE VIAJES AIR TOURS";;;"(57) (8) 8712700";"Av La Toma 8-60 C.C. Toma Real L-1 Colombia, Neiva"
COOTRANSNORTE;;;"(57) (1) 6780458";"Cr8D 190-58 Colombia, Bogotá"
COLIBERTADOR;;;"(57) (5) 3230023";"Terminal de Transporte L-8 Colombia, Barranquilla"
"NUEVA TRANSNÓVITA LTDA.";;;"(57) (2) 2066152";"Cr3 5-02 Esq Colombia, El Aguila"
"SOTRAMAGDALENA S.A.";;;"(57) (7) 6428973";"Cl 31 21-72 Colombia, Bucaramanga"
COOTRACEGUA;;;"(57) (5) 3235392";"Terminal de Transportes Colombia, Barranquilla"
"AGENCIA AUTOS TAX WFE";;;"(57) (4) 4484545";"Cl 44 79 B-58 Colombia, Medellín"
"EXPRESO CISNEROS NUS LTDA.";;;"Telefax: (57) (4) 2128899";"Cl 62 56 A-110 Colombia, Medellín"
"LINE TOUR S.A.";;;"(57) (5) 6666602";"Marbella Cl 47 3-29 Colombia, Cartagena"
COOTRANSHUILA;;;"(57) (6) 7478136";"Cl 35 20-68 Tq 20 Colombia, Armenia"
"BUPRESS TOUR S.A.S.";;;"(57) (4) 2529379";"Cr86 43-22 Colombia, Medellín"
"EXPRESER S.A.S.";;;"Nal: (57) (1) 8415037";"Autop Medellín Km 3.5 Of C-25 Colombia, Bogotá"
"SABOGAL Y HERRERA INVERSIONES LTDA.";;;"(57) (1) 6570125";"Cl 108 45-30 Trr 2 Of 907B Colombia, Bogotá"
"ANITUR LTDA.";;;"(57) (1) 4810207";"Cr57 B 68-11 Of 302 Colombia, Bogotá"
COOTRASLOMA;;;"(57) (5) 5602838";"Dg21 24-84 Av Fundación Colombia, Valledupar"
"COOPERATIVA DE TRANSPORTES DE LA GUAJIRA TRANSP";;;"(57) (5) 7273205";"Cl 15 7-11 Colombia, Riohacha"
"COOPERATIVA DE TRANSPORTADORES DEL META COOTRANSMETA";;;"(57) (8) 6626359";"Cl 32 34-86 Colombia, Villavicencio"
"EUROVANS EXPRESS";;;"(57) (5) 3190218";"Cl 99 C 43-150 Colombia, Barranquilla"
"First Name";"Email Address";Url;Telephone;Address
"COLOMBIA SIN FRONTERAS";;;"(57) (1) 7134287";"Cr66 56-40 S Colombia, Bogotá"
"CPPTRACAIME LTDA.";;;"(57) (8) 2611520";"Terminal de Transporte Of 137 Colombia, Ibagué"
"BARRANQUILLA LINDA A MAGANGUÉ DE CALLE EXPRESS";;;"(57) (5) 3566567";"Cl 68 B 31-70 Colombia, Barranquilla"
"COOPERATIVA DE TRANSPORTE LAS PALMAS";;;"(57) (2) 2281254";"Cl 4 18-51 Colombia, Buga"
"VIAJAR CON CALICHE TURISMO NACIONAL";;;"(57) (2) 3253092";"Cr40 B 30 A-16 Colombia, Cali"
"TRANS GUERRERO";;;"(57) (7) 5761383";"Centro Residenh 6 C.C. Bolívar Colombia, Cúcuta"
"TRANSPORTES PANACHI ARATOCA";;;"(57) 3115494991";"Cr4 4-37 Centro Aratoca Colombia, Bucaramanga"
"TERMINAL DE TRANSPORTES DE MANIZALES";;;"(57) (6) 8787858";"Cr43 65-100 Colombia, Manizales"
"PROFESIONALES DEL TRANSPORTE LTDA.";;;"(57) (8) 2621706";"Terminal de Transporte Entrada 2 Of 190 Colombia, Ibagué"
"EMPRESA ARAUCA";;;"(57) (1) 4287153";"Calle 33 b 69-13 Terminal de Transporte Colombia, Bogotá"
"SOLUCIONES DE TRANSPORTES CAPITAL S.A.S.";;;"Telefax: (57) (1) 2294509";"Cr112 F 75-9 Colombia, Bogotá"
"TRANSPORTES L3 S.A.S.";;;"Telefax: (57) (1) 6746874";"Cr20 169 - 54 Colombia, Bogotá"
"VELOTRANS LTDA.";;;"(57) (1) 2616367";"Cr60 5 B-51 Colombia, Bogotá"
"SOLUCIONES EN TRANSPORTE INTEGRAL E.U.";;;"(57) (1) 3750436";"Av (Cl) 6 33-15 Colombia, Bogotá"
"INVERTASCO S.A.";;;"Telefax: (57) (1) 2017769";"Cr19 A 4 A-42 Colombia, Bogotá"
"ASISTENCIA MOVIL DE COLOMBIA S.A.S.";;;"Telefax: (57) (1) 4350053";"Cr112 G 86 B - 60 Int 7 Ap 401 Colombia, Bogotá"
"TRANSZULUAGA LTDA.";;;"(57) (8) 8331232";"Cr10 A 3-40 El Rosario Colombia, Garzón"
"TRANSPORTES PERALONSO LTDA.";;;"(57) (7) 5723706";"Casilla 5 Terminal del Transportes Colombia, Cúcuta"
BERLINAS;;;"(57) (7) 5726379";"Central de Transportes Of 2 Colombia, Cúcuta"
"ALAMIO S.A.";;;"Telefax: (57) (2) 3232650";"Cr70 1-57 Colombia, Cali"
"COOTRANSCAR LTDA.";;;"(57) (2) 7331352";"Cl 16 9-22 L-4 Terminal de Transportes Colombia, Pasto"
COOTRAMOB;;;"(57) (4) 5110400";"Cl 56 53-30 Colombia, Medellín"
COOTRABEL;;;"(57) (4) 2509912";"Cr81 32-204 Of 306 Colombia, Medellín"
"AUTOMÓVILES ITAGÜÍS.C.A.";;;"(57) (4) 3723359";"Cr50 50-28 Of 326 Itagüí Colombia, Itagüí"
"COOPERATIVA DE TRANSPORTADORES CIUDAD SEÑORA DE BUGA";;;"(57) (2) 2370700";"Terminal de Transportes Buga T-13 Colombia, Buga"
CITPSA;;;"Telefax: (57) (1) 2902836";"Tr53 Bis 2 A-64 P-3 Colombia, Bogotá"
"STARGATE RENT A CAR LTDA.";;;"(57) (1) 8000834";"Calle 23B Bis 81a69 Colombia, Bogotá"
"PEGASO TOURS LTDA.";;;"(57) (1) 2273718";"Cr103 75 B-39 Colombia, Bogotá"
"TRANSPORTES IRRA S.A.";;;"(57) (6) 8730055";"Cr23 25-61 Of 1005 Colombia, Manizales"
COOTRANSFONTIBÓN;;;"(57) (1) 5742697";"Av (Cl) 17 134A-15 FONTOBON PUENTE GRANDE Colombia, Bogotá"
"RESTREPO MARCELO VIAJES TURISMO";;;"(57) (2) 6813565";"Av7 N 23 N-57 Colombia, Cali"
"BOLIVARIANA TOURS LTDA";;;"(57) (1) 4300804";"Cl 71 B 71 G-29 Colombia, Bogotá"
"ECOTURISMO LOS PINOS";;;"(57) (5) 6735341";"Av Santander No. 46 A-120 Edif Marbella Real L-C Colombia, Cartagena"
"COOPERATIVA TRANSRURAL";;;"(57) (28) 1000000";"Cl 2 5-13 Colombia, El Tambo"
"TRANSPORTES COSTA AZUL LTDA.";;;"Telefax: (57) (5) 3095135";"Cl 13 10-25 Colombia, Barranquilla"
"RUTEXCOL S.A.";;;"(57) (1) 6081590";"Cl 22 B 62-51 Int 1 Of 404 Colombia, Bogotá"
"VARGAS JOSE GERMAN";;;"(57) (1) 6093657";"Cl 155 30-36 Colombia, Bogotá"
"HOLLYWOOD TAXI Y COMPAÑIA LTDA";;;"(57) (4) 2348306";"Cl 49 BB 88-06 Ap 301 Colombia, Medellín"
"AUTOSATELITAL LTDA.";;;"(57) (8) 2771111";"Cl 31 A 5-34 Colombia, Ibagué"
"TRANSPORTES DEL CARIBE S.A.";;;"(57) (5) 6566830";"Cr17 30-136 Colombia, Cartagena"
"First Name";"Email Address";Url;Telephone;Address
COOTRAMO;;;"(57) (4) 5114423";"Cr47 50-24 Of 1106 Colombia, Medellín"
"A M TUR LTDA.";;;"(57) (1) 6197256";"CL 116 21-50 Colombia, Bogotá"
"BUENDÍA MURCIA ANGELO";;;"(57) (2) 3260746";"Cr28 19-25 Colombia, Cali"
"ADMISTRACIÓN EDIFICIO TERMINAL INTERMUNICIPAL DE PASAJEROS DE CALI E.T. CALI";;;"(57) (2) 6611661";"Cl 30 N 2 A N-29 Colombia, Cali"
"TRANSPORTES ESPECIALES BRASILIA LTDA.";;;"(57) (2) 6565017";"Cl 70 5-42 Colombia, Cali"
"TRANSPORTES CARLOS MARIO RIOS";;;"(57) (4) 2854462";"Cr67 8 B-100 Int 223 Colombia, Medellín"
"HUMBETO ANTONIO OSPINA RIVERA";;;"(57) (2) 3960545";"Cr80 B 43-59 Colombia, Cali"
"TRANSPORTE TURITRANSP LTDA.";;;"(57) (5) 3518908";".. Colombia, Barranquilla"
"EXPRELDORADO LTDA";;;"(57) (1) 6701534";"Cll 181B 8 52 Colombia, Bogotá"
"COOPERATIVA DE TRANSPORTES CIUDAD DE YUMBO LTDA.";;;"(57) (2) 6695596";"Cr1 N 8 A N-21 Yumbo Colombia, Yumbo"
"TRANS GUERRERO";;;"(57) (7) 5761383";"Centro Residenh 6 C.C. Bolívar Colombia, Cúcuta"
"TRANSPORTE URBANO LOS ALPES";;;"Nal: (57) (5) 4210731";"Cl 11 1 C-23 Of 405 Edif Posihueica Colombia, Santa Marta"
"AGENCIAS DE VIEJES Y TRANSPORTE TAIRONA EXPRESS";;;"(57) (1) 6609460";"cl70#28-20 Colombia, Bogotá"
"DASAM TOUR";;;"(57) (2) 3808626";"Cl 23   N 5   N-50 Colombia, Cali"
"TRANSZULUAGA LTDA.";;;"(57) (8) 8331232";"Cr10 A 3-40 El Rosario Colombia, Garzón"
"TRANSPORTES ESPECIALES FÉNIX LTDA.";;;"(57) (1) 4527285";"Cl 2 A S 73 B-19 Colombia, Bogotá"
"COOTRAGUA LTDA.";;;"(57) (7) 5835756";"Terminal de Transportes Casilla 27 Colombia, Cúcuta"
"COOTRANSPOLICARPA LTDA.";;;"(57) (2) 7330759";"Cl 17 10-24 Fátima Colombia, Pasto"
COTRANSORIENTE;;;"(57) (4) 5538884";"Cr22 16-17 La Ceja Colombia, Medellín"
"TRANSPORTES CASTILLA";;;"(57) (4) 4256300";"Cl 55 70-59 Colombia, Medellín"
"TRANSPORTES GONZÁLEZ";;;"(57) (5) 3234056";"Módulo 6 Taquilla 48 Colombia, Barranquilla"
"PRONALTUR LTDA.";;;"(57) (1) 2402881";"Cr68 C 77-61 Colombia, Bogotá"
"TRANSPORTE TRANVÍA TOUR'S S.A.";;;"Conm.: (57) (1) 5272727";"Cl 169 43-26 L-204 Colombia, Bogotá"
"EMPRESA PRECOOPERATIVA TRANSERVICIO H.J. LTDA.";;;"(57) 3134231521";"Transervicio@hotmail.com Colombia, Neiva"
"COOCHOFAL LTDA.";;;"(57) (5) 3282697";"Cl 65 No. 5 E-65 Soledad Prolongación Murillo Colombia, Barranquilla"
"EXTRA EXPRESS AMÉRICA";;;"(57) (1) 2763734";"Cr66 A 65 A-71 L-103 Colombia, Bogotá"
"AGENCIA DE VIAJES AIR TOURS";;;"(57) (8) 8712700";"Av La Toma 8-60 C.C. Toma Real L-1 Colombia, Neiva"
"EAGLE TOURS LINES";;;"(57) (1) 8630667";"Cr11 25-51 Chía Colombia, Chía"
"SERVIFLOTAS DEL CARIBE";;;"Telefax: (57) (5) 3798845";"Cl 47 21 B-129 Colombia, Barranquilla"
"COLTRANSNOROCCIDENTE E.U.";;;"(57) (4) 8686687";"Cl 49 47-132 Colombia, San Pedro de los Milagros"
"SOCIEDAD TRANSPORTADORA DE EL PEÑOL";;;"(57) 8515912";"Tr4 7-34 Colombia, El Peñol"
"COOPERATIVA MULTIACTIVA DE TRANSPORTADORES DE TIMBÍO COOMULTRAT";;;"(57) (28) 8278958";"Cr21 16-45 Colombia, Timbío"
"EXPRESO DEL ATLÃNTICO S.A.";;;"Telefax: (57) (5) 3706996";"Cl 38 36-55 P-2 Colombia, Barranquilla"
"FINCAS Y FINCAS EVENTOS Y TURISMO";;;"(57) (4) 4922131";"Cl 35 89 A-82 P-2 Colombia, Medellín"
"CISTRA LTDA";;;"(57) (1) 2677511";"Cl 17 120-76 Colombia, Bogotá"
"COOPERATIVA MULTIACTIVA DE URIBIA";;;"(57) (54) 7177499";"Dg2 2 A-28 Las Pulgas - Uribia Colombia, Uribia"
COOTRAXIBUS;;;"(57) (5) 3230039";"Terminal de Transportes Mód 2 Bdg 5 Soledad Colombia, Barranquilla"
"EMPRESA DE TRANSPORTE DEL SUR LTDA.";;;"(57) (5) 5807431";"Cr18 D 22-20 Av Simón Bolívar Colombia, Valledupar"
COOPROVINCIA;;;"(57) (5) 5746236";"Cl 7 10-28 Esq Colombia, Valledupar"
"TRANSPORTE BARBOSA PORCESITO S.A.";;;"(57) (4) 4360996";"Cr64 C 78-580 L-132 Colombia, Medellín"
"First Name";"Email Address";Url;Telephone;Address
"ASOCIACIÓN DE TAXISTAS DE FLORIDA";;;"(57) (2) 2638555";"Cl 9 20 Esq Colombia, Florida"
"TRANSPORTES PIEDECUESTA";;;"(57) (7) 6550270";"Cl 9 6-23 P-3 Centro Piedecuesta Colombia, Bucaramanga"
"EXPRESO IBAGUE";;;"(57) (8) 2643616";"Cl 42 N.2-28 Casa Club Colombia, Ibagué"
"TRANSPORTE FÉLIX CEPEDA";;;"(57) (5) 7281717";"Cr7 22-13 Colombia, Riohacha"
"PROMASIVO S.A.";;;"(57) (6) 3170680";"Av30 de Agosto 52-476 Colombia, Pereira"
TELE-COPER;;;"(57) (1) 2222111";"Cl 10 A 42 A-37 Colombia, Bogotá"
"TRANSPORTES RÁPIDO PENSILVANIA S.A.";;;"(57) (1) 2884793";"Cr21 37-55 Colombia, Bogotá"
"LUIS CARLOS 66";;;"(57) 3014560854";"Cr 50 74-139 Edif Calabres Colombia, Riohacha"
"AUTO PANAMERICANO DE TRANSPORTES S.A.";;;"(57) (2) 7309221";"Terminal de Transporte L-201 Miraflores Colombia, Pasto"
"EXPRELDORADO LTDA";;;"(57) (1) 6701534";"Cll 181B 8 52 Colombia, Bogotá"
"TRANSPORTES CARROS DEL SUR S.A.TRANSCARD S.A.";;;"(57) (1) 4162319";"Cr71 B 54-81 Colombia, Bogotá"
"TRANSPORTES UNIDOS BUGA S.A.";;;"(57) (2) 2280073";"Terminal de Transportes L-11 Colombia, Buga"
"TRANSBORDAR A LA MEDIDA LTDA.";;;"(57) (4) 7824000";"Cr8 40-27 Colombia, Montería"
"TAX CARTAGO-COLECTIVOS DEL CAFÉ S.A.";;;"(57) (2) 2122000";"Cr9 8-55 Colombia, Cartago"
"RENGUIFO Y JAUREGUI S.A.S";;;"(57) (2) 3367936";"Cl 13 42 Bis 40 Colombia, Cali"
"COTRANAL LTDA.";;;"(57) (7) 6370288";"Tr Metropolitana Mód 1 Colombia, Bucaramanga"
"BARRANQUILLA LINDA A MAGANGUÉ DE CALLE EXPRESS";;;"(57) (5) 3566567";"Cl 68 B 31-70 Colombia, Barranquilla"
UNITRANSA;;;"(57) (7) 6425525";"Cr10 44-18 Colombia, Bucaramanga"
COONALCETECE;;;"(57) (1) 3117777";"Cr28 77-61 Colombia, Bogotá"
"EMPRESA DE TRANSPORTE MASIVO ETM S.A.";;;"(57) (2) 6679841";"Cl 28 N 6 N-53 Colombia, Cali"
"TRANSCÓNDOR INTERANDINA S.C.A.";;;"(57) (2) 6667284";"Autop Cali Yumbo Cencar B-A-2 Of 212 Yumbo Colombia, Cali"
"EDUARDO BOTERO SOTO Y CÍA. LTDA.";;;"(57) (7) 5871730";"Av Camilo Daza N 21-99 Of 203 Colombia, Cúcuta"
"SOPORTES SANTA ISABEL";;;"(57) (1) 3335507";"Cr 18 1H-23 Colombia, Bogotá"
"TRANSPORTES PANACHI ARATOCA";;;"(57) 3115494991";"Cr4 4-37 Centro Aratoca Colombia, Bucaramanga"
"ATRES - ADMINISTRADORA DE TRANSPORTES ESPECIASE";;;"(57) (7) 6704807";"Cl 34 21-19 Colombia, Bucaramanga"
"LIANZA SAT SISTEMA EXPRESS";;;"(57) (1) 7244622";"Av68 43-67 S Colombia, Bogotá"
"ANDESA - 7/24";;;"(57) (5) 4380068";"Km 13 Vía Aeropuerto Pozos Colorados Hotel Sanha Plus L-132 Colombia, Santa Marta"
"SERVICIO DE TRANSPORTE HA S.A.S.";;;"Telefax: (57) (1) 4762102";"Cr75 57 Z-34 S Colombia, Bogotá"
"SERVICIO ESPECIALIZADO DE TRANSPORTE DE PASAJEROS S.A.S.";;;"Telefax: (57) (1) 4778962";"Cr114 145-15 Of 201 Colombia, Bogotá"
"BERLINAVE SERVICIO DE LUJO";;;"(57) (5) 4302027";"Terminal de Transporte L-102-106-111 Colombia, Santa Marta"
"L E T CONFORT S.A.S.";;;"Telefax: (57) (1) 7504592";"Cr105 78 C - 38 P-2 Colombia, Bogotá"
"E.D.S. COSTA LINE";;;"(57) (5) 5745453";"Cl 44 18 D-215 L-1 Colombia, Valledupar"
"TRANSMASIVO S.A.";;;"(57) (1) 6853630";"Av Suba Conj Av Ciudad de Cali Colombia, Bogotá"
"ASISTENCIA MOVIL DE COLOMBIA S.A.S.";;;"Telefax: (57) (1) 4350053";"Cr112 G 86 B - 60 Int 7 Ap 401 Colombia, Bogotá"
"EXPRESO SAN JUAN DE PASTO S.A.";;;"(57) (2) 7733422";"Terminal de Transporte Of 55 Colombia, Ipiales"
"TRANSPORTE EJECUTIVO TESA S.A.";;;"(57) (2) 7228329";"Cl 17 12-95 Colombia, Pasto"
"TUR Y TRANS";;;"(57) (8) 8757181";"Cr6 18 A-16 Colombia, Neiva"
"TRANPORTES EJECUTIVOS Y DE TURISMO AUTOS OCASIONAL S.A.S.";;;"(57) (2) 3747919";"Cr100 5-169 Of 309 B Colombia, Cali"
"SERV. INTEGRADOS DE TRANSP. ESCOLAR EMPRESARIAL Y TURÍSTICO S.A.";;;"Telefax: (57) (1) 2486246";"Cr16 70A-74 Of-302 Colombia, Bogotá"
"COSMOTRANS LTDA.";;;"(57) (4) 2301080";"Cr68A 43-13 Of. 307 Colombia, Medellín"
"First Name";"Email Address";Url;Telephone;Address
"H&M GESTIµN Y SERVICIOS EMPRESARIALES S.A.S.";;;"(57) (1) 4107230";"Cr14 B 118-93 Ap 301 Colombia, Bogotá"
"AGENCIA COCHE EXPRESS";;;"(57) (5) 3571123";"Cr 43 84-80 Colombia, Barranquilla"
"COMPAÞÚA RADIO TAXI UNIDOS S.A.S.";;;"(57) (1) 7035336";"Cl 48 17-26 Colombia, Bogotá"
"PROYECTOS ZETA LTDA";;;"(57) (1) 3290022";"Cr68 G 64 D-52 Of 101 Colombia, Bogotá"
"TRANSPORTES LA MAYORITARIA GUAYABAL Y CÍA S.C.A.";;;"Conm.: (57) (4) 3617809";"Cr65 8 B-91 Of 375 Colombia, Medellín"
"TRANSPORTES VIPSRC LTDA.";;;"(57) (1) 4810198";"Cr97 A 16 G-06 Colombia, Bogotá"
COOTRANSDELRÍO;;;"(57) (4) 2354080";"Cr 79 A 32 A-105 Colombia, Medellín"
"TRANSPORTADORA LA QUINTA";;;"(57) (1) 2610139";"Av Americas 71 A-39 Colombia, Bogotá"
"REMISES SERVICE LTDA.";;;"(57) (1) 6089779";"Cl 67 62-28 Colombia, Bogotá"
"FLOTA FREDONIA LTDA.";;;"(57) (4) 3610992";"Cr65 8 B-91 Int 487 Colombia, Medellín"
"TRANSPORTES BERRÍO LTDA.";;;"(57) (4) 8326761";"Cr4 4-29 Colombia, Puerto Berrío"
COOPETIGRE;;;"Nal: (57) (4) 4366023";"Cl 48 D 67 A-33 Colombia, Medellín"
COTRANSPORTE;;;"(57) (4) 2604601";"Cr81 B 49 F 04 Colombia, Medellín"
COOMUTRARI;;;"(57) (5) 7276092";"Cl 15 12-79 Colombia, Riohacha"
COOTRAYAL;;;"(57) (4) 2308697";"Cr64 C 78 -344 Taquilla 33 Colombia, Medellín"
"INVERSIONES CONFORT S.A.";;;"(57) (1) 4338849";"Cl 65 5-34 Colombia, Bogotá"
"COOPERATIVA DE TRANSPORTADORES DEL META COOTRANSMETA";;;"(57) (8) 6626359";"Cl 32 34-86 Colombia, Villavicencio"
"TOURES DEL PACÍFICO";;;"(57) (4) 6723034";"Cl 29 entre Cr8 y Cr9 Colombia, Quibdó"
"COOPERATIVA ESPECIALIZADA DE TRANSPORTE Y SERVICIOS LA ERMITA LTDA.";;;"(57) (2) 6680043";"Cl 31 N 2 B N-104 Colombia, Cali"
"EXPRESO MEDELLÍN SONSÓN ARGELIA";;;"(57) (4) 2611195";"Cr50 36-20 Colombia, Medellín"
"CREACIONES RONY";;;"(57) (4) 5514034";"Cr 50 49-28 Guarne Colombia, Medellín"
"FLOTA RIONEGRO S.A.";;;"(57) (4) 5610404";"Cr50 45-48 Trr B P-3 Rionegro Colombia, Medellín"
"TRANSPORTES ESPECIALES FLOR DEL VALLE LTDA.";;;"(57) (2) 5519992";"Cr61 3-120 Colombia, Cali"
"TRANSPORTES ESPECIALES BRASILIA LTDA.";;;"(57) (2) 6565017";"Cl 70 5-42 Colombia, Cali"
"EUROVANS EXPRESS";;;"(57) (5) 3190218";"Cl 99 C 43-150 Colombia, Barranquilla"
"TRANS ARGELIA -TRANS MARISCAL ROBLEDO";;;"(57) (2) 2124444";"Cl 16 C 8-45 Colombia, Cartago"
"AEROBUSES TEBSA";;;"(57) (1) 2748106";"Cl 128 A 45-11 Of 403 Colombia, Bogotá"
"SUAUTOMOVIL S.A.";;;"(57) (6) 3215240";"Cl 17 23-157 Nivel 1 Colombia, Pereira"
"COTRANSGAR LTDA";;;"(57) (8) 8601133";"Cr7 3 A-S 76 Lt 33 Colombia, Neiva"
COOTRANSAMARIA;;;"(57) 8787143";"Cr6 10-06 Colombia, Neiva"
COOTRANSBOSA;;;"(57) (1) 7762901";"Cl 65 S 77 H-14 Colombia, Bogotá"
"TRANSPORTES EJECUTIVOS LTDA.";;;"(57) (1) 6097235";"Cr100 26-84 Colombia, Bogotá"
"COOP MULTIACTIVA DE TRANSPORTES ESPECIALES COMUSER LTDA.";;;"Conm.: (57) (1) 2917188";"Av (Cl) 68 68-19 Of 201 Colombia, Bogotá"
"TRANSPORTES Y TURISMO BERLINAS DEL FONCE S.A. BERLINASTUR";;;"(57) (7) 5875105";"Av7 0-05 Vía Aeropuerto Colombia, Cúcuta"
COOTRANDES;;;"(57) (2) 7218040";"Cl Principal Cr2 El Encano Colombia, Pasto"
"EXPRESO GAITANA";;;"(57) (8) 8602828";"Cr7 3 A Sur Of.-206 Colombia, Neiva"
"TRANSPORTES RÀPIDO TOLIMA S.A.";;;"(57) (8) 2648378";"Cr5A 38-33 P-2 Colombia, Ibagué"
"SOLUCIONES DE TRASPORTES S.A.S";;;"(57) (2) 4852945";"Cl 64 N 5 B-14 Of 403 C Colombia, Cali"
"TRANSPORTES URBANOS CAÑARTE LTDA.";;;"(57) (6) 3348924";"Cr4 Bis 24-09 Colombia, Pereira"
COONALCETECE;;;"(57) (1) 3117777";"Cr28 77-61 Colombia, Bogotá"
"First Name";"Email Address";Url;Telephone;Address
"CREFEP CRECIMIENTO EMPRESARIAL FEPIMSA S.A.S.";;;"Telefax: (57) (5) 3718186";"Km 3 VÚa Malambo Sabanagrande Pimsa Colombia, Barranquilla"
"TRANSPORTES RÁPIDO OCHOA S.A.";;;"(57) (52) 6877314";"Cl 17 315 P-01 L-3 Colombia, Magangué"
"TRANSPORTES SANTANA LTDA";;;"(57) (1) 2169885";"Carrera 17 # 134a91 Colombia, Bogotá"
"COOPERATIVA TRANSPORTADORA DE TIMBÍO LTDA.";;;"(57) (2) 8214868";"Cr17 7-12 Brr La Esmeralda Colombia, Popayán"
"COOMOTORISTAS DEL CAUCA";;;"(57) (2) 6688068";"Terminal de Transporte Cali Colombia, Cali"
COOMUTRARI;;;"(57) (5) 7276092";"Cl 15 12-79 Colombia, Riohacha"
COOTRANSNEVADO;;;"(57) (5) 5744115";"Cr7 A 18 B-37 Centro Colombia, Valledupar"
"COOPERATIVA DE TRANSPORTES DE LA COSTA ATLÁNTICA";;;"(57) (5) 3230066";"Terminal de Transporte Colombia, Barranquilla"
"LIPAXI S.A.S";;;"(57) (1) 7489727";"Cl 23 D 81 A-38 Colombia, Bogotá"
OPITAX;;;"Nal: (57) (8) 8766666";"Cl 70 B 1-80 Colombia, Neiva"
"ICOLTES LTDA.";;;"(57) (1) 2847937";"Cr 13 13-24 Of 526 Colombia, Bogotá"
"APUESTAS ARAUCA";;;"(57) (7) 8854405";"Cr19 22-29 Colombia, Arauca"
"SHADDAI EXPRESS";;;"(57) (1) 6008252";"Cr70 65 A-71 Of 203 Colombia, Bogotá"
"TRANSPORTES RÁPIDO SAN CRISTÓBAL Y CIA.";;;"(57) (4) 5132992";"Cr53 50-51 Of 402 Colombia, Medellín"
COTRACIBOL;;;"(57) (4) 3612735";"Cr 65 8 B-91 L-142 Colombia, Medellín"
"TRANSPORTES MAGLO S.A.S";;;"Nal: (57) (4) 2273663";"Cl 50 B 20-148 Int 101 Colombia, Medellín"
"TRANSPORTES MEDELLIN CASTILLA S.A.";;;"(57) (4) 4256300";"Cl 55 70-59 Colombia, Medellín"
"TRANSPORTE SALÓNICA";;;"(57) (2) 6687450";"Cl 30 N 2 A-29 Colombia, Cali"
"TRANSPORTES ESPECIALES LA ESPERANZA";;;"(57) (2) 3338143";"Cl 42 85 E-14 L-1 Colombia, Cali"
"EXPRESO PRADERA";;;"(57) (2) 4037596";"Cl 30 19-21 P-2 Colombia, Cali"
"UNIÓN TEMPORAL DE RECAUDO Y TECNOLOGIA UTRYT";;;"Conm.: (57) (2) 6600001";"Cl 5 52-163 Colombia, Cali"
"TRANSPORTES JORGE KOSTOVSKI";;;"(57) (2) 5511410";"Cr64 1 A-31 Colombia, Cali"
"VIAJES Y PASEOS";;;"(57) 3113720498";"Dg14 25 Ai-17 Colombia, Tuluá"
"TRANSPORTES ESPECIALES GALINDO";;;"(57) (2) 5160039";"Cr6 8 A-14 Jamundí Colombia, Jamundí"
"EMPRESA PRIMAVERA LTDA.";;;"(57) (2) 2246873";"Cl 26 Cr21 L-Del Parqueadero Colombia, Tuluá"
"COOPETRANS TULUÁ LTDA.";;;"(57) (2) 2242331";"Cl 27 1 W-176 Vía Tuluá Riofrío Colombia, Tuluá"
"ASOCIACIÓN DE TAXISTAS DE FLORIDA";;;"(57) (2) 2638555";"Cl 9 20 Esq Colombia, Florida"
"TRASAN S.A.";;;"(57) (7) 6377070";"Terminal de Transporte P-2 Of 709 Mód 2 Colombia, Bucaramanga"
"TRANSPORTES PURIFICACIÕN S.A.";;;"(57) (8) 2625098";"Cl 5 5-49 Purificaciõn Colombia, Ibagué"
"TERMINAL DE TRASNPORTES DE VILLAVICENCIO";;;"(57) (8) 6606535";"Cr1 15-05 Anillo Vial Colombia, Villavicencio"
"AEROBUSES DE COLOMBIA S.A.";;;"(57) (1) 4508823";"Cr73 D 2-20 Colombia, Bogotá"
COOTRANSBOSA;;;"(57) (1) 7762901";"Cl 65 S 77 H-14 Colombia, Bogotá"
SOTRANSVEGA;;;"(57) (8) 8700730";"Cl 19 S 10-18 Colombia, Neiva"
COOTRANSPENSILVANIA;;;"(57) (1) 7205060";"Cl 8 S 35 A-08 Colombia, Bogotá"
BOLIVARIANO;;;"Nal: 018000119292";"Línea Amable Bolivariano Colombia, Medellín"
"TRANSPORTES SIVAL S.A.";;;"Conm.: (57) (1) 6777770";"Cl 153 A 6-51 Colombia, Bogotá"
"COOPERATIVA DE TRANSPORTADORES DEL HUILA LTDA.";;;"(57) (6) 3218761";"Terminal de Transportes Nivel 2 Colombia, Pereira"
"COLECTIVOS DEL CAFÉ";;;"(57) (6) 3210031";"Cl 17 23-157 L-226 Colombia, Pereira"
"TRANSPORTES RÁPIDO NARIÑO";;;"(57) (2) 6905025";"Cencar Muelle 1 A 4 Yumbo Colombia, Yumbo"
"FLOTAX S.A.";;;"(57) (7) 6483400";"Cl 6 11-29 Floridablanca Colombia, Floridablanca"
"First Name";"Email Address";Url;Telephone;Address
"TRANSPORTE AUTOLLANOS S.A.";;;"(57) (8) 6560582";"Cr20 14-21 Centro Colombia, Acacías"
"TRANSPORTE SAN EUGENIO S.A.";;;"(57) (6) 3641717";"Cr13 14-26 Colombia, Santa Rosa de Cabal"
RODRISERVICIOS;;;"(57) (5) 2800022";"Cr40 23-26 Florencia Colombia, Sincelejo"
"AEROBUSES ROYAL EXPRESS S.A.";;;"(57) (1) 2248022";"Cl 65 ABis 83-06 P-3 Colombia, Bogotá"
"TRAYECTA TOURS BOGOTÁ";;;"Nal: (57) (1) 6107990";"Cr16 96-64 Of 405 Colombia, Bogotá"
"SISTEMA INTEGRADO DE TRANSPORTE URBANO DE SANTA MARTA S.A.S.";;;"(57) (5) 4230569";"Cl 22 12-63 Of 7 Colombia, Santa Marta"
"RÁPIDO LA SANTAMARÍA Y CÍA.";;;"(57) (4) 3763577";"Cr52 D 76-67 Itagüí Colombia, Itagüí"
METROPLUS;;;"(57) (4) 5763730";"Cl 53 No. 45-77 P. 3 y 4 Colombia, Medellín"
"ESTACIÓN DE TAXIS V.I.P.";;;"(57) (5) 3588888";"Cr42 G 82-218 Colombia, Barranquilla"
"TRANSPORTES EXPRESO PUERTO COLOMBIA";;;"(57) (5) 3798570";"Cl 34 43-109 Of 407 Colombia, Barranquilla"
"UCOLBÚS S.A.";;;"(57) (1) 7800088";"Cl 63 S 70 C-25 Colombia, Bogotá"
"TRANSPORTE EJECUTIVO J.B.P";;;"(57) (5) 6567801";"Popa Cl 30 20-162 Colombia, Cartagena"
5.XPRESS;;;"(57) (8) 6677101";"Cr35 22-38 Colombia, Villavicencio"
"EXTRA EXPRESS AMÉRICA";;;"(57) (1) 2763734";"Cr66 A 65 A-71 L-103 Colombia, Bogotá"
"RENETUR S.A.";;;"(57) (1) 3158006";"Cl 44 57 A-36 Colombia, Bogotá"
"TRANSPORTES LUZ S.C.A.";;;"(57) (5) 3230075";"Terminal de Transporte modulo D Colombia, Barranquilla"
"INTERNACIONAL DE TURISMO INTURCAFÉ LTDA.";;;"(57) (4) 4444214";"Cl 19 52-12 Colombia, Medellín"
TRANSTEBAIDA;;;"(57) (6) 7478991";"Cl 35 28-60 Colombia, Armenia"
"MASIVO CAPITAL S.A.S.";;;"(57) (1) 2205060";"Cl 26 59 - 51 Trr 3 Of 504 Colombia, Bogotá"
"PREMIUM CAR S.A.S.";;;"(57) (1) 7030636";"Cl 74 15 - 80 Int 2 Of 423 Colombia, Bogotá"
"TRANSPORTES PANAMERICANOS S.A.";;;"(57) (1) 7207777";"Tr23 38 B S- 60 Colombia, Bogotá"
"COOTRAGUA LTDA.";;;"(57) (5) 5717563";"Cr7 A 44-156 Colombia, Valledupar"
"ORTIZ CORTÉS JULIÁN";;;"(57) (4) 3311343";"Cr42 C 45 C S-59 -117 Envigado Colombia, Envigado"
"COMPAÞÚA RADIO TAXI UNIDOS S.A.S.";;;"(57) (1) 7035336";"Cl 48 17-26 Colombia, Bogotá"
"FLOTA LA MILAGROSA";;;"(57) (4) 2281504";"Cl 47 43-28 Of 405 Colombia, Medellín"
"METRO VANS LTDA.";;;"(57) (1) 6793217";"Cl 165 7-21 Colombia, Bogotá"
"APARTAMENTOS LARGA ESTADÍA ALE";;;"(57) (5) 3564254";"Cr49 75-42 L-1 Colombia, Barranquilla"
"VIAJES LA NUEVA COLOMBIA";;;"(57) (1) 4022020";"Cl 8 Bis 81-69 Colombia, Bogotá"
TRATAM;;;"(57) (4) 8472020";"Amagá Colombia, Amagá"
"INVERSIONES AMBAR";;;"(57) (5) 3692204";"Cr49 66-49 Ap 32 B Colombia, Barranquilla"
"UNIVERSAL DE EXPRESOS S.A.";;;"(57) (1) 3512581";"Cr 28 11-67 Of. 412 Colombia, Bogotá"
"TRANSPORTADORA LA QUINTA";;;"(57) (1) 2610139";"Av Americas 71 A-39 Colombia, Bogotá"
"FINCAS Y FINCAS EVENTOS Y TURISMO";;;"(57) (4) 4922131";"Cl 35 89 A-82 P-2 Colombia, Medellín"
COOPINTRANSVEGA;;;"(57) (1) 7321966";"Cr8 16-55 Soacha Colombia, Soacha"
"EXPRESO CISNEROS NUS LTDA. Y CIA. S.C.A.";;;"Conm.: (57) (4) 2933131";"Cr57 61 A-44 Colombia, Medellín"
COOPSITRANS;;;"(57) (1) 5298497";"Cr7 8-66 Sibaté Colombia, Bogotá"
"COOPERATIVA MULTIACTIVA DE URIBIA";;;"(57) (54) 7177499";"Dg2 2 A-28 Las Pulgas - Uribia Colombia, Uribia"
"IMPORTADORA CUR S.A.S.";;;"(57) (1) 7045193";"Cr17 A 116-57 Ap 504 Colombia, Bogotá"
"INVERSIONES LEAÞO BARRETO Y CÚA. S. EN C.";;;"(57) (1) 6951012";"Tr77 162-08 Int 47 Colombia, Bogotá"
"TRANSPORTES J.I. CARIBE S.A.S.";;;"(57) (5) 3701460";"Cl 51 29-57 Colombia, Barranquilla"
"First Name";"Email Address";Url;Telephone;Address
"COOTRANSCAQUETÁ LTDA.";;;"(57) (8) 4357272";"Cr10 15-60 Colombia, Florencia"
"COOPERATIVA NACIONAL DE TRANSPORTADORES COPENAL LTDA.";;;"(57) (1) 3513534";"Cr26 A 1 D-53 Colombia, Bogotá"
"SIDAUTO S.A.";;;"(57) (1) 3117221";"Av. Ciudad de Quito 78-84 Colombia, Bogotá"
"COOTRANSDORADO SERVICIO ESPECIAL";;;"(57) (1) 2872666";"Cr23 26-69 Colombia, Bogotá"
"COOTRANAARAUCANA LTDA.";;;"(57) (7) 8856000";"Cl 13 15-157 Brr. Meridiano 70 Colombia, Arauca"
COOTRAGUA;;;"(57) (7) 6373900";"Tr Metropolitana Mód 1 Colombia, Bucaramanga"
"COOPERATIVA MULTIACTIVA DE LA CIUDADELA COLSUBSIDIO";;;"(57) (1) 4335182";"Cl 88 112 I-26 Colombia, Bogotá"
"COOPERATIVA DE TRANSPORTADORES LA ANDINA";;;"(57) (2) 2293142";"Cl 14 14-15 Colombia, La Unión"
"EMPRESA TRANSPATUMA LTDA.";;;"(57) (2) 2299277";"Cr7 7-55 Colombia, Roldanillo"
"I. Y T. LTDA.";;;"(57) (2) 3326478";"Cr109 15-80 Colombia, Cali"
"TRANSPORTES VILLA DEL ROSARIO S.A.";;;"(57) (5) 3409583";"Cl 34 35-41 Colombia, Barranquilla"
"TRANSPORTES QUIRON LTDA.";;;"(57) (8) 6873888";"Cr19 11-59 Centro Colombia, Cumaral"
"AGENCIAS DE VIEJES Y TRANSPORTE TAIRONA EXPRESS";;;"(57) (1) 6609460";"cl70#28-20 Colombia, Bogotá"
"AGENCIA DE VIAJES Y TURISMO GUALCALA";;;"(57) (2) 7290455";"Cr27 17-75 Colombia, Pasto"
"EMANTOURS-EMPRESA ANTIOQUEÑA DE TURISMO";;;"(57) (4) 5991035";"Av50 A 52-06 P-2 Bello Colombia, Medellín"
"BUSES ESPECIALES CAVITRANS LTDA";;;"(57) (4) 4442419";"Cl 36 A S 46 A-81 Of 240 Colombia, Medellín"
COOTRANSNORTE;;;"(57) (1) 6780458";"Cr8D 190-58 Colombia, Bogotá"
"GRUPO FRANSA LTDA.";;;"(57) (1) 6520557";"Av (Cr) 61 131-28 Int 9 Ap 703 Colombia, Bogotá"
"EXPRESO BRASILIA S.A.";;;"(57) (5) 3715200";"Cr35 44-63 Colombia, Barranquilla"
COOTRACEGUA;;;"(57) (5) 3235392";"Terminal de Transportes Colombia, Barranquilla"
"TAMPA DC S.A.S";;;"(57) (1) 2871595";"Tr14 A N 2 A-42 Colombia, Bogotá"
"AUTOBUSES Y TRANSPORTES TURINO LTDA.";;;"(57) (1) 4902108";"Av (Cl) 72 77 A-11 Of 301 Colombia, Bogotá"
"TRANSPORTES MONTERO S.A.";;;"(57) (5) 6646486";"Centro Calle de la Universidad Of 302 Edif Salomón Gánem Colombia, Cartagena"
"TRANSCARIBE S.A.";;;"(57) (5) 6665217";"Crespo Cl67 5-19 L-1 Colombia, Cartagena"
"TRANSPORTE ALIMENTADOR DE OCCIDENTE S.A.";;;"(57) (1) 4417777";"Tr 94L 80A-53 Colombia, Bogotá"
COOPTRANSANMATEO;;;"(57) (1) 7123493";"Cr 14e 32-86 Colombia, Bogotá"
METROPLUS;;;"(57) (4) 5763730";"Cl 53 No. 45-77 P. 3 y 4 Colombia, Medellín"
"COOPERATIVA DE TRANSPORTADORES DE CONCORDIA";;;"(57) (4) 3528502";"Cl 8 B 65 50 Taquilla-30 Terminal del Sur Colombia, Medellín"
"METROPOLITANA DE TRANSPORTE LA CAROLINA";;;"(57) (5) 3230061";"Parqueadero Privado Terminal de Transportes Colombia, Barranquilla"
"TRANSPORTES ACEVEDO";;;"(57) (5) 3282429";"Cl 63 3-75 Colombia, Barranquilla"
TEDECOL;;;"(57) (1) 6304383";"Cl 78 24-41 Colombia, Bogotá"
"AGENCIA COCHE EXPRESS";;;"(57) (5) 3571123";"Cr 43 84-80 Colombia, Barranquilla"
"COOTRAGUA LTDA.";;;"(57) (5) 5717563";"Cr7 A 44-156 Colombia, Valledupar"
"JOSÕ A GµMEZ M Y CÚA. LTDA.";;;"(57) (1) 2529868";"Dg82 G 75-69 Colombia, Bogotá"
"RTG TRANSPORTE Y LOGISTICA S.A.S.";;;"(57) (4) 4488714";"Cl 22 D 45-39 P-2 Colombia, Medellín"
"AGENCIA DE TRANSPORTADORES MONSERRAT E.U.";;;"(57) (1) 2852832";"Cl 45 16-08 Colombia, Bogotá"
"BUSES Y AUTOS DE COLOMBIA S.A.";;;"Telefax: (57) (5) 3795800";"Cr38 42-03 Colombia, Barranquilla"
COOPETIGRE;;;"Nal: (57) (4) 4366023";"Cl 48 D 67 A-33 Colombia, Medellín"
COOPSITRANS;;;"(57) (1) 5298497";"Cr7 8-66 Sibaté Colombia, Bogotá"
COOTRAXIBUS;;;"(57) (5) 3230039";"Terminal de Transportes Mód 2 Bdg 5 Soledad Colombia, Barranquilla"
"First Name";"Email Address";Url;Telephone;Address
"INTEGRACIÓN DE TRANSPORTADORES COLOMBIANOS DE SERVICIO ESPECIAL LTDA.";;;"(57) (1) 4813865";"Cr37 90-47 Colombia, Bogotá"
"TRAYECTA TOURS BOGOTÁ";;;"Nal: (57) (1) 6107990";"Cr16 96-64 Of 405 Colombia, Bogotá"
"TRANSPORTES URBANOS SAMPER MENDOZA BUSES BLANCOS S.A.";;;"Conm.: (57) (1) 7829688";"Cl 63 S 80-22 Colombia, Bogotá"
"COOTRANSMAGDALENA LTDA.";;;"(57) (7) 6371301";"Cr25 28-18 Colombia, Bucaramanga"
"TRASURAN S.A.";;;"(57) (4) 8415151";"Cr51 49 A-40 Andes Colombia, Andes"
"TRANSPORTE JAVIER ANTONIO J.A. S.A.S.";;;"(57) (5) 6523914";"Manz 5 Lt 2 Sector 1 El Rodeo Colombia, Cartagena"
"COOCHOFAL LTDA.";;;"(57) (5) 3282697";"Cl 65 No. 5 E-65 Soledad Prolongación Murillo Colombia, Barranquilla"
"VIAJES CONSUL LTDA.";;;"(57) (1) 2511720";"Cr86 77 A-28 P-2 Colombia, Bogotá"
"VEHITRANS S.A.";;;"(57) (5) 6698730";"Tesca Cl 31 48 C-71 L-4 Colombia, Cartagena"
"COOPERATIVA DE TRANSPORTES DEL HUILA";;;"(57) (1) 4100760";"Terminal de Transportes Mód Amarillo Colombia, Bogotá"
"GLOBAL EXPRESTUR S.A.";;;"(57) (1) 5343434";"Cr49 C 91-16 Colombia, Bogotá"
"EXPRESER S.A.S.";;;"Nal: (57) (1) 8415037";"Autop Medellín Km 3.5 Of C-25 Colombia, Bogotá"
"LATINA S.A.";;;"(57) (2) 7212128";"Cl 17 12-95 Fátima Colombia, Pasto"
"AUTO VANSCOSTA ATLANTICA";;;"(57) 3008043556";"Cr38 B 69 D-07 Colombia, Barranquilla"
"GRUPO EMPRESARIAL METROCARIBE S.A.";;;"(57) (5) 3583088";"Cr57 No. 72-25 Of 205 Colombia, Barranquilla"
"SOCIEDAD INTERNACIONAL DE TRANSPORTE MASIVO S.A.";;;"(57) (1) 6795900";"Cl 183 51-65 Colombia, Bogotá"
"TRANSPORTES J B E.U.";;;"(57) (1) 2617831";"Dg9 B 48 B-15 Colombia, Bogotá"
"BUSETAS EXPRESS S.A.";;;"(57) (4) 2529379";"Cr86 43-22 Colombia, Medellín"
"EMPRESA DE TRANSPORTE ARCHIPIELAGO LTDA.";;;"(57) (8) 5120777";"Tr5 9-76 School House Colombia, San Andrés"
"EXPRESO & ESCOLARES S.A.";;;"(57) (1) 6309051";"Cr69 L 65-70 Colombia, Bogotá"
"COOPERATIVA INTEGRAL DE TRANSPORTADORES URABA";;;"(57) (4) 8284243";"Cl 98 104- 80 Terminal de transportes Colombia, Apartadó"
"TURISSABANA LTDA.";;;"(57) (1) 8246559";"Autop Medellín Puente Piedra Colombia, Bogotá"
COOTRANSDELRÍO;;;"(57) (4) 2354080";"Cr 79 A 32 A-105 Colombia, Medellín"
"EXPRESO BELMIRA S.A.";;;"(57) (4) 8687057";"cL 45aa 51-39 Colombia, San Pedro de los Milagros"
COTRANSPORTE;;;"(57) (4) 2604601";"Cr81 B 49 F 04 Colombia, Medellín"
"TRANSMETRO S.A.";;;"(57) (5) 3792000";"Cr46 45-39 P-3 Ed. Banco de La República Colombia, Barranquilla"
COOTRAYAL;;;"(57) (4) 2308697";"Cr64 C 78 -344 Taquilla 33 Colombia, Medellín"
"FULLVANS Y SERVICIOS S.A.S.";;;"(57) (1) 8033947";"Dg84 81 A-28 Colombia, Bogotá"
"EMPRESA DE TRANSPORTES DE SUR -EMTRASUR";;;"(57) (76) 5652507";"Cl 6 10-24 Colombia, Aguachica"
"EXPRESO SURAMERICANO DE TRANSPORTES";;;"(57) (1) 7214933";"Diagonal 6 Bis # 6-49 Colombia, Bogotá"
COOTRANSGAVAN;;;"(57) (8) 5841669";"Cl 9 19 A-02 Brr. Porvenir Colombia, San José del Guaviare"
"AGENCIA COCHE EXPRESS";;;"(57) (5) 3592579";"Cr43 84-80 Colombia, Barranquilla"
"TRANSORIENTE S.A.";;;"(57) (4) 2309257";"Cr64 C 78-580 Of 106-S Colombia, Medellín"
"CANGURO LOGISTIC & BUSSINES S.A.S.";;;"Telefax: (57) (7) 5729788";"Av4 10-42 Of 502 C.C. Plaza Colombia, Cúcuta"
"TRANSPORTE BARBOSA PORCESITO S.A.";;;"(57) (4) 4360996";"Cr64 C 78-580 L-132 Colombia, Medellín"
"TRANSVEGO S.A.S.";;;"(57) (2) 3269418";"Cl 10 39-19 O-F 301 Colombia, Cali"
"SURANDINA DE TRASPORTE S.A";;;"(57) (4) 3611408";"Cr65 8 B-91 Taquilla 3 Colombia, Medellín"
"BUENDÍA MURCIA ANGELO";;;"(57) (2) 3260746";"Cr28 19-25 Colombia, Cali"
"METRO DE MEDELLIN LTDA.";;;"Telefax: (57) (4) 4548888";"Cl 37 79-05 Colombia, Medellín"
"EXPRESO TREJOS LTDA.";;;"(57) (2) 6688324";"Cl 56 4 N-18 Colombia, Cali"
"First Name";"Email Address";Url;Telephone;Address
"COOTRADELSA LTDA.";;;"(57) (7) 6703051";"Cr17 21-26 Colombia, Bucaramanga"
"UNITRANSCO S.A.";;;"(57) (5) 3230030";"Terminal de Trasnportes Mód C y B L-30 y 31. Colombia, Barranquilla"
"COOTRANSCOL LTDA.";;;"(57) (4) 2510441";"Cr51 50-39 Of 513 Colombia, Medellín"
"TRANSPORTES ISGO S.A.";;;"(57) (1) 6711699";"Cl 161 7 B-55 Colombia, Bogotá"
"OBREGON VALVERDE ENRIQUE";;;"(57) (5) 3781277";"Cl 93 46-152 Colombia, Barranquilla"
"TRANSPORTE AUTOLLANOS S.A.";;;"(57) (8) 6560582";"Cr20 14-21 Centro Colombia, Acacías"
"TRANSPORTES FEDA LTDA.";;;"(57) (1) 5237087";"Cr48 147 A-13 Colombia, Bogotá"
"ANITUR LTDA.";;;"(57) (1) 4810207";"Cr57 B 68-11 Of 302 Colombia, Bogotá"
COOMUTRARI;;;"(57) (5) 7276092";"Cl 15 12-79 Colombia, Riohacha"
"COMPAÑIA METROPOLITANA DE TRANSPORTE S.A";;;"(57) (1) 4150888";"Cl 17 120-10 Colombia, Bogotá"
"COOPTMOTILÓN LTDA.";;;"(57) (7) 5711761";"Dg Santander 5-109 Latino Colombia, Cúcuta"
"CENTRAL DE TRANSPORTES ESTACIÓN CÚCUTA";;;"(57) (7) 5724095";"Av8 1-25 Colombia, Cúcuta"
"SOCIEDAD TRANSPORTADORA LIBERTAD LTDA.";;;"(57) (2) 8304388";"Cl 5 50-201 Colombia, Popayán"
"AUTOBUSES VIACOLTRANS LTDA.";;;"(57) (1) 4381105";"Cr80 A 76-26 Colombia, Bogotá"
"COOPERATIVA ESPECIALIZADA DE TRANSPORTE Y SERVICIOS LA ERMITA LTDA.";;;"(57) (2) 6680043";"Cl 31 N 2 B N-104 Colombia, Cali"
"TRANSPORTES GINEBRA S.A.";;;"(57) 3146853263";"Terminal de Transportes Buga T-41 Colombia, Buga"
"MAVITURS S.A.";;;"(57) (1) 2952312";"Cl 25 B 80 C-12 Colombia, Bogotá"
"AUTO EXPRESS E.U.";;;"(57) (5) 3574532";"Cr47 87-38 L-1 Colombia, Barranquilla"
"TRANSPORTE FRANCO LTDA.";;;"(57) (1) 4904242";"Cl 81 90-67 Colombia, Bogotá"
"CITY TOUR S.A.";;;"(57) (1) 4008080";"Cl 81 90-67 Colombia, Bogotá"
"TRANSPORTES PERALONSO LTDA.";;;"(57) (7) 5723706";"Casilla 5 Terminal del Transportes Colombia, Cúcuta"
"TRANSPAG LTDA";;;"(57) (1) 5228162";"Cl 101 14-55 Colombia, Bogotá"
"COLOMBIA SIN FRONTERAS";;;"(57) (1) 7134287";"Cr66 56-40 S Colombia, Bogotá"
"TRANSPAL LTDA.";;;"Telefax: (57) (1) 2531195";"Cl 127 D 71-54 Colombia, Bogotá"
"TRANSPORTES SANDONÁ S.A.";;;"(57) (2) 7300997";"Terminal de Transportes Of 212 Colombia, Pasto"
"COOPTRANS ORIENTE";;;"(57) (7) 5729363";". Colombia, Cúcuta"
"TRANSPORTES PRIMAVERA S.A.";;;"(57) (4) 2787152";"Km 3 Vía Al Sur Primavera Carrt Caldas Colombia, Medellín"
"SOTRAM S.A.";;;"(57) (1) 8255000";"Cl 7 21-23 Colombia, Bogotá"
COOTRAUNITAX;;;"(57) (5) 3575757";"Cr52 No. 94-216 Colombia, Barranquilla"
"TRANSPORTES EL PALMAR S.A.";;;"(57) (1) 3706670";"Cl 11 40-35 Colombia, Bogotá"
"TRANSPORTE LUISMA LTDA.";;;"(57) 3162928776";"Manz 5 Casa 16 Colombia, Santa Marta"
"SISTEMA ALIMENTADOR ORIENTAL S.A.S.";;;"Conm.: (57) (4) 2334033";"Cl 84 49-16 Colombia, Medellín"
COOTRANS;;;"(57) (4) 2819750";". Colombia, Medellín"
"EXPRESO CAFETERO S.A.";;;"(57) (6) 7474444";"Cl 35 20-68 Terminal de Transporte Colombia, Armenia"
"RESTAURANTE YORMILA";;;"(57) (5) 3700595";"Cl 54 46-17 Colombia, Barranquilla"
"RÁPIDO MEDELLÍN RIONEGRO S.A.";;;"(57) (4) 5610380";"Cr50 45-48 Rionegro Colombia, Medellín"
COOTRACARMEN;;;"(57) (4) 5430744";"Cr33 30-41 El Carmen de Viboral Colombia, Medellín"
"AEROBUS AUTIEXCOL";;;"(57) (1) 4070110";"Cl 24 B 74-35 Colombia, Bogotá"
"NEW EXPRESS";;;"(57) (1) 2232357";"Cl 64 H 86-21 Colombia, Bogotá"
"TRANS UNISA S.A.";;;"(57) (1) 4162328";"Cl 55 71-54 Colombia, Bogotá"
"First Name";"Email Address";Url;Telephone;Address
"COOTRALPA LTDA.";;;"(57) (2) 7271445";"Cl Mercedes 30 B Piso 2 Colombia, Tumaco"
"TRANS SERVILUJO S.A.";;;"(57) (6) 3287112";"Cr16 77-63 La Romelia Dosq Colombia, Pereira"
"RAPTOR EXPRESS LTDA.";;;"Conm.: (57) (1) 6772727";"Cr51 176-84 Colombia, Bogotá"
"EMPRESA DE TRANSPORTE MASIVO ETM S.A.";;;"(57) (2) 6679841";"Cl 28 N 6 N-53 Colombia, Cali"
"TRANSUCOL LTDA.";;;"(57) (2) 2755066";"Cr29 31-25 Of 105 Colombia, Palmira"
"TRANSPORTES NORESPECIALES LTDA.";;;"(57) (7) 5747207";"Av3 2-32 Br. Lleras Colombia, Cúcuta"
"VIAJES Y TURISMO CARIBBEAN TOUR LTDA";;;"(57) (5) 4354422";"Cr3 9-30 L-2 Edif la Gaviota El Rodadero Colombia, Santa Marta"
"SASO LTDA.";;;"(57) (1) 2879188";"Cr21 A 40-07 Colombia, Bogotá"
"SOCOBUSES S.A";;;"Nal: (57) (6) 8847790";"Cl 20 12-34 Colombia, Manizales"
"TRANSPORTE ARIMENA S.A.";;;"(57) (8) 6871252";"Cl 12 20-14 Centro Colombia, Cumaral"
"TRANSPORTES BASTIDAS S.C.A.";;;"(57) (5) 4308888";"Av del Ferrocarril 39 A-112 Colombia, Santa Marta"
"MOVILIZATE TRANSPORTE ESPECIAL S.A.S.";;;"Telefax: (57) (1) 6166970";"Cr22 82 A - 19 Ap 202 Colombia, Bogotá"
"ORTIZCOL LTDA.";;;"Telefax: (57) (1) 4042122";"Cr102 22 G - 24 Colombia, Bogotá"
"UNITRANSCO S.A.";;;"(57) (5) 3230030";"Terminal de Trasnportes Mód C y B L-30 y 31. Colombia, Barranquilla"
"VIAJES Y TURISMO MORIKAHUA LTDA.";;;"(57) (5) 3262688";"Cl 19 No. 6-34 Colombia, Barranquilla"
"AGENCIAS DE VIEJES Y TRANSPORTE TAIRONA EXPRESS";;;"(57) (1) 6609460";"cl70#28-20 Colombia, Bogotá"
BERLINAS;;;"(57) (7) 5726379";"Central de Transportes Of 2 Colombia, Cúcuta"
"AGENCIA DE VIAJES Y OPERADOR TURÍSTICO COSTA BR";;;"(57) (5) 7283798";"Cr 11A 14B-48 Colombia, Riohacha"
COOTRANSVI;;;"(57) (4) 5122118";"Cr16 56-30 Colombia, Medellín"
"BUSES ESPECIALES CAVITRANS LTDA";;;"(57) (4) 4442419";"Cl 36 A S 46 A-81 Of 240 Colombia, Medellín"
"TRANSPORTES PAPAGALLO";;;"(57) (2) 6669451";"Tr3 0-116 La Dolores Colombia, Cali"
"SISTEMAS INTEGRADOS DE TRANSPORTE SI99SA";;;"(57) (1) 7709060";"Av Caracas (Cl) 63 S Vía Usme Colombia, Bogotá"
"TAMPA DC S.A.S";;;"(57) (1) 2871595";"Tr14 A N 2 A-42 Colombia, Bogotá"
"FÉNIX EXPREX LTDA.";;;"(57) (1) 2457800";"Cr20 46-59 Colombia, Bogotá"
"TRANSPORTE PUERTA A PUERTA LIMUSINAS";;;"(57) (5) 6692255";"Cl 29 D 22 A-18 Colombia, Cartagena"
"ALL TOUR S.A.";;;"(57) (1) 6270293";"Cr10 A 134 B-05 Int 1 Colombia, Bogotá"
"INVERSIONES INCAB SAS";;;"Telefax: (57) (1) 2493913";"Cl 63 D 28-71 Colombia, Bogotá"
"AUTOBUSES VIACOLTRANS LTDA.";;;"(57) (1) 4381105";"Cr80 A 76-26 Colombia, Bogotá"
CELUTAXI;;;"(57) (8) 6666666";"Cl 15 A 15 A-91 Colombia, Villavicencio"
"COOMOTOR FLORENCIA LTDA.";;;"(57) 3138898311";"Terminal de Transporte Colombia, El Doncello"
COOPAMER;;;"(57) (1) 3479266";"Cl 52 27 A-31 Colombia, Bogotá"
"TRANSPORTE Y .ALQUILER RODRIGO MUÑOZ E.U.";;;"(57) (1) 3350881";"Cr52 144A-35 Colombia, Bogotá"
"EXPRESO ALCALÁ S.A.";;;"(57) (6) 7474644";"Cl 35 20-68 Colombia, Armenia"
COOPRISAR;;;"Nal: (57) (6) 3215565";"Terminal de Transportes Pereira Colombia, Pereira"
"HOLLYWOOD TAXI Y COMPAÑIA LTDA";;;"(57) (4) 2348306";"Cl 49 BB 88-06 Ap 301 Colombia, Medellín"
"BERLINAS DEL FONCE S.A.";;;"(57) 3429992";"Cl 72 No. 22 E-105 Villa Estadio Soledad Colombia, Soledad"
"TRANSCABA LTDA.";;;"(57) (1) 6762825";"Cr45 A 197-75 Of 3136 Colombia, Bogotá"
"UCOLBÚS S.A.";;;"(57) (1) 7800088";"Cl 63 S 70 C-25 Colombia, Bogotá"
"INVERSIONES AGUILA S.A.";;;"(57) (1) 4231250";"Dg23 69-60 Of 201 Colombia, Bogotá"
"EXPRESO BOGOTÃNO S.A.";;;"(57) (1) 2709120";"Av Cr 68 43-67 Sur Colombia, Bogotá"
"First Name";"Email Address";Url;Telephone;Address
"PEOPLE AND TOUR LTDA.";;;"(57) (1) 7284242";"Cr52 A Cl 34 Sur Esquina P-2 Colombia, Bogotá"
"COOPERATIVA ESPECIALIZADA SUPERTAXIS DEL SUR LTDA.";;;"(57) (2) 8233797";"Tr9 4 N-115 Colombia, Popayán"
"TRANSPORTADORA LA QUINTA";;;"(57) (1) 2610139";"Av Americas 71 A-39 Colombia, Bogotá"
"COOPERATIVA TRANSPORTADORA DE TIMBÍO LTDA.";;;"(57) (2) 8214868";"Cr17 7-12 Brr La Esmeralda Colombia, Popayán"
COOPETIGRE;;;"Nal: (57) (4) 4366023";"Cl 48 D 67 A-33 Colombia, Medellín"
"RAMOS TOURS LTDA.";;;"(57) (1) 2399596";"Cl 19 A 26-18 S Colombia, Bogotá"
"TRANS ESPECIAL LTDA";;;"(57) (5) 3706410";"Cl 37 27-76 Colombia, Barranquilla"
"TERMINAL BOGOTÁ COOPROPIEDAD";;;"(57) (1) 7422828";"Dg23 69-11 Mod-02 L-201-202 Colombia, Bogotá"
"TRANSPORTES J.I. CARIBE S.A.S.";;;"(57) (5) 3701460";"Cl 51 29-57 Colombia, Barranquilla"
"COOPERATIVA DE TRANSPORTADORES DEL META COOTRANSMETA";;;"(57) (8) 6626359";"Cl 32 34-86 Colombia, Villavicencio"
"EMPRESA DE TRANSPORTE TERRESTRE AUTOMOTOR ESPECIAL";;;"(57) (5) 4103255";"Cl 16 13-04 Colombia, Ciénaga"
"TRANSTURCOL LTDA";;;"(57) (1) 6731393";"Cl 165 54C-35 Int 22 Colombia, Bogotá"
"SOTRANSLATINOS LTDA.";;;"(57) (1) 7213336";"Cr4 18-45 Soacha Colombia, Soacha"
"AUTO SERVICIO CHÍA LTDA.";;;"(57) (1) 8631152";"Cr7 13-03 Colombia, Bogotá"
"TRANSPALESTINA S.A.S.";;;"(57) (6) 8750808";"Cl 64 12 A-06 Colombia, Manizales"
"TRANSPORTADORA LOS YUMBENIOS";;;"Conm.: (57) (2) 6699999";"Cl 70 N 2 A-620 Colombia, Cali"
"TRANSPORTES EXPRESO PALMIRA S.A.";;;"Telefax: (57) (2) 6644689";"Cr34 10-229 Acopi Yumbo.. Colombia, Cali"
"TRANS ARGELIA -TRANS MARISCAL ROBLEDO";;;"(57) (2) 2124444";"Cl 16 C 8-45 Colombia, Cartago"
"EMPRESA PRIMAVERA LTDA.";;;"(57) (2) 2246873";"Cl 26 Cr21 L-Del Parqueadero Colombia, Tuluá"
COESTUR;;;"(57) (8) 2710614";"Cl 68 5-25 L 20 Colombia, Ibagué"
"COOTRANSFUENTE DE ORO";;;"(57) (8) 6524072";"Cr15 14-49 Centro Colombia, Puerto Lleras"
"TERMINAL DE TRASNPORTES DE VILLAVICENCIO";;;"(57) (8) 6606535";"Cr1 15-05 Anillo Vial Colombia, Villavicencio"
"TRANSPORTES CAMBIA LTDA.";;;"(57) (6) 8786150";"Terminal de Trasportes Los Cámbulos Colombia, Manizales"
"ARIAS MUÑOZ Y CÍA. LTDA.";;;"(57) (2) 5242616";"Cl 36 42-03 P-2 Colombia, Cali"
"COOTRANSDORADO SERVICIO ESPECIAL";;;"(57) (1) 2872666";"Cr23 26-69 Colombia, Bogotá"
"TRANSPORTES UNIDOS BUGA S.A.";;;"(57) (2) 2280073";"Terminal de Transportes L-11 Colombia, Buga"
"RENGUIFO Y JAUREGUI S.A.S";;;"(57) (2) 3367936";"Cl 13 42 Bis 40 Colombia, Cali"
"RAPTOR EXPRESS LTDA.";;;"Conm.: (57) (1) 6772727";"Cr51 176-84 Colombia, Bogotá"
"TRANSCÓNDOR INTERANDINA S.C.A.";;;"(57) (2) 6667284";"Autop Cali Yumbo Cencar B-A-2 Of 212 Yumbo Colombia, Cali"
"TRANSPORTES ESPECIALES REPÚBLICA";;;"(57) (2) 6816546";"Av2 N 20 N-55 Colombia, Cali"
"TRANSPORTES VILLA DEL ROSARIO S.A.";;;"(57) (5) 3409583";"Cl 34 35-41 Colombia, Barranquilla"
"EXPRESO LAS LAJAS S.A.";;;"(57) (2) 7733953";"Cr6 3-118 Colombia, Ipiales"
"TERMINAL DE TRANSPORTES DE MANIZALES";;;"(57) (6) 8787858";"Cr43 65-100 Colombia, Manizales"
"ETIB S.A.S.";;;"(57) (1) 4271973";"Cr68 D 25 B-86 Of 807 Colombia, Bogotá"
SERVILUMASA;;;"(57) (1) 7794294";"Cl 68 A S 80 K-65 B-1 Int 15 Ap 402 Colombia, Bogotá"
"SOCOBUSES S.A";;;"Nal: (57) (6) 8847790";"Cl 20 12-34 Colombia, Manizales"
"COOPERATIVA RADIO TAXI";;;"(57) (1) 2888888";"Cl 48 17-26 Colombia, Bogotá"
"GRAN TRANSPORTADORA RIO TAX S.A.";;;"(57) (68) 8572827";"Cr12 11 A-75 Colombia, La Dorada"
"ANDESA - 7/24";;;"(57) (5) 4380068";"Km 13 Vía Aeropuerto Pozos Colorados Hotel Sanha Plus L-132 Colombia, Santa Marta"
"SEGURISTOUR S.A.S.";;;"Telefax: (57) (1) 4084362";"Cr14 83-26 L 9 Colombia, Bogotá"
"First Name";"Email Address";Url;Telephone;Address
"TRANSPORTES Y TURISMO BERLINAS DEL FONCE S.A. BERLINASTUR";;;"(57) (7) 5875105";"Av7 0-05 Vía Aeropuerto Colombia, Cúcuta"
"RADIO TAX ARAUCA LTDA";;;"(57) (1) 3602163";"Av (Cr) 36 4 B-84 Colombia, Bogotá"
"PEGASO TOURS LTDA.";;;"(57) (1) 2273718";"Cr103 75 B-39 Colombia, Bogotá"
"TRANSBORDAR A LA MEDIDA LTDA.";;;"(57) (4) 7824000";"Cr8 40-27 Colombia, Montería"
"RENGUIFO Y JAUREGUI S.A.S";;;"(57) (2) 3367936";"Cl 13 42 Bis 40 Colombia, Cali"
"COLOMBIA SIN FRONTERAS";;;"(57) (1) 7134287";"Cr66 56-40 S Colombia, Bogotá"
"TRANS GUERRERO";;;"(57) (7) 5761383";"Centro Residenh 6 C.C. Bolívar Colombia, Cúcuta"
"ANDESA - 7/24";;;"(57) (5) 4380068";"Km 13 Vía Aeropuerto Pozos Colorados Hotel Sanha Plus L-132 Colombia, Santa Marta"
"PLATINO VIP LTDA.";;;"Telefax: (57) (1) 2570822";"Cl 98 A 51-37 Of 206 Colombia, Bogotá"
"TRANSPAL LTDA.";;;"Telefax: (57) (1) 2531195";"Cl 127 D 71-54 Colombia, Bogotá"
"NARIÑENSES DE TRANSPORTISTAS LTDA.";;;"(57) (2) 7210197";"Cl 9 A 16-78 Colombia, Pasto"
"COOPETRANS TRUJILLO";;;"(57) (2) 6600275";"Cl 30 N 2 A-29 P-2 Colombia, Cali"
"TAXIS LTDA.";;;"(57) (4) 2354661";"Cl 30 A 69-108 Colombia, Medellín"
"COOTRANSHUILA LTDA.";;;"(57) (2) 6600123";"Cl 30 N 2 A-29 Of 218 Colombia, Cali"
"COOPERATIVA DE TRANSPORTE DE ENVIGADO LTDA.";;;"Domic.: (57) (4) 3025098";"Envigado Colombia, Medellín"
