"First Name";"Email Address";Url;Telephone;Address
"First Name";"Email Address";Url;Telephone;Address
"PAN EXTRA";servicioalcliente@panextra.com.co;www.panextra.com.co;"(57) (6) 8832100";"Cr23 27-14 Colombia, Manizales"
PASTELITOS;mercadeopastelitos@une.net.co;www.pastelitos.com.co;"(57) (4) 4483001";"Cr57 51-92 Colombia, Medellín"
"PRODUCTOS RÁPIDO LTDA.";productosrapidoltda@yahoo.com;www.productosrapido.com.co;"(57) (1) 2266222";"Cr56 C 128 B-57 Colombia, Bogotá"
"LA VIÑA";circunvalar@pastelerialavina.com;www.pastelerialavina.com;"(57) (6) 3012150751";"Av Circunvalar 10-85 Colombia, Pereira"
"PAN EXTRA";servicioalcliente@panextra.com.co;www.panextra.com.co;"(57) (6) 8832100";"Cr23 27-14 Colombia, Manizales"
"POSTRES PATRICIA BERÓN";postrespatriciaberon@gmail.com;www.postrespatriciaberon.com;"(57) (5) 6659414";"Bgde Cl 6 4-48 Colombia, Cartagena"
"TORTAS Y TORTAS S.A.";tortasytortas@tortasytortas.com;www.tortasytortas.com.co;"(57) (4) 3616061";"Cr52 10 B Sur-74 Colombia, Medellín"
PASTELITOS;mercadeopastelitos@une.net.co;www.pastelitos.com.co;"(57) (4) 4483001";"Cr57 51-92 Colombia, Medellín"
"REPOSTERÍA EL PORTAL";elportalmercadeo@une.net.co;www.reposteriaelportal.com;"(57) (4) 4440030";"Cl 49   S 43 A-90 Colombia, Medellín"
"EMPANADAS KROKANTES";info@krokantes.com.co;www.krokantes.com.co;"(57) (4) 4447696";"Cl 6 50-31 Sector Guayabal Colombia, Medellín"
"PRODUCTOS RÁPIDO LTDA.";productosrapidoltda@yahoo.com;www.productosrapido.com.co;"(57) (1) 2266222";"Cr56 C 128 B-57 Colombia, Bogotá"
"HELADOS BUGUI S.A.S.";ventas@heladosbugui.com;www.heladosbugui.com;"(57) (4) 2568417";"Cr73 29-20 Colombia, Medellín"
"BOCADITOS TÍPICOS COLOMBIANOS";jaimeblanco@bocaditosbq.com;www.bocaditosbq.com;"(57) (5) 3703025";"Cl 54 41-27 Colombia, Barranquilla"
"LA VIÑA";circunvalar@pastelerialavina.com;www.pastelerialavina.com;"(57) (6) 3012150751";"Av Circunvalar 10-85 Colombia, Pereira"
"PANADERÍA EL JARDÍN LTDA.";panaderiaeljardin@une.net.co;;"(57) (4) 2778393";"Cl 72 44-58 Itagüí Colombia, Medellín"
"INDUSTRIAS DE ALIMENTOS CONI";gerencia@coni.com.co;www.industriasdealimentosconi.com;"(57) (5) 3795241";"Cl 43 27-82 Colombia, Barranquilla"
"EMPRESA INDUSTRIAL GAS-PRONAL S.A.S";compras@gaspronal.com;www.gaspronal.com;"(57) (4) 2324030";"Cr45 40-51 El Palo Con los Huesos Colombia, Medellín"
"POSTRES PATRICIA BERÓN";postrespatriciaberon@gmail.com;www.postrespatriciaberon.com;"(57) (5) 6659414";"Bgde Cl 6 4-48 Colombia, Cartagena"
"REPOSTERÍA ASTOR";astor@elastor.com.co;www.elastor.com.co;"(57) (4) 2322306";"Cr43 A 25 A-116 Colombia, Medellín"
"REPOSTERÍA ASTOR S.A.S.";astor@elastor.com.co;www.elastor.com.co;"(57) (4) 2322306";"Cr43 A 25 A-116 Colombia, Medellín"
"TORTAS Y TORTAS S.A.";tortasytortas@tortasytortas.com;www.tortasytortas.com.co;"(57) (4) 3616061";"Cr52 10 B Sur-74 Colombia, Medellín"
"PRODUCTOS ALIMENTICIOS COBURGOS";info@coburgos.com;www.coburgos.com;"(57) (1) 7198533";"Zona Industrial El Muña Km 1 Vía Silvana-Sibate Cundinamarca Colombia, Bogotá"
"EL BODEGÓN DEL CHEFF";ventas@bodegondelcheff.com;www.bodegondelcheff.com;"(57) (1) 2189875";"Cr19 A 79-50 Colombia, Bogotá"
"REPOSTERÍA EL PORTAL";elportalmercadeo@une.net.co;www.reposteriaelportal.com;"(57) (4) 4440030";"Cl 49   S 43 A-90 Colombia, Medellín"
ADOOMICILIO.COM;servicioalcliente@adoomicilio.com;www.adoomicilio.com;"(57) (1) 4672893";"Cl 29 6-94 Colombia, Bogotá"
"PONKÉS Y MÁS";gerencia@ponkes.com.co;www.ponkes.com.co;"(57) (6) 3172020";"Cr12 40-38 Colombia, Pereira"
"EMPANADAS KROKANTES";info@krokantes.com.co;www.krokantes.com.co;"(57) (4) 4447696";"Cl 6 50-31 Sector Guayabal Colombia, Medellín"
"REPOSTERÍA TATIANA PALACIO";tatianapalacioreposteria@gmail.com;www.reposteriatatianapalacio.com;"(57) (5) 3854615";"Cr49 C 79-34 L-207 Colombia, Barranquilla"
"FESTY TORTAS";info@festytortas.com;www.festytortas.com;"(57) (4) 4486220";"Cl 6   S 50 FF-13 Colombia, Medellín"
"INVERSIONES CONDORITO S.A.S";mendoza@districondorito.com;www.districondorito.com;"(57) (5) 6625081";"El Prado Tr25-21 -54 L-8-9 Colombia, Cartagena"
"HELADOS BUGUI S.A.S.";ventas@heladosbugui.com;www.heladosbugui.com;"(57) (4) 2568417";"Cr73 29-20 Colombia, Medellín"
"MAEL CHOCOLATES Y SOUVENIRS";info@maelchocolates.com;www.maelchocolates.com;"(57) (1) 7110882";"Cl 51 A   S 38-87 P-1 Colombia, Bogotá"
"POSTRES VICKY";postresvicky@hotmail.com;www.postresvicky.com;"(57) (1) 6125857";"Av9 126 A-40 Colombia, Bogotá"
"EVENTOS GEORGINA";georginadeparada@yahoo.com;www.eventosgeorgina.com;"(57) (7) 6358027";"Cr37 36-32 Colombia, Bucaramanga"
"BOCADITOS TÍPICOS COLOMBIANOS";jaimeblanco@bocaditosbq.com;www.bocaditosbq.com;"(57) (5) 3703025";"Cl 54 41-27 Colombia, Barranquilla"
"ARTEDESC LTDA.";servicioalcliente@artedesc.com;www.artedesc.com;"(57) (2) 6827406";"Av8   N 49 Norte-70 Colombia, Cali"
GOLOSINAS;alvarosalom@gmail.com;www.grupogolosinas.com;"(57) (5) 2821866";"Cr20 18-43 La Ford Colombia, Sincelejo"
"TÍA MIMA";pedidos@tiamima.com;www.reposteriamedellin.com;"(57) (4) 4444363";"Cr50 C 10   S-08 Colombia, Medellín"
"PANADERÍA EL JARDÍN LTDA.";panaderiaeljardin@une.net.co;;"(57) (4) 2778393";"Cl 72 44-58 Itagüí Colombia, Medellín"
"MISTER PAN PIZZA GOURMET";juankrueda@hotmail.com;www.misterpanbarranquilla.com;"(57) (5) 3603600";"Cr43 72-208 Colombia, Barranquilla"
"PASTEL DE ORO";marthadenarro@yahoo.com;www.pasteldeoro.co;"(57) (5) 3491836";"Cl 56 46-44 Colombia, Barranquilla"
"PANIFICADORA EL PARAISO";paraisoe@une.net.co;www.panificadoraelparaiso.com;"(57) (4) 3810404";"Cr48 34-24 Colombia, Medellín"
"INDUSTRIAS DE ALIMENTOS CONI";gerencia@coni.com.co;www.industriasdealimentosconi.com;"(57) (5) 3795241";"Cl 43 27-82 Colombia, Barranquilla"
"CENTRO COMERCIAL ORQUÍDEA PLAZA";orquideaplaza@une.net.co;;"(57) (4) 5111435";"Cr49 52-81 Colombia, Medellín"
"PANADERÍA JUANCHOPAN";info@bocadilloselcaribe.com;www.bocadilloselcaribe.com;"(57) (4) 2850104";"Cr52 7   S-73 Avenida Guayabal Colombia, Medellín"
"PASTELERIA SANTA ELENA";mmejia@santaelena.com;www.santaelena.com.co;"(57) (4) 3256600";"Cr43 A 8-36 Colombia, Medellín"
"EMPRESA INDUSTRIAL GAS-PRONAL S.A.S";compras@gaspronal.com;www.gaspronal.com;"(57) (4) 2324030";"Cr45 40-51 El Palo Con los Huesos Colombia, Medellín"
"COLORISA S.A.";colorisa@colorisa.com.co;www.colorisa.com.co;"(57) (4) 4484777";"Cl 84 Sur No. 37-15 Bdg: 10-11-y 12 Parque Industrial Intergro Colombia, Medellín"
"LA VIÑA";lavina@une.net.co;www.reposterialavina.com;"(57) (4) 5116361";"Cr49 46-91 Colombia, Medellín"
MIKAELA;mikaela@mikaela.com.co;www.mikaela.com.co;"(57) (4) 4480402";"Cl 10 Sur 50 FF-120 Colombia, Medellín"
"REPOSTERÍA ASTOR";astor@elastor.com.co;www.elastor.com.co;"(57) (4) 2322306";"Cr43 A 25 A-116 Colombia, Medellín"
"TODO FRESA";info@todofresa.com.co;www.todofresa.com.co;"(57) (4) 4444662";"Cl 60 S 43 A-118 Colombia, Sabaneta"
"PERMAN S.A.";perman@une.net.co;www.panperman.com;"(57) (4) 3612909";"Cl 10   S 50 FF-70 Colombia, Medellín"
"CONGELADOS HECHIZO S.A.S.";congeladoshechizo@gmail.com;www.krokantes.com.co;"(57) 3008802089";"Atiende Desde Su Sede Principal, Cuenta Con Oficinas En: Bogotá Colombia, Bogotá"
"REPOSTERÍA ASTOR S.A.S.";astor@elastor.com.co;www.elastor.com.co;"(57) (4) 2322306";"Cr43 A 25 A-116 Colombia, Medellín"
"PRODUCTOS ALIMENTICIOS COBURGOS";info@coburgos.com;www.coburgos.com;"(57) (1) 7198533";"Zona Industrial El Muña Km 1 Vía Silvana-Sibate Cundinamarca Colombia, Bogotá"
"EL BODEGÓN DEL CHEFF";ventas@bodegondelcheff.com;www.bodegondelcheff.com;"(57) (1) 2189875";"Cr19 A 79-50 Colombia, Bogotá"
ADOOMICILIO.COM;servicioalcliente@adoomicilio.com;www.adoomicilio.com;"(57) (1) 4672893";"Cl 29 6-94 Colombia, Bogotá"
"PONKÉS Y MÁS";gerencia@ponkes.com.co;www.ponkes.com.co;"(57) (6) 3172020";"Cr12 40-38 Colombia, Pereira"
"REPOSTERÍA TATIANA PALACIO";tatianapalacioreposteria@gmail.com;www.reposteriatatianapalacio.com;"(57) (5) 3854615";"Cr49 C 79-34 L-207 Colombia, Barranquilla"
"FESTY TORTAS";info@festytortas.com;www.festytortas.com;"(57) (4) 4486220";"Cl 6   S 50 FF-13 Colombia, Medellín"
"INVERSIONES CONDORITO S.A.S";mendoza@districondorito.com;www.districondorito.com;"(57) (5) 6625081";"El Prado Tr25-21 -54 L-8-9 Colombia, Cartagena"
"MAEL CHOCOLATES Y SOUVENIRS";info@maelchocolates.com;www.maelchocolates.com;"(57) (1) 7110882";"Cl 51 A   S 38-87 P-1 Colombia, Bogotá"
"POSTRES VICKY";postresvicky@hotmail.com;www.postresvicky.com;"(57) (1) 6125857";"Av9 126 A-40 Colombia, Bogotá"
"EVENTOS GEORGINA";georginadeparada@yahoo.com;www.eventosgeorgina.com;"(57) (7) 6358027";"Cr37 36-32 Colombia, Bucaramanga"
"ARTEDESC LTDA.";servicioalcliente@artedesc.com;www.artedesc.com;"(57) (2) 6827406";"Av8   N 49 Norte-70 Colombia, Cali"
"PANIFICADORA EL PARAISO";paraisoe@une.net.co;www.panificadoraelparaiso.com;"(57) (4) 3810404";"Cr48 34-24 Colombia, Medellín"
"TÍA MIMA";pedidos@tiamima.com;www.reposteriamedellin.com;"(57) (4) 4444363";"Cr50 C 10   S-08 Colombia, Medellín"
GOLOSINAS;alvarosalom@gmail.com;www.grupogolosinas.com;"(57) (5) 2821866";"Cr20 18-43 La Ford Colombia, Sincelejo"
"PASTEL DE ORO";marthadenarro@yahoo.com;www.pasteldeoro.co;"(57) (5) 3491836";"Cl 56 46-44 Colombia, Barranquilla"
"MISTER PAN PIZZA GOURMET";juankrueda@hotmail.com;www.misterpanbarranquilla.com;"(57) (5) 3603600";"Cr43 72-208 Colombia, Barranquilla"
"LA VIÑA";lavina@une.net.co;www.reposterialavina.com;"(57) (4) 5116361";"Cr49 46-91 Colombia, Medellín"
"PASTELERIA SANTA ELENA";mmejia@santaelena.com;www.santaelena.com.co;"(57) (4) 3256600";"Cr43 A 8-36 Colombia, Medellín"
"CENTRO COMERCIAL ORQUÍDEA PLAZA";orquideaplaza@une.net.co;;"(57) (4) 5111435";"Cr49 52-81 Colombia, Medellín"
MIKAELA;mikaela@mikaela.com.co;www.mikaela.com.co;"(57) (4) 4480402";"Cl 10 Sur 50 FF-120 Colombia, Medellín"
"DISMAPAN S.A.S.";dismapan@une.net.co;www.dismapan.com;"Telefax: (57) (4) 4440521";"Cr39 50-44 Colombia, Medellín"
"PONQUÉ RAMO DE ANTIOQUIA S.A.";ramoantioquia@ramo.com.co;www.ramo.com.co;"(57) (4) 3789000";"Cr50 146   S-84 Vda la Pimavera Caldas Colombia, Medellín"
"PERMAN S.A.";perman@une.net.co;www.panperman.com;"(57) (4) 3612909";"Cl 10   S 50 FF-70 Colombia, Medellín"
"COLORISA S.A.";colorisa@colorisa.com.co;www.colorisa.com.co;"(57) (4) 4484777";"Cl 84 Sur No. 37-15 Bdg: 10-11-y 12 Parque Industrial Intergro Colombia, Medellín"
"PANADERÍA JUANCHOPAN";info@bocadilloselcaribe.com;www.bocadilloselcaribe.com;"(57) (4) 2850104";"Cr52 7   S-73 Avenida Guayabal Colombia, Medellín"
"First Name";"Email Address";Url;Telephone;Address
MIKAELA;mikaela@mikaela.com.co;www.mikaela.com.co;"(57) (4) 4480402";"Cl 10 Sur 50 FF-120 Colombia, Medellín"
"PANADERÍA JUANCHOPAN";info@bocadilloselcaribe.com;www.bocadilloselcaribe.com;"(57) (4) 2850104";"Cr52 7   S-73 Avenida Guayabal Colombia, Medellín"
"PERMAN S.A.";perman@une.net.co;www.panperman.com;"(57) (4) 3612909";"Cl 10   S 50 FF-70 Colombia, Medellín"
"NUVAL - NUTRICIÓN VITAL";nuval@nuval.com.co;www.nuval.com.co;"(57) (4) 2607416";"Cl 55 71 A-115 Colombia, Medellín"
"O-CAKE AMERICAN BAKERY & COFFEE";nuval@nuval.com.co;www.nuval.com.co;"(57) (4) 4447416";"C.C El Tesoro Santafé y Oviedo Colombia, Medellín"
"PONQUES ARTE";ponquearte@gmail.com;www.ponquearte.com;"(57) (1) 7486989";"Cr47 151 A-23 E-5 Ap 107 Colombia, Bogotá"
"CENTRO SOCIAL DE EVENTOS LAS TRINITARIAS";harrinsonyepes@hotmail.com;www.lastrinitarias.com;"(57) (5) 3780409";"Cl 81 42 B-70 Colombia, Barranquilla"
"LA ALACENA DEL CHEF";nanaportilla@hotmail.com;www.laalacenadelchef.com;"(57) (7) 5727310";"Cl 5 4-78 Colombia, Cúcuta"
"PROALBA LTDA.";gerencia@proalba.com.co;www.proalba.com.co;"(57) (2) 2257723";"Cl 50 41-84 Parque Industrial Bdg C-6 Colombia, Tuluá"
"TORTAS DEL GORDO";tortasdelgordoarmenia@hotmail.com;www.tortasdelgordo.com.co;"(57) (6) 3133864798";"Cr14 14-52 Colombia, Armenia"
"PUNTO CALIENTE S.A";puntocaliente@une.net.co;;"(57) (4) 4441202";"Cl 14 43 B-135 Colombia, Medellín"
"DELICIAS DE MACAME";deliciasdemacamen@gmail.com;;"(57) (4) 5788667";"Envigado Colombia, Medellín"
SWEETBS;;www.sweetbs.com.co;"(57) (5) 3020027";"Barranquilla Colombia, Barranquilla"
DECORFRUT-INSUMAPAN;.@;;"(57) (4) 2358731";"Cr56 27-12 Colombia, Medellín"
"DELICAKE PASTELERÍA DE DISEÑO";info@delicake.com.co;www.delicake.com.co;"(57) (5) 3016464";"Cr43 80-105 Colombia, Barranquilla"
"BIZCOCHUELOS MIGÚ";productosmigu@hotmail.com;www.productosmigu.com;"(57) (4) 3793172";"Cl 33 B   S 44-68 Envigado Colombia, Medellín"
"COMPAÑÍA MANUFACTURERA DE PAN COMAPÁN S.A.";distribuidoramedellin@comapan.com.co;www.comapan.com.co;"(57) (4) 2557311";"Cr52 7   S-79 Colombia, Medellín"
"LA ABUELA ISABEL S.A.S";laabuelaisabel@une.net.co;www.laabuelaisabel.com;"(57) (4) 4480477";"Cl 37   S 43 A-22 Envigado Colombia, Medellín"
"PAN DE ABRIL S.A.S.";panaderiapandeabril@panaderiapandeabril.com;www.panaderiapandeabril.com;"(57) (4) 4442400";"Cl 44 50-77 Colombia, Medellín"
"SAMS CUPCAKES";;;"(57) (5) 3006317723";"Av. del Libertador 21-117 Colombia, Santa Marta"
"AZUCAR MICROPULVERIZADA CAPERUCITA";arma1105@hotmail.com;;"(57) (1) 5630512";"Cl 35   S 51-23 Colombia, Bogotá"
"PANADERÍA Y BIZCOCHERÍA MARTHA";panaderia.martha@yahoo.es;;"(57) (8) 5125404";"Av Boyacá 5-26 Colombia, San Andrés"
"PRODUCTOS PULLPAN";pullpan@une.net.co;www.productospullpan.com;"(57) (4) 4449105";"Cr51 73-64 Colombia, Medellín"
"GLASSÉ PASTELERIA";mariaeubelu@hotmail.com;glassepasteleria.com;"(57) (5) 4233681";"Cr13 A 20-116 L-1 Edif George Alcázares Colombia, Santa Marta"
"AA ACCESORIOS Y PRENDAS DESECHABLES";aaaccesoriosyprendasdesechables@hotmail.com;www.aaaccesoriosyprendasdesechables.com;"Telefax: (57) (1) 2361748";"Cl 85 A 21-63 Colombia, Bogotá"
"DISTRIBUIDORA CENTRAL LA 13";juandtrujillo@live.com.ar;www.distribuidoracentralla13.com;"(57) (6) 3104691912";"Cl 13 15-17 Colombia, Armenia"
"SALSA SABROSISIMA";sabrosisima2010@gmail.com;www.sabrosisima.com.co;"(57) (5) 3740788";"Cl 17 23-51 Colombia, Barranquilla"
"LA GRANJA PAISA";info@lagranjapaisa.com;www.lagranjapaisa.com;"(57) (6) 3303200";"Cr9 8-44 La Popa Vía La Badea Dosq Colombia, Pereira"
FONCEPAN;foncepan@hotmail.com;www.panaderiafoncepan.com;"(57) (7) 6342380";"Cl 31 22 60/66 Colombia, Bucaramanga"
"CASA ROSA";rogonver@hotmail.com;www.casarosa.com.co;"(57) (5) 2811990";"Cr20 16 A-17 La Ford Colombia, Sincelejo"
"PASTILLAJES PATRY";pastillajespatry@hotmail.com;;"(57) (4) 7824135";"Cl 32 9-47 Centro Colombia, Montería"
"PANADERIA COMA PAN";panaderiacomapan@paginasamarillas.com;;"(57) (5) 3402351";"Cl 38 39-08 Colombia, Barranquilla"
DULZURAS;dulzuraspanaderiayreposteria@hotmail.com;;"(57) (5) 6650170";"Bgde Cr3 8-162 Colombia, Cartagena"
"VAINILLA Y CHOCOLATE";vaycho@gmail.com;www.vainillaychocolatetortas.com;"(57) (4) 7925443";"Cr7 34-32 Colombia, Montería"
"PASTELERÍA Y CAFÉ KINA & C.O.";laurarosagarces@gmail.com;www.cafekina.com;"(57) (2) 3243683";"Cl 3 B 65-63 Colombia, Cali"
"COMO PEZ EN EL AGUA";ventas@tallercomopezenelagua.com;www.tallercomopezenelagua.com;"(57) (4) 3542667";"Cr35 8 A-67 Colombia, Medellín"
"EL TALLER DEL PAN";eltallerdelpan@une.net.co;www.eltallerdelpan.com;"(57) (4) 3328939";"Cl 23   S 42 B-65 Envigado Colombia, Medellín"
"PANADERÍA Y PASTELERÍA LA MEJOR";panaderialamejor@hotmail.com;;"(57) (4) 7822867";"Cl 29 7-06 Centro Colombia, Montería"
"CHOCOLATERIA MORE: RECETAS CON AMOR";more.recetasconamor@gmail.com;www.chocolateriamore.com;"(57) (4) 3220495";"Cq 4 74-41 Colombia, Medellín"
"VERNA VEGA REPOSTERIA";vernavg@hotmail.com;;"(57) (4) 7914529";"Cr1 C 74-225 Colombia, Montería"
"First Name";"Email Address";Url;Telephone;Address
"PONQUÉ RAMO DE ANTIOQUIA S.A.";ramoantioquia@ramo.com.co;www.ramo.com.co;"(57) (4) 3789000";"Cr50 146   S-84 Vda la Pimavera Caldas Colombia, Medellín"
"HELADOS MIMO'S";cpnavarro@ventas.mimos.com.co;www.heladosmimos.com.co;"(57) (4) 3549999";"Cr43 A 25 A-27 Colombia, Medellín"
"COLORISA S.A.";colorisa@colorisa.com.co;www.colorisa.com.co;"(57) (4) 4484777";"Cl 84 Sur No. 37-15 Bdg: 10-11-y 12 Parque Industrial Intergro Colombia, Medellín"
"O-CAKE AMERICAN BAKERY & COFFEE";nuval@nuval.com.co;www.nuval.com.co;"(57) (4) 4447416";"C.C El Tesoro Santafé y Oviedo Colombia, Medellín"
"NUVAL - NUTRICIÓN VITAL";nuval@nuval.com.co;www.nuval.com.co;"(57) (4) 2607416";"Cl 55 71 A-115 Colombia, Medellín"
"PONQUES ARTE";ponquearte@gmail.com;www.ponquearte.com;"(57) (1) 7486989";"Cr47 151 A-23 E-5 Ap 107 Colombia, Bogotá"
"CENTRO SOCIAL DE EVENTOS LAS TRINITARIAS";harrinsonyepes@hotmail.com;www.lastrinitarias.com;"(57) (5) 3780409";"Cl 81 42 B-70 Colombia, Barranquilla"
"LA ALACENA DEL CHEF";nanaportilla@hotmail.com;www.laalacenadelchef.com;"(57) (7) 5727310";"Cl 5 4-78 Colombia, Cúcuta"
"PROALBA LTDA.";gerencia@proalba.com.co;www.proalba.com.co;"(57) (2) 2257723";"Cl 50 41-84 Parque Industrial Bdg C-6 Colombia, Tuluá"
"PANADERÍA Y BIZCOCHERÍA MARTHA";panaderia.martha@yahoo.es;;"(57) (8) 5125404";"Av Boyacá 5-26 Colombia, San Andrés"
"TORTAS DEL GORDO";tortasdelgordoarmenia@hotmail.com;www.tortasdelgordo.com.co;"(57) (6) 3133864798";"Cr14 14-52 Colombia, Armenia"
"DELICAKE PASTELERÍA DE DISEÑO";info@delicake.com.co;www.delicake.com.co;"(57) (5) 3016464";"Cr43 80-105 Colombia, Barranquilla"
DECORFRUT-INSUMAPAN;.@;;"(57) (4) 2358731";"Cr56 27-12 Colombia, Medellín"
SWEETBS;;www.sweetbs.com.co;"(57) (5) 3020027";"Barranquilla Colombia, Barranquilla"
"LA ABUELA ISABEL S.A.S";laabuelaisabel@une.net.co;www.laabuelaisabel.com;"(57) (4) 4480477";"Cl 37   S 43 A-22 Envigado Colombia, Medellín"
"SAMS CUPCAKES";;;"(57) (5) 3006317723";"Av. del Libertador 21-117 Colombia, Santa Marta"
"PAN DE ABRIL S.A.S.";panaderiapandeabril@panaderiapandeabril.com;www.panaderiapandeabril.com;"(57) (4) 4442400";"Cl 44 50-77 Colombia, Medellín"
"COMPAÑÍA MANUFACTURERA DE PAN COMAPÁN S.A.";distribuidoramedellin@comapan.com.co;www.comapan.com.co;"(57) (4) 2557311";"Cr52 7   S-79 Colombia, Medellín"
"PUNTO CALIENTE S.A";puntocaliente@une.net.co;;"(57) (4) 4441202";"Cl 14 43 B-135 Colombia, Medellín"
"DELICIAS DE MACAME";deliciasdemacamen@gmail.com;;"(57) (4) 5788667";"Envigado Colombia, Medellín"
"PRODUCTOS PULLPAN";pullpan@une.net.co;www.productospullpan.com;"(57) (4) 4449105";"Cr51 73-64 Colombia, Medellín"
"AZUCAR MICROPULVERIZADA CAPERUCITA";arma1105@hotmail.com;;"(57) (1) 5630512";"Cl 35   S 51-23 Colombia, Bogotá"
"GLASSÉ PASTELERIA";mariaeubelu@hotmail.com;glassepasteleria.com;"(57) (5) 4233681";"Cr13 A 20-116 L-1 Edif George Alcázares Colombia, Santa Marta"
"BIZCOCHUELOS MIGÚ";productosmigu@hotmail.com;www.productosmigu.com;"(57) (4) 3793172";"Cl 33 B   S 44-68 Envigado Colombia, Medellín"
"SALSA SABROSISIMA";sabrosisima2010@gmail.com;www.sabrosisima.com.co;"(57) (5) 3740788";"Cl 17 23-51 Colombia, Barranquilla"
"DISTRIBUIDORA CENTRAL LA 13";juandtrujillo@live.com.ar;www.distribuidoracentralla13.com;"(57) (6) 3104691912";"Cl 13 15-17 Colombia, Armenia"
"AA ACCESORIOS Y PRENDAS DESECHABLES";aaaccesoriosyprendasdesechables@hotmail.com;www.aaaccesoriosyprendasdesechables.com;"Telefax: (57) (1) 2361748";"Cl 85 A 21-63 Colombia, Bogotá"
"CASA ROSA";rogonver@hotmail.com;www.casarosa.com.co;"(57) (5) 2811990";"Cr20 16 A-17 La Ford Colombia, Sincelejo"
"LA GRANJA PAISA";info@lagranjapaisa.com;www.lagranjapaisa.com;"(57) (6) 3303200";"Cr9 8-44 La Popa Vía La Badea Dosq Colombia, Pereira"
FONCEPAN;foncepan@hotmail.com;www.panaderiafoncepan.com;"(57) (7) 6342380";"Cl 31 22 60/66 Colombia, Bucaramanga"
"ANANDA & MUFFIN HOUSE";ananda@anadaweb.com;www.anandaweb.com;"(57) (2) 5561341";"Cl 3 A 34-57 Colombia, Cali"
"PAN FINO S.A.S";panfinosas@gmail.com;;"(57) (1) 2498478";"Cl 54 6-37 Colombia, Bogotá"
"IDEXA S.A.S.";nelsonvg95@gmail.com;www.idexa.co;"(57) (4) 4232973";"Cr48 76 D-S 34 Int 1909 Colombia, Medellín"
"OBLEAS SANTANDEREANAS";gerencia@obleassantandereanas.com;www.obleassantandereanas.com;"(57) (5) 3586092";"Cr43 79-58 Colombia, Barranquilla"
"CREA & COCINA";creaycocina@gmail.com;;"(57) (4) 4119493";"Cl 40 74-88 Colombia, Medellín"
"ANDRÉS BAKERY";andresbakery@gmail.com;;"(57) (4) 3027937";"Cl 30   S 43 A-57 Envigado Colombia, Medellín"
"VAINILLA Y CHOCOLATE";vaycho@gmail.com;www.vainillaychocolatetortas.com;"(57) (4) 7925443";"Cr7 34-32 Colombia, Montería"
"COCINE CON EDITH";cocineconedith@hotmail.com;www.cocineconedith.com;"(57) (4) 2601062";"Domicilios Colombia, Medellín"
"REPOSTERÍA MARICE";;;"(57) (4) 2811599";"Cr52 80-145 Itagüí Colombia, Medellín"
"COMO PEZ EN EL AGUA";ventas@tallercomopezenelagua.com;www.tallercomopezenelagua.com;"(57) (4) 3542667";"Cr35 8 A-67 Colombia, Medellín"
"First Name";"Email Address";Url;Telephone;Address
"PIZCA & TRIS";afruiz@hotmail.com;www.pizcaytris.com;"(57) (4) 3111577";"Cl 54 78-33 Ap 301 Colombia, Medellín"
"COCINE CON EDITH";cocineconedith@hotmail.com;www.cocineconedith.com;"(57) (4) 2601062";"Domicilios Colombia, Medellín"
DULZURAS;dulzuraspanaderiayreposteria@hotmail.com;;"(57) (5) 6650170";"Bgde Cr3 8-162 Colombia, Cartagena"
"EL PROVEEDOR DE LAS PANADERÍAS";proveedordelaspanaderias@hotmail.com;www.elproveedordelaspanaderias.co;"(57) (2) 5140733";"Cr27 8-56 L-1 Colombia, Cali"
"PASTELERÍA Y CAFÉ KINA & C.O.";laurarosagarces@gmail.com;www.cafekina.com;"(57) (2) 3243683";"Cl 3 B 65-63 Colombia, Cali"
"REPOSTERÍA MARÍA LUISA";administracion@reposteriamarialuisa.com;www.reposteriamarialuisa.com;"(57) (6) 3334497";"Av Circunvalar 13-41 Edif Invico Colombia, Pereira"
"EDUARDO MADRID TIENDA GOURMET DE PANES";panaderiaeduardomadrid@gmail.com;;"(57) (4) 3328811";"Cl 31   S 45 A-22 Envigado Colombia, Medellín"
"VAINILLA Y CHOCOLATE";vaycho@gmail.com;www.vainillaychocolatetortas.com;"(57) (4) 7925443";"Cr7 34-32 Colombia, Montería"
"COMO PEZ EN EL AGUA";ventas@tallercomopezenelagua.com;www.tallercomopezenelagua.com;"(57) (4) 3542667";"Cr35 8 A-67 Colombia, Medellín"
"EL TALLER DEL PAN";eltallerdelpan@une.net.co;www.eltallerdelpan.com;"(57) (4) 3328939";"Cl 23   S 42 B-65 Envigado Colombia, Medellín"
"HELADERÍA LA GRAN MANZANA";info@lagranmanzana.com.co;www.facebook.com/pages/Heladeria-La-Gran-Manzana/211857948834126?fref=ts;"(57) (6) 3341023";"Cr7 23-74 Colombia, Pereira"
"TORTAS MARLENY";malle8813@hotmail.com;;"(57) (4) 3329547";"Dg32 D Tr32 A   S-39 Envigado Colombia, Medellín"
"PRODUCTOS MARCE";prodmarce@une.net.co;www.productosmarce.com.co;"(57) (4) 4160095";"Cq 74 39 D-16 Colombia, Medellín"
"REPOSTERÍA MARICE";;;"(57) (4) 2811599";"Cr52 80-145 Itagüí Colombia, Medellín"
"PASTELPÁN LAS ENVINADAS DE BUENOS AIRES S.A.";servicioalcliente@lasnegras.com;;"(57) (4) 2858460";"Cr50 GG 10 B   S-81 Colombia, Medellín"
"ANDRÉS BAKERY";andresbakery@gmail.com;;"(57) (4) 3027937";"Cl 30   S 43 A-57 Envigado Colombia, Medellín"
DELIPOSTRES;delipostressas@gmail.com;www.delipostres.com.co;"(57) (5) 6625153";"Bosque Dg21 D 53-103 Colombia, Cartagena"
"DI CAFFÉ";hildaarboleda@yahoo.es;;"(57) (4) 2664556";"Cl 2 S 46-55 L-123 Colombia, Medellín"
"DEL GORDO TORTAS Y BIZCOCHOS";j.rojas-reposteria@hotmail.com;;"(57) (6) 3345422";"Cr9 22-26 Colombia, Pereira"
"TORTAS SANTA TERESA";gerencia@tortassantateresa.com;www.tortassantateresa.com;"(57) (4) 4481688";"Cl 29 A 50-189 Bello Colombia, Medellín"
"TORTAS CARMEN DE SAKAMOTO";awakoncarmen@gmail.com;;"(57) (2) 6605661";"Av5   N 26-50 Colombia, Cali"
"REPOSTERÍA Y PASTILLAJE IDEAS DULCES";edefigueroa@hotmail.com;www.facebook.com/elsy.defigueroa?fref=ts;"(57) (5) 6604486";"Manga Cj Miramar Cr20 24-54 Colombia, Cartagena"
"CREA & COCINA";creaycocina@gmail.com;;"(57) (4) 4119493";"Cl 40 74-88 Colombia, Medellín"
"DULCE SABOR REPOSTERÍA";"clairreno@hotmail.com                   dulcesabor07@hotmail.com";www.facebook.com/dulcesabor.reposteria;"(57) (5) 3400488";"Cr36 52-05 Lucero Colombia, Barranquilla"
"TODAMIBODA - TODA MI BODA";info@todamiboda.com;www.todamiboda.com;"(57) (4) 4449884";"Cr43 A 9   S-91 C.E. Las Villas Trr Norte Colombia, Medellín"
"PANADERÍA Y BIZCOCHERÍA LA BOMBONIER";vonblonkaceres@hotmail.com;;"(57) (8) 5123430";"Av Juan XXIII Colombia, San Andrés"
"OBLEAS SANTANDEREANAS";gerencia@obleassantandereanas.com;www.obleassantandereanas.com;"(57) (5) 3586092";"Cr43 79-58 Colombia, Barranquilla"
"RESPOSTERIA BROWNIE DE LA CASA";browniesdelacasa@hotmail.com;;"(57) (5) 3780707";"Cl 85 51 B-77 Colombia, Barranquilla"
"CASA DE TÉ";marialuh@yahoo.com;;"(57) (4) 3120138";"Cr45 5-66 Colombia, Medellín"
TRIGODULCE;trigodulce@hotmail.com;;"(57) (4) 5612619";"Cr61 F 41 C-19 Rionegro Colombia, Medellín"
"PASTELERIA MOUSSE";hernanvelasco2010@hotmail.com;;"(57) (1) 6745934";"Av19 160 A-04 L-104 Colombia, Bogotá"
"REPOSTERÍA ROSITA DE BENEDETTI";reporositadebenedetti@hotmail.com;;"(57) (5) 6659440";"Bgde Cr3 6-157 Colombia, Cartagena"
"DELI CUP CAKES";paticoparnaso@hotmail.com;;"(57) (7) 6025242";"Cl 62 19-34 Parnaso Colombia, Barrancabermeja"
"PANADERÍA Y BIZCOCHERÍA SUSANY";davisinio@gmail.com;;"(57) (8) 5122399";"Av20 de Julio a Una Cuadra del Cruce Loma San Luis Colombia, San Andrés"
"TORTAS Y TORTAS LA 49 ARANJUEZ";javis1108@hotmail.com;;"(57) (4) 5222198";"Cr49 A 92-25 Colombia, Medellín"
"ANANDA & MUFFIN HOUSE";ananda@anadaweb.com;www.anandaweb.com;"(57) (2) 5561341";"Cl 3 A 34-57 Colombia, Cali"
"SOFIS PAN FACTORY";panaderiamasal@hotmail.com;;"(57) (4) 2858375";"Cl 12 S 51-75 Colombia, Medellín"
"PASTELERÍA MADRILEÑA";Jampintor@hotmail.com;www.pasteleriamadrilena.com;"(57) (6) 3369333";"Cr7 26-37 Colombia, Pereira"
"DULCES CUPCAKES";dulcescupcakes2014@hotmail.com;;"(57) 3004588183";"Cr105 B 99-32 Colombia, Apartadó"
"IDEXA S.A.S.";nelsonvg95@gmail.com;www.idexa.co;"(57) (4) 4232973";"Cr48 76 D-S 34 Int 1909 Colombia, Medellín"
"First Name";"Email Address";Url;Telephone;Address
"REPOSTERÍA Y PASTILLAJE IDEAS DULCES";edefigueroa@hotmail.com;www.facebook.com/elsy.defigueroa?fref=ts;"(57) (5) 6604486";"Manga Cj Miramar Cr20 24-54 Colombia, Cartagena"
"ANANDA & MUFFIN HOUSE";ananda@anadaweb.com;www.anandaweb.com;"(57) (2) 5561341";"Cl 3 A 34-57 Colombia, Cali"
TRIGODULCE;trigodulce@hotmail.com;;"(57) (4) 5612619";"Cr61 F 41 C-19 Rionegro Colombia, Medellín"
"PANADERIA DELICENTRO";delicentro@gmail.com;;"(57) (4) 5121321";"Cl 50 51-95 Colombia, Medellín"
"RESPOSTERIA BROWNIE DE LA CASA";browniesdelacasa@hotmail.com;;"(57) (5) 3780707";"Cl 85 51 B-77 Colombia, Barranquilla"
"TORTAS Y TORTAS LA 49 ARANJUEZ";javis1108@hotmail.com;;"(57) (4) 5222198";"Cr49 A 92-25 Colombia, Medellín"
"HELADOS FRUTÓN";dayro.castano@fruton.com.co;www.fruton.com.co;"(57) (4) 4449970";"Cr38 55-16 Colombia, Medellín"
"PIZCA & TRIS";afruiz@hotmail.com;www.pizcaytris.com;"(57) (4) 3111577";"Cl 54 78-33 Ap 301 Colombia, Medellín"
"VAINILLA Y CHOCOLATE";vaycho@gmail.com;www.vainillaychocolatetortas.com;"(57) (4) 7925443";"Cr7 34-32 Colombia, Montería"
"CASA DE TÉ";marialuh@yahoo.com;;"(57) (4) 3120138";"Cr45 5-66 Colombia, Medellín"
"REPOSTERÍA ROSITA DE BENEDETTI";reporositadebenedetti@hotmail.com;;"(57) (5) 6659440";"Bgde Cr3 6-157 Colombia, Cartagena"
"CREA & COCINA";creaycocina@gmail.com;;"(57) (4) 4119493";"Cl 40 74-88 Colombia, Medellín"
"PAN FINO S.A.S";panfinosas@gmail.com;;"(57) (1) 2498478";"Cl 54 6-37 Colombia, Bogotá"
"TODAMIBODA - TODA MI BODA";info@todamiboda.com;www.todamiboda.com;"(57) (4) 4449884";"Cr43 A 9   S-91 C.E. Las Villas Trr Norte Colombia, Medellín"
"PANADERÍA Y BIZCOCHERÍA LA BOMBONIER";vonblonkaceres@hotmail.com;;"(57) (8) 5123430";"Av Juan XXIII Colombia, San Andrés"
"First Name";"Email Address";Url;Telephone;Address
"EL TEJADITO LTDA.";eltejadito70@hotmail.com;;"(57) (4) 4132798";"Cq 2 70-01 Colombia, Medellín"
DELIPOSTRES;delipostressas@gmail.com;www.delipostres.com.co;"(57) (5) 6625153";"Bosque Dg21 D 53-103 Colombia, Cartagena"
"OBLEAS SANTANDEREANAS";gerencia@obleassantandereanas.com;www.obleassantandereanas.com;"(57) (5) 3586092";"Cr43 79-58 Colombia, Barranquilla"
"AMARS REPOSTERIA";reposteriamars@une.net.co;www.amarsreposteria.com;"(57) (4) 4443265";"Cl 33 81 A-41 Colombia, Medellín"
"M & M PONQUE DECORADO";mariav1992@hotmail.com;;"(57) (1) 6125396";"Cl 114 51-17 Colombia, Bogotá"
"PASTILLAJES PATRY";pastillajespatry@hotmail.com;;"(57) (4) 7824135";"Cl 32 9-47 Centro Colombia, Montería"
"COCINE CON EDITH";cocineconedith@hotmail.com;www.cocineconedith.com;"(57) (4) 2601062";"Domicilios Colombia, Medellín"
"RESPOSTERIA BROWNIE DE LA CASA";browniesdelacasa@hotmail.com;;"(57) (5) 3780707";"Cl 85 51 B-77 Colombia, Barranquilla"
"VAINILLA Y CHOCOLATE";vaycho@gmail.com;www.vainillaychocolatetortas.com;"(57) (4) 7925443";"Cr7 34-32 Colombia, Montería"
"PASTELPÁN LAS ENVINADAS DE BUENOS AIRES S.A.";servicioalcliente@lasnegras.com;;"(57) (4) 2858460";"Cr50 GG 10 B   S-81 Colombia, Medellín"
"PASTELERIA MOUSSE";hernanvelasco2010@hotmail.com;;"(57) (1) 6745934";"Av19 160 A-04 L-104 Colombia, Bogotá"
"TOPPING CAKES";etpedidos@gmail.com;;"(57) (5) 4352564";"Manz G Casa 8 Urb Ciudad del Sol II Colombia, Santa Marta"
"PANADERÍA Y BIZCOCHERÍA LA BOMBONIER";vonblonkaceres@hotmail.com;;"(57) (8) 5123430";"Av Juan XXIII Colombia, San Andrés"
"TORTAS SANTA TERESA";gerencia@tortassantateresa.com;www.tortassantateresa.com;"(57) (4) 4481688";"Cl 29 A 50-189 Bello Colombia, Medellín"
"IDEXA S.A.S.";nelsonvg95@gmail.com;www.idexa.co;"(57) (4) 4232973";"Cr48 76 D-S 34 Int 1909 Colombia, Medellín"
"ARMAR UNA FIESTA";armarunafiesta@hotmail.com;www.armarunafiesta.blogspot.com;"(57) (4) 3319139";"Tr35 C   S 32-66 Envigado Colombia, Medellín"
"BOYPAN MATERIA PRIMA PARA PANADERIAS";boypan@boypan.com.co;www.boypan.com.co;"(57) (1) 6743775";"Cl 156 7 D-17 Colombia, Bogotá"
"ANANDA & MUFFIN HOUSE";ananda@anadaweb.com;www.anandaweb.com;"(57) (2) 5561341";"Cl 3 A 34-57 Colombia, Cali"
"TOPPING CAKES";etpedidos@gmail.com;;"(57) (5) 4352564";"Manz G Casa 8 Urb Ciudad del Sol II Colombia, Santa Marta"
"DULCE SABOR REPOSTERÍA";"clairreno@hotmail.com                   dulcesabor07@hotmail.com";www.facebook.com/dulcesabor.reposteria;"(57) (5) 3400488";"Cr36 52-05 Lucero Colombia, Barranquilla"
"PANADERÍA Y BIZCOCHERÍA SUSANY";davisinio@gmail.com;;"(57) (8) 5122399";"Av20 de Julio a Una Cuadra del Cruce Loma San Luis Colombia, San Andrés"
"EL TEJADITO LTDA.";eltejadito70@hotmail.com;;"(57) (4) 4132798";"Cq 2 70-01 Colombia, Medellín"
"VERNA VEGA REPOSTERIA";vernavg@hotmail.com;;"(57) (4) 7914529";"Cr1 C 74-225 Colombia, Montería"
"SAN AGUSTÍN EVENTOS Y TURISMO";pradocentro@tusanagustin.com;www.tusanagustin.com;"(57) (4) 4444494";"Cl 60 45 D-71 Colombia, Medellín"
"DOÑA DICHA REPOSTERÍA ARTESANAL CAFÉ";gerencia@donadicha.com;;"(57) (1) 6192769";"Cl 120 9-76 Colombia, Bogotá"
"DON JACOBO POSTRES Y PONQUÉS";info@postresyponques.com;;"(57) (7) 6452769";"Cl 41 33-28 Colombia, Bucaramanga"
"PASTELERIA MOUSSE";hernanvelasco2010@hotmail.com;;"(57) (1) 6745934";"Av19 160 A-04 L-104 Colombia, Bogotá"
"CHOCOFLAM & PAN";otiza@chocoflampam.com;;"(57) (1) 6604072";"Cr65 75 A-02 Colombia, Bogotá"
"DULCINEA REPOSTERÍA";;;"(57) (4) 7823550";"Cr3 26-14 Colombia, Montería"
"RESTAURANTE Y REPOSTERÚA BOYACÃ";;;"(57) (4) 5129479";"Cl 51 52-23 Colombia, Medellín"
DULZURAS;dulzuraspanaderiayreposteria@hotmail.com;;"(57) (5) 6650170";"Bgde Cr3 8-162 Colombia, Cartagena"
"PANADERÍA D'FRANCO";;;"(57) (5) 6691107";"Av Crisanto Luque Tr45 21 A-135 Colombia, Cartagena"
"MOLDES Y BANDEJAS G.L.J.";;;"(57) (1) 4089187";"Cr27 9-85 Colombia, Bogotá"
"PASTELATTE REPOSTERÍA";;;"(57) (4) 5815735";"Cl 29 81-79 Colombia, Medellín"
"DEL GORDO TORTAS Y BIZCOCHOS";j.rojas-reposteria@hotmail.com;;"(57) (6) 3345422";"Cr9 22-26 Colombia, Pereira"
"CHOCOLATTO REPOSTERÍA FINA";;;"(57) (4) 2342803";"Cr81 A 50-36 Int 102 Colombia, Medellín"
"MONAR S.A.S.";;;"(57) (4) 4385609";"Cr136 C 66-223 Int 110 San Cristóbal Colombia, Medellín"
"TORTAS Y BIZCOCHOS LA EXQUISITA";;;"(57) (4) 2770952";"Cr49 48 A-05 Itagüí Colombia, Itagüí"
"AMARS REPOSTERIA";reposteriamars@une.net.co;www.amarsreposteria.com;"(57) (4) 4443265";"Cl 33 81 A-41 Colombia, Medellín"
"RESTAURANTE LA TRAVIATA";;;"(57) (5) 3687283";"Cl 79 51-42 Colombia, Barranquilla"
"REPOSTERIA NOLVA MORA";;;"(57) (5) 3702673";"Cl 58 18-123 Buena Esperanza Colombia, Barranquilla"
MULTICARNES;;;"(57) (5) 5742062";"Cr 9 14-02 Esq. Colombia, Valledupar"
"SARALÍ REPOSTERÍA";;;"(57) (5) 5749237";"Cr7 13-32 Colombia, Valledupar"
"ANDRÉS BAKERY";andresbakery@gmail.com;;"(57) (4) 3027937";"Cl 30   S 43 A-57 Envigado Colombia, Medellín"
"REPOSTERÍA LIBRE DE AZÚCAR";;;"Nal: (57) (6) 8852387";"Cr23 51-67 Colombia, Manizales"
"EL PALACIO DEL MANÍ";;;"(57) (2) 8844326";"Cr9 12-63 Colombia, Cali"
"PORKY PARTY";;;"Nal: (57) (4) 2163817";"Cl 49 A 38-40 Colombia, Medellín"
"ALTA REPOSTERÍA Y CONSULTORÍA NATALIA QUINTERO";;;"(57) (2) 8931211";"Cr2 Oe 13-19 P-6 Colombia, Cali"
"BOYPAN MATERIA PRIMA PARA PANADERIAS";boypan@boypan.com.co;www.boypan.com.co;"(57) (1) 6743775";"Cl 156 7 D-17 Colombia, Bogotá"
DANCALI;;;"(57) (2) 4860086";"Cr1 44-01 Colombia, Cali"
"TORTAS Y TORTAS SAN JAVIER";;;"Nal: (57) (4) 4414731";"Cr 99 43 - 34 Colombia, Medellín"
"HOBBY REPOSTERO";hobbyrepostero@hotmail.com;;"(57) (4) 3335354";"Cl 33 B   S 42-20 Envigado Colombia, Medellín"
"PANADERÍA Y CAFETERIA MÁS PAN";;;"(57) (2) 3245816";"Cl 4 65-122 Colombia, Cali"
DIVIARINA;;;"Nal: (57) (4) 3126814";"Cl 17 37 A-33 Int 1005 Colombia, Medellín"
"PASTELPÁN LAS ENVINADAS DE BUENOS AIRES S.A.";servicioalcliente@lasnegras.com;;"(57) (4) 2858460";"Cr50 GG 10 B   S-81 Colombia, Medellín"
"ALEGRÍA BANQUETES Y RECEPCIONES";eventos_alegría@hotmail.com;;"(57) 3143000922";"Cl 16 5-47 C.C Sta Catalina Salón Social Colombia, Pereira"
"PASTELERÍA MADRILEÑA";Jampintor@hotmail.com;www.pasteleriamadrilena.com;"(57) (6) 3369333";"Cr7 26-37 Colombia, Pereira"
"M & M PONQUE DECORADO";mariav1992@hotmail.com;;"(57) (1) 6125396";"Cl 114 51-17 Colombia, Bogotá"
"COMO PEZ EN EL AGUA";ventas@tallercomopezenelagua.com;www.tallercomopezenelagua.com;"(57) (4) 3542667";"Cr35 8 A-67 Colombia, Medellín"
"EL TALLER DEL PAN";eltallerdelpan@une.net.co;www.eltallerdelpan.com;"(57) (4) 3328939";"Cl 23   S 42 B-65 Envigado Colombia, Medellín"
"PASTELERÍA Y CAFÉ KINA & C.O.";laurarosagarces@gmail.com;www.cafekina.com;"(57) (2) 3243683";"Cl 3 B 65-63 Colombia, Cali"
"PANADERÍA ENRIPAN";panaderiaenripan@gmail.com;;"(57) (4) 3713403";"Cl 43 48-68 Itagüí Colombia, Medellín"
"EL CALIZ DEL AZUCAR";;;"(57) (4) 5118952";"Cl 51 52-53 L-121 Colombia, Medellín"
"ARMAR UNA FIESTA";armarunafiesta@hotmail.com;www.armarunafiesta.blogspot.com;"(57) (4) 3319139";"Tr35 C   S 32-66 Envigado Colombia, Medellín"
"TORTAS MARLENY";malle8813@hotmail.com;;"(57) (4) 3329547";"Dg32 D Tr32 A   S-39 Envigado Colombia, Medellín"
"First Name";"Email Address";Url;Telephone;Address
DANCALI;;;"(57) (2) 4860086";"Cr1 44-01 Colombia, Cali"
"SAN ANTONIO DULCES Y POSTRES";;;"(57) (4) 4134907";"Cl 37 80-19 Colombia, Medellín"
"TENTACIÓN DEL ARTE DULCE";;;"(57) (5) 4302112";"Manz 84 Casa 14 Colombia, Santa Marta"
"ME LATE CHOCOLATE";;;"(57) (4) 3127139";"Cr 34 7-100 Colombia, Medellín"
"SABORES SORPRESA";;;"(57) (5) 3824874";"Cl 68 A 14 D-28 Villa Estadio Colombia, Barranquilla"
"NATALIA CÁRDENAS PASTISSERIE";;;"(57) (5) 3203390";"Cr60 79-369 L-2 Colombia, Barranquilla"
NICOLUKAS;;;"Domic.: (57) (1) 3078270";"Cr11 82-71 L-317 Colombia, Bogotá"
"PANADERÍA Y REPOSTERÍA MARCOS PAN";;;"(57) (4) 2740660";"Cr50 49-02 Copacabana Colombia, Medellín"
"BROWNIES POSTRES Y CHOCOLATES";;;"(57) (4) 3768069";"Cl 76 D S 43 A-45 Sabaneta Colombia, Sabaneta"
"REPRESENTACIONES NACIONALES LTDA.";;;"(57) (4) 3621917";"Cl 85 A 42-81 Itagüí Colombia, Itagüí"
"CAFÉ Y VERDE";;;"(57) (4) 4161127";"Cl 35 82 A-13 Int 201 Colombia, Medellín"
FLORALBER;;;"(57) (4) 4626504";"Cl 20 F 73-17 Bello Colombia, Bello"
"PANADERÍA Y REPOSTERÍA PLAYA PANES";;;"(57) (4) 2176840";"Cl 51 39-101 Colombia, Medellín"
"PANADERÍA J. PAN";;;"(57) (7) 6523468";"Cr7 24-05 Colombia, Bucaramanga"
"TORTAS DEL GORDO ANDALUCIA";;;"(57) (4) 5271577";"Cr 46A 106 A 26 Colombia, Medellín"
"REPOSTERÍA FAMY";;;"(57) (5) 2823084";"Cr17 15-185 Chacurí Colombia, Sincelejo"
"CAIDO DEL CIELO";;;"(57) (4) 2661832";"Cr24 B 16-26 Int 111 Colombia, Medellín"
"PANADERÍA SICO";;;"(57) (5) 6560982";"Popa Cl 34 20 F-19 Calle La Candelaria Colombia, Cartagena"
"REPOSTERÍA FRANCISCO";;;"(57) (4) 2540740";"Cl 63 49-63 Colombia, Medellín"
"REPOSTERÍA PICANDO Y TOMANDO";;;"(57) (4) 3013721";"Cl 70 S 46-131 Sabaneta Colombia, Sabaneta"
"AI LOFF BROWNIES";;;"(57) (4) 3514140";"Cl 42 C 63 c-145 Colombia, Medellín"
"LUPITAS CAKES";;;"(57) (4) 6009859";"cl 51 57-37 Colombia, Medellín"
"LA GOLOSINA";;;"(57) (5) 3580058";"Cr53 75-46 Colombia, Barranquilla"
"PASABOCAS BARRANQUILLA";;;"(57) (5) 3029665";"Cl 63 21 B-102 Colombia, Barranquilla"
"BIZCOCHOS Y POSTRES DE OLI";;;"(57) (4) 2700400";"Cl 37 S 43 A-34 Envigado Colombia, Envigado"
"MAJO'S BAKERY";;;"(57) (1) 4613703";". Colombia, Bogotá"
"DORITA FLETCHER";;;"(57) (5) 3579140";"Cl 86 64 C-40 Colombia, Barranquilla"
"POLANÍA NEWMAN CAROLINA";;;"(57) (5) 3582718";"Cl 75 54-23 Colombia, Barranquilla"
PASTELMAD;;;"(57) (4) 5123302";"Cl 50 54-46 Colombia, Medellín"
"TODO FRESA";;;"(57) (4) 2681848";"Cr43 B 12-15 Colombia, Medellín"
"REPOSTERÍA MERENGON";;;"(57) (4) 2768771";"Dg33 34 A S-27 Colombia, Medellín"
"CON AMORE PASTELERÍA CREATIVA";;;"(57) (5) 3027936";". Colombia, Barranquilla"
"PRODUCTOS BRIEFE";;;"(57) (4) 3792806";"Cl 77 S 57-16 La Estrella Colombia, Medellín"
"PANADERÍA CHIMITA";;;"(57) (5) 4240346";"Cl 12 11-07 Colombia, Ciénaga"
"RICURAS CAYE";;;"(57) (5) 4207260";"Cl 11 B 16 D-28 Colombia, Santa Marta"
"MACO CAYCEDO";;;"(57) (5) 4235094";"Cl 26 4-132 Colombia, Santa Marta"
"VENTA Y CLASES DE REPOSTERIA SUCRE SUCRE";;;"(57) (4) 4122678";"Cr73 C 1-39 Colombia, Medellín"
"MR TORTA NEGRA ENVINADA";;;"Nal: (57) (4) 4448717";"Cl 58 49 A-13 Colombia, Medellín"
"ALMA DULCE";;;"Nal: (57) (4) 3341532";"Tr33 S 39-16 Envigado Colombia, Medellín"
"TORTAS Y TORTAS CRISTY";;;"Nal: (57) (4) 4415748";"Cr 85 A 78 A - 15 Colombia, Medellín"
"First Name";"Email Address";Url;Telephone;Address
"PANADERÍA Y CAFETERÍA MIEL Y CAFÉ";doris.stella@hotmail.com;;"(57) (4) 2323264";"Av33 50-39 Colombia, Medellín"
"RESPOSTERIA BROWNIE DE LA CASA";browniesdelacasa@hotmail.com;;"(57) (5) 3780707";"Cl 85 51 B-77 Colombia, Barranquilla"
"TORTAS Y PANELITAS MUNDIALES";contacto@tortasmundiales.com;tortasmundiales.com;"(57) (4) 3160427";"Cr59 25-55 Colombia, Medellín"
"PANADERIA COMA PAN";panaderiacomapan@paginasamarillas.com;;"(57) (5) 3402351";"Cl 38 39-08 Colombia, Barranquilla"
"HELADERÍA LA GRAN MANZANA";info@lagranmanzana.com.co;www.facebook.com/pages/Heladeria-La-Gran-Manzana/211857948834126?fref=ts;"(57) (6) 3341023";"Cr7 23-74 Colombia, Pereira"
"TORTAS Y TORTAS LA 49 ARANJUEZ";javis1108@hotmail.com;;"(57) (4) 5222198";"Cr49 A 92-25 Colombia, Medellín"
"COMO PEZ EN EL AGUA";ventas@tallercomopezenelagua.com;www.tallercomopezenelagua.com;"(57) (4) 3542667";"Cr35 8 A-67 Colombia, Medellín"
"PANADERÍA Y BIZCOCHERÍA LA BOMBONIER";vonblonkaceres@hotmail.com;;"(57) (8) 5123430";"Av Juan XXIII Colombia, San Andrés"
"AMARS REPOSTERIA";reposteriamars@une.net.co;www.amarsreposteria.com;"(57) (4) 4443265";"Cl 33 81 A-41 Colombia, Medellín"
"EL TEJADITO LTDA.";eltejadito70@hotmail.com;;"(57) (4) 4132798";"Cq 2 70-01 Colombia, Medellín"
"M & M PONQUE DECORADO";mariav1992@hotmail.com;;"(57) (1) 6125396";"Cl 114 51-17 Colombia, Bogotá"
"REPOSTERÍA MARICE";;;"(57) (4) 2811599";"Cr52 80-145 Itagüí Colombia, Medellín"
"SOFIS PAN FACTORY";panaderiamasal@hotmail.com;;"(57) (4) 2858375";"Cl 12 S 51-75 Colombia, Medellín"
"DI CAFFÉ";hildaarboleda@yahoo.es;;"(57) (4) 2664556";"Cl 2 S 46-55 L-123 Colombia, Medellín"
"DELI CUP CAKES";paticoparnaso@hotmail.com;;"(57) (7) 6025242";"Cl 62 19-34 Parnaso Colombia, Barrancabermeja"
"PASTELERÍA Y CAFÉ KINA & C.O.";laurarosagarces@gmail.com;www.cafekina.com;"(57) (2) 3243683";"Cl 3 B 65-63 Colombia, Cali"
"SAN AGUSTÍN EVENTOS Y TURISMO";pradocentro@tusanagustin.com;www.tusanagustin.com;"(57) (4) 4444494";"Cl 60 45 D-71 Colombia, Medellín"
"DOÑA DICHA REPOSTERÍA ARTESANAL CAFÉ";gerencia@donadicha.com;;"(57) (1) 6192769";"Cl 120 9-76 Colombia, Bogotá"
"DON JACOBO POSTRES Y PONQUÉS";info@postresyponques.com;;"(57) (7) 6452769";"Cl 41 33-28 Colombia, Bucaramanga"
"CHOCOFLAM & PAN";otiza@chocoflampam.com;;"(57) (1) 6604072";"Cr65 75 A-02 Colombia, Bogotá"
"HUAO REPOSTERÍA ASOMBROSA";;;"(57) (4) 4445303";"Cr43 E 13-09 Colombia, Medellín"
DELICENTRO;;;"(57) (4) 5112275";"Cr 46 52-121 Colombia, Medellín"
"REPOSTERÍA DALUZ";;;"(57) (6) 7447173";"Cl 25 12-60 Colombia, Armenia"
"MAZAPANES TEDY";;;"(57) (4) 2704030";"Cl 45 S 42 B-68 Envigado Colombia, Medellín"
"INDUSTRIAS ALIMENTICIAS MEDEYIN";;;"(57) (4) 2351054";"Cr65 A 26-35 Colombia, Medellín"
"PANIFICADORA NUEVO MILENIO";;;"(57) (4) 4424031";"Tr78 65-159 Colombia, Medellín"
"BITTERSWEET LTDA.";;;"(57) (1) 2889721";"Cr6 B 131-40 Ap 504 Colombia, Bogotá"
"LA ALACENA BISTRO Y REPOSTERÍA";;;"Nal: (57) (4) 3334446";"Cl 30 S 44 A 22 Colombia, Medellín"
"IVONNA PASTELERÍA GOURMET";;;"(57) (2) 2287084";"Cl 4 Sur 9 A-17 Colombia, Buga"
"REPOSTERIA NOLVA MORA";;;"(57) (5) 3702673";"Cl 58 18-123 Buena Esperanza Colombia, Barranquilla"
"DULCES & SALADOS";;;"(57) (5) 3683717";"Cr41 B 71-32 Las Delicias Colombia, Barranquilla"
"FRENESÍ, MÁS QUE FRESAS CON CHOCOLATE";;;"(57) (4) 3313035";"Tr27 A   S 42-13 Colombia, Medellín"
"PILY'S REPOSTERIA";;;"(57) (5) 6816729";"La Plazuela Manz B Lt 9 Colombia, Cartagena"
"LOS PUDINES DE LA ABUELA";;;"(57) (5) 4202603";"Cr18 25-30 Et 3 Colombia, Santa Marta"
"EL MUNDO DE LOS PASTELES";;;"(57) (2) 5242552";"Av Roosevelt 38-05 Esq Colombia, Cali"
"ENDULZA TU VIDA LTDA.";;;"(57) (4) 2357615";"Cl 16 B 55-66 Colombia, Medellín"
"EL TEJADOTE";;;"(57) (4) 4128289";"Cl 35 79-03 Colombia, Medellín"
"CASINO INDUAMÉRICA";;;"(57) (4) 3723373";"Cl 36 47 A-26 Colombia, Itagüí"
"B. TORTAS Y POSTRES";;;"(57) (2) 4453767";"Cl 44 27-16 Colombia, Cali"
"ALMIBAR, POSTRES Y HELADOS";;;"(57) (4) 4139818";"Cl 37 80-36 L-107 Colombia, Medellín"
"First Name";"Email Address";Url;Telephone;Address
"DULCE POSTRES Y CHOCOLATES";;;"(57) (4) 3335595";"Cl 37 S 28-18 Envigado Colombia, Envigado"
MANZANA'S;;;"(57) (4) 3326677";"Cr29 B 39 S-25 Envigado Colombia, Envigado"
"COSTA PAN";;;"(57) (4) 7917776";"Cl 33 14-02 Colombia, Montería"
"TORTAS Y TORTAS GUARNE";;;"Nal: (57) (4) 5514994";"Cr 51 47 -57 Colombia, Medellín"
"TENTACIÓN DEL ARTE DULCE";;;"(57) (5) 4302112";"Manz 84 Casa 14 Colombia, Santa Marta"
D.L.J;;;"(57) (2) 3288433";"Cr40 40-04 Ap 101 Colombia, Cali"
"LA CASA DE LA TORTA ESPAÑOLA";;;"(57) (1) 2794713";"Cl 53 Sur 17-32 Colombia, Bogotá"
"ARTHUR KING DELICIAS";;;"(57) (5) 3453662";"Cl 74 46-58 Colombia, Barranquilla"
"PANADERIA Y REPOSTERIA LA MADELEINE";;;"(57) (4) 3012451";"Cl 75 S 47-10 Sabaneta Colombia, Sabaneta"
"D®ROSITA EXPRESS";;;"(57) (4) 2514076";"Cr53 49-47 Int 109 Colombia, Medellín"
"MILONGA REPOSTERIA";;;"(57) (4) 4440303";"Cl 30 A S 44 A-13 Envigado Colombia, Envigado"
"POLANÍA NEWMAN CAROLINA";;;"(57) (5) 3582718";"Cl 75 54-23 Colombia, Barranquilla"
"PRODUCTOS BARRILITO LTDA.";;;"(57) (1) 3178303";"Cl 79 10-81 Colombia, Bogotá"
"WILIAN TORTAS";;;"(57) (4) 4125610";"Cl 47 80-53 Colombia, Medellín"
"EL REFUGIO DEL PEÑON";;;"Nal: (57) (2) 8927717";"Cr2 Oe 2-39 Colombia, Cali"
"PRODUCTOS MUA";;;"(57) (1) 4816171";"Cl 129 A 56 B-34 Colombia, Bogotá"
JOTAMILTON;;;"(57) (2) 8208696";"Cr5 7-14 Centro Colombia, Popayán"
"CAKE BOUTIQUE";;;"(57) 3136982259";"Cl 12 15-53 Colombia, Armenia"
"MAJO'S BAKERY";;;"(57) (1) 4613703";". Colombia, Bogotá"
"DISTRIQUESOS ALAMEDA";;;"(57) (2) 5578908";"Cr25 7 A-43 Colombia, Cali"
"TORTAS Y TORTAS CALDAS";;;"Nal: (57) (4) 3033921";"Cr 49 130 S - 29 Colombia, Medellín"
"CREMOSOS DE ORIENTE";;;"Nal: (57) (4) 5531192";"Cl 19 21 - 67 Colombia, Medellín"
"DONATELLO REPOSTERIA";;;"(57) (7) 6478562";"Cr34 48-94 Colombia, Bucaramanga"
"DON JACOBO POSTRES Y PONQUES";;;"(57) (1) 2584419";"Av19 142-25 Colombia, Bogotá"
"PANADERÍA Y REPOSTERÍA MULTIPÁN";;;"(57) (4) 2542455";"Cl 55 38-18 Colombia, Medellín"
"REPOSTERÍA Y HELADOS KUNG FU";;;"(57) (4) 2341906";"Cr79 53-07 Colombia, Medellín"
"REPOSTERÍA MARÍA ANGELA JARAMILLO";;;"(57) (4) 3171732";"Cl 19 S 17-150 Colombia, Medellín"
"POSTRES GOURMET PUDINES & POSTRE";;;"(57) (5) 1000000";"Crespo Av2 67-86 Colombia, Cartagena"
"ANNY BLUE";;;"(57) (5) 3607890";"Cr53 64-226 Colombia, Barranquilla"
"MAMI POSTRES";;;"(57) (5) 3799962";"Cr41 51-88 Colombia, Barranquilla"
"BAKED BY ANA";;;"(57) 3175386379";"Cl 119 B 5-31 Colombia, Bogotá"
"TORTAS Y TORTAS LA ESTRELLA";;;"Nal: (57) (4) 2797180";"Cl 79 S 61 - 27 Colombia, Medellín"
"SWEET WAFLES";;;"Nal: (57) (4) 4442885";"Cl 33 81 A - 20 Colombia, Medellín"
"DAGUSTO EL BUEN SABOR";;;"(57) (4) 2641247";"Cr86 77 BB-20 Colombia, Medellín"
"REPOSTERÍA SABORES DEL AYER";;;"(57) (4) 2885327";"Cl 70 S 46-60 Sabaneta Colombia, Sabaneta"
"PRODUCTOS LOS DE VERO";;;"(57) (4) 3119441";"Cr33 7 A-24 Colombia, Medellín"
"ALIMENTOS BRUNELLI";;;"(57) (4) 5964622";"Cr53 51 A-13 Bello Colombia, Bello"
"TORTAS Y TORTAS MANRIQUE LA 45";;;"(57) (4) 2120921";"Cr45 69-74 Colombia, Medellín"
"REPOSTERÍA FAMY";;;"(57) (5) 2823084";"Cr17 15-185 Chacurí Colombia, Sincelejo"
"BETTY SUE";;;"(57) (5) 3784017";"Cr47 79-175 Colombia, Barranquilla"
"First Name";"Email Address";Url;Telephone;Address
"LA GULERIA";;;"(57) (4) 2702378";"Cl 45 B S 40-55 Envigado Colombia, Envigado"
"REPOSTERÍA MADONAS";;;"(57) (4) 2771775";"Cl 48 56-05 Itagui Colombia, Itagüí"
"CERESITA TISÚ";;;"(57) (4) 4130372";"Cr78 32 EE-13 Colombia, Medellín"
"CABAL ELVÍA";;;"(57) (2) 8932765";"Cr2 Oe 5-242 Of 301 Colombia, Cali"
D.L.J;;;"(57) (2) 3288433";"Cr40 40-04 Ap 101 Colombia, Cali"
"ARTE & SABOR";;;"(57) (7) 6497544";"Cr9 6-71 Floridablanca Colombia, Floridablanca"
"POSTRES ANTOJITO.COM";;;"(57) (1) 5200462";"Cl 141 46-75 P-1 Colombia, Bogotá"
CHOCOLANDIA;;;"Nal: (57) (4) 2738590";"Cl 24 A 58-09 Bello Colombia, Bello"
"AROMAS DE CAFÕ GALERÚAS";;;"(57) (4) 2318088";"Cl 49 54-46 L-150 Colombia, Medellín"
"PONQUÉS CASCABEL";;;"(57) (4) 2764508";"Tr31 S 32 B-25 Envigado Colombia, Envigado"
"MILONGA REPOSTERIA";;;"(57) (4) 4440303";"Cl 30 A S 44 A-13 Envigado Colombia, Envigado"
"DELICIAS PARA SU PALADAR";;;"(57) (4) 4221263";"Cl 77 F 94-44 Ap 301 Colombia, Medellín"
GANAMANÚA;;;"(57) (4) 3610526";"Cr65 8 B-91 Int 80 Colombia, Medellín"
"PANADERÍA J. PAN";;;"(57) (7) 6523468";"Cr7 24-05 Colombia, Bucaramanga"
"POSTRES AMORA DULCE";;;"(57) (4) 2342072";"Cl 77 BB 86-48 Colombia, Medellín"
MUIFINA;;;"(57) (4) 7822093";"Cr7 40-08 Colombia, Montería"
"CINNACOL S.A.S.";;;"(57) (4) 3527341";"Cr43 A 7 S-170 Int 2057 Colombia, Medellín"
"LECHE Y MIEL REPOSTERÍA GOURMET";;;"(57) (5) 6623143";"Camino del Medio Cr31 A 39-47 Edf Villa Erika Colombia, Cartagena"
"PONQUÉ Y TORTAS EL REY";;;"(57) (4) 4124960";"Cl 43 70 A-29 Colombia, Medellín"
"AI LOFF BROWNIES";;;"(57) (4) 3514140";"Cl 42 C 63 c-145 Colombia, Medellín"
"JULIANA ALVAREZ REPOSTERÍA";;;"(57) (4) 2661680";"Cl 11 A 43 B-20 Ap 203 Colombia, Medellín"
"First Name";"Email Address";Url;Telephone;Address
PICADITAS;;;"(57) (5) 3607166";"Cl 79 51-49 Colombia, Barranquilla"
"CREMOSOS DE ORIENTE";;;"Nal: (57) (4) 5531192";"Cl 19 21 - 67 Colombia, Medellín"
"REPOSTERIA LULÚ DE CASTRO";;;"(57) (5) 3583370";"Cr40 73-36 Colombia, Barranquilla"
"CHOCOLATERÍA Y REPOSTERÍA CODECO";;;"(57) (7) 6472695";"Cl 49 38-12 Colombia, Bucaramanga"
"BIZCOCHOS Y POSTRES DE OLI";;;"(57) (4) 2700400";"Cl 37 S 43 A-34 Envigado Colombia, Envigado"
"REPOSTERIA SUSANA ESTUPIÑAN";;;"(57) (5) 6748553";"Camino del medio Edif Villa Liliana Colombia, Cartagena"
"DON JACOBO POSTRES Y PONQUES";;;"(57) (1) 2584419";"Av19 142-25 Colombia, Bogotá"
"REPOSTERÍA LOS PIONEROS";;;"(57) (4) 5124163";"Cr51 45 -73 Colombia, Medellín"
CAFÉ-CLE;;;"(57) (5) 3737163";"Cr52 79-320 C.C Entertainment Store Colombia, Barranquilla"
"TORTAS Y TORTAS EL BOSQUE";;;"(57) (4) 2634413";"Cr55 80-13 Colombia, Medellín"
"RICURAS DE SAN CAYETANO";;;"(57) (4) 2365292";"Cl 92 51-35 Colombia, Medellín"
"PANADERÍA REPOSTERÍA RICURAS DE SANTA MARÍA";;;"(57) (4) 2771514";"Cl 72 52 A-04 Itagúi Colombia, Medellín"
"LA COCINA DE VIRGI";;;"(57) (5) 3442587";"Cr58 64-50 Colombia, Barranquilla"
"TORTAS Y TORTAS MAXITORTAS";;;"(57) (4) 5432666";"Cr31 28-83 El Carmen de Viboral Colombia, Medellín"
"LA COCINA DE VIRGI";;;"(57) (5) 3442587";"Cr58 64-50 Colombia, Barranquilla"
"REPOSTERÍA KING CAKE";;;"(57) (5) 3790718";"Cr38 56-10 al Lado de Rocapán Colombia, Barranquilla"
"FRANCINE SZTEINBERG REPOSTERÍA";;;"(57) (5) 3442786";"Vía 40 69-19 Colombia, Barranquilla"
"ROSA - ROSA REPOSTERÍA GOURMET";;;"(57) (2) 1231234";"Cr85 C 16-05 Colombia, Cali"
"GÓMEZ MARTHA CECILIA";;;"(57) (2) 4230111";"Cr26 R 73 A-03 Colombia, Cali"
"LAS DELICIAS DE MARIANTONIA";;;"(57) (4) 2707853";"Tr34 S 31 E-65 Colombia, Medellín"
"PANADERÍA APOLO";;;"(57) (5) 3404331";"Cr40 34-05 Colombia, Barranquilla"
"PASTEL DE ORO";;;"(57) (5) 4210304";"Cl 22 4-09 Colombia, Santa Marta"
"TODO PURO";;;"(57) (4) 2686410";"Cr48 10-45 L-14 Colombia, Medellín"
"BROWNIES POSTRES Y CHOCOLATES";;;"(57) (4) 3768069";"Cl 76 D S 43 A-45 Sabaneta Colombia, Sabaneta"
"BOCADITOS & PANECITOS";;;"(57) (5) 3458035";"Cr43 79-188 Colombia, Barranquilla"
"TORTAS SENSACIÓN";;;"(57) (4) 4718554";"Cl 101 BB 77 A-38 Colombia, Medellín"
CHOCODISEÑOS;;;"(57) (4) 4832972";"Av31 43 A-54 Bello Colombia, Bello"
DELIMANIA;;;"(57) (4) 3412716";"Cl 5 76 A-161 Ap 903 Colombia, Medellín"
"TORTAS Y BIZCOCHOS LA EXQUISITA";;;"(57) (4) 2770952";"Cr49 48 A-05 Itagüí Colombia, Itagüí"
JOTAMILTON;;;"(57) (2) 8208696";"Cr5 7-14 Centro Colombia, Popayán"
MADELENA;;;"(57) (6) 3450964";"Cl 48 19-100 Casa 41 Colombia, Pereira"
"ANNY BLUE REPOSTERIA";;;"(57) (5) 3607890";"cr 53 64-226 Colombia, Barranquilla"
"PANADERÍA Y REPOSTERÍA SUZETTE";;;"(57) (8) 5127867";"Av Colombia Edif Osaka Sarie Bay Colombia, San Andrés"
"XOCOLATL REPOSTERÍA GOURMET";;;"(57) (4) 2301840";"Medellín Colombia, Medellín"
"DULCE AVELLANA";;;"(57) (4) 3319471";"Cr27 G 36 D S-25 Trr 2 Ap 320 Envigado Colombia, Medellín"
ANAHATA;;;"(57) (4) 3134748";"Cl 20 S 36 A-13 Int 202 Colombia, Medellín"
"DULCES & SALADOS";;;"(57) (5) 3683717";"Cr41 B 71-32 Las Delicias Colombia, Barranquilla"
"ANAMARÍA CAKES & COFFEE";;;"(57) (6) 3353308";"Cr17 13-06 L-2 Colombia, Pereira"
"TORTAS Y TORTAS LA 65";;;"(57) (4) 4773360";"Cr65 103 FF 06 Colombia, Medellín"
"TORTAS DEL GORDO DE ITAGUI";;;"(57) (4) 5614840";"Rionegro Colombia, Medellín"
MULTICARNES;;;"(57) (5) 5742062";"Cr 9 14-02 Esq. Colombia, Valledupar"
"TORTAS Y TORTAS LA ESTRELLA";;;"Nal: (57) (4) 2797180";"Cl 79 S 61 - 27 Colombia, Medellín"
"CUPCAKE LOVE";;;"Nal: (57) (4) 2816002";"cr 46A 49 - 32 Colombia, Medellín"
LACTOCARNICOS;;;"(57) (2) 8395921";"Cl 7 4-66 Colombia, Popayán"
"PANADERÍA CHIMITA";;;"(57) (5) 4240346";"Cl 12 11-07 Colombia, Ciénaga"
"PANADERÍA Y REPOSTERÍA MULTIPÁN";;;"(57) (4) 2542455";"Cl 55 38-18 Colombia, Medellín"
"PANADERÍA LA CASTELLANA";;;"(57) (4) 2503343";"Cl 34 80 A-62 Colombia, Medellín"
"PANADERÍA Y REPOSTERÍA MARCOS PAN";;;"(57) (4) 2740660";"Cr50 49-02 Copacabana Colombia, Medellín"
"ANAMARÍA CAKES & COFFEE";;;"(57) (6) 3353308";"Cr17 13-06 L-2 Colombia, Pereira"
"REPOSTERIA Y PANADERIA TENTACIONES";;;"(57) (4) 2162851";"Cr40 49-01 Colombia, Medellín"
"ALIMENTOS BRUNELLI";;;"(57) (4) 5964622";"Cr53 51 A-13 Bello Colombia, Bello"
"DELICIAS PARA SU PALADAR";;;"(57) (4) 4221263";"Cl 77 F 94-44 Ap 301 Colombia, Medellín"
KUTY;;;"(57) (2) 6611465";"Av6 N 27 N-03 Colombia, Cali"
"REPOSTERÍA TODO TAN BUENO";;;"(57) (4) 2321337";"Cr 52 43 - 64 Colombia, Medellín"
"DUQUESA REAL";;;"(57) (5) 6816364";"Cl 1 2-25 Colombia, Cartagena"
"REPOSTERIA Y PANADERIA LA PERLA DORADA";;;"(57) (4) 5311378";"Cl 49 48-63 Rionegro Colombia, Medellín"
"PORKY PARTY";;;"Nal: (57) (4) 2163817";"Cl 49 A 38-40 Colombia, Medellín"
"MILA V";;;"(57) (5) 6700079";"Centro Historico Cl De La Iglesia 35-76 Colombia, Cartagena"
"PANADERÍA BAKER®S";;;"(57) (4) 2686462";"Cr43 C 10-88 Colombia, Medellín"
"First Name";"Email Address";Url;Telephone;Address
"ALIMENTOS BRUNELLI";;;"(57) (4) 5964622";"Cr53 51 A-13 Bello Colombia, Bello"
"CAKES & PARTY";;;"(57) (4) 3124551";"Cr32 1 B S-51 L-129 Colombia, Medellín"
"PANADERÍA Y REPOSTERÍA NOVAPAN";;;"(57) (4) 4441906";"Cl 30 80-46 Colombia, Medellín"
"JULIANA ALVAREZ REPOSTERÍA";;;"(57) (4) 2661680";"Cl 11 A 43 B-20 Ap 203 Colombia, Medellín"
"MAZAPANES TEDY";;;"(57) (4) 2704030";"Cl 45 S 42 B-68 Envigado Colombia, Medellín"
"CHOCOLATTO REPOSTERÍA FINA";;;"(57) (4) 2342803";"Cr81 A 50-36 Int 102 Colombia, Medellín"
"TORTAS & POSTRES";;;"(57) (4) 7918279";"Cl 33 1-85 Centro Colombia, Montería"
"LA ALACENA BISTRO Y REPOSTERÍA";;;"Nal: (57) (4) 3334446";"Cl 30 S 44 A 22 Colombia, Medellín"
"DULCES ILUSIONES";;;"(57) (5) 6470570";"Cl 29 22-05 Colombia, Cartagena"
"HECHO CON AMOR";;;"(57) (5) 3004540";"Cl 71 No. 32-64 Colombia, Barranquilla"
"DISTRIBUIDORA LA COSTA S.A.";;;"(57) (2) 6904330";"Cr36 15-125 B-16 Acopi Yumbo Colombia, Yumbo"
"ALIMENTOS TORTAS Y GALLETAS REGIA";;;"(57) (2) 4445555";"Cr4 B 30-12 Colombia, Cali"
"ENDULZA TU VIDA LTDA.";;;"(57) (4) 2357615";"Cl 16 B 55-66 Colombia, Medellín"
"REPOSTERÍA SARITA";;;"(57) (5) 3570727";"Cr65 84-172 Colombia, Barranquilla"
"CELESTINA REPOSTERIA";;;"(57) (4) 2660448";"Cl 7 D 43 C-23 L-102 Colombia, Medellín"
"BAYNIA DULCES TENTACIONES";;;"(57) (5) 3795983";"Cl 65 39 B-70 Ap 1 Colombia, Barranquilla"
"POSTRES Y PONQUÉS DON JACOBO";;;"(57) (6) 3160936";"Cl 3 13-34 L-1-B Colombia, Pereira"
"REPOSTERÌA AL HORNO";;;"(57) (4) 4445822";"Cr51 B 12 S-32 Colombia, Medellín"
"LUZ ESTÕTICA SPA";;;"(57) (4) 2554632";"Cr54 4-69 Colombia, Medellín"
"GUAYABA & RICOTTA";;;"(57) (4) 3113955";"Tr12 A 32-116 Colombia, Medellín"
"MAS TORTAS RV";;;"(57) (4) 2774183";"Cl 68 52-98 Itagüí Colombia, Itagüí"
"CAFÉ Y REPOSTERÍA PECADO EXQUISITO";;;"(57) (4) 2851135";"Cr53 84 A-49 Int 401 Itagüí Colombia, Itagüí"
"INVERSIONES JUANA MARIA";;;"(57) (4) 3174712";"Cl 15 S 46-120 Int 104 Colombia, Medellín"
"TODO EN MAZAPÁN";;;"(57) (4) 4933228";"Cl 43 101-32 Colombia, Medellín"
"PANADERÍA REPOSTERÍA RICURAS DE SANTA MARÍA";;;"(57) (4) 2771514";"Cl 72 52 A-04 Itagúi Colombia, Medellín"
"DELICIAS JUANITA";;;"(57) (4) 3516344";"Cl 38 66 A-02 Ap 301 Colombia, Medellín"
"LA CASA DEL PASTELERO";;;"(57) (7) 6427225";"Cr15 31-34/36 Colombia, Bucaramanga"
PEPOSCAKE;;;"(57) (4) 3790973";"Cl 31 S 43 A-65 Envigado Colombia, Envigado"
"SAN POSTRE";;;"(57) (4) 2526968";"Cl 35 A 86-52 Colombia, Medellín"
"First Name";"Email Address";Url;Telephone;Address
DULCERNA;;;"(57) (5) 3580058";"Cr53 75-78 Colombia, Barranquilla"
"EL MUNDO DE LOS PASTELES";;;"(57) (2) 5242552";"Av Roosevelt 38-05 Esq Colombia, Cali"
"ALIMENTOS DOÑA BLANCA";;;"(57) (4) 5680945";"Cl 21 25-111 La Ceja Colombia, Medellín"
"REPOSTERÍA Y BILLARES EL CASINO";;;"(57) (4) 4760489";"Cr82 A 107 A-27 Colombia, Medellín"
"VENTA Y CLASES DE REPOSTERIA SUCRE SUCRE";;;"(57) (4) 4122678";"Cr73 C 1-39 Colombia, Medellín"
"EL TEJADOTE";;;"(57) (4) 4128289";"Cl 35 79-03 Colombia, Medellín"
"MOLDES Y BANDEJAS G.L.J.";;;"(57) (1) 4089187";"Cr27 9-85 Colombia, Bogotá"
"PRODUCTOS LAS 4 ESTACIONES";;;"(57) (2) 5142302";"Cl 9 B 26-07 Colombia, Cali"
"PANADERÍA Y CAFETERIA MÁS PAN";;;"(57) (2) 3245816";"Cl 4 65-122 Colombia, Cali"
"TORTAS Y POSTRES VERO";;;"Nal: (57) (4) 3004372";"Cra 49 132 S 65 Caldas Colombia, Medellín"
"REPOSTERÍA VICTORIA AMADOR";;;"(57) 3216799987";"Cr14 45-99 Ap 605 Edif Rincón de Marbella Colombia, Cartagena"
"MI DULCE ANTOJITO";;;"(57) (1) 2555521";"Cr25 51-10 P 1 Colombia, Bogotá"
"CAFÉ ALTAMAR";;;"(57) (5) 4228625";"Cr1 5-113 L-1-C Colombia, Santa Marta"
"LAS DELICIAS DE MARIANTONIA";;;"(57) (4) 2707853";"Tr34 S 31 E-65 Colombia, Medellín"
"TORTICREMOSO CHOPPYN";;;"(57) (4) 3723671";"Cl 63 45-96 Itagüí Colombia, Itagüí"
"ARTHUR KING DELICIAS";;;"(57) (5) 3453662";"Cl 74 46-58 Colombia, Barranquilla"
"REPOSTERÍA LA ROSA BLANCA";;;"(57) (4) 2357744";"Cr65 A 32-30 Colombia, Medellín"
"PRODUCTOS SALUGRAN S.A.S.";;;"Nal: (57) (4) 3545812";"Cl 85 48-1 Bloque 3 Local 19 Itaguí Colombia, Medellín"
"PANADERÍA Y MISCELÁNEA MARIANA";;;"(57) (8) 5124914";"Et III Natania Colombia, San Andrés"
"RICURAS DE SAN CAYETANO";;;"(57) (4) 2365292";"Cl 92 51-35 Colombia, Medellín"
"CAFÉ Y REPOSTERÍA PECADO EXQUISITO";;;"(57) (4) 2851135";"Cr53 84 A-49 Int 401 Itagüí Colombia, Itagüí"
"INVERSIONES JUANA MARIA";;;"(57) (4) 3174712";"Cl 15 S 46-120 Int 104 Colombia, Medellín"
"PANADERÍA KOVI";;;"(57) (8) 5129451";"Av 20 de Julio 3-20 Colombia, San Andrés"
"GALLETAS DE MANTEQUILLA PIKLITAS";;;"(57) (4) 2543377";"Cl 58 49-56 Colombia, Medellín"
"ANGELITA UN MUNDO DE SABORES";;;"(57) (4) 3512223";"Cl 25 65 A-46 Colombia, Medellín"
"EL TEJADITO CAMPESTRE";;;"(57) (4) 3136958";"Cl 17 S 43 A-42 Colombia, Medellín"
"PANADERIA Y REFRESQUERIA SABROPAN";;;"(57) (5) 7274380";"Cr7 15-40 Colombia, Riohacha"
"PANADERÍA REPOSTERÍA RICURAS DE SANTA MARÍA";;;"(57) (4) 2771514";"Cl 72 52 A-04 Itagúi Colombia, Medellín"
"TORTAS Y TORTAS COPACABANA";;;"(57) (4) 2746159";"Cr49 50-26 Copacabana Colombia, Medellín"
"REPOSTERÍA FAMI POSTRES";;;"(57) (5) 6676377";"Caracoles Et 1 Manz 63 Lt 11 Colombia, Cartagena"
MUIFINA;;;"(57) (4) 7822093";"Cr7 40-08 Colombia, Montería"
"PANADERÍA LA 36";;;"(57) (4) 7827315";"Cr6 35-27 Colombia, Montería"
"TORTAS DEL GORDO DE ITAGUI";;;"(57) (4) 5614840";"Rionegro Colombia, Medellín"
"CAIDO DEL CIELO";;;"(57) (4) 2661832";"Cr24 B 16-26 Int 111 Colombia, Medellín"
"POSTRES ADA";;;"(57) (5) 2820895";"Cr20 16 A-17 Ford Colombia, Sincelejo"
"SARA'S KITCHEN";;;"Domic.: (57) (1) 2135565";"Cr7 BBis 123-58 Colombia, Bogotá"
"ALTA REPOSTERÍA Y CONSULTORÍA NATALIA QUINTERO";;;"(57) (2) 8931211";"Cr2 Oe 13-19 P-6 Colombia, Cali"
"FRESA Y CEREZA REPOSTRERIA FINA";;;"(57) (4) 2508369";"Dg75 C 32 E-29 Ap 401 Colombia, Medellín"
DEDITOS;;;"(57) (5) 3551811";"Cl 84 67 Esq Colombia, Barranquilla"
"DOÑA LINDA S.A.S.";;;"(57) (5) 3586312";"Cr50 80-237 Colombia, Barranquilla"
"ALIMENTOS DOÑA BLANCA";;;"(57) (4) 5680945";"Cl 21 25-111 La Ceja Colombia, Medellín"
"PANADERÍA NEIVA PAN";;;"(57) (8) 8712429";"Cl 8 5-102 Colombia, Neiva"
"PASTELATTE REPOSTERÍA";;;"(57) (4) 5815735";"Cl 29 81-79 Colombia, Medellín"
"TODO FRESA";;;"(57) (4) 2681848";"Cr43 B 12-15 Colombia, Medellín"
"MARTHA ISABEL DE MEZA";;;"(57) (5) 4227458";"Cr8 No. 28-147 Bavaria Colombia, Santa Marta"
"PANADERÍA Y REPOSTERÍA DELICIAS LA SALLE";;;"(57) (4) 2363500";"Cl 93 40-88 Colombia, Medellín"
"EVENTOS MI DULCE COMPAÑÍA";;;"(57) (5) 3516599";"Cl 57 37-71 C-2 Colombia, Barranquilla"
"TORTAS Y TORTAS GIRARDOTA";;;"(57) (4) 2894465";"Cl 7 17-08 Girardota Colombia, Medellín"
"BROWN ES UNA REPOSTERIA LTDA.";;;"(57) (1) 2480409";"Cl 77 A 12-26 Colombia, Bogotá"
"PONQUÉS ELORZA";;;"(57) (7) 5740128";"Cl 4 0-16 La Ceiba Colombia, Cúcuta"
"TORTAS Y TORTAS SAN JAVIER";;;"Nal: (57) (4) 4414731";"Cr 99 43 - 34 Colombia, Medellín"
"First Name";"Email Address";Url;Telephone;Address
"First Name";"Email Address";Url;Telephone;Address
"REPOSTERÍA FAMY";;;"(57) (5) 2823084";"Cr17 15-185 Chacurí Colombia, Sincelejo"
"CINNAMON REPOSTERÍA DIETÉTICA";;;"(57) (4) 2661303";"Cl 11 A 43 B-56 Colombia, Medellín"
"CARNAVAL REPOSTERÍA";;;"(57) (4) 3340324";"Cl 36 D S 27 D-166 Int 276 Envigado Colombia, Envigado"
"PANADERÍA Y REPOSTERÍA PUNTO RICURAS";;;"(57) (4) 3623902";"Cr52 D 83-04 Itagüí Colombia, Itagüí"
"FLOR Y NATAS REPOSTERÍA";;;"(57) (4) 2303660";"Cl 53 64 BB-34 Ap 201 Colombia, Medellín"
"DELICIAS JUANITA";;;"(57) (4) 3516344";"Cl 38 66 A-02 Ap 301 Colombia, Medellín"
"BIZCOCHOS LUISA PUERTA";;;"(57) (4) 3170088";"Cr25 9 A S-232 Ap 602 Colombia, Medellín"
NICOLUKAS;;;"Domic.: (57) (1) 3078270";"Cr11 82-71 L-317 Colombia, Bogotá"
"POSTRES GOURMET PUDINES & POSTRE";;;"(57) (5) 1000000";"Crespo Av2 67-86 Colombia, Cartagena"
"RESTAURANTE PANADERÍA Y REPOSTERÍA PUNTO ROJO";;;"(57) (5) 2760055";"Cl 20 19-45 Colombia, Sincelejo"
"AI LOFF BROWNIES";;;"(57) (4) 3514140";"Cl 42 C 63 c-145 Colombia, Medellín"
"LECHE Y MIEL REPOSTERÍA GOURMET";;;"(57) (5) 6623143";"Camino del Medio Cr31 A 39-47 Edf Villa Erika Colombia, Cartagena"
"REPOSTERÍA MAXITORTA®S";;;"(57) (4) 4448571";"Cr50 C 10 S-08 Colombia, Medellín"
"JULIANA ALVAREZ REPOSTERÍA";;;"(57) (4) 2661680";"Cl 11 A 43 B-20 Ap 203 Colombia, Medellín"
PICADITAS;;;"(57) (5) 3607166";"Cl 79 51-49 Colombia, Barranquilla"
"BANQUETES MYRIAM ROMERO";;;"(57) (5) 6533767";"Los Alpes Cl 31 E 71 B-47 Colombia, Cartagena"
"PANDERITOS TÍA MAYO";;;"(57) (5) 6609296";"Av4 23-70 Colombia, Cartagena"
"PASTELATTE REPOSTERÍA";;;"(57) (4) 5815735";"Cl 29 81-79 Colombia, Medellín"
"BANQUETES MYRIAM ROMERO";;;"(57) (5) 6533767";"Los Alpes Cl 31 E 71 B-47 Colombia, Cartagena"
"MONAR S.A.S.";;;"(57) (4) 4385609";"Cr136 C 66-223 Int 110 San Cristóbal Colombia, Medellín"
"MALVA REPOSTERÍA";;;"(57) 3113562379";"Cr64 C 51-61 Colombia, Medellín"
"REPOSTERÍA SANTA BÁRBARA";;;"(57) (4) 8463689";"Santa Bárbara Colombia, Santa Bárbara"
"PANADERÍA Y REPOSTERÍA ORQUÍDEA NO. 1";;;"(57) (4) 8494769";"Cl 10 10-29 Colombia, Támesis"
"SABORES Y SENTIDOS REPOSTERÌA FINA";;;"(57) (4) 2344268";"Cl 49 F 80-50 Colombia, Medellín"
"RESTAURANTE LA TRAVIATA";;;"(57) (5) 3687283";"Cl 79 51-42 Colombia, Barranquilla"
"REPOSTERIA NOLVA MORA";;;"(57) (5) 3702673";"Cl 58 18-123 Buena Esperanza Colombia, Barranquilla"
"HECHO CON AMOR";;;"(57) (5) 3004540";"Cl 71 No. 32-64 Colombia, Barranquilla"
"REPOSTERÍA Y ALGO MÁS LUZ STELLA";;;"(57) (6) 3212383";"Cl 11 27-15 L-4 Colombia, Pereira"
"ALIMENTOS TORTAS Y GALLETAS REGIA";;;"(57) (2) 4445555";"Cr4 B 30-12 Colombia, Cali"
UNCAPRICHO;;;"(57) (2) 8927717";"Cr2 Oe 2-39 Colombia, Cali"
"ALMA DULCE";;;"Nal: (57) (4) 3341532";"Tr33 S 39-16 Envigado Colombia, Medellín"
"POLANÍA NEWMAN CAROLINA";;;"(57) (5) 3582718";"Cl 75 54-23 Colombia, Barranquilla"
"TORTAS Y TORTAS GUARNE";;;"Nal: (57) (4) 5514994";"Cr 51 47 -57 Colombia, Medellín"
"SANDRA JUAN REPOSTERÍA";;;"(57) (5) 6605945";"Manga Av de la Asamblea Edif Génesis L-2 Colombia, Cartagena"
"AMBROSIA REPOSTERÖA";;;"(57) (4) 5707536";"Cr43 32 A S-18 Envigado Colombia, Medellín"
EXLIBRIS;;;"(57) (4) 2301836";"Cl 53 64 A-27 Colombia, Medellín"
D.L.J;;;"(57) (2) 3288433";"Cr40 40-04 Ap 101 Colombia, Cali"
"TODO FRESA";;;"(57) (4) 2681848";"Cr43 B 12-15 Colombia, Medellín"
"SABORAMOR REPOSTERÍA ARTESANAL";;;"(57) (4) 3134701";"Cr43 A 18-S 135 Int 110 Colombia, Medellín"
"PANADERÍA Y REPOSTERÍA MULTIPÁN";;;"(57) (4) 2542455";"Cl 55 38-18 Colombia, Medellín"
"AMOR MIO REPOSTERÍA Y CAFÉ";;;"(57) (4) 2685531";"C.C. Monterrey L-180 Colombia, Medellín"
"REPOSTERÌA AL HORNO";;;"(57) (4) 4445822";"Cr51 B 12 S-32 Colombia, Medellín"
"PANADERÍA Y REPOSTERÍA MARCOS PAN";;;"(57) (4) 2740660";"Cr50 49-02 Copacabana Colombia, Medellín"
"REPOSTERIA SUPERPAN";;;"(57) (4) 2365078";"Cra42 B 95-32 Colombia, Medellín"
"EVENTOS MI DULCE COMPAÑÍA";;;"(57) (5) 3516599";"Cl 57 37-71 C-2 Colombia, Barranquilla"
"REPOSTERÍA Y PANADERÍA JUAN PAN";;;"(57) (4) 2939897";"Cl 52 9-06 Colombia, Medellín"
"CHEESECAKE COMPANY";;;"(57) (4) 4446760";"Cl 10 33-23 Int 201 Colombia, Medellín"
"PANADERIA Y PASTELERÍA MISTER PAN LA 22";;;"(57) (7) 6831041";"Cr22   N 39-01 Brr. Parque Bolívar Colombia, Bucaramanga"
"INVERSIONES JUANA MARIA";;;"(57) (4) 3174712";"Cl 15 S 46-120 Int 104 Colombia, Medellín"
"DELICIAS PARA SU PALADAR";;;"(57) (4) 4221263";"Cl 77 F 94-44 Ap 301 Colombia, Medellín"
"PANADERIA Y REPOSTERIA FRANCACHELA";;;"(57) (4) 3117350";"Cl 1 A S 43 A-43 Colombia, Medellín"
"DULCE GALETT LTDA.";;;"(57) (1) 7020863";"Cr71 C 116 A-71 Colombia, Bogotá"
"PANADERÍA Y REPOSTERÍA PLAYA PANES";;;"(57) (4) 2176840";"Cl 51 39-101 Colombia, Medellín"
"CAKES & PARTY";;;"(57) (4) 3124551";"Cr32 1 B S-51 L-129 Colombia, Medellín"
DUMBOPAN;;;"(57) (5) 6621122";"Tr44 21 C-04 Calle Las Américas Colombia, Cartagena"
"TORTAS Y TORTAS SANTA BARBARA";;;"(57) (4) 8460195";"Cl Salgar 49-34 Colombia, Santa Bárbara"
"MAMI EMMA";;;"(57) (5) 3559262";"Cl 86 71-41 Colombia, Barranquilla"
"DANI DAZA TORRES";;;"(57) (5) 5712086";"Cl 20 18 A-60 Colombia, Valledupar"
"PASTELERÍA SEVILLA";;;"(57) (1) 4215724";"Cl 18 A 98-70 Colombia, Bogotá"
"MANITOBA LTDA.";;;"(57) (2) 4431523";"Cr8 34-56 Colombia, Cali"
"EL REPOSTERO";;;"(57) (4) 3115543";"Cr36 8 A-09 Colombia, Medellín"
MASA;;;"(57) (1) 4661552";"Cl 81 9-12 Colombia, Bogotá"
"PRODUCTOS EL TORO";;;"(57) (2) 3340128";"Cl 14 43-89 Colombia, Cali"
DIVIARINA;;;"Nal: (57) (4) 3126814";"Cl 17 37 A-33 Int 1005 Colombia, Medellín"
PESPAN;;;"(57) (7) 6455364";"Cr32 A 19-52 San Alonso Colombia, Bucaramanga"
"LA NACCIOLATA";;;"(57) (5) 3568779";"Cr50 74-52 Colombia, Barranquilla"
"AH RICOLOMBIA";;;"(57) (5) 6609557";"Manga Cr 3 29A-53 Colombia, Cartagena"
"REPOSTERÍA MADONAS";;;"(57) (4) 2771775";"Cl 48 56-05 Itagui Colombia, Itagüí"
"MILENIUM DE COLOMBIA";;;"(57) (2) 4433202";"Cr24 B 33 B-98 Colombia, Cali"
D.L.J;;;"(57) (2) 3288433";"Cr40 40-04 Ap 101 Colombia, Cali"
"BAYNIA DULCES TENTACIONES";;;"(57) (5) 3795983";"Cl 65 39 B-70 Ap 1 Colombia, Barranquilla"
"PANADERÍA LA CASTELLANA";;;"(57) (4) 2503343";"Cl 34 80 A-62 Colombia, Medellín"
"TORTAS Y TORTAS EL BOSQUE";;;"(57) (4) 2634413";"Cr55 80-13 Colombia, Medellín"
"NINA TORTAS";;;"(57) (4) 4773295";"Cr74 104-27 Colombia, Medellín"
"PRODUCTOS LOS DE VERO";;;"(57) (4) 3119441";"Cr33 7 A-24 Colombia, Medellín"
"REPOSTERÍA Y PANADERÍA JUAN PAN";;;"(57) (4) 2939897";"Cl 52 9-06 Colombia, Medellín"
"TORTAS Y ALGO MAS";;;"(57) (4) 2528795";"Cl 43 102-49 Colombia, Medellín"
"ALIMENTOS SUPER REGIOS";;;"(57) (4) 4835791";"Dg55 43 A-113 Int 501 Bello Colombia, Bello"
"TORTAS ALICIA DE SOLANILLA";;;"(57) (2) 6610593";"Av6 B N 28-50 Colombia, Cali"
"PANADERIA Y REPOSTERIA FRANCACHELA";;;"(57) (4) 3117350";"Cl 1 A S 43 A-43 Colombia, Medellín"
"First Name";"Email Address";Url;Telephone;Address
"MANITOBA LTDA.";;;"(57) (2) 4431523";"Cr8 34-56 Colombia, Cali"
"PANADERÍA LA SOMBRITA";;;"(57) (4) 2631667";"Cr36 86 B-86 Colombia, Medellín"
"PANADERÍA TOFFEE";;;"(57) (7) 5728272";"Av1 Este 16 A-09 Caobos Colombia, Cúcuta"
"MILENIUM DE COLOMBIA";;;"(57) (2) 4433202";"Cr24 B 33 B-98 Colombia, Cali"
"RED DE NEGOCIOS A.E";;;"(57) (4) 5713651";"Cl 53 36-51 Colombia, Medellín"
"PASTELERÍA ICE CAKE";;;"(57) (1) 6256002";"Cr12 140-27 L-33 Colombia, Bogotá"
"REPOSTERÍA MARYPAT";;;"(57) (4) 3131679";"Cl 20 S 25 B-265 Int 809 Colombia, Medellín"
"REPOSTERÍA Y PANADERÍA JAPONESA";;;"(57) (4) 2392689";"Cr38 42 -37 Colombia, Medellín"
"LA DULCERÍA";;;"(57) (4) 4161523";"Cr87 47-81 Colombia, Medellín"
"REPOSTERÍA FAMY";;;"(57) (5) 2823084";"Cr17 15-185 Chacurí Colombia, Sincelejo"
"CINNACOL S.A.S.";;;"(57) (4) 3527341";"Cr43 A 7 S-170 Int 2057 Colombia, Medellín"
"GURU TÚ BUSCAS JUNTOS ENCONTRAMOS";;;"Nal: (57) (1) 2254007";"Av 68 75 A-50 Colombia, Bogotá"
"CARNAVAL REPOSTERÍA";;;"(57) (4) 3340324";"Cl 36 D S 27 D-166 Int 276 Envigado Colombia, Envigado"
"RESTAURANTE EL CORREO S.A.S.";;;"(57) (4) 3860443";"Km 17 Vía Las Palmas Mall Indiana L 169 Y-170 Colombia, Envigado"
"REPOSTERÍA MAXITORTA®S";;;"(57) (4) 4448571";"Cr50 C 10 S-08 Colombia, Medellín"
"GÓNGORA AICHEL MARÍA";;;"(57) (5) 3558271";"Cr72 90-04 Colombia, Barranquilla"
"LA CASA DEL PASTEL";;;"(57) (4) 2303253";"Cr66 49 A- 18 Colombia, Medellín"
"PANADERÍA Y MISCELÁNEA MARIANA";;;"(57) (8) 5124914";"Et III Natania Colombia, San Andrés"
"SARITA REPOSTERÍA";;;"(57) (5) 3586208";"Cr52 79-45 Ap 13-A Colombia, Barranquilla"
"CON AMORE PASTELERÍA CREATIVA";;;"(57) (5) 3027936";". Colombia, Barranquilla"
"EL PALACIO DEL MANÍ";;;"(57) (2) 8844326";"Cr9 12-63 Colombia, Cali"
PASTIARTE;;;"(57) (4) 3416503";"Cr76 27 A-18 Colombia, Medellín"
"BROWN ES UNA REPOSTERIA LTDA.";;;"(57) (1) 2480409";"Cl 77 A 12-26 Colombia, Bogotá"
"DONATELLO REPOSTERIA";;;"(57) (7) 6478562";"Cr34 48-94 Colombia, Bucaramanga"
"POSTRES DE LA SABANA";;;"(57) (1) 2525741";"Cr73 ABis 64 A-12 Colombia, Bogotá"
"COLOR PASTEL";;;"(57) (4) 3210893";"Cr25 A 1 A-S-45 L-9570 Colombia, Medellín"
"TORTAS ALICIA DE SOLANILLA";;;"(57) (2) 6610593";"Av6 B N 28-50 Colombia, Cali"
"POSTRES GOURMET PUDINES & POSTRE";;;"(57) (5) 1000000";"Crespo Av2 67-86 Colombia, Cartagena"
"CAIDO DEL CIELO";;;"(57) (4) 2661832";"Cr24 B 16-26 Int 111 Colombia, Medellín"
"BIZCOCHOS LUISA PUERTA";;;"(57) (4) 3170088";"Cr25 9 A S-232 Ap 602 Colombia, Medellín"
"LUBDY REPOSTERÍA Y PASTELERÍA";;;"(57) (5) 3005363";"Cr58 21 B-26 Colombia, Barranquilla"
"DELI CREM";;;"(57) (4) 4111575";"Cq 74 A 39-42 Colombia, Medellín"
MADELENA;;;"(57) (6) 3450964";"Cl 48 19-100 Casa 41 Colombia, Pereira"
"PANADERÍA Y REPOSTERÍA ORQUÍDEA NO. 1";;;"(57) (4) 8494769";"Cl 10 10-29 Colombia, Támesis"
"PANADERÍA Y REPOSTERÍA SUZETTE";;;"(57) (8) 5127867";"Av Colombia Edif Osaka Sarie Bay Colombia, San Andrés"
"ANGIE JIMENEZ REPOSTERÍA";;;"(57) (5) 3577585";"Cr52 B 94-103 B A Ap 501 Colombia, Barranquilla"
"REPOSTERÍA Y BILLARES EL CASINO";;;"(57) (4) 4760489";"Cr82 A 107 A-27 Colombia, Medellín"
"REPOSTERÍA FINA MANZZINO S.A.S";;;"Nal: (57) (4) 5807000";"Tr39 71-145 - Medellín Colombia, Medellín"
"TORTAS Y TORTAS GUARNE";;;"Nal: (57) (4) 5514994";"Cr 51 47 -57 Colombia, Medellín"
PESPAN;;;"(57) (7) 6455364";"Cr32 A 19-52 San Alonso Colombia, Bucaramanga"
"First Name";"Email Address";Url;Telephone;Address
"ENDULZA TU VIDA LTDA.";;;"(57) (4) 2357615";"Cl 16 B 55-66 Colombia, Medellín"
"TORTAS DEL GORDO DE ITAGUI";;;"(57) (4) 5614840";"Rionegro Colombia, Medellín"
"MILA V";;;"(57) (5) 6700079";"Centro Historico Cl De La Iglesia 35-76 Colombia, Cartagena"
"PANADERÍA LA SOMBRITA";;;"(57) (4) 2631667";"Cr36 86 B-86 Colombia, Medellín"
"ALMA DULCE";;;"Nal: (57) (4) 3341532";"Tr33 S 39-16 Envigado Colombia, Medellín"
"BAKED BY ANA";;;"(57) 3175386379";"Cl 119 B 5-31 Colombia, Bogotá"
"TORTAS Y TORTAS FELIZ DIA";;;"Nal: (57) (4) 4520851";"Cr 76 110 - 96 Colombia, Medellín"
"CONDIMENTOS TREZABOR";;;"(57) (7) 6338863";"Cr6 23-32 Colombia, Bucaramanga"
"MI DULCE ANTOJITO";;;"(57) (1) 2555521";"Cr25 51-10 P 1 Colombia, Bogotá"
"CELESTINA REPOSTERIA";;;"(57) (4) 2660448";"Cl 7 D 43 C-23 L-102 Colombia, Medellín"
"CHOCOLATERÍA Y REPOSTERÍA CODECO";;;"(57) (7) 6472695";"Cl 49 38-12 Colombia, Bucaramanga"
"DORA MILLÁN FLETCHER REPOSTERÍA";;;"(57) (2) 8938238";"Cr12 A 1-57 Colombia, Cali"
"CLAUDIA REPOSTERIA";;;"(57) (5) 3681222";"Cl 79 51-72 L-13 Colombia, Barranquilla"
"BESOS DE TRIGO REPOSTERÍA";;;"(57) (4) 3619994";"Cl 81 56-30 Int 101 Itagüí Colombia, Itagüí"
"MILENIUM DE COLOMBIA";;;"(57) (2) 4433202";"Cr24 B 33 B-98 Colombia, Cali"
"SUEÑOS DE AZÚCAR";;;"(57) (4) 8282183";"Cl 103 111-89 Brr los Pinos Colombia, Apartadó"
"RED DE NEGOCIOS A.E";;;"(57) (4) 5713651";"Cl 53 36-51 Colombia, Medellín"
"POSTRES ANTOJITO.COM";;;"(57) (1) 5200462";"Cl 141 46-75 P-1 Colombia, Bogotá"
"TODO PURO";;;"(57) (4) 2686410";"Cr48 10-45 L-14 Colombia, Medellín"
"GUAYABA & RICOTTA";;;"(57) (4) 3113955";"Tr12 A 32-116 Colombia, Medellín"
"TRADICIONES REPOSTERÍA";;;"(57) (4) 2302769";"Cr66 48-30 Colombia, Medellín"
"CHEESECAKE COMPANY";;;"(57) (4) 4446760";"Cl 10 33-23 Int 201 Colombia, Medellín"
"REPOSTERÍA MARYPAT";;;"(57) (4) 3131679";"Cl 20 S 25 B-265 Int 809 Colombia, Medellín"
GANAMANÚA;;;"(57) (4) 3610526";"Cr65 8 B-91 Int 80 Colombia, Medellín"
"TORTAS Y TORTAS SAN CRISTÓBAL";;;"(57) (4) 4272929";"Cr130 62-27 San Cristóbal Colombia, Medellín"
"DELICIAS JUANITA";;;"(57) (4) 3516344";"Cl 38 66 A-02 Ap 301 Colombia, Medellín"
"GURU TÚ BUSCAS JUNTOS ENCONTRAMOS";;;"Nal: (57) (1) 2254007";"Av 68 75 A-50 Colombia, Bogotá"
"CARNAVAL REPOSTERÍA";;;"(57) (4) 3340324";"Cl 36 D S 27 D-166 Int 276 Envigado Colombia, Envigado"
DELICENTRO;;;"(57) (4) 5112275";"Cr 46 52-121 Colombia, Medellín"
"PANADERÍA Y REPOSTERÍA SOLO RICURAS";;;"(57) (4) 4631162";"Cr60 22 A-04 Bello Colombia, Bello"
"REPOSTERÍA MAXITORTA®S";;;"(57) (4) 4448571";"Cr50 C 10 S-08 Colombia, Medellín"
"ALIMENTOS DOÑA BLANCA";;;"(57) (4) 5680945";"Cl 21 25-111 La Ceja Colombia, Medellín"
"First Name";"Email Address";Url;Telephone;Address
"BIZCOCHOS Y POSTRES DE OLI";;;"(57) (4) 2700400";"Cl 37 S 43 A-34 Envigado Colombia, Envigado"
"GÓNGORA AICHEL MARÍA";;;"(57) (5) 3558271";"Cr72 90-04 Colombia, Barranquilla"
"CLASE GOURMET DELICATESSEN";;;"(57) (5) 3033466";"Cl 79 41 E-26 Colombia, Barranquilla"
"PRODUCTOS EL TORO";;;"(57) (2) 3340128";"Cl 14 43-89 Colombia, Cali"
"MAJO'S BAKERY";;;"(57) (1) 4613703";". Colombia, Bogotá"
"DULCE CONCEPTO";;;"(57) (4) 3429893";"Cr76 17 A-06 Colombia, Medellín"
"HOYER CEPEDA ELIZABETH PATRICIA";;;"(57) (5) 3788173";"Cl 80 68-22 Colombia, Barranquilla"
"AMBROSIA REPOSTERÖA";;;"(57) (4) 5707536";"Cr43 32 A S-18 Envigado Colombia, Medellín"
"ANNY BLUE";;;"(57) (5) 3607890";"Cr53 64-226 Colombia, Barranquilla"
"DONALD S COMPANY S.A.S.";;;"(57) (1) 6555610";"Cl 97 22-80 Ap 505 Colombia, Bogotá"
"REPOSTERÍA FINA MANZZINO S.A.S";;;"Nal: (57) (4) 5807000";"Tr39 71-145 - Medellín Colombia, Medellín"
"REPOSTERÍA Y PANADERÍA JUAN PAN";;;"(57) (4) 2939897";"Cl 52 9-06 Colombia, Medellín"
"HOYER CEPEDA ELIZABETH PATRICIA";;;"(57) (5) 3788173";"Cl 80 68-22 Colombia, Barranquilla"
DULCERNA;;;"(57) (5) 3580058";"Cr53 75-78 Colombia, Barranquilla"
"LA GOLOSINA";;;"(57) (5) 3580058";"Cr53 75-46 Colombia, Barranquilla"
"MALVA REPOSTERÍA";;;"(57) 3113562379";"Cr64 C 51-61 Colombia, Medellín"
"EVENTOS MI DULCE COMPAÑÍA";;;"(57) (5) 3516599";"Cl 57 37-71 C-2 Colombia, Barranquilla"
"LA CANOA CAFÉ";;;"(57) (5) 4217895";"Calle 18 3-75 Centro Colombia, Santa Marta"
"REPOSTERÍA MADONAS";;;"(57) (4) 2771775";"Cl 48 56-05 Itagui Colombia, Itagüí"
"LA CASA DEL PASTEL";;;"(57) (4) 2303253";"Cr66 49 A- 18 Colombia, Medellín"
"REPOSTERIA DE DULCE Y DE SAL";;;"(57) (4) 3118871";"Cr29 6-35 Int 201 Colombia, Medellín"
"LA GULERIA";;;"(57) (4) 2702378";"Cl 45 B S 40-55 Envigado Colombia, Envigado"
"PISTACHO LA PASTELERIA GOURMET";;;"(57) (1) 4785820";"Cl 152 A 16 A-91 Colombia, Bogotá"
"TODO FRESA";;;"(57) (4) 2681848";"Cr43 B 12-15 Colombia, Medellín"
"REPOSTERÍA Y PANADERÍA PAN PANES Y ALGO MÁS";;;"(57) (4) 5124499";"Cl 50 53-103 Colombia, Medellín"
"B. TORTAS Y POSTRES";;;"(57) (2) 4453767";"Cl 44 27-16 Colombia, Cali"
"PANADERÍA LA MEJOR";;;"(57) 3145833326";"Cl 24 49-14 L-1 Colombia, El Carmen de Bolívar"
"BETANCOURT SOCORRO DE";;;"(57) (2) 6641465";"Cl 42 N 5 N-13 Colombia, Cali"
"LYON REPOSTERÍA";;;"(57) (4) 3211522";"Cr34 16 A S-307 Int 601 Colombia, Medellín"
"DULCE GALETT LTDA.";;;"(57) (1) 7020863";"Cr71 C 116 A-71 Colombia, Bogotá"
"CON AMORE PASTELERÍA CREATIVA";;;"(57) (5) 3027936";". Colombia, Barranquilla"
"PANADERIA Y PASTELERIA LA ESPECIAL";;;"(57) (5) 4357469";"Cr4 17-46 Rodadero Colombia, Santa Marta"
"PANADERÍA SICO";;;"(57) (5) 6560982";"Popa Cl 34 20 F-19 Calle La Candelaria Colombia, Cartagena"
"ESTADERO CENTRAL";;;"(57) (5) 4315348";"Cl 14 13-103 Colombia, Santa Marta"
"MACO CAYCEDO";;;"(57) (5) 4235094";"Cl 26 4-132 Colombia, Santa Marta"
"COOKIES AND COFFEE GOURMET";;;"(57) (2) 1231234";"Cl 72 A 2-03 An 33 Colombia, Cali"
"TRADICIONES REPOSTERÍA";;;"(57) (4) 2302769";"Cr66 48-30 Colombia, Medellín"
"AKIKO BROWNIE";;;"(57) 3013285701";"cl 13a 16a 21 Colombia, Riohacha"
"ANNY BLUE";;;"(57) (5) 3607890";"Cr53 64-226 Colombia, Barranquilla"
"REPOSTERIA NOLVA MORA";;;"(57) (5) 3702673";"Cl 58 18-123 Buena Esperanza Colombia, Barranquilla"
"REPOSTERÍA SABORES DEL AYER";;;"(57) (4) 2885327";"Cl 70 S 46-60 Sabaneta Colombia, Sabaneta"
"FLOR Y NATAS REPOSTERÍA";;;"(57) (4) 2303660";"Cl 53 64 BB-34 Ap 201 Colombia, Medellín"
"PASTELERÍA ZAHAVI";;;"(57) (2) 8938797";"Cr10 3-81 P-1 Colombia, Cali"
"TORTAS Y TORTAS GIRARDOTA";;;"(57) (4) 2894465";"Cl 7 17-08 Girardota Colombia, Medellín"
"BEIK MARKET";;;"(57) (4) 5855930";"Cr37 8 A-68 L-201 Colombia, Medellín"
"TORTAS Y TORTAS EL BOSQUE";;;"(57) (4) 2634413";"Cr55 80-13 Colombia, Medellín"
"TORTAS SENSACIÓN";;;"(57) (4) 4718554";"Cl 101 BB 77 A-38 Colombia, Medellín"
MUIFINA;;;"(57) (4) 7822093";"Cr7 40-08 Colombia, Montería"
"First Name";"Email Address";Url;Telephone;Address
"LAS DELICIAS DE MARIANTONIA";;;"(57) (4) 2707853";"Tr34 S 31 E-65 Colombia, Medellín"
"POSTRES ANTOJITO.COM";;;"(57) (1) 5200462";"Cl 141 46-75 P-1 Colombia, Bogotá"
"ESTADERO CENTRAL";;;"(57) (5) 4315348";"Cl 14 13-103 Colombia, Santa Marta"
"REPOSTERÍA SABORES DEL AYER";;;"(57) (4) 2885327";"Cl 70 S 46-60 Sabaneta Colombia, Sabaneta"
"DISTRIBUCIONES DELIRICURAS";;;"(57) (4) 2537620";"Cl 45 90-17 Colombia, Medellín"
"REPOSTERIA Y DELICIAS DE LA PLAYA";;;"(57) (4) 2397955";"Cl 51 43-17 Colombia, Medellín"
"TORTAS ALICIA DE SOLANILLA";;;"(57) (2) 6610593";"Av6 B N 28-50 Colombia, Cali"
"SIMÓN PASTELERO";;;"(57) (4) 2609030";"Cr70 44-12 Colombia, Medellín"
FLORALBER;;;"(57) (4) 4626504";"Cl 20 F 73-17 Bello Colombia, Bello"
"First Name";"Email Address";Url;Telephone;Address
"PANADERÍA SICO";;;"(57) (5) 6560982";"Popa Cl 34 20 F-19 Calle La Candelaria Colombia, Cartagena"
"DULCINEA REPOSTERÍA";;;"(57) (4) 7823550";"Cr3 26-14 Colombia, Montería"
"METROS PAN NIQUIA";;;"(57) (4) 4830529";"Dg55 43-162 Bello Colombia, Bello"
"REPOSTERÍA LA ABUELA FLORA";;;"(57) (4) 3424480";"Cl 34 C 89-68 Colombia, Medellín"
JOTAMILTON;;;"(57) (2) 8208696";"Cr5 7-14 Centro Colombia, Popayán"
"SAN POSTRE";;;"(57) (4) 2526968";"Cl 35 A 86-52 Colombia, Medellín"
"EMPACADORA DE ALIÑOS Y REPOSTERÍA CALIMA";;;"(57) (2) 3250542";"Tr25 B 25-265 Colombia, Cali"
"AH RICOLOMBIA";;;"(57) (5) 6609557";"Manga Cr 3 29A-53 Colombia, Cartagena"
"SARA'S CAKES";;;"(57) (4) 3543850";"Cl 27 82 A-85 Int 413 Colombia, Medellín"
"COOKIES AND COFFEE GOURMET";;;"(57) (2) 1231234";"Cl 72 A 2-03 An 33 Colombia, Cali"
"TORTAS Y TORTAS EL BOSQUE";;;"(57) (4) 2634413";"Cr55 80-13 Colombia, Medellín"
"GURU TÚ BUSCAS JUNTOS ENCONTRAMOS";;;"Nal: (57) (1) 2254007";"Av 68 75 A-50 Colombia, Bogotá"
"CAKE BOUTIQUE";;;"(57) 3136982259";"Cl 12 15-53 Colombia, Armenia"
DELI;;;"(57) (1) 3071111";"Tr60 127-45 L-28 Colombia, Bogotá"
"LECHE Y MIEL REPOSTERÍA GOURMET";;;"(57) (5) 6623143";"Camino del Medio Cr31 A 39-47 Edf Villa Erika Colombia, Cartagena"
"TORTAS Y TORTAS MAXITORTAS";;;"(57) (4) 5432666";"Cr31 28-83 El Carmen de Viboral Colombia, Medellín"
"BANQUETES MYRIAM ROMERO";;;"(57) (5) 6533767";"Los Alpes Cl 31 E 71 B-47 Colombia, Cartagena"
"LA ALACENA BISTRO Y REPOSTERÍA";;;"Nal: (57) (4) 3334446";"Cl 30 S 44 A 22 Colombia, Medellín"
"CUPCAKE LOVE";;;"Nal: (57) (4) 2816002";"cr 46A 49 - 32 Colombia, Medellín"
"CLAUDIA REPOSTERIA";;;"(57) (5) 3681222";"Cl 79 51-72 L-13 Colombia, Barranquilla"
"MAMI POSTRES";;;"(57) (5) 3799962";"Cr41 51-88 Colombia, Barranquilla"
"PANADERÍA Y REPOSTERÍA EL MUNDO DEL PAN";;;"(57) (4) 4560282";"Tr56 A 56 A-03 Bello Colombia, Bello"
"TORTAS SENSACIÓN";;;"(57) (4) 4718554";"Cl 101 BB 77 A-38 Colombia, Medellín"
"F&C CHEF FREDDY COLMENARES";;;"(57) (4) 3739166";"Cr57 69 D-33 Itagüí Colombia, Itagüí"
"POLANÍA NEWMAN CAROLINA";;;"(57) (5) 3582718";"Cl 75 54-23 Colombia, Barranquilla"
"DELI CREM";;;"(57) (4) 4111575";"Cq 74 A 39-42 Colombia, Medellín"
"PAN CALIENTE EXPRESS";;;"(57) (5) 4102000";"Cl 12 10 B-67 Colombia, Ciénaga"
"PANADERÍA APOLO";;;"(57) (5) 3404331";"Cr40 34-05 Colombia, Barranquilla"
"LA MEJOR PANADERIA Y REPOSTERIA 1";;;"(57) (5) 5743025";"Cl 17 8-15 Colombia, Valledupar"
"PASTELERÍA SEVILLA";;;"(57) (1) 4215724";"Cl 18 A 98-70 Colombia, Bogotá"
"ARTHUR KING DELICIAS";;;"(57) (5) 3453662";"Cl 74 46-58 Colombia, Barranquilla"
"XOCOLATL REPOSTERÍA GOURMET";;;"(57) (4) 2301840";"Medellín Colombia, Medellín"
"MILONGA REPOSTERIA";;;"(57) (4) 4440303";"Cl 30 A S 44 A-13 Envigado Colombia, Envigado"
"CAFÕ REPOSTERÚA RÚODULCE";;;"(57) (4) 3382216";"Cr52 D 75 AA S 280 L-140 Colombia, Medellín"
"AI LOFF BROWNIES";;;"(57) (4) 3514140";"Cl 42 C 63 c-145 Colombia, Medellín"
"LA CASA DEL PASTEL";;;"(57) (4) 2303253";"Cr66 49 A- 18 Colombia, Medellín"
DEDITOS;;;"(57) (5) 3551811";"Cl 84 67 Esq Colombia, Barranquilla"
"ANGIE JIMENEZ REPOSTERÍA";;;"(57) (5) 3577585";"Cr52 B 94-103 B A Ap 501 Colombia, Barranquilla"
DANCALI;;;"(57) (2) 4860086";"Cr1 44-01 Colombia, Cali"
"DULCE AVELLANA";;;"(57) (4) 3319471";"Cr27 G 36 D S-25 Trr 2 Ap 320 Envigado Colombia, Medellín"
"CLASE GOURMET DELICATESSEN";;;"(57) (5) 3033466";"Cl 79 41 E-26 Colombia, Barranquilla"
"NATALIA CÁRDENAS PASTISSERIE";;;"(57) (5) 3203390";"Cr60 79-369 L-2 Colombia, Barranquilla"
"PANADERIA Y REPOSTERIA PAN TRIGADO";;;"(57) (4) 2527702";"Cr 88 42 c- 02 Colombia, Medellín"
"MARTHA ISABEL DE MEZA";;;"(57) (5) 4227458";"Cr8 No. 28-147 Bavaria Colombia, Santa Marta"
"RICURAS LULÚ";;;"(57) (1) 2368971";"Cl 93 45-36 Colombia, Bogotá"
"REPOSTERIA Y DELICIAS DE LA PLAYA";;;"(57) (4) 2397955";"Cl 51 43-17 Colombia, Medellín"
"PANADERÍA Y REPOSTERÍA LA ESPECIAL";;;"(57) (5) 5847865";"Cr6 16 A-57 Centro Colombia, Valledupar"
"LA CANOA CAFÉ";;;"(57) (5) 4217895";"Calle 18 3-75 Centro Colombia, Santa Marta"
"DE LOLITA REPOSTERÍA RESTÓ CAFÉ";;;"(57) (4) 3012030";"Cr49 61 S-540 Int 158 Sabaneta Colombia, Medellín"
"REPOSTERÍA DELISABOR";;;"(57) (4) 5310519";"Cl 47 50-19 Rionegro Colombia, Medellín"
"HECHO CON AMOR";;;"(57) (5) 3004540";"Cl 71 No. 32-64 Colombia, Barranquilla"
"VISCOTTI REPOSTERÍA";;;"(57) (4) 4904928";"Cr87 D 46-43 Colombia, Medellín"
CAFÉ-CLE;;;"(57) (5) 3737163";"Cr52 79-320 C.C Entertainment Store Colombia, Barranquilla"
"PILY'S REPOSTERIA";;;"(57) (5) 6816729";"La Plazuela Manz B Lt 9 Colombia, Cartagena"
"PRODUCTOS BRIEFE";;;"(57) (4) 3792806";"Cl 77 S 57-16 La Estrella Colombia, Medellín"
"JUAN PASTELO LTDA.";;;"(57) (2) 5585432";"Cr27 9 B-29 Colombia, Cali"
"FUNDACION DELICIAS CON AMOR";;;"(57) (4) 2115483";"Cr40 88-12 Int 101 Colombia, Medellín"
"PORKY PARTY";;;"Nal: (57) (4) 2163817";"Cl 49 A 38-40 Colombia, Medellín"
"PANADERIA Y REPOSTERIA ANITA";;;"(57) (5) 4226482";"Cr10 6-58 Colombia, Santa Marta"
"BROWN ES UNA REPOSTERIA LTDA.";;;"(57) (1) 2480409";"Cl 77 A 12-26 Colombia, Bogotá"
"TORTAS Y TORTAS BAZAR DE LAS TORTAS";;;"Nal: (57) (4) 5411440";"Cr 20 21 - 46 Colombia, Medellín"
"MI DULCE ANTOJITO";;;"(57) (1) 2555521";"Cr25 51-10 P 1 Colombia, Bogotá"
"CUP & CAKES";;;"(57) (1) 2578361";"Cl 90 13-46 L-101 Colombia, Bogotá"
"MELCOCHITAS REPOSTERIA FINA";;;"Nal: (57) (4) 4217015";"Cr86 49 E-55 Int 501 Colombia, Medellín"
"MAMÁ DE LA NIÑA REPOSTERÍA";;;"(57) (4) 2669401";"Cr37 A 15 B-26 Colombia, Medellín"
PETIT;;;"(57) (4) 3132092";"Cl 15 S 48-34 Int 113 Colombia, Medellín"
"PANADERIA Y REPOSTERIA LA MADELEINE";;;"(57) (4) 3012451";"Cl 75 S 47-10 Sabaneta Colombia, Sabaneta"
"METROS PAN NIQUIA";;;"(57) (4) 4830529";"Dg55 43-162 Bello Colombia, Bello"
"BATIDOS REPOSTERÍA";;;"(57) (4) 4116236";"Cq4 70-88 Colombia, Medellín"
"LUZ ESTÕTICA SPA";;;"(57) (4) 2554632";"Cr54 4-69 Colombia, Medellín"
"BROWNIES POSTRES Y CHOCOLATES";;;"(57) (4) 3768069";"Cl 76 D S 43 A-45 Sabaneta Colombia, Sabaneta"
"First Name";"Email Address";Url;Telephone;Address
"RESTAURANTE - REPOSTERIA NANCY CABRERA";;;"(57) (5) 3781369";"Cl 80 53-18 Colombia, Barranquilla"
"CARNAVAL REPOSTERÍA";;;"(57) (4) 3340324";"Cl 36 D S 27 D-166 Int 276 Envigado Colombia, Envigado"
"RESTAURANTE EL CORREO S.A.S.";;;"(57) (4) 3860443";"Km 17 Vía Las Palmas Mall Indiana L 169 Y-170 Colombia, Envigado"
"DULZURAS DE SIEMPRE";;;"(57) (4) 2841269";"Cl 70 30-50 Ap 107 Colombia, Medellín"
"PANADERÍA Y REPOSTERÍA SUPERPÁN N°2";;;"(57) (4) 5270299";"Cr37 97-05 Colombia, Medellín"
"JULIANA ALVAREZ REPOSTERÍA";;;"(57) (4) 2661680";"Cl 11 A 43 B-20 Ap 203 Colombia, Medellín"
"MAZAPANES TEDY";;;"(57) (4) 2704030";"Cl 45 S 42 B-68 Envigado Colombia, Medellín"
"LA ASTURIANA RESTAURANTE & CAFÉ";;;"(57) (1) 2562914";"Cl 85 16 A-40 Colombia, Bogotá"
"MAMI POSTRES";;;"(57) (5) 3799962";"Cr41 51-88 Colombia, Barranquilla"
"CANNOLI RESPOSTERÍA";;;"(57) (4) 3430141";"Cl 30 A 75-47 Colombia, Medellín"
ANAHATA;;;"(57) (4) 3134748";"Cl 20 S 36 A-13 Int 202 Colombia, Medellín"
"PANADERÍA KOVI";;;"(57) (8) 5129451";"Av 20 de Julio 3-20 Colombia, San Andrés"
"MILA V";;;"(57) (5) 6700079";"Centro Historico Cl De La Iglesia 35-76 Colombia, Cartagena"
"SAN ANTONIO DULCES Y POSTRES";;;"(57) (4) 4134907";"Cl 37 80-19 Colombia, Medellín"
"ALMIBAR, POSTRES Y HELADOS";;;"(57) (4) 4139818";"Cl 37 80-36 L-107 Colombia, Medellín"
"EXCLUSIVIDADES ADRIANA";;;"(57) (2) 3744820";"Cr7 U 72-127 Colombia, Cali"
"CONDIMENTOS TREZABOR";;;"(57) (7) 6338863";"Cr6 23-32 Colombia, Bucaramanga"
"CAFÉ ALTAMAR";;;"(57) (5) 4228625";"Cr1 5-113 L-1-C Colombia, Santa Marta"
"PANADERÍA TOFFEE";;;"(57) (7) 5728272";"Av1 Este 16 A-09 Caobos Colombia, Cúcuta"
"LAS DELICIAS DE MARIANTONIA";;;"(57) (4) 2707853";"Tr34 S 31 E-65 Colombia, Medellín"
"RESTAURANTE LA PIADINA";;;"(57) (4) 3738412";"Cr 42 75-83 L-123A Itagui Colombia, Itagüí"
"LA TORTERÍA";;;"(57) (4) 3361489";"Cr27 36 S-66 Int 12 Envigado Colombia, Envigado"
"TRADICIONES REPOSTERÍA";;;"(57) (4) 2302769";"Cr66 48-30 Colombia, Medellín"
"TORTAS Y ALGO MAS";;;"(57) (4) 2528795";"Cl 43 102-49 Colombia, Medellín"
"ALIMENTOS BRUNELLI";;;"(57) (4) 5964622";"Cr53 51 A-13 Bello Colombia, Bello"
DELIMANIA;;;"(57) (4) 3412716";"Cl 5 76 A-161 Ap 903 Colombia, Medellín"
"REPOSTERÍA MARYPAT";;;"(57) (4) 3131679";"Cl 20 S 25 B-265 Int 809 Colombia, Medellín"
"PANADERÍA Y REPOSTERÍA PUNTO RICURAS";;;"(57) (4) 3623902";"Cr52 D 83-04 Itagüí Colombia, Itagüí"
"PANADERÍA Y REPOSTERÍA PLAYA PANES";;;"(57) (4) 2176840";"Cl 51 39-101 Colombia, Medellín"
"PANADERÍA J. PAN";;;"(57) (7) 6523468";"Cr7 24-05 Colombia, Bucaramanga"
"BIZCOCHOS LUISA PUERTA";;;"(57) (4) 3170088";"Cr25 9 A S-232 Ap 602 Colombia, Medellín"
"REPOSTERÍA DELISABOR";;;"(57) (4) 5310519";"Cl 47 50-19 Rionegro Colombia, Medellín"
"LA PUERTA DEL CIELO";;;"(57) (5) 3780578";"Cl 96 A 49 C-194 Colombia, Barranquilla"
"PAN & CHOCOLATE";;;"(57) 3185146428";"Cr16 3 N-11 Colombia, Armenia"
"ALIMENTOS DOÑA BLANCA";;;"(57) (4) 5680945";"Cl 21 25-111 La Ceja Colombia, Medellín"
"PANDERITOS TÍA MAYO";;;"(57) (5) 6609296";"Av4 23-70 Colombia, Cartagena"
"DULCE ABRIL";;;"(57) (4) 4446710";"Cr43 58-44 Int 301 Colombia, Medellín"
"PASTELERÍA VASCA";;;"(57) (1) 7325980";"Cr7 11-83 Soacha Colombia, Soacha"
"REPOSTERÍA Y ALGO MÁS LUZ STELLA";;;"(57) (6) 3212383";"Cl 11 27-15 L-4 Colombia, Pereira"
"DORITA FLETCHER";;;"(57) (5) 3579140";"Cl 86 64 C-40 Colombia, Barranquilla"
"First Name";"Email Address";Url;Telephone;Address
"REPOSTERÍA DELISABOR";;;"(57) (4) 5310519";"Cl 47 50-19 Rionegro Colombia, Medellín"
"DELI CREM";;;"(57) (4) 4111575";"Cq 74 A 39-42 Colombia, Medellín"
"PAN ALAMO";;;"(57) (5) 6536750";"Carrt Troncal de Occidente Bdg 10-11 Colombia, Cartagena"
"PANADERÍA NEIVA PAN";;;"(57) (8) 8712429";"Cl 8 5-102 Colombia, Neiva"
CAFÉ-CLE;;;"(57) (5) 3737163";"Cr52 79-320 C.C Entertainment Store Colombia, Barranquilla"
"DORITA FLETCHER";;;"(57) (5) 3579140";"Cl 86 64 C-40 Colombia, Barranquilla"
"BOCADITOS & PANECITOS";;;"(57) (5) 3458035";"Cr43 79-188 Colombia, Barranquilla"
"PRODUCTOS BARRILITO LTDA.";;;"(57) (1) 3178303";"Cl 79 10-81 Colombia, Bogotá"
"PANADERIA Y PASTELERIA LA ESPECIAL";;;"(57) (5) 4357469";"Cr4 17-46 Rodadero Colombia, Santa Marta"
"DULCE GALETT LTDA.";;;"(57) (1) 7020863";"Cr71 C 116 A-71 Colombia, Bogotá"
"REPOSTERÍA SANTA BÁRBARA";;;"(57) (4) 8463689";"Santa Bárbara Colombia, Santa Bárbara"
"PANADERÍA Y MISCELÁNEA MARIANA";;;"(57) (8) 5124914";"Et III Natania Colombia, San Andrés"
"REPOSTERIA NOLVA MORA";;;"(57) (5) 3702673";"Cl 58 18-123 Buena Esperanza Colombia, Barranquilla"
"PASTELERÍA SEVILLA";;;"(57) (1) 4215724";"Cl 18 A 98-70 Colombia, Bogotá"
"ENDULZA TU VIDA LTDA.";;;"(57) (4) 2357615";"Cl 16 B 55-66 Colombia, Medellín"
"VENTA Y CLASES DE REPOSTERIA SUCRE SUCRE";;;"(57) (4) 4122678";"Cr73 C 1-39 Colombia, Medellín"
"BROWN ES UNA REPOSTERIA LTDA.";;;"(57) (1) 2480409";"Cl 77 A 12-26 Colombia, Bogotá"
"SOMOS MASA";;;"Nal: (57) (1) 2110899";"Cl 70 4-83 Colombia, Bogotá"
"BAKED BY ANA";;;"(57) 3175386379";"Cl 119 B 5-31 Colombia, Bogotá"
"DULCE CONCEPTO";;;"(57) (4) 3429893";"Cr76 17 A-06 Colombia, Medellín"
"MI DULCE ANTOJITO";;;"(57) (1) 2555521";"Cr25 51-10 P 1 Colombia, Bogotá"
"AH RICOLOMBIA";;;"(57) (5) 6609557";"Manga Cr 3 29A-53 Colombia, Cartagena"
"PANADERÍA TOFFEE";;;"(57) (7) 5728272";"Av1 Este 16 A-09 Caobos Colombia, Cúcuta"
"CHOCOLATERÍA Y REPOSTERÍA CODECO";;;"(57) (7) 6472695";"Cl 49 38-12 Colombia, Bucaramanga"
"DEMICASA A. SU CASA";;;"(57) (4) 2302980";"Cl 55 64 B-52 Ap 201 Colombia, Medellín"
"POSTRES DE LA SABANA";;;"(57) (1) 2525741";"Cr73 ABis 64 A-12 Colombia, Bogotá"
"RICURAS LULÚ";;;"(57) (1) 2368971";"Cl 93 45-36 Colombia, Bogotá"
"REPOSTERÍA QUETA Y YEYA";;;"(57) (4) 2544658";"Cl 59 50-22 Colombia, Medellín"
"BROWNIES POSTRES Y CHOCOLATES";;;"(57) (4) 3768069";"Cl 76 D S 43 A-45 Sabaneta Colombia, Sabaneta"
"First Name";"Email Address";Url;Telephone;Address
"PRODUCTOS SALUGRAN S.A.S.";;;"Nal: (57) (4) 3545812";"Cl 85 48-1 Bloque 3 Local 19 Itaguí Colombia, Medellín"
"CENTENARIO REPOSTERIA";;;"(57) (4) 8463017";"Cr Santander Cl Salgar Colombia, Santa Bárbara"
"TORTAS Y ALGO MAS";;;"(57) (4) 2528795";"Cl 43 102-49 Colombia, Medellín"
"CON AMORE PASTELERÍA CREATIVA";;;"(57) (5) 3027936";". Colombia, Barranquilla"
"SARALÍ REPOSTERÍA";;;"(57) (5) 5749237";"Cr7 13-32 Colombia, Valledupar"
"REPOSTERÍA FAMI POSTRES";;;"(57) (5) 6676377";"Caracoles Et 1 Manz 63 Lt 11 Colombia, Cartagena"
"REPOSTERÍA LA ABUELA FLORA";;;"(57) (4) 3424480";"Cl 34 C 89-68 Colombia, Medellín"
"ANGIE JIMENEZ REPOSTERÍA";;;"(57) (5) 3577585";"Cr52 B 94-103 B A Ap 501 Colombia, Barranquilla"
"DISTRIBUIDORA LA COSTA S.A.";;;"(57) (2) 6904330";"Cr36 15-125 B-16 Acopi Yumbo Colombia, Yumbo"
"CINNAMON REPOSTERÍA DIETÉTICA";;;"(57) (4) 2661303";"Cl 11 A 43 B-56 Colombia, Medellín"
"ALIMENTOS TORTAS Y GALLETAS REGIA";;;"(57) (2) 4445555";"Cr4 B 30-12 Colombia, Cali"
"PANADERIA Y REPOSTERIA ANITA";;;"(57) (5) 4226482";"Cr10 6-58 Colombia, Santa Marta"
"JUAN PASTELO LTDA.";;;"(57) (2) 5585432";"Cr27 9 B-29 Colombia, Cali"
"ALMIBAR, POSTRES Y HELADOS";;;"(57) (4) 4139818";"Cl 37 80-36 L-107 Colombia, Medellín"
"PRODUCTOS EMMY";;;"(57) (4) 3134175";"Cl 15 S 46-120 L-108 Colombia, Medellín"
"EL REFUGIO DEL PEÑON";;;"Nal: (57) (2) 8927717";"Cr2 Oe 2-39 Colombia, Cali"
UNCAPRICHO;;;"(57) (2) 8927717";"Cr2 Oe 2-39 Colombia, Cali"
"M REPOSTERIA";;;"Nal: (57) (4) 4192682";"Cl 6 B S 37-45 Int 803 Colombia, Medellín"
"PANADERIA Y REPOSTERIA FRANCACHELA";;;"(57) (4) 3117350";"Cl 1 A S 43 A-43 Colombia, Medellín"
"PANADERÍA EL PAN DE CAPRI";;;"(57) (2) 3303930";"Cl 6 76-34 L-30 Colombia, Cali"
"LA NACCIOLATA";;;"(57) (5) 3568779";"Cr50 74-52 Colombia, Barranquilla"
"MI DULCE ANTOJITO";;;"(57) (1) 2555521";"Cr25 51-10 P 1 Colombia, Bogotá"
"PANADERÍA Y REPOSTERÍA PLAYA PANES";;;"(57) (4) 2176840";"Cl 51 39-101 Colombia, Medellín"
"CHOCOLATERÍA Y REPOSTERÍA CODECO";;;"(57) (7) 6472695";"Cl 49 38-12 Colombia, Bucaramanga"
"GÓMEZ MARTHA CECILIA";;;"(57) (2) 4230111";"Cr26 R 73 A-03 Colombia, Cali"
"POSTRES AMORA DULCE";;;"(57) (4) 2342072";"Cl 77 BB 86-48 Colombia, Medellín"
"DONATELLO REPOSTERIA";;;"(57) (7) 6478562";"Cr34 48-94 Colombia, Bucaramanga"
D.L.J;;;"(57) (2) 3288433";"Cr40 40-04 Ap 101 Colombia, Cali"
"LAS DELICIAS DE MARIANTONIA";;;"(57) (4) 2707853";"Tr34 S 31 E-65 Colombia, Medellín"
MUIFINA;;;"(57) (4) 7822093";"Cr7 40-08 Colombia, Montería"
"POSTRES DE LA SABANA";;;"(57) (1) 2525741";"Cr73 ABis 64 A-12 Colombia, Bogotá"
"POSTRES ANTOJITO.COM";;;"(57) (1) 5200462";"Cl 141 46-75 P-1 Colombia, Bogotá"
LACTOCARNICOS;;;"(57) (2) 8395921";"Cl 7 4-66 Colombia, Popayán"
"POSTRES GOURMET PUDINES & POSTRE";;;"(57) (5) 1000000";"Crespo Av2 67-86 Colombia, Cartagena"
"REPOSTERIA SAYAPO";;;"(57) (1) 2620559";"Cr66 A 3-75 Ap 101 Colombia, Bogotá"
"PRODUCTOS SALUGRAN S.A.S.";;;"Nal: (57) (4) 3545812";"Cl 85 48-1 Bloque 3 Local 19 Itaguí Colombia, Medellín"
"MILONGA REPOSTERIA";;;"(57) (4) 4440303";"Cl 30 A S 44 A-13 Envigado Colombia, Envigado"
DEDITOS;;;"(57) (5) 3551811";"Cl 84 67 Esq Colombia, Barranquilla"
"TORTAS Y TORTAS EL BOSQUE";;;"(57) (4) 2634413";"Cr55 80-13 Colombia, Medellín"
"EL TEJADITO CAMPESTRE";;;"(57) (4) 3136958";"Cl 17 S 43 A-42 Colombia, Medellín"
"DELICIAS PARA SU PALADAR";;;"(57) (4) 4221263";"Cl 77 F 94-44 Ap 301 Colombia, Medellín"
"PANADERIA Y REPOSTERIA FRANCACHELA";;;"(57) (4) 3117350";"Cl 1 A S 43 A-43 Colombia, Medellín"
"TORTAS Y TORTAS COPACABANA";;;"(57) (4) 2746159";"Cr49 50-26 Copacabana Colombia, Medellín"
"BOUTIQUE MACARÓN";;;"(57) (6) 7411637";"Cr15 19-40 L-2 Colombia, Armenia"
"POSTRES GOURMET PUDINES & POSTRE";;;"(57) (5) 1000000";"Crespo Av2 67-86 Colombia, Cartagena"
"REPOSTERÍA FRANCISCO";;;"(57) (4) 2540740";"Cl 63 49-63 Colombia, Medellín"
"SARA'S CAKES";;;"(57) (4) 3543850";"Cl 27 82 A-85 Int 413 Colombia, Medellín"
PICADITAS;;;"(57) (5) 3607166";"Cl 79 51-49 Colombia, Barranquilla"
"PANADERÍA VAINILLA Y CHOCOLATE";;;"(57) (4) 2785050";"Cl 100 S 45-240 Int 145 La Tablaza Colombia, Medellín"
"RESTAURANTE Y REPOSTERÚA BOYACÃ";;;"(57) (4) 5129479";"Cl 51 52-23 Colombia, Medellín"
"LA DULCERÍA";;;"(57) (4) 4161523";"Cr87 47-81 Colombia, Medellín"
"First Name";"Email Address";Url;Telephone;Address
"TORTAS Y TORTAS BAZAR DE LAS TORTAS";;;"Nal: (57) (4) 5411440";"Cr 20 21 - 46 Colombia, Medellín"
PESPAN;;;"(57) (7) 6455364";"Cr32 A 19-52 San Alonso Colombia, Bucaramanga"
"REPOSTERÍA MADONAS";;;"(57) (4) 2771775";"Cl 48 56-05 Itagui Colombia, Itagüí"
"SANDRA JUAN REPOSTERÍA";;;"(57) (5) 6605945";"Manga Av de la Asamblea Edif Génesis L-2 Colombia, Cartagena"
"SUPER DULCE-PONQUÉS";;;"(57) (7) 6476616";"Cl 67 16-15 La Victoria Colombia, Bucaramanga"
"COMESTIBLES LA XIMENA";;;"(57) (2) 5574358";"Cl 11 23-41 Colombia, Cali"
"BAYNIA DULCES TENTACIONES";;;"(57) (5) 3795983";"Cl 65 39 B-70 Ap 1 Colombia, Barranquilla"
"CASA DE AZÚCAR";;;"(57) (4) 3124297";"Cr43 B 11 A-5 Colombia, Medellín"
"First Name";"Email Address";Url;Telephone;Address
"SABORAMOR REPOSTERÍA ARTESANAL";;;"(57) (4) 3134701";"Cr43 A 18-S 135 Int 110 Colombia, Medellín"
"PRODUCTOS MUA";;;"(57) (1) 4816171";"Cl 129 A 56 B-34 Colombia, Bogotá"
"REPOSTERIA SAYAPO";;;"(57) (1) 2620559";"Cr66 A 3-75 Ap 101 Colombia, Bogotá"
"TORTAS ROES";;;"(57) (4) 3749011";"Cl 50 44-25 Itagüí Colombia, Itagüí"
"COSTA PAN";;;"(57) (4) 7917776";"Cl 33 14-02 Colombia, Montería"
"LA CASA DE LA TORTA ESPAÑOLA";;;"(57) (1) 2794713";"Cl 53 Sur 17-32 Colombia, Bogotá"
"PANADERÍA Y REPOSTERÍA ORQUÍDEA NO. 1";;;"(57) (4) 8494769";"Cl 10 10-29 Colombia, Támesis"
"AH RICOLOMBIA";;;"(57) (5) 6609557";"Manga Cr 3 29A-53 Colombia, Cartagena"
"PANADERÍA Y REPOSTERÍA MARCOS PAN";;;"(57) (4) 2740660";"Cr50 49-02 Copacabana Colombia, Medellín"
"PAN & SABOR";;;"(57) (4) 3425203";"Cr76 20-12 Colombia, Medellín"
"F&C CHEF FREDDY COLMENARES";;;"(57) (4) 3739166";"Cr57 69 D-33 Itagüí Colombia, Itagüí"
"INVERSIONES JUANA MARIA";;;"(57) (4) 3174712";"Cl 15 S 46-120 Int 104 Colombia, Medellín"
"LA PETITE MADELEINE";;;"(57) (4) 3131585";"Trv 31 S 32B-39 Colombia, Medellín"
"CAFÉ Y VERDE";;;"(57) (4) 4161127";"Cl 35 82 A-13 Int 201 Colombia, Medellín"
"DULCE POSTRES Y CHOCOLATES";;;"(57) (4) 3335595";"Cl 37 S 28-18 Envigado Colombia, Envigado"
"SABOR FUSIÓN POSTRES Y DELICIAS";;;"(57) (4) 5814680";"Cl 30 81-19 Colombia, Medellín"
"RESTAURANTE EL CORREO S.A.S.";;;"(57) (4) 3860443";"Km 17 Vía Las Palmas Mall Indiana L 169 Y-170 Colombia, Envigado"
"REPOSTERÍA CELESTE";;;"(57) (4) 5129587";"Cl 51 51 -28 Colombia, Medellín"
"EL TEJADITO CAMPESTRE";;;"(57) (4) 3136958";"Cl 17 S 43 A-42 Colombia, Medellín"
"PURIFICADORA SURTIPAN";;;"(57) (76) 5651636";"Cl 5 25-15 Colombia, Aguachica"
"PANADERÍA BAKER®S";;;"(57) (4) 2686462";"Cr43 C 10-88 Colombia, Medellín"
"LA CANOA CAFÉ";;;"(57) (5) 4217895";"Calle 18 3-75 Centro Colombia, Santa Marta"
"TORTAS Y TORTAS PANET ICE";;;"Nal: (57) (4) 2860349";"Cr 9 9 -60 Colombia, Medellín"
"TORTAS Y TORTAS REPOSTERIA LA 67";;;"Nal: (57) (4) 2642726";"Cl 77 Bb 85 A - 232 Colombia, Medellín"
"SUPER DULCE-PONQUÉS";;;"(57) (7) 6476616";"Cl 67 16-15 La Victoria Colombia, Bucaramanga"
D.L.J;;;"(57) (2) 3288433";"Cr40 40-04 Ap 101 Colombia, Cali"
"HOYER CEPEDA ELIZABETH PATRICIA";;;"(57) (5) 3788173";"Cl 80 68-22 Colombia, Barranquilla"
"POSTRES Y TORTAS LA LOCURA DEL SABOR";;;"(57) (4) 2847269";"Cr 39 55-65 Colombia, Medellín"
"LA PETITE MADELEINE";;;"(57) (4) 3131585";"Trv 31 S 32B-39 Colombia, Medellín"
CHOCODISEÑOS;;;"(57) (4) 4832972";"Av31 43 A-54 Bello Colombia, Bello"
"JUAN PASTELO LTDA.";;;"(57) (2) 5585432";"Cr27 9 B-29 Colombia, Cali"
"BIZCOCHOS LUISA PUERTA";;;"(57) (4) 3170088";"Cr25 9 A S-232 Ap 602 Colombia, Medellín"
DULCERNA;;;"(57) (5) 3580058";"Cr53 75-78 Colombia, Barranquilla"
"DELICIAS FLOR DEL VALLE";;;"(57) (5) 6511464";"Tr73 31 E-66 Colombia, Cartagena"
"GURU TÚ BUSCAS JUNTOS ENCONTRAMOS";;;"Nal: (57) (1) 2254007";"Av 68 75 A-50 Colombia, Bogotá"
"PASTELERÍA SEVILLA";;;"(57) (1) 4215724";"Cl 18 A 98-70 Colombia, Bogotá"
PEPOSCAKE;;;"(57) (4) 3790973";"Cl 31 S 43 A-65 Envigado Colombia, Envigado"
"REPOSTERÍA D'NEYLA";;;"(57) (5) 6530090";"Multicentro La Plazuela L-244 Colombia, Cartagena"
"LA GOLOSINA";;;"(57) (5) 3580058";"Cr53 75-46 Colombia, Barranquilla"
"BANQUETES MYRIAM ROMERO";;;"(57) (5) 6533767";"Los Alpes Cl 31 E 71 B-47 Colombia, Cartagena"
"PANADERÍA NEIVA PAN";;;"(57) (8) 8712429";"Cl 8 5-102 Colombia, Neiva"
"DULCINEA REPOSTERÍA";;;"(57) (4) 7823550";"Cr3 26-14 Colombia, Montería"
"DONALD S COMPANY S.A.S.";;;"(57) (1) 6555610";"Cl 97 22-80 Ap 505 Colombia, Bogotá"
"SARALÍ REPOSTERÍA";;;"(57) (5) 5749237";"Cr7 13-32 Colombia, Valledupar"
"CONDIMENTOS TREZABOR";;;"(57) (7) 6338863";"Cr6 23-32 Colombia, Bucaramanga"
"REPOSTERÍA PICANDO Y TOMANDO";;;"(57) (4) 3013721";"Cl 70 S 46-131 Sabaneta Colombia, Sabaneta"
"DORA MILLÁN FLETCHER REPOSTERÍA";;;"(57) (2) 8938238";"Cr12 A 1-57 Colombia, Cali"
"PANIFICADORA AVES MARIA";;;"(57) (4) 2882289";"Cl 74 A S 44-34 Sabaneta Colombia, Medellín"
"AI LOFF BROWNIES";;;"(57) (4) 3514140";"Cl 42 C 63 c-145 Colombia, Medellín"
"DELICIAS PARA SU PALADAR";;;"(57) (4) 4221263";"Cl 77 F 94-44 Ap 301 Colombia, Medellín"
"TORTAS ALICIA DE SOLANILLA";;;"(57) (2) 6610593";"Av6 B N 28-50 Colombia, Cali"
"PANADERÍA D'FRANCO";;;"(57) (5) 6691107";"Av Crisanto Luque Tr45 21 A-135 Colombia, Cartagena"
"TORTAS Y TORTAS SAN CRISTÓBAL";;;"(57) (4) 4272929";"Cr130 62-27 San Cristóbal Colombia, Medellín"
"REPOSTERÍA FAMI POSTRES";;;"(57) (5) 6676377";"Caracoles Et 1 Manz 63 Lt 11 Colombia, Cartagena"
PASTIARTE;;;"(57) (4) 3416503";"Cr76 27 A-18 Colombia, Medellín"
"PANADERIA Y PASTELERÍA MISTER PAN LA 22";;;"(57) (7) 6831041";"Cr22   N 39-01 Brr. Parque Bolívar Colombia, Bucaramanga"
"LA GULERIA";;;"(57) (4) 2702378";"Cl 45 B S 40-55 Envigado Colombia, Envigado"
"HECHO CON AMOR";;;"(57) (5) 3004540";"Cl 71 No. 32-64 Colombia, Barranquilla"
"DISTRIBUCIONES Y PROVISIONES RESAN";;;"(57) (5) 3735999";"Cr42A2 84-39 Colombia, Barranquilla"
"DISTRIQUESOS ALAMEDA";;;"(57) (2) 5578908";"Cr25 7 A-43 Colombia, Cali"
"EL PALACIO DEL MANÍ";;;"(57) (2) 8844326";"Cr9 12-63 Colombia, Cali"
"FUNDACION DELICIAS CON AMOR";;;"(57) (4) 2115483";"Cr40 88-12 Int 101 Colombia, Medellín"
"PANADERÍA LA SOMBRITA";;;"(57) (4) 2631667";"Cr36 86 B-86 Colombia, Medellín"
"PANADERÍA BAKER®S";;;"(57) (4) 2686462";"Cr43 C 10-88 Colombia, Medellín"
"PONQUE PONQUE";;;"(57) (4) 5808167";"Cr49 76-52 Colombia, Medellín"
"REPOSTERÍA CASA VIEJA";;;"(57) (2) 2755554";"Cl 28 30-08 Colombia, Palmira"
"TORTAS Y TORTAS CRISTY";;;"Nal: (57) (4) 4415748";"Cr 85 A 78 A - 15 Colombia, Medellín"
"CONDIMENTOS TREZABOR";;;"(57) (7) 6338863";"Cr6 23-32 Colombia, Bucaramanga"
"PANADERÍA BELLA SUIZA";;;"(57) (5) 4211647";"Cl 22 2 A-71 Colombia, Santa Marta"
"ESTADERO CENTRAL";;;"(57) (5) 4315348";"Cl 14 13-103 Colombia, Santa Marta"
"LUZ ESTÕTICA SPA";;;"(57) (4) 2554632";"Cr54 4-69 Colombia, Medellín"
"CREMA Y CANELA";;;"(57) (4) 3731562";"Cr 49 48A-21 Itagüi Colombia, Medellín"
"First Name";"Email Address";Url;Telephone;Address
"REPOSTERÍA COMERPAN";;;"(57) (4) 2391802";"Cl 48 44-01 Colombia, Medellín"
"MERENGÓN DE FRUTAS";;;"(57) (4) 2336658";"Cl 78 49-16 Colombia, Medellín"
"GUAYABA & RICOTTA";;;"(57) (4) 3113955";"Tr12 A 32-116 Colombia, Medellín"
"RESTAURANTE LA PIADINA";;;"(57) (4) 3738412";"Cr 42 75-83 L-123A Itagui Colombia, Itagüí"
"MAS TORTAS RV";;;"(57) (4) 2774183";"Cl 68 52-98 Itagüí Colombia, Itagüí"
"REPOSTERÍA MARYPAT";;;"(57) (4) 3131679";"Cl 20 S 25 B-265 Int 809 Colombia, Medellín"
"REPOSTERÍA Y PANADERÍA PAN PANES Y ALGO MÁS";;;"(57) (4) 5124499";"Cl 50 53-103 Colombia, Medellín"
"DELICIAS DEL TESORO DEL ORIENTE";;;"(57) (4) 5420283";"Parcelación La candelaria La Fé Colombia, Medellín"
"PANADERÍA Y REPOSTERÍA PLAYA PANES";;;"(57) (4) 2176840";"Cl 51 39-101 Colombia, Medellín"
"LUPITAS CAKES";;;"(57) (4) 6009859";"cl 51 57-37 Colombia, Medellín"
"PASTELATTE REPOSTERÍA";;;"(57) (4) 5815735";"Cl 29 81-79 Colombia, Medellín"
"GÓNGORA AICHEL MARÍA";;;"(57) (5) 3558271";"Cr72 90-04 Colombia, Barranquilla"
"MONAR S.A.S.";;;"(57) (4) 4385609";"Cr136 C 66-223 Int 110 San Cristóbal Colombia, Medellín"
PASTELMAD;;;"(57) (4) 5123302";"Cl 50 54-46 Colombia, Medellín"
"AMOR MIO REPOSTERÍA Y CAFÉ";;;"(57) (4) 2685531";"C.C. Monterrey L-180 Colombia, Medellín"
"PASTELERÍA SEVILLA";;;"(57) (1) 4215724";"Cl 18 A 98-70 Colombia, Bogotá"
"DISTRIQUESOS ALAMEDA";;;"(57) (2) 5578908";"Cr25 7 A-43 Colombia, Cali"
"TORTAS Y TORTAS SAN JAVIER";;;"Nal: (57) (4) 4414731";"Cr 99 43 - 34 Colombia, Medellín"
"COMESTIBLES LA XIMENA";;;"(57) (2) 5574358";"Cl 11 23-41 Colombia, Cali"
"PASTELERÍA ICE CAKE";;;"(57) (1) 6256002";"Cr12 140-27 L-33 Colombia, Bogotá"
"F&C CHEF FREDDY COLMENARES";;;"(57) (4) 3739166";"Cr57 69 D-33 Itagüí Colombia, Itagüí"
"First Name";"Email Address";Url;Telephone;Address
"REPOSTERIA SUSANA ESTUPIÑAN";;;"(57) (5) 6748553";"Camino del medio Edif Villa Liliana Colombia, Cartagena"
"EL TALLER DEL JENGIBRE";;;"(57) (2) 6616661";"Av5 B N 23 D N-27 Colombia, Cali"
"ESTADERO CENTRAL";;;"(57) (5) 4315348";"Cl 14 13-103 Colombia, Santa Marta"
"LA CANOA CAFÉ";;;"(57) (5) 4217895";"Calle 18 3-75 Centro Colombia, Santa Marta"
"PANIFICADORA SAMS";;;"Conm.: (57) (4) 4421801";"Cr65 74-75 L-140 Colombia, Medellín"
DUMBOPAN;;;"(57) (5) 6621122";"Tr44 21 C-04 Calle Las Américas Colombia, Cartagena"
"CAKE BOUTIQUE";;;"(57) 3136982259";"Cl 12 15-53 Colombia, Armenia"
DULCERNA;;;"(57) (5) 3580058";"Cr53 75-78 Colombia, Barranquilla"
"BIZCOCHOS Y POSTRES DE OLI";;;"(57) (4) 2700400";"Cl 37 S 43 A-34 Envigado Colombia, Envigado"
"DANI DAZA TORRES";;;"(57) (5) 5712086";"Cl 20 18 A-60 Colombia, Valledupar"
"PASTELERÍA SEVILLA";;;"(57) (1) 4215724";"Cl 18 A 98-70 Colombia, Bogotá"
"RICURAS CAYE";;;"(57) (5) 4207260";"Cl 11 B 16 D-28 Colombia, Santa Marta"
"PRODUCTOS LAS 4 ESTACIONES";;;"(57) (2) 5142302";"Cl 9 B 26-07 Colombia, Cali"
"LA TÍA CLARENS REPOSTERÍA";;;"Nal: (57) (4) 4481707";"Dg33 32-S 44 Envigado Colombia, Medellín"
"CUP & CAKES";;;"(57) (1) 2578361";"Cl 90 13-46 L-101 Colombia, Bogotá"
LACTOCARNICOS;;;"(57) (2) 8395921";"Cl 7 4-66 Colombia, Popayán"
"TORTAS ROES";;;"(57) (4) 3749011";"Cl 50 44-25 Itagüí Colombia, Itagüí"
"GALLETAS DE MANTEQUILLA PIKLITAS";;;"(57) (4) 2543377";"Cl 58 49-56 Colombia, Medellín"
"SAN POSTRE";;;"(57) (4) 2526968";"Cl 35 A 86-52 Colombia, Medellín"
"PANADERÍA Y REPOSTERÍA SUPERPÁN N°2";;;"(57) (4) 5270299";"Cr37 97-05 Colombia, Medellín"
"LA GOLOSINA";;;"(57) (5) 3580058";"Cr53 75-46 Colombia, Barranquilla"
"MAMI EMMA";;;"(57) (5) 3559262";"Cl 86 71-41 Colombia, Barranquilla"
"DONATELLO REPOSTERIA";;;"(57) (7) 6478562";"Cr34 48-94 Colombia, Bucaramanga"
"PASTELERÍA DINOS CAKES";;;"(57) (8) 2615186";"Cl 10 3-13 Colombia, Ibagué"
"MILENIUM DE COLOMBIA";;;"(57) (2) 4433202";"Cr24 B 33 B-98 Colombia, Cali"
"DON JACOBO POSTRES Y PONQUES";;;"(57) (1) 2584419";"Av19 142-25 Colombia, Bogotá"
CHOCODISEÑOS;;;"(57) (4) 4832972";"Av31 43 A-54 Bello Colombia, Bello"
"ANAISABEL REPOSTERÍA";;;"(57) (4) 4480555";"Cr79 B 45 B-73 Colombia, Medellín"
"REPOSTERÍA FRANCISCO";;;"(57) (4) 2540740";"Cl 63 49-63 Colombia, Medellín"
"BOCADITOS & PANECITOS";;;"(57) (5) 3458035";"Cr43 79-188 Colombia, Barranquilla"
"DELI ROSSY S.A.S.";;;"(57) (52) 6861046";"Cl 24 52-28 Colombia, El Carmen de Bolívar"
"POSTRES MARY T. SHOP";;;"(57) (5) 6515252";"Cl 31 54-215 L-114 C.C. Ronda Real Colombia, Cartagena"
"EXCLUSIVIDADES ADRIANA";;;"(57) (2) 3744820";"Cr7 U 72-127 Colombia, Cali"
"REPOSTRERÍA ELY-ELIZABETH DÍAZ-GRANADOS";;;"Domic.: (57) (5) 6645707";"Calle Larga 8 B-126 Colombia, Cartagena"
"T Y T FOODS";;;"(57) (4) 4487777";"Cl 37 Sur 43A-52 Envigado Colombia, Envigado"
"RESTAURANTE Y REPOSTERÚA BOYACÃ";;;"(57) (4) 5129479";"Cl 51 52-23 Colombia, Medellín"
"DELICIAS FLOR DEL VALLE";;;"(57) (5) 6511464";"Tr73 31 E-66 Colombia, Cartagena"
"LA COCINA DE VIRGI";;;"(57) (5) 3442587";"Cr58 64-50 Colombia, Barranquilla"
"LA CASA DEL PASTEL";;;"(57) (4) 2303253";"Cr66 49 A- 18 Colombia, Medellín"
"TODO FRESA";;;"(57) (4) 2681848";"Cr43 B 12-15 Colombia, Medellín"
"First Name";"Email Address";Url;Telephone;Address
"PANADERÍA APOLO";;;"(57) (5) 3404331";"Cr40 34-05 Colombia, Barranquilla"
PASTELMAD;;;"(57) (4) 5123302";"Cl 50 54-46 Colombia, Medellín"
"PANADERÍA Y REPOSTERÍA DELICIAS LA SALLE";;;"(57) (4) 2363500";"Cl 93 40-88 Colombia, Medellín"
"PRODUCTOS AMBROSITOS";;;"(57) (4) 2501512";"Cl 42 71 A-20 Colombia, Medellín"
"SARITA REPOSTERÍA";;;"(57) (5) 3586208";"Cr52 79-45 Ap 13-A Colombia, Barranquilla"
"REPOSTERÍA KANELA";;;"(57) (6) 3227090";"Cl 42 25 B-29 Jardín Colonial Colombia, Pereira"
"MACO CAYCEDO";;;"(57) (5) 4235094";"Cl 26 4-132 Colombia, Santa Marta"
VITRIMARINILLOS;;;"(57) (4) 2932751";"Cr49 45-95 Colombia, Medellín"
"EL MUNDO DE LOS PASTELES";;;"(57) (2) 5242552";"Av Roosevelt 38-05 Esq Colombia, Cali"
"ALIMENTOS TORTAS Y GALLETAS REGIA";;;"(57) (2) 4445555";"Cr4 B 30-12 Colombia, Cali"
"MILA V";;;"(57) (5) 6700079";"Centro Historico Cl De La Iglesia 35-76 Colombia, Cartagena"
PASTIARTE;;;"(57) (4) 3416503";"Cr76 27 A-18 Colombia, Medellín"
"EL REFUGIO DEL PEÑON";;;"Nal: (57) (2) 8927717";"Cr2 Oe 2-39 Colombia, Cali"
"EL KASTILLO DE LAS TORTAS Y EL PAN";;;"(57) (7) 6453140";"Cl 32 29-49 Colombia, Bucaramanga"
"AH RICOLOMBIA";;;"(57) (5) 6609557";"Manga Cr 3 29A-53 Colombia, Cartagena"
"LA PANERA";;;"(57) (5) 6634980";"San Pedro Manz 36 Lt 1 Colombia, Cartagena"
"CABAL ELVÍA";;;"(57) (2) 8932765";"Cr2 Oe 5-242 Of 301 Colombia, Cali"
"MELCOCHITAS REPOSTERIA FINA";;;"Nal: (57) (4) 4217015";"Cr86 49 E-55 Int 501 Colombia, Medellín"
"PUDINES MACHY";;;"(57) (5) 4215955";"Av del Ferrocarril 26 C-30 Colombia, Santa Marta"
"PAN DORADO PANADERÍA Y REPOSTERÍA";;;"(57) (4) 4924767";"Cl 35 85 B-47 Colombia, Medellín"
"REPOSTERÌA AL HORNO";;;"(57) (4) 4445822";"Cr51 B 12 S-32 Colombia, Medellín"
"PANADERIA Y REPOSTERIA LA MADELEINE";;;"(57) (4) 3012451";"Cl 75 S 47-10 Sabaneta Colombia, Sabaneta"
"PRODUCTOS SALUGRAN S.A.S.";;;"Nal: (57) (4) 3545812";"Cl 85 48-1 Bloque 3 Local 19 Itaguí Colombia, Medellín"
"LA TORTERÍA";;;"(57) (4) 3361489";"Cr27 36 S-66 Int 12 Envigado Colombia, Envigado"
"REPOSTERIA Y PANADERIA TENTACIONES";;;"(57) (4) 2162851";"Cr40 49-01 Colombia, Medellín"
"RICURAS HANNAS";;;"(57) (4) 3114308";"Cr32 4 S-80 Int 102 Colombia, Medellín"
"CAFÉ Y VERDE";;;"(57) (4) 4161127";"Cl 35 82 A-13 Int 201 Colombia, Medellín"
"DELICIAS PARA SU PALADAR";;;"(57) (4) 4221263";"Cl 77 F 94-44 Ap 301 Colombia, Medellín"
"PRODUCTOS EMMY";;;"(57) (4) 3134175";"Cl 15 S 46-120 L-108 Colombia, Medellín"
"PANIFICADORA SAMS";;;"Conm.: (57) (4) 4421801";"Cr65 74-75 L-140 Colombia, Medellín"
"DULCINEA REPOSTERÍA";;;"(57) (4) 7823550";"Cr3 26-14 Colombia, Montería"
"RESTAURANTE EL CORREO S.A.S.";;;"(57) (4) 3860443";"Km 17 Vía Las Palmas Mall Indiana L 169 Y-170 Colombia, Envigado"
"MAMI POSTRES";;;"(57) (5) 3799962";"Cr41 51-88 Colombia, Barranquilla"
"REPOSTERÍA Y ALGO MÁS LUZ STELLA";;;"(57) (6) 3212383";"Cl 11 27-15 L-4 Colombia, Pereira"
"AMBROSIA REPOSTERÖA";;;"(57) (4) 5707536";"Cr43 32 A S-18 Envigado Colombia, Medellín"
"DULCE AVELLANA";;;"(57) (4) 3319471";"Cr27 G 36 D S-25 Trr 2 Ap 320 Envigado Colombia, Medellín"
"PANADERIA Y PASTELERÍA MISTER PAN LA 22";;;"(57) (7) 6831041";"Cr22   N 39-01 Brr. Parque Bolívar Colombia, Bucaramanga"
"PANADERÍA Y REPOSTERÍA ORQUÍDEA NO. 1";;;"(57) (4) 8494769";"Cl 10 10-29 Colombia, Támesis"
"MAMI EMMA";;;"(57) (5) 3559262";"Cl 86 71-41 Colombia, Barranquilla"
"CON AMORE PASTELERÍA CREATIVA";;;"(57) (5) 3027936";". Colombia, Barranquilla"
"First Name";"Email Address";Url;Telephone;Address
"PAN ALAMO";;;"(57) (5) 6536750";"Carrt Troncal de Occidente Bdg 10-11 Colombia, Cartagena"
"PONQUÉ DE LA ABUELA";;;"(57) (1) 6434253";"CLL 127 A 49-67 INT 2 APT 603 Colombia, Bogotá"
"DORITA FLETCHER";;;"(57) (5) 3579140";"Cl 86 64 C-40 Colombia, Barranquilla"
"REPOSTERÍA Y CAFETERÍA AYMARA";;;"(57) (4) 2785743";"Cr49 45-74 Caldas Colombia, Medellín"
"DULCES ILUSIONES";;;"(57) (5) 6470570";"Cl 29 22-05 Colombia, Cartagena"
"REPOSTERÍA FAMI POSTRES";;;"(57) (5) 6676377";"Caracoles Et 1 Manz 63 Lt 11 Colombia, Cartagena"
"SWEET LINE DIETÉTICOS";;;"(57) (2) 5517146";"Cr42 5 A-74 Colombia, Cali"
"EL REPOSTERO";;;"(57) (4) 3115543";"Cr36 8 A-09 Colombia, Medellín"
"EL DULCE DE MI TIERRA";;;"(57) (5) 3582069";"Cr41 D 73-118 Ap 301 Colombia, Barranquilla"
"CUPCAKE LOVE";;;"Nal: (57) (4) 2816002";"cr 46A 49 - 32 Colombia, Medellín"
"PRODUCTOS EL TORO";;;"(57) (2) 3340128";"Cl 14 43-89 Colombia, Cali"
"TORTAS Y TORTAS GUARNE";;;"Nal: (57) (4) 5514994";"Cr 51 47 -57 Colombia, Medellín"
"ARBELÁEZ LUZ STELLA";;;"(57) (2) 8931477";"Cr2 Oe 11-125 Colombia, Cali"
"ROSA - ROSA REPOSTERÍA GOURMET";;;"(57) (2) 1231234";"Cr85 C 16-05 Colombia, Cali"
"SABORES SORPRESA";;;"(57) (5) 3824874";"Cl 68 A 14 D-28 Villa Estadio Colombia, Barranquilla"
"MILENIUM DE COLOMBIA";;;"(57) (2) 4433202";"Cr24 B 33 B-98 Colombia, Cali"
"SABORAMOR REPOSTERÍA ARTESANAL";;;"(57) (4) 3134701";"Cr43 A 18-S 135 Int 110 Colombia, Medellín"
"PANADERÍA BELLA SUIZA";;;"(57) (5) 4211647";"Cl 22 2 A-71 Colombia, Santa Marta"
"PISTACHO LA PASTELERIA GOURMET";;;"(57) (1) 4785820";"Cl 152 A 16 A-91 Colombia, Bogotá"
"PANADERÍA LA CASTELLANA";;;"(57) (4) 2503343";"Cl 34 80 A-62 Colombia, Medellín"
"URIBE GONZÁLEZ LILIAN";;;"(57) (4) 4128460";"Cl 33 A 76-14 Ap 202 Colombia, Medellín"
"REPOSTERÍA QUETA Y YEYA";;;"(57) (4) 2544658";"Cl 59 50-22 Colombia, Medellín"
"LUZ ESTÕTICA SPA";;;"(57) (4) 2554632";"Cr54 4-69 Colombia, Medellín"
"BROWNIES POSTRES Y CHOCOLATES";;;"(57) (4) 3768069";"Cl 76 D S 43 A-45 Sabaneta Colombia, Sabaneta"
"REPOSTERÍA KALDY KAFFE";;;"(57) (4) 2601355";"Cl 53 64 A-31 Colombia, Medellín"
"RESTAURANTE DOLCHÉ";;;"(57) (4) 4441432";"Cr35 A 15 B-35 Int 101 Colombia, Medellín"
"PRODUCTOS EMMY";;;"(57) (4) 3134175";"Cl 15 S 46-120 L-108 Colombia, Medellín"
"RICO PA'LLEVAR";;;"(57) (4) 2684028";"Cr43 E 12-16 Colombia, Medellín"
"FLOR Y NATAS REPOSTERÍA";;;"(57) (4) 2303660";"Cl 53 64 BB-34 Ap 201 Colombia, Medellín"
"RESTAURANTE EL CORREO S.A.S.";;;"(57) (4) 3860443";"Km 17 Vía Las Palmas Mall Indiana L 169 Y-170 Colombia, Envigado"
"PANADERÍA PANDEQUESO LA 46 A SABANETA";;;"(57) (4) 2880697";"Cr 46 A 72 S-59 Sabaneta Colombia, Medellín"
"PAN & CHOCOLATE";;;"(57) 3185146428";"Cr16 3 N-11 Colombia, Armenia"
"CAKE BOUTIQUE";;;"(57) 3136982259";"Cl 12 15-53 Colombia, Armenia"
"PASABOCAS BARRANQUILLA";;;"(57) (5) 3029665";"Cl 63 21 B-102 Colombia, Barranquilla"
"DELICIAS FLOR DEL VALLE";;;"(57) (5) 6511464";"Tr73 31 E-66 Colombia, Cartagena"
"TODO FRESA";;;"(57) (4) 2681848";"Cr43 B 12-15 Colombia, Medellín"
"REPOSTERIA NOLVA MORA";;;"(57) (5) 3702673";"Cl 58 18-123 Buena Esperanza Colombia, Barranquilla"
"DULCES & SALADOS";;;"(57) (5) 3683717";"Cr41 B 71-32 Las Delicias Colombia, Barranquilla"
"PASTELERÍA SEVILLA";;;"(57) (1) 4215724";"Cl 18 A 98-70 Colombia, Bogotá"
"PANADERÍA CHIMITA";;;"(57) (5) 4240346";"Cl 12 11-07 Colombia, Ciénaga"
"First Name";"Email Address";Url;Telephone;Address
"TORTAS Y PONQUES MAGICOS";;;"(57) (4) 2356138";"Cl 36 63-74 Int 601 Colombia, Medellín"
"DANI DAZA TORRES";;;"(57) (5) 5712086";"Cl 20 18 A-60 Colombia, Valledupar"
MULTICARNES;;;"(57) (5) 5742062";"Cr 9 14-02 Esq. Colombia, Valledupar"
"ANGIE JIMENEZ REPOSTERÍA";;;"(57) (5) 3577585";"Cr52 B 94-103 B A Ap 501 Colombia, Barranquilla"
"MACO CAYCEDO";;;"(57) (5) 4235094";"Cl 26 4-132 Colombia, Santa Marta"
"ENDULZA TU VIDA LTDA.";;;"(57) (4) 2357615";"Cl 16 B 55-66 Colombia, Medellín"
"PASTELERÍA ZAHAVI";;;"(57) (2) 8938797";"Cr10 3-81 P-1 Colombia, Cali"
"ALMIBAR, POSTRES Y HELADOS";;;"(57) (4) 4139818";"Cl 37 80-36 L-107 Colombia, Medellín"
"SOMOS MASA";;;"Nal: (57) (1) 2110899";"Cl 70 4-83 Colombia, Bogotá"
"TORTAS Y TORTAS BAZAR DE LAS TORTAS";;;"Nal: (57) (4) 5411440";"Cr 20 21 - 46 Colombia, Medellín"
"REPOSTERIA LULÚ DE CASTRO";;;"(57) (5) 3583370";"Cr40 73-36 Colombia, Barranquilla"
"CONDIMENTOS TREZABOR";;;"(57) (7) 6338863";"Cr6 23-32 Colombia, Bucaramanga"
"CERESITA TISÚ";;;"(57) (4) 4130372";"Cr78 32 EE-13 Colombia, Medellín"
"LE BISCUIT CASA REPORTERA";;;"(57) (4) 2503018";"Le Biscuit Casa Repostera Colombia, Medellín"
"MILENIUM DE COLOMBIA";;;"(57) (2) 4433202";"Cr24 B 33 B-98 Colombia, Cali"
"REPOSTERÍA SAJOS S.A.S.";;;"(57) (4) 4489982";"Tr33 S 32-33 Envigado Colombia, Medellín"
D.L.J;;;"(57) (2) 3288433";"Cr40 40-04 Ap 101 Colombia, Cali"
"LAS DELICIAS DE MARIANTONIA";;;"(57) (4) 2707853";"Tr34 S 31 E-65 Colombia, Medellín"
LACTOCARNICOS;;;"(57) (2) 8395921";"Cl 7 4-66 Colombia, Popayán"
"REPOSTERÌA AL HORNO";;;"(57) (4) 4445822";"Cr51 B 12 S-32 Colombia, Medellín"
"REPOSTERÍA Y PANADERÍA JUAN PAN";;;"(57) (4) 2939897";"Cl 52 9-06 Colombia, Medellín"
"CHEESECAKE COMPANY";;;"(57) (4) 4446760";"Cl 10 33-23 Int 201 Colombia, Medellín"
"REPOSTERÍA MARYPAT";;;"(57) (4) 3131679";"Cl 20 S 25 B-265 Int 809 Colombia, Medellín"
"TORTAS ALICIA DE SOLANILLA";;;"(57) (2) 6610593";"Av6 B N 28-50 Colombia, Cali"
"PANADERIA Y REPOSTERIA FRANCACHELA";;;"(57) (4) 3117350";"Cl 1 A S 43 A-43 Colombia, Medellín"
"RICO PA'LLEVAR";;;"(57) (4) 2684028";"Cr43 E 12-16 Colombia, Medellín"
"TORTAS Y TORTAS MANRIQUE LA 45";;;"(57) (4) 2120921";"Cr45 69-74 Colombia, Medellín"
"CACAO SWEET";;;"(57) (4) 4568759";"Cl 65 A 65 D-17 Bello Colombia, Bello"
"BIZCOCHOS LUISA PUERTA";;;"(57) (4) 3170088";"Cr25 9 A S-232 Ap 602 Colombia, Medellín"
"DULZURAS DE SIEMPRE";;;"(57) (4) 2841269";"Cl 70 30-50 Ap 107 Colombia, Medellín"
"REPOSTERÍA FRANCISCO";;;"(57) (4) 2540740";"Cl 63 49-63 Colombia, Medellín"
"LA PUERTA DEL CIELO";;;"(57) (5) 3780578";"Cl 96 A 49 C-194 Colombia, Barranquilla"
"AKIKO BROWNIE";;;"(57) 3013285701";"cl 13a 16a 21 Colombia, Riohacha"
DEDITOS;;;"(57) (5) 3551811";"Cl 84 67 Esq Colombia, Barranquilla"
"LA GOLOSINA";;;"(57) (5) 3580058";"Cr53 75-46 Colombia, Barranquilla"
"PASTELATTE REPOSTERÍA";;;"(57) (4) 5815735";"Cl 29 81-79 Colombia, Medellín"
"PANADERÍA APOLO";;;"(57) (5) 3404331";"Cr40 34-05 Colombia, Barranquilla"
"IVONNA PASTELERÍA GOURMET";;;"(57) (2) 2287084";"Cl 4 Sur 9 A-17 Colombia, Buga"
"DULCE GALETT LTDA.";;;"(57) (1) 7020863";"Cr71 C 116 A-71 Colombia, Bogotá"
"DULCES & SALADOS";;;"(57) (5) 3683717";"Cr41 B 71-32 Las Delicias Colombia, Barranquilla"
"First Name";"Email Address";Url;Telephone;Address
"TORTAS Y TORTAS SAN JAVIER";;;"Nal: (57) (4) 4414731";"Cr 99 43 - 34 Colombia, Medellín"
"M REPOSTERIA";;;"Nal: (57) (4) 4192682";"Cl 6 B S 37-45 Int 803 Colombia, Medellín"
"TORTAS Y TORTAS LA ESTRELLA";;;"Nal: (57) (4) 2797180";"Cl 79 S 61 - 27 Colombia, Medellín"
"EXCLUSIVIDADES ADRIANA";;;"(57) (2) 3744820";"Cr7 U 72-127 Colombia, Cali"
"MI DULCE ANTOJITO";;;"(57) (1) 2555521";"Cr25 51-10 P 1 Colombia, Bogotá"
"TENTACIÓN DEL ARTE DULCE";;;"(57) (5) 4302112";"Manz 84 Casa 14 Colombia, Santa Marta"
"PANADERIA CHIA PAN";;;"(57) (5) 5809645";"Cr 5 13 C- 58 Colombia, Valledupar"
"DEMICASA A. SU CASA";;;"(57) (4) 2302980";"Cl 55 64 B-52 Ap 201 Colombia, Medellín"
"PRODUCTOS MUA";;;"(57) (1) 4816171";"Cl 129 A 56 B-34 Colombia, Bogotá"
"RICURAS LULÚ";;;"(57) (1) 2368971";"Cl 93 45-36 Colombia, Bogotá"
"URIBE GONZÁLEZ LILIAN";;;"(57) (4) 4128460";"Cl 33 A 76-14 Ap 202 Colombia, Medellín"
"REPOSTERÍA PLAYAS PAN";;;"(57) (4) 3432028";"Cr71 14 -03 Colombia, Medellín"
"BATIDOS REPOSTERÍA";;;"(57) (4) 4116236";"Cq4 70-88 Colombia, Medellín"
"CREMA Y CANELA";;;"(57) (4) 3731562";"Cr 49 48A-21 Itagüi Colombia, Medellín"
"CARLOTTA REPOSTERÍA";;;"(57) (4) 2814625";"Cl 30 A S 44 A-75 Colombia, Medellín"
"ALIMENTOS BRUNELLI";;;"(57) (4) 5964622";"Cr53 51 A-13 Bello Colombia, Bello"
"F&C CHEF FREDDY COLMENARES";;;"(57) (4) 3739166";"Cr57 69 D-33 Itagüí Colombia, Itagüí"
"CINNAMON REPOSTERÍA DIETÉTICA";;;"(57) (4) 2661303";"Cl 11 A 43 B-56 Colombia, Medellín"
"SWEET PARTY";;;"(57) (4) 3216727";"Cl 21 S 41 B-55 Int 102 Envigado Colombia, Medellín"
GANAMANÚA;;;"(57) (4) 3610526";"Cr65 8 B-91 Int 80 Colombia, Medellín"
"DE LOLITA REPOSTERÍA RESTÓ CAFÉ";;;"(57) (4) 3012030";"Cr49 61 S-540 Int 158 Sabaneta Colombia, Medellín"
