"First Name";"Email Address";Url;Telephone;Address
"PANAMERICANA LIBRERÍA Y PAPELERÍA S.A.";angela.becerra@panamericana.com.co;www.panamericana.com.co;"(57) (1) 3649000";"Cl 12 34-20 Colombia, Bogotá"
PANAMERICANA;angela.becerra@panamericana.com.co;www.panamericana.com.co;"(57) (1) 3649000";"Cl 12 34-20 Colombia, Bogotá"
"LIBRERÍA SAN PABLO";libreriaquintaparedes@sanpabl;www.sanpablo.co;"(57) (1) 3682099";"Cr46 22 A-90 Colombia, Bogotá"
"LIBRERÍA NACIONAL S.A.";P;www.librerianacional.com;"(57) (2) 8841765";"Cr5 11-50 Colombia, Cali"
"LIBRERIA MAXILIBROS";ventas@libreriamaxilibros.com;www.libreriamaxilibros.com;"Telefax: (57) (1) 3345203";"Cr8 A 15-63 L-135 Colombia, Bogotá"
"EDITORIAL TEMIS S.A.";comercioexterior@editorialtemis.com;www.editorialtemis.com;"Telefax: (57) (1) 4247855";"Cl 17 68 D-46 Colombia, Bogotá"
"MCGRAW-HILL INTERAMERICANA S.A.";lelena_espitia@mcgraw-hill.com;www.mcgraw-hill-educacion.com;"(57) (1) 6003800";"Cr85 D 46 A-65 Bdg 10 Complejo Logistico San Cayetano Colombia, Bogotá"
"LIBRERÍA LERNER";lernercultural@librerialerner.com.co;www.librerialerner.com.co;"(57) (1) 2430567";"Av Jimenez 4-35 Colombia, Bogotá"
"UNIVERSIDAD SERGIO ARBOLEDA";infobarranquilla@usa.edu.co;www.usergioarboleda.edu.co/barranquilla;"(57) (5) 3689417";"Cr58 68-91 Colombia, Barranquilla"
"LIBRERÍA OM";libreriaom@hotmail.com;www.libreriaom.com;"(57) (1) 3417443";"Cr7 22-39 Colombia, Bogotá"
"ENGLISH LANGUAGE SERVICES LTDA.";william.suarez@litecolombia.com;www.litecolombia.com;"(57) (1) 4814819";"Cr17 142-23 Colombia, Bogotá"
"PAPELERÍA BOLIVARIANA LTDA";papeleriabolivariana@hotmail.com;www.papeleriabolivariana.com;"(57) (4) 2751881";"Cr49 51-12 Bello Colombia, Medellín"
"LA ERA AZUL";info@laeraazul.com.co;www.laeraazul.com.co;"(57) (1) 6168720";"Cr6 115-65 L-F-106 Colombia, Bogotá"
"CONMÚSICA S.A.S.";casajayes@casajayes.com;www.casajayes.com;"(57) (4) 4445293";"Cl 56 47-09 Colombia, Medellín"
"EDICIONES DOCTRINA Y LEY";ediciones@doctrinayley.com;doctrinayley.com;"Telefax: (57) (1) 2866318";"Cl 12 4-14 L-102 Colombia, Bogotá"
"FUNDACIÓN PÍA AUTÓNOMA LIBRERÍA SEMINARIO CONCILIAR";libreria.seminario@une.net.co;www.arqmedellin.co;"(57) (4) 2518142";"Cl 57 49-71 Colombia, Medellín"
"CENTRO COMERCIAL ORQUÍDEA PLAZA";orquideaplaza@une.net.co;;"(57) (4) 5111435";"Cr49 52-81 Colombia, Medellín"
"FUNDACIÓN EDUCACIÓN CRISTIANA PENTECOSTAL";mefor48@yahoo.com;www.fecp.co;"(57) (4) 2657201";"Cl 34 65 C-21 Colombia, Medellín"
"EMISORA MINUTO DE DIOS";info@minutodediosmed.org;www.minutodediosmed.org;"(57) (4) 4481230";"Cl 56 41-57 Colombia, Medellín"
"DIFUSORA LAROUSSE DE COLOMBIA LTDA.";gerencia@larousse.com.co;www.larousse.com.co;"(57) (1) 6377821";"Cl 117 11 A-65 Colombia, Bogotá"
"LIBRERÍA CIENTÍFICA S.A.S.";libcientifica@une.net.co;www.libreriacientifica.com.co;"(57) (4) 4448676";"Cl 51 49-52 Colombia, Medellín"
"ORMANEL EDICIONES Y DISTRIBUCIONES.";ormanel@une.net.co;;"(57) (4) 5113558";"Cr47 49-53 Of 205 Colombia, Medellín"
"CORSA COLOMBIA S.A.S.";corsa@corsa.com.co;www.corsa.com.co;"(57) (4) 7910808";"Cl 41 20-11 Colombia, Montería"
"PAPELERIA TAYRONA";provisionestayrona@hotmail.com;www.papeleriatayrona.com;"(57) (5) 4313696";"Cr4 16-30 Plaza de la Catedral Colombia, Santa Marta"
"LA ORQUESTA INSTRUMENTOS Y ACCESORIOS MUSICALES";musicaleslaorquesta@hotmail.com;www.musicaleslaorquesta.com;"(57) (1) 5289942";"Cl 151 16-79 L-10-67 C.C. Cedritos Colombia, Bogotá"
"MUNDO LIBROS";fasm19@hotmail.es;www.libreriamundolibros.com;"(57) (2) 8894131";"Cl 11 9-30 Colombia, Cali"
"CASA TOMADA LIBROS Y CAFÉ";info@optimantcol.com;www.libreriacasatomada.com;"(57) (1) 2451655";"Tr19 Bis 45 D-23 Colombia, Bogotá"
"LIBRERÍA MEDICA CELSUS";gerencia@celsus.com.co;www.celsus.com.co;"(57) (4) 3116015";"Cl 3   S 43 A-46 L-6 El Poblado Colombia, Medellín"
"LIBRERÍA MEDICA CELSUS";gerencia@celsus.com.co;www.celsus.com.co;"(57) (1) 2144020";"AvCl 127 21-87/89 Colombia, Bogotá"
"AVLILAH S.A.S";info@avlilah.com;www.avlilah.com;"(57) (2) 7208840";"Cl 20 34 A-45 Colombia, Pasto"
"LIBRERIA CRISTIANA VIDA";libcristianavida@une.net.co;www.libreriacristianavida.com;"(57) (4) 5136720";"Cr50 52-50 L-115 Colombia, Medellín"
"LIBRERÍA JURÍDICA SÁNCHEZ R. LTDA.";info@lijursanchez.com;www.lijursanchez.com;"(57) (4) 4444498";"Cl 46 43-43 Colombia, Medellín"
"ALMACÉN DE DETALLES Y LIBRERÍA RAYITAS";rayilasadl@gmail.com;;"(57) (4) 4419290";"Cl 78 B 69-240 Int 125 Colombia, Medellín"
"AL PIE DE LA LETRA LIBRERÍA";laletra@une.net.co;www.alpiedelaletralibreria.com;"(57) (4) 2305428";"Cl 49 A 64 C-42 Colombia, Medellín"
"UROS EDITORES LTDA.";uroseditores@hotmail.com;;"(57) (4) 2303756";"Cr64 C 48-43 B-2 Ap 503 Colombia, Medellín"
"BOOKS AND BOOKS LTDA.";ventasmed@hotmail.com;www.booksandbooks.com.co;"(57) (4) 2284040";"C.C. Premium Plaza L-2193 Colombia, Medellín"
"LIBRERÍA PAULINAS";paulimed@paulinas.org.co;www.libreriapaulinas.com;"(57) (4) 5112046";"Cl 56 49-51 Colombia, Medellín"
"LIBRERÍA EL BUCANERO";jhuliao@hotmail.com;;"(57) (4) 4481717";"Cr48 49-14 L-51 Colombia, Medellín"
"LIBRERÍA UNIÓN CRISTIANA";lucristian@une.net.co;www.libreriaunioncristiana.com;"(57) (4) 2313893";"Cr52 51-42 L-145 Colombia, Medellín"
"LIBRERÍA BUCARICA";libreriabucarica@gmail.com;;"(57) (4) 5113766";"Cr48 49-38 L-127 Colombia, Medellín"
"First Name";"Email Address";Url;Telephone;Address
"LIBRERIA TROYA CALLE 9";libreriatroyac9@hotmail.com;www.libreriatroya.com;"(57) (2) 8813483";"Cl 9 8-76 Colombia, Cali"
"ALOMÍA ARCESIO LIBROS MÉDICOS & UNIVERSITARIOS";arcesioalomia48@yahoo.com;www.librosmedicosyuniversitarios.com;"(57) (2) 4022983";"Cr37 A 6-25 Colombia, Cali"
"EXPRESIÓN VIVA LTDA.";correo@expresonviva.com;www.expresionviva.com;"(57) (2) 8936793";"Cl 2 10-28 Colombia, Cali"
"LIBRERÍA Y PAPELERÍA POPULAR";diego.sanchez20@hotmail.com;www.papeleriapopulardelmeta.blogspot.com;"(57) (8) 6622969";"Cl 25 N 13 A-26 Popular Colombia, Villavicencio"
LIBRONET;holalibronet@gmail.com;www.libronet.com.co;"(57) (2) 8292404";"Cr3 8-46 Brr. Centro en Santander de Quilichao Colombia, Popayán"
"LIBRERÍA MINUTO DE DIOS";erikamd@minutodediosmed.org;www.minutodediosmed.org;"(57) (6) 3334207";"Cl 20 8-70 Colombia, Pereira"
"COMERCIALIZADORA INFORMATEC LTDA.";informatec@une.net.co;www.comercializadorainformatec.com;"(57) (4) 4227053";"Cl 55 79-14 L-109 Colombia, Medellín"
"ACARIBE LIBROS";"ventas@acaribe.com                      info@acaribe.com";www.acaribe.com;"(57) (8) 5124657";"Av20 de Julio-3 -100 Colombia, San Andrés"
"LIBRERIA OASIS";libreriaoasiscentro@gmail.com;;"(57) (7) 6844907";"Cl 41 14-32 Colombia, Bucaramanga"
"COMERCIALIZADORA EL BIBLIOTECÓLOGO LTDA";comercial@elbibliotecologo.com;www.elbibliotecologo.com;"(57) (1) 4410647";"Cl 66 103-45 Colombia, Bogotá"
"LIBRERIA Y ENCUADERNACION EL OCIO NO. 2";;;"(57) (4) 3315078";"Cl 33 B S 42-46 Envigado Colombia, Medellín"
"ALIANZA DISTRIBUIDORA DE COLOMBIA LTDA.";aliandis@une.net.co;;"(57) (4) 5130438";"Cr50 52-126 Of 406 Colombia, Medellín"
"PAPELERÍA CAVAL";caritoval@hotmail.com;;"(57) (6) 3346844";"Cl 18 5-36 Colombia, Pereira"
"PAPELERÍA SOLO DOMICILIOS";caritoval@hotmail.com;;"(57) (6) 3255444";"Cl 18 5-36 Colombia, Pereira"
"CONTADOR DEL SIGLO XXI LIBRERIA";libreriacontadorsigloxxi@hotmail.com;;"(57) (1) 2432321";"Cl 20 4-94 Colombia, Bogotá"
"INTERMEDICA LIBRERIA MEDICA";libremedica1@yahoo.es;;"(57) (1) 2877814";"Cr7 41-55 Colombia, Bogotá"
"LIBRERÍA THE BROTHERS DEL VALLE";isaacloaiza@hotmail.es;;"(57) (2) 8959166";"Cr8 9-14 Colombia, Cali"
"LIBRERÍA PROFITÉCNICAS LTDA.";profitecnicas@gmail.com;;"(57) (7) 6577445";"Cl 52 31-162 Cabecera Colombia, Bucaramanga"
"LIBRERÍA LEYER";carolinaeditorial@hotmail.com;www.edileyer.com;"(57) (6) 3257391";"Cr10 19-52 L-41 Edif Diario del Otún Colombia, Pereira"
"LIBRERIA RUBENCHO";dimjheison.1@hotmail.com;;"(57) (4) 5111999";"Cr48 49-14 L 35 Colombia, Medellín"
"MICROCOPIAS E.U";micropopias@hotmail.com;;"(57) (4) 2170975";"Cl 48 44-46 Colombia, Medellín"
"LIBRERÍA ARGOS";libreriaargos@hotmail.com;;"(57) (4) 5114838";"Cr48 49-14 L-31 Colombia, Medellín"
"NUEVA LIBRERIA FRANCESA LTDA";francesacolombia@hotmail.com;;"(57) (1) 6360143";"Av19 95-13 Colombia, Bogotá"
"COMERCIALIZADORA LITÚRGICA Y EDITORIAL LTDA.";cliturgica@une.net.co;;"(57) (4) 2518692";"Cr50 52-126 Of 401 Colombia, Medellín"
"DISTRIBUCIONES LA GRAN CACHARRERÍA";lagrancacharreria@gmail.com;;"(57) (7) 6804070";"Cr24 52-31 Colombia, Bucaramanga"
"EDICIONES Y DISTRIBUCIONES ORMANEL";ormanelbogota@hotmail.com;;"(57) (1) 2434877";"Av Cll 13 10-58 Of 212 Colombia, Bogotá"
"INSTITUTO MISIONERO HIJAS DE SAN PABLO (PAULINAS)";paulinascucuta@paulinas.org.co;www.paulinas.org.co;"(57) (7) 5717789";"Av5 12-65 Centro Colombia, Cúcuta"
"DISTRIBUCIONES ESTELAR S.A.S.";armanhr@gmail.com;;"(57) (8) 5121733";"Av Newball 4-169 L-227 Torres Sunrise Beach Colombia, San Andrés"
"LIBRERÍA BÍBLICA BETANIA";libreriabetania@hotmail.com;www.betanialibreria.com.co;"(57) (1) 2786913";"Tr21 A 21 A-26 S Colombia, Bogotá"
"EDICIONES AULA CREATIVA S.A.S";editorialaulacreativa@hotmail.com;www.edicionesaulacreativa.com;"(57) (1) 2899126";"Cl 12 B   S 25-48 Of 504 Colombia, Bogotá"
"LEGIS S.A";pereirapunto@legis.com.co;www.legis.com.co;"(57) (6) 3167070";"Cl 19 6-48 L-106 C.C Alcides Arevalo Colombia, Pereira"
"LIBRERIA VIDA";libreriavida.bucaramanga@gmail.com;;"(57) (7) 6423100";"Cl 35 14-52 Colombia, Bucaramanga"
"LIBRERÍA LIBÉLULA LIBROS";librerialibelulalibros@gmail.com;www.libelulalibros.com;"(57) (6) 8854201";"Cr23 A 59-104 L-2 Edif. Písamo Colombia, Manizales"
"PAPELERÍA Y LIBRERÍA MODERNA";papeleriamoderna01@hotmail.com;;"(57) (5) 2810018";"Cl 19 20-54 Centro Colombia, Sincelejo"
"FUNDACIÓN CASA DE POESÍA SILVA";casadepoesiasilva@casadepoesiasilva.com;www.casadepoesiasilva.com;"(57) (1) 2864414";"Cl 12 C 3-41 Colombia, Bogotá"
"FONDO CULTURAL IBEROAMERICANO";focui@etb.net.co;www.fondocultural.com;"(57) (1) 2123350";"Cl 66 A 16-41 Colombia, Bogotá"
"LIBRERÍA Y PAPELERÍA LA GRAN FERIA DEL LIBRO";"la feriadellibro@hotmail.com";;"(57) (2) 8240729";"Cr5 5-27 Colombia, Popayán"
"ANTAÑO LIBRERIA Y PAPELERIA";distriantano@gmail.com;;"(57) (6) 3344923";"Cl 21 8-55 Colombia, Pereira"
"LIBRERÍA VERBO DIVINO";libreriavdmed@une.net.co;feverbodivino.com;"(57) (4) 3491109";"Cl 34 B 65 D-76 Colombia, Medellín"
"DISCOTIENDA CRISTIANA NUEVA GENERACION S.A.S.";elkin714@hotmail.com;www.libreriacristianamedellin.com;"(57) (4) 4443570";"Cl 53 43-76 Colombia, Medellín"
"First Name";"Email Address";Url;Telephone;Address
"LIBRERÍA Y PAPELERÍA LA GRAN FERIA DEL LIBRO";"la feriadellibro@hotmail.com";;"(57) (2) 8240729";"Cr5 5-27 Colombia, Popayán"
"LIBRERIA CENTRO CULTURAL";libreriaccultural@telmex.net.co;;"(57) (6) 3358769";"Cl 19 5-73 L-110 C.C. Plazuela Colombia, Pereira"
"LIBRERÍA Y PAPELERÍA NUEVA GRANADA";nuevagranadae.u@gmail.com;;"(57) (4) 8287237";"Cl 99 99-30 Colombia, Apartadó"
"LIBRERÍA LIBÉLULA LIBROS";librerialibelulalibros@gmail.com;www.libelulalibros.com;"(57) (6) 8854201";"Cr23 A 59-104 L-2 Edif. Písamo Colombia, Manizales"
"PAPELERÍA RISARALDA";papeleriarisaralda@hotmail.com;;"(57) (6) 3350020";"Cr7 20-20 Colombia, Pereira"
"PAPELERÍA CAVAL";caritoval@hotmail.com;;"(57) (6) 3346844";"Cl 18 5-36 Colombia, Pereira"
"PAPELERÍA SOLO DOMICILIOS";caritoval@hotmail.com;;"(57) (6) 3255444";"Cl 18 5-36 Colombia, Pereira"
"FUNDACIÓN EDITORES VERBO DIVINO";fevdcol@feverbodivino.com;www.feverbodivino.com;"(57) (1) 2686664";"Av28 37-45 Colombia, Bogotá"
"LIBRERIA RUBENCHO";dimjheison.1@hotmail.com;;"(57) (4) 5111999";"Cr48 49-14 L 35 Colombia, Medellín"
"ANTAÑO LIBRERIA Y PAPELERIA";distriantano@gmail.com;;"(57) (6) 3344923";"Cl 21 8-55 Colombia, Pereira"
"PAPELERÍA MEDELLÍN LTDA.";medellin.ventas@hotmail.com;;"(57) (2) 8808028";"Cr9 11-07 Colombia, Cali"
"INTERMEDICA LIBRERIA MEDICA";libremedica1@yahoo.es;;"(57) (1) 2877814";"Cr7 41-55 Colombia, Bogotá"
"MICROCOPIAS E.U";micropopias@hotmail.com;;"(57) (4) 2170975";"Cl 48 44-46 Colombia, Medellín"
"NUEVA LIBRERIA FRANCESA LTDA";francesacolombia@hotmail.com;;"(57) (1) 6360143";"Av19 95-13 Colombia, Bogotá"
"LEGIS S.A";pereirapunto@legis.com.co;www.legis.com.co;"(57) (6) 3167070";"Cl 19 6-48 L-106 C.C Alcides Arevalo Colombia, Pereira"
"LIBRERÍA PROFITÉCNICAS LTDA.";profitecnicas@gmail.com;;"(57) (7) 6577445";"Cl 52 31-162 Cabecera Colombia, Bucaramanga"
"LIBRERÍA LA 21";;;"(57) (4) 2280606";"Cl49 41-68 Colombia, Medellín"
"PUBLICACIONES CRISTIANAS IBEROAMERICANAS LTDA";;;"(57) (1) 3482638";"Cl 76 20 B 55 Piso 4 Colombia, Bogotá"
"LIBRERÍA MAGISTERIO RM";;;"(57) (5) 2818818";"Cl 19 19-20 L-D-3 Gran Centro El Parque Colombia, Sincelejo"
"FORUM DISCOS Y LIBROS";;;"(57) (5) 6642457";"Plaza de La Artillería 33-12 Colombia, Cartagena"
"LIBRERIA Y PAPELERIA GRAN COLOMBIA M&M";;;"(57) (1) 2435210";"Cr6 13-98 Colombia, Bogotá"
"FUENTE DE VIDA LIBRERÍA";;;"(57) (5) 3289937";"Cl 90 # 6 D-37 Colombia, Barranquilla"
"LIBRERÍA LOS PITUFOS";;;"(57) (4) 5112213";"Cr48 49-14 L 48 Colombia, Medellín"
"LIBRERÍA LA 24";;;"(57) (4) 5128186";"Cr48 # 49-14 Int 24 Colombia, Medellín"
"DREAMING BOOKS";;;"(57) (4) 2704600";"Cr48 10-45 L-49 Colombia, Medellín"
"LIBRERÍA LA ANTICUARIA";;;"(57) (4) 2282823";"Cr44 47-59 Int 201 Colombia, Medellín"
"ANTICUARÍA LIBRERÍA JPH";;;"(57) (4) 2392820";"Cr44 # 47-61 Colombia, Medellín"
"LIBRERÍA DEPORTIVA DISQUINESIS";;;"(57) (4) 4210112";"Cl 48 A# 87-30 L-103 Colombia, Medellín"
"LIBRERÍA UNIVERSAL POPAYÁN";;;"(57) (2) 8240910";"Cl 3 5-14 Colombia, Popayán"
"LIBRERIA LA TERTULIANA";;;"(57) (4) 5112178";"Cr48 49-14 L-40 Colombia, Medellín"
"BIBLIOTECA ROSA CRUZ";;;"(57) (1) 3410926";"Cll 21 4 32 Colombia, Bogotá"
"LIBRERÍA POPULAR";;;"(57) (1) 2835001";"Cl 15 9-48 L-70 Colombia, Bogotá"
"BABEL LIBROS E.U.";;;"(57) (1) 2458495";"Cl 39 A 20-55 Colombia, Bogotá"
"INTERNATIONAL PAPER SAS";;;"(57) (1) 4049705";"Cl 16 G 97 - 17 Colombia, Bogotá"
"REPRESENTACIONES PIO Y CÚA. LTDA.";;;"(57) (1) 2360077";"Cr7 82-62 Ap 22 05 Colombia, Bogotá"
"AGUILAR CADAVID BEATRIZ EUGENIA";;;"(57) (5) 3587333";"Cr53 74-99 Colombia, Barranquilla"
"DISTRIBUCIONES ALIADAS BJ SAS";;;"(57) (1) 7470154";"Cr28 78 - 27 Colombia, Bogotá"
"LIBRERÍA LA ESQUINA";;;"(57) (4) 2514034";"Cr48 49-14 L-110 Colombia, Medellín"
"LIBRERIA EDÉN";;;"(57) (1) 5448065";"Cr28 63 B-84 Colombia, Bogotá"
"LIBRERÍA Y PAPELERÍA ROLDÁN";;;"(57) (5) 3785297";"Cl 84 43 B-38 L-1 Colombia, Barranquilla"
"First Name";"Email Address";Url;Telephone;Address
"VERDAD Y VIDA";;;"(57) (2) 6588984";"Cr2 12-42 Yumbo Colombia, Yumbo"
"CAMPO MAZIO DESIGN";;;"(57) (1) 3764490";"Cl 82 11-75 L-236 Colombia, Bogotá"
"CENTRO COMERCIAL DEL LIBRO";;;"(57) (6) 3345788";"Cl 21 5-35 Colombia, Pereira"
"LIBRERÍA ACADÉMICA";;;"(57) (4) 5115017";"Cr45 50-48 Of 210 Colombia, Medellín"
"LIBRERÍA CRISTIANA EMMANUEL";;;"(57) (2) 7733720";"Cl 11 5-20 Colombia, Ipiales"
"PATARROYO CÓRDOBA MARTHA LORENZA";;;"(57) (8) 8710429";"Cl 8 5-58 L-104 Pasaje Colonial Colombia, Neiva"
"LIBRERÍA LA LUZ";;;"(57) (1) 2856060";"Av(Cl) 32 14-26 Colombia, Bogotá"
"BIBLOS LIBRERÍA S.A.";;;"(57) (1) 2181831";"Av. 82 # 12 A 21 Colombia, Bogotá"
"GRUPO SAF E.U";;;"(57) (1) 6137986";"Cl 106 57-23 Of 506 Colombia, Bogotá"
"LIBRERÍA JOSMAR";;;"(57) (7) 6470885";"Cl 48 33-46 Colombia, Bucaramanga"
"DISTRILIBROS COLOMBIA S.A.S";;;"(57) (7) 6703127";"Cl 35 # 14-29 Colombia, Bucaramanga"
"PAPELERÍA MASTIN";;;"(57) (2) 8225712";"Cl 6 A 17-70 Colombia, Popayán"
"LIBRERÍA DISTRITO ESPECIAL";;;"(57) (1) 3338935";"Cl 8 S 3 A-41 Colombia, Bogotá"
"SOCIEDAD DE SAN PABLO";;;"(57) (2) 8221654";"Cl 4 4-20 L-2 Colombia, Popayán"
"LIBRERÍA EL DINOSAURIO";;;"(57) (1) 2458802";"Av (Cr) 22 44-70 Colombia, Bogotá"
"PÉREZ ESTRELLA OSCAR FRANCISCO";;;"(57) (5) 4332173";"Cl 37 A 67 A-02 Colombia, Santa Marta"
PAULINAS;;;"(57) (2) 8842615";"Cl 10 7-53 Colombia, Cali"
"LIBRERÍA Y PAPELERÍA BUILOP";;;"(57) (7) 5716005";"Av5 12-48 Centro Colombia, Cúcuta"
"MUNDO EDITORIAL";;;"(57) (4) 4647885";"Cl 24 A 58 C-106 Bello Colombia, Bello"
"LIBRERÍA JURÍDICA LEX NOVA";;;"(57) (4) 2620068";"Cr52 42-60 L-235 Colombia, Medellín"
"BENEDETTI TÚ LIBRERÍA";;;"(57) (4) 2659827";"Cl 32 E 65 C-42 Colombia, Medellín"
"NARANJO PUBLICIDAD";;;"(57) (4) 4484082";"Cr 55 C 162-79 Bogotá Colombia, Medellín"
"LIBRERÍA LA FORTUNA";;;"(57) (2) 8962312";"Cr10 10-65 Parque Sta Rosa Colombia, Cali"
"DONDE MEMO ENCUADERNACIÓN";;;"(57) (4) 3013512";"Cr 43 B 69 S-32 Colombia, Medellín"
"PAPELERÍA EL TRÉBOL";;;"(57) (4) 8871171";"Cr21 19-54 Colombia, Yarumal"
"ABACO LIBROS Y CAFÉ";;;"(57) (5) 6648338";"Cl 36 3-86 Calle de la Mantilla Colombia, Cartagena"
"LIBRERÍA LOS PITUFOS";;;"(57) (4) 5112213";"Cr48 49-14 L 48 Colombia, Medellín"
"LIBRERÍA LA 24";;;"(57) (4) 5128186";"Cr48 # 49-14 Int 24 Colombia, Medellín"
"LIBRERÍA Y GALERÍA LA TIENDA CULTURAL";;;"(57) (6) 7463061";"Cl 17 14-56 L-20 Colombia, Armenia"
"CENTROS DE LITERATURA CRISTIANA DE COLOMBIA";;;"(57) (1) 3104641";"Dg61 DBis 24-50 Colombia, Bogotá"
"LIBRERIA LA TERTULIANA";;;"(57) (4) 5112178";"Cr48 49-14 L-40 Colombia, Medellín"
"CANAL 2 LTDA";;;"(57) (1) 3413015";"Cl 16 9-64 Of 601 Colombia, Bogotá"
"ORTIZ LIBARDO";;;"(57) (1) 2848663";"Av (Cl) 72 79 C-06 Colombia, Bogotá"
"INTERNATIONAL PAPER SAS";;;"(57) (1) 4049705";"Cl 16 G 97 - 17 Colombia, Bogotá"
"PAPELERÚA SU PAPELERÚA COMERCIALIZADORA & DISTRIBUIDORA S.A.S.";;;"(57) (1) 3412026";"Cr12 A 10 - 29 Colombia, Bogotá"
"LIBRERÍA ANTAÑO";;;"(57) (4) 5129828";"Cr 49 46-75 P4 Colombia, Medellín"
"INFOSOURCES LTDA.";;;"(57) (1) 7424496";"Cr18 93-25 Of 103 Colombia, Bogotá"
"EL LIBERAL";;;"(57) (1) 2877966";"Cl 40 A 13-09 Of 1504 Colombia, Bogotá"
"LIBRERIA EDÉN";;;"(57) (1) 5448065";"Cr28 63 B-84 Colombia, Bogotá"
"LIBRERÍA JURÍDICA SANTANDER";;;"(57) (6) 3263238";"Cr 7 39-56 Colombia, Pereira"
"First Name";"Email Address";Url;Telephone;Address
"PAPELERÍA Y LIBRERÍA JUAN PABLO II";;;"(57) (76) 5654302";"Cl 5 19-30 Colombia, Aguachica"
"¡ OHHH LA LA !";;;"(57) (1) 6200232";"Cr7 115-60 L-A-107 C.C Hda Santa Bárbara Colombia, Bogotá"
"LIBRERÍA CRISTIANA CRISTOCARIBE";;;"(57) (5) 6611560";"C.C. La Plazuela L-225 Colombia, Cartagena"
"ALMACÉN CD MÚSICA";;;"(57) (4) 2300655";"Cl 51 73-67 Colombia, Medellín"
"LIBRERÍA POPULAR";;;"(57) (1) 2835001";"Cl 15 9-48 L-70 Colombia, Bogotá"
"SISTEMAS DIESEL Y TURBO E.U.";;;"(57) (5) 3444430";"Cl 36 45-76 Colombia, Barranquilla"
"DISTINTAS RMK S.A.S.";;;"Telefax: (57) (1) 4609417";"Cr79 7 A - 13 Colombia, Bogotá"
"LIBRERÍA PEDAGÓGICA SABIDURÍA";;;"(57) (5) 4102933";"Cl 8 A 11-40 Colombia, Ciénaga"
"BOUTIQUE Y LIBRERÍA AROMAS DE JESUCRISTO";;;"(57) (2) 2716561";"Cr29 32-164 L-101 Colombia, Palmira"
"CENTROS DE LITERATURA CRISTIANA";;;"(57) (2) 5584215";"Cl 6 37-2 Bis-32 Colombia, Cali"
"LIBRERIA CRISTIANA Y DETALLES LIBROS COMPARTIR";;;"(57) (7) 6213909";"Dg48 17-74 Colombia, Barrancabermeja"
"LIBRERÍA RESTAURACIÓN";;;"(57) (6) 3296427";"Cr6 34-34 Colombia, Pereira"
"LIBRERÍA PARIS";;;"(57) (4) 5110031";"Cr48 # 49-14 L-26 Colombia, Medellín"
"FORUM DISCOS Y LIBROS";;;"(57) (5) 6642457";"Plaza de La Artillería 33-12 Colombia, Cartagena"
"LIBRERÍA TEMAS Y LIBROS";;;"(57) (1) 2842788";"Cl 16 8 A-27 L-109-112 Colombia, Bogotá"
"LIBRERÌA CRISTIANA TORRE FUERTE";;;"(57) (8) 2730407";"Cl 10 9-53 Colombia, Ibagué"
"LIBRERIA ATENAS";;;"(57) (7) 6303381";"Cr15 35-16 Colombia, Bucaramanga"
"LIBRERÍA Y PAPELERÍA MAGISTERIO";;;"(57) (8) 2564467";"Cr11 4-81 Colombia, Líbano"
"CORPORACIÓN CULTURAL CUENTOS & CO";;;"(57) (4) 2501777";"Cl 32 B 81 A-73 Int 1 Colombia, Medellín"
"LIBRERÍA EDUCATIVA";;;"(57) (1) 2833681";"Cr8 A 15-63 L-108 Sector 116 Colombia, Bogotá"
"LIBRERÍA RINCÓN MARIANO";;;"(57) (6) 3356175";"Cl 14 6-36 Edif Tobon y Giraldo Colombia, Pereira"
"UNICOPI DIEGO";;;"(57) (8) 8715815";"Cl 11 1-24 Colombia, Neiva"
"LIBRERÍA ESOTÉRICA";;;"(57) (8) 2650479";"Av Ferrocarril 24-71 Colombia, Ibagué"
"LIBRERÍA UNIVERSAL POPAYÁN";;;"(57) (2) 8240910";"Cl 3 5-14 Colombia, Popayán"
"LIBRERÍA CRISTIANA REY DE REYES";;;"(57) (5) 6626062";"Tr42 26 A-32 Calle Benjamín Herrera Colombia, Cartagena"
"LIBRERÍA ARQUIDIOCESANA";;;"(57) (2) 8810811";"Av4 # 8 N-15 Colombia, Cali"
"LOS ESCRITORES";;;"(57) (6) 8807278";"Cr23 32-18 Fundadores Colombia, Manizales"
"LIBRERÍA REMA";;;"(57) (2) 7236641";"Cr29 20-61 Las Cuadras Colombia, Pasto"
"LIBRERÍA MEDELLÍN";;;"(57) (4) 4446144";"Cr46 # 47-66 L-1100 Colombia, Medellín"
"REPRESENTACIONES PLUTO LTDA.";;;"Telefax: (57) (1) 4520956";"Cl 54 S 80-66 Colombia, Bogotá"
"JURÍDICAS RINCÓN";;;"(57) (1) 3202329";"Cr13 38-47 Of 203 Colombia, Bogotá"
"LIBRERIA EL NOBEL";;;"(57) (1) 3428304";"Cl16 8-59 L115 Colombia, Bogotá"
"DISTRIBUCIONES ALIADAS BJ SAS";;;"(57) (1) 7470154";"Cr28 78 - 27 Colombia, Bogotá"
"LIBRERÍA JURÍDICA DEL CAFÉ";;;"(57) (6) 3290026";"Cr8 40 B-21 Venecia Colombia, Pereira"
"PUNTO DE CONTACTO";;;"(57) (7) 6390213";"Carrefour Cañaveral L-12 Av el Bosque Colombia, Bucaramanga"
"LIBRERÍA EL CID";;;"(57) (5) 4213909";"Cl 16 3-106 Colombia, Santa Marta"
"MARTÍNEZ GUILLERMO";;;"(57) (1) 2487175";"Calle 65 # 10-20 Colombia, Bogotá"
"ABC LIBRERIA MEDICA Y TÉCNICA";;;"(57) (5) 6646151";"Cl.30 8B-70 L-1-B-101 CC Getsemani Colombia, Cartagena"
"COMPRO LIBROS A DOMICILIO";;;"(57) (1) 2826897";"Cr8 16-14 Colombia, Bogotá"
"GRUPO CULTURAL ANDINO S.A.";;;"(57) (1) 2433651";"Cl 23 13-64 P-3 Colombia, Bogotá"
"First Name";"Email Address";Url;Telephone;Address
"KOE S.A.S.";;;"Nal: (57) (1) 6056484";"Cl 77 A 12 A-23 Colombia, Bogotá"
"MI LIBRERIA DEL CENTRO";;;"(57) (5) 3515382";"Cl 35 43-23 Colombia, Barranquilla"
"LIBRERIA PUERTO RICO";;;"(57) (1) 2868444";"Cl 13 10-31 Colombia, Bogotá"
"VILLEGAS EDITORES S.A.";;;"(57) (1) 6160306";"Av82 11-50 Int 3 Colombia, Bogotá"
"DISEÑOS SARITA";;;"(57) (7) 6520705";"Cl 35 17-49 L-8 Colombia, Bucaramanga"
"EDICIONES SAN ANTONIO";;;"(57) (1) 2654540";"Cr87 D 0-35 Colombia, Bogotá"
"LIBRERÍA Y PAPELERÍA OBREGÓN";;;"(57) (75) 5695656";"cll 10 11 63 centro Colombia, Ocaña"
BIBLIOMANIA;;;"(57) (1) 2435881";"Cr8 16-26 Colombia, Bogotá"
"LIBRERIA CRISTIANA Y CASA DE CAMBIO LUZ DEL MED";;;"(57) (1) 2464831";"Cl 9 9-79 Colombia, Bogotá"
"LIBRERIA CRISTIANA JONADAB";;;"(57) (1) 2703922";"Dg49 A S 51-08 L-H2 Colombia, Bogotá"
"SOCIEDAD DE SAN PABLO";;;"(57) (2) 8221654";"Cl 4 4-20 L-2 Colombia, Popayán"
"THELIBRO COLOMBIA LTDA.";;;"Telefax: (57) (1) 7024873";"Cl 43 A 9-98 Of 509 Colombia, Bogotá"
"LIBRERÍA CATÓLICA Y APOSTÓLICA";;;"(57) (1) 3621313";"Cr5 A 29-12 S Colombia, Bogotá"
"MARTÍNEZ GUILLERMO";;;"(57) (1) 2487175";"Calle 65 # 10-20 Colombia, Bogotá"
"DISTRIBUCIONES MILÁN";;;"(57) (8) 8759755";"Cr17 B 31-16 Villa Milena Colombia, Neiva"
"LIBRERÍA L.V.X. ESOTÉRICA";;;"(57) (1) 5206171";"Av (Cll) 116 15 B-17 L-1 Colombia, Bogotá"
"MR. BOOKS LIMITADA";;;"(57) (1) 6129596";"Cr18 B 108-05 Colombia, Bogotá"
"EL LIBERAL";;;"(57) (1) 2877966";"Cl 40 A 13-09 Of 1504 Colombia, Bogotá"
"LIBRERIA JURIDICA COMLIBROS";;;"(57) (4) 2519290";"Cr45 52-66 Colombia, Medellín"
"LIBRERÍA GLORIA";;;"(57) (4) 7820021";"Cr3 25-42 Centro Colombia, Montería"
"JORGE ALBERTO GALEANO";;;"(57) (5) 3795269";"Cr41 30-80 Colombia, Barranquilla"
"LIBRERÍA CRISTIANA REY DE REYES";;;"(57) (5) 6626062";"Tr42 26 A-32 Calle Benjamín Herrera Colombia, Cartagena"
"LIBRERÍA LOS PITUFOS";;;"(57) (4) 5112213";"Cr48 # 49-14 L-48 Colombia, Medellín"
"LIBRERÍA Y PAPELERÍA MAGISTERIO";;;"(57) (8) 2564467";"Cr11 4-81 Colombia, Líbano"
"LIBROS VALERIA";;;"(57) (7) 5833963";"Cl 12 4-47 C.C. Internacional L-MT-3 Colombia, Cúcuta"
"LIBRERIA APOLO";;;"(57) (1) 2849065";"Cl16 8-95 L-402 Colombia, Bogotá"
"DISTRIBUNA LTDA";;;"(57) (1) 6202294";"Autop Norte 123-93 Colombia, Bogotá"
"LIBRERÍA ATLANTIC";;;"(57) (1) 3368143";"Cr8 A 15-63 L-110 Colombia, Bogotá"
"LIBRERÍA Y GALERÍA LA TIENDA CULTURAL";;;"(57) (6) 7463061";"Cl 17 14-56 L-20 Colombia, Armenia"
FULCANELLY;;;"(57) (1) 4812245";"Cl 16 8-49 L-111 Colombia, Bogotá"
"M.T. SUMINISTROS LTDA.";;;"Telefax: (57) (1) 5446084";"Cr97 24 - 15 Ap 104 Colombia, Bogotá"
"LIBRERÍA CRISTIANA CANAAN";;;"(57) (2) 3392551";"Cr66 10-60 Colombia, Cali"
"LIBRERÍA Y PAPELERÍA LÍDER";;;"(57) (75) 5692738";"Cl 11 16 A-05 San Agustín Colombia, Ocaña"
"VARIEDADES CAROLAYN LIBRERIA";;;"(57) (1) 7811371";"Cl 6 S 14-44 Soacha Colombia, Soacha"
"LIBROS & COMPAÑÍA";;;"(57) (1) 3417100";"Av (Cl) 19 3-16 Of 213 Colombia, Bogotá"
"LIBRERÍA ESTUDIO EXPRESS";;;"(57) (1) 6717548";"Cr20 168-12 Colombia, Bogotá"
"BBA LIBRERÍA";;;"(57) (1) 5285873";"Av (Cr) 9 145-56 Colombia, Bogotá"
"LIBRERÍA CRISTIANA SENDA DE LUZ";;;"(57) (7) 6421569";"Cl 36 17-56 P-Marrón Colombia, Bucaramanga"
"PAPELERÍA Y LIBRERÍA CLAUPAT";;;"(57) (5) 6628482";"Bazurto C.C. Colmenar L-5-B Colombia, Cartagena"
"LIBRERIA LA TIENDA DEL HUMOR";;;"(57) (4) 5118292";"Cr49 48-33 Int 107 Colombia, Medellín"
"First Name";"Email Address";Url;Telephone;Address
"LIBRERÍA ALEJANDRA";;;"(57) (2) 7252514";"Cr5 7-19 Colombia, Ipiales"
"EDITORIAL MAGISTERIO S.A.";;;"(57) (1) 3383605";"Dg 37 Bis 20-70 Colombia, Bogotá"
"PAPELERÍA DISTRITÉCNICOS";;;"(57) (6) 7469700";"Cl 12 N 14-23 Colombia, Armenia"
"FERNANDO PINTO BARRANCO";;;"(57) 3624174";"Cr36 38-62 Urb La Arboleda Colombia, Soledad"
"ALFA Y OMEGA REPRESENTACIONES";;;"(57) (6) 8532060";"Cr4 13-27 Colombia, Anserma"
"LIBRERÍA ZAMORA";;;"(57) (6) 3335597";"Cr5 19-16 Colombia, Pereira"
"SUMINISTROS ANNAR DIDACTICOS";;;"(57) 3132099967";"Cl 8 10-09 Colombia, Popayán"
"LIBRERÍA TERCER MILENIO";;;"(57) (2) 3347492";"Cr29 Dg31-108 Colombia, Cali"
"GARZÓN LUIS FERNANDO";;;"(57) (1) 2840116";"Cl 19 3 A-37 L-113 Colombia, Bogotá"
"LIBRERÍA RÍO DE AGUA VIVA";;;"(57) (5) 4210175";"Cl 17 6-10 Colombia, Santa Marta"
"LIBRERÍA CAÍCEDO";;;"(57) (2) 8240675";"Cl 4 2-85 L-1 Colombia, Popayán"
"PAPELERÍA Y EDICIONES GARCIA";;;"(57) 3127037021";". Colombia, Medellín"
"LIBRERÍA BONANZA";;;"(57) (4) 5135152";"Cr48 # 49-14 L-50 Colombia, Medellín"
"LIBRERÍA Y PAPELERÍA ORIENTAL";;;"(57) (8) 6683051";"Cl 33 B 36-12 Barzal Colombia, Villavicencio"
"LIBRERÍA GARFIELD";;;"(57) (5) 2826660";"Cl 20 19 27 L-B-19 Gran Centro El Parque Colombia, Sincelejo"
"LIBRERIA ATENAS";;;"(57) (2) 2730210";"Cr24 30-41 Colombia, Palmira"
"PAPELERIA Y LIBRERIA MARIPOSA";;;"(57) (4) 2520466";"Cl 44 84-31 Colombia, Medellín"
"LIBRERÍA EDUCATIVA";;;"(57) (1) 2833681";"Cr8 A 15-63 L-108 Sector 116 Colombia, Bogotá"
"LIBRERÍA LEYER";;;"(57) (4) 7821879";"Cl 27 4-18 Centro Colombia, Montería"
"MI LIBRERIA DEL CENTRO";;;"(57) (5) 3515382";"Cl 35 43-23 Colombia, Barranquilla"
"CREACIONES Y SUMINISTROS S.A.S.";;;"(57) (1) 5757510";"Cr67 10-10 Colombia, Bogotá"
"CORPORACION INTERUNIVERSITARIA DE SERVICIOS";;;"(57) (4) 3124880";"Cl 10 S 48 A-55 Colombia, Medellín"
"LIBRERIA ARBELAEZ EDITORES Y CÚA. LTDA.";;;"(57) (1) 7591599";"Cr29 A 22-46 Int 5 Ap 102 Colombia, Bogotá"
"PAPELERÍA Y LIBRERÍA JUAN PABLO II";;;"(57) (76) 5654302";"Cl 5 19-30 Colombia, Aguachica"
"DELFINES EDITORES";;;"(57) 3233044";"Cr14 D No. 64 C-09 Colombia, Soledad"
"VILLEGAS EDITORES S.A.";;;"(57) (1) 6160306";"Av82 11-50 Int 3 Colombia, Bogotá"
"ALMACENTRO CULTURA";;;"(57) (2) 2242835";"Cl 27 25-43 Colombia, Tuluá"
"CENTRO COMERCIAL DEL LIBRO";;;"(57) (6) 3345788";"Cl 21 5-35 Colombia, Pereira"
"LIBRERÍA MEMO";;;"(57) (4) 5133356";"Cr48 # 49-14 L-16 Colombia, Medellín"
"LIBRERÍA PUNTO DE CONTACTO";;;"(57) (7) 6395013";"Cr27 34-35 Colombia, Bucaramanga"
"LIBRERÍA DISTRITO ESPECIAL";;;"(57) (1) 3338935";"Cl 8 S 3 A-41 Colombia, Bogotá"
"LEGIS S.A.";;;"(57) (1) 4255255";"Av (Cl) 26 82-70 Colombia, Bogotá"
"CENTRO DE LITERATURA CRISTIANA DE COLOMBIA";;;"(57) (5) 3685227";"Cl 76 No. 52-56 Colombia, Barranquilla"
"LIBRERÍA Y CAFÉ LA MANCHA DEL QUIJOTE";;;"(57) (5) 3602068";"Cr53 No. 75-129 L-3 Colombia, Barranquilla"
"COMPAPER S.A.S";;;"(57) (1) 6786984";"Cr18 160 A - 22 Colombia, Bogotá"
"LIBRERÍA ARCÁNGEL";;;"(57) (2) 6610296";"Av6 A N 24 A N-35 Colombia, Cali"
"LIBRERÍA CRISTIANA ""LA RED""";;;"(57) (1) 2178063";"Cr24 67-28 L-205 Colombia, Bogotá"
"DISTRIBUCIONES MILÁN";;;"(57) (8) 8759755";"Cr17 B 31-16 Villa Milena Colombia, Neiva"
"LIBRERIA SEÑAL EDITORA";;;"(57) (4) 2519882";"Cl 50 # 45-28 Colombia, Medellín"
"ALIANZA DISTRIBUIDORA DE COLOMBIA LTDA.";;;"(57) (1) 3127275";"Cr6 67-34 Colombia, Bogotá"
"First Name";"Email Address";Url;Telephone;Address
"LIBRERÍA Y PAPELERÍA FUTURO";;;"(57) (4) 7825560";"Cl 33 2-26 Centro Colombia, Montería"
"LIBRERÍA LYRA";;;"(57) (2) 7335724";"C.C. Galerías L-115 Colombia, Pasto"
"EDITORA RUTAS DE LUZ S.A.S.";;;"Telefax: (57) (1) 7016980";"Cl 22 A S 9-71 Colombia, Bogotá"
"LIBRERÍA MI LIBRO";;;"(57) (6) 3357052";"Cr5 20-86 Colombia, Pereira"
"LIBRERÍA Y PAPELERÍA DAYCOR";;;"(57) (2) 7734429";"Cl 13 7-54 Colombia, Ipiales"
"LA PEQUEÑA LIBRERÍA";;;"(57) (4) 2652959";"Cr71 C 4-05 Colombia, Medellín"
FUNDALECTURA;;;"(57) (1) 3201511";"Dg40 ABis 16-46 Colombia, Bogotá"
"DONDE MEMO ENCUADERNACIÓN";;;"(57) (4) 3013512";"Cr 43 B 69 S-32 Colombia, Medellín"
"PAPELERÍA Y MISCELÁNEA MACONDO - VSN";;;"(57) (5) 7281075";"Cl 11 6 A-60 Colombia, Riohacha"
"LIBRERÍA Y PAPELERÍA MAICAO";;;"(57) (5) 7280493";"Cl 7 8-45 Colombia, Riohacha"
"LIBRERÍA Y REVISTERÍA CITY BOOKS";;;"(57) (6) 3316641";"Av Circunvalar 3-05 L-101 Colombia, Pereira"
"LIBRERÍA INFANTIL LA HORA DEL CUENTO";;;"(57) (1) 2582030";"Cl 147 7-52 L-18 Colombia, Bogotá"
"LIBROS COLOMBIA";;;"(57) (5) 3406058";"Cr42 33-19 Colombia, Barranquilla"
"PAPELERIA Y LIBRERIA LUZ Y VIDA";;;"(57) (27) 7264687";"Cr2 17-42 Eduardo Santos Colombia, La Unión"
"ALMACÉN LIBRERÍA SANTIAGO DE CALI";;;"(57) (7) 6523183";"Cl 41 # 14-79 Colombia, Bucaramanga"
"LIBRERIA CASANARE";;;"(57) (1) 6095118";"Cl 12 9-86 Colombia, Bogotá"
"CATARSIS LIBROS CAFE Y TERTULIA";;;"(57) (7) 6471199";"Cl 45 35-15 Colombia, Bucaramanga"
"MUNDO LIBROS CULTURA E.U";;;"(57) (7) 5782942";"Cl 2 5-115 Tasajero Colombia, Cúcuta"
"PAPELERÍA SANTA MARÍA";;;"(57) (2) 2245617";"Cr24 26-23 Colombia, Tuluá"
"LIBRERÍA INTERUNIVERSITARIA";;;"(57) (4) 2179058";"Paraninfo La Universidad de Antioquia Colombia, Medellín"
"LIBRERÍA INTELECTUAL";;;"(57) (1) 2430186";"Cr8 A 15-63 L-144 Colombia, Bogotá"
DISCOLÁSER;;;"(57) (8) 8721760";"Cr12 7-73 Colombia, Neiva"
ASOCOVLIBROS;;;"(57) (1) 5996318";"Cl 15 9-45 Colombia, Bogotá"
"LIBRERÍA Y PAPELERÍA BARBOSA";;;"(57) (75) 5623661";"Cl 11 13-29 Centro Colombia, Ocaña"
"UNIVERSIDAD EAFIT";;;"(57) (4) 2619500";"Cr49 7 S-50 B-18 P-1 Colombia, Medellín"
"LIBRERIA EL TRIUNFO";;;"(57) (1) 3429380";"Cr8 16-30 Colombia, Bogotá"
"KAIRÓS LIBROS Y DETALLES";;;"(57) (7) 6431891";"Cr36 51-50 Colombia, Bucaramanga"
"LIBRERIA KINGSTUFF LTDA";;;"(57) (1) 6484809";"Cl 151 16-19 L-2120 Colombia, Bogotá"
"LIBRERÍA CATÓLICA GLADYS C.A.";;;"(57) (2) 8244606";"Cr6 5-44 Colombia, Popayán"
"KOE S.A.S.";;;"Nal: (57) (1) 6056484";"Cl 77 A 12 A-23 Colombia, Bogotá"
"LIBRERIA ORGULLO PAISA";;;"(57) (4) 2302582";"Cl 48D 65A-58 Colombia, Medellín"
"EDICIONES SM S.A.";;;"(57) (4) 4129835";"Cr77 B 47-35 Colombia, Medellín"
"COMUNICACIONES SIN FONTERAS";;;"(57) (1) 2323362";"Cr13 43 A-16 L-3 Colombia, Bogotá"
"LIBRERÍA Y VARIEDADES ELIZABETH";;;"(57) (5) 7281336";"Cl 7 8-16 Colombia, Riohacha"
"DISTRIBUIDORA ANTAÑO 2000";;;"(57) (7) 6524087";"Cl 35 14-64 Of 301 Colombia, Bucaramanga"
"DISTRIBUIDORA Y PAPELERÍA VENEPLAST LTDA.";;;"Domic.: (57) (5) 6614414";"C.C. Los Ejecutivos L-51 Colombia, Cartagena"
"LEGIS S.A.";;;"(57) (1) 4255255";"Av (Cl) 26 82-70 Colombia, Bogotá"
"LIBRERÍA CRISTIANA Y PAPELERÍA ESCALERA AL EXITO";;;"(57) (6) 3264856";"Cr7 36-12 Colombia, Pereira"
"LA FERIA DEL LIBRO";;;"(57) (8) 2634760";"Cr3 13-40 Centro Colombia, Ibagué"
"LIBRERÍA INTERNACIONAL";;;"(57) (2) 6809309";"Cr40 5 A-116 Brr. Tequendama Colombia, Cali"
"First Name";"Email Address";Url;Telephone;Address
"LIBRERÍA LOS PITUFOS";;;"(57) (4) 5112213";"Cr48 49-14 L 48 Colombia, Medellín"
"LIBRERÍA LA 24";;;"(57) (4) 5128186";"Cr48 # 49-14 Int 24 Colombia, Medellín"
AMOLCA;;;"(57) (4) 5123682";"cl 48 48-14 of 1303 Colombia, Medellín"
"EASY BOOK";;;"Nal: (57) (1) 2634335";"Cr74 24 D-92 Colombia, Bogotá"
"LIBRERÍA CRISTIANA EL EDÉN";;;"(57) (5) 3681144";"Cr43 80-87 Colombia, Barranquilla"
"LIBRERÍA YEIK";;;"(57) (2) 3795576";"Cr31 7-15 Colombia, Cali"
"LIBRERÍA DEPORTIVA DISQUINESIS";;;"(57) (4) 4210112";"Cl 48 A# 87-30 L-103 Colombia, Medellín"
"LIBRERÍA SERVIMÉDICA";;;"(57) (5) 3799290";"Cl 48 21-50 Colombia, Barranquilla"
"LIBRERÍA LEYER";;;"(57) (4) 7821879";"Cl 27 4-18 Centro Colombia, Montería"
"EDITORIAL LEYER LTDA";;;"(57) (1) 3429097";"Cr7 12-15 Colombia, Bogotá"
"BABEL LIBROS E.U.";;;"(57) (1) 2458495";"Cl 39 A 20-55 Colombia, Bogotá"
"SOJAR IMAGEN SAS";;;"(57) (1) 4087963";"Cr28 10 - 40 L- 319A Colombia, Bogotá"
"CREACIONES Y SUMINISTROS S.A.S.";;;"(57) (1) 5757510";"Cr67 10-10 Colombia, Bogotá"
"AGUILAR CADAVID BEATRIZ EUGENIA";;;"(57) (5) 3587333";"Cr53 74-99 Colombia, Barranquilla"
"LIBRERÍA Y CAFÉ LA MANCHA DEL QUIJOTE";;;"(57) (5) 3602068";"Cr53 No. 75-129 L-3 Colombia, Barranquilla"
"LIBRERÍA SAGRADA FAMILIA";;;"(57) (4) 4444592";"Cl 57 # 48-16 P-2 Colombia, Medellín"
"MUNDO LITOGRAFÍCO EDITORIAL EDUCATIVA";;;"(57) (1) 4082000";"Cr21 5 A-18 Colombia, Bogotá"
"LIBRERÍA CATÓLICA CAMINO,VERDAD Y VIDA";;;"(57) (5) 5742176";"Cr7 13 ABis-07 Colombia, Valledupar"
"LIBRERÍA PALAS ATENEA";;;"(57) (4) 2762661";"Cr43 # 32 S-08 Envigado Colombia, Envigado"
"PAPELERIA MISCELANEA JC S.A.S.";;;"Telefax: (57) (1) 4494098";"Cr79 F 14 - 82 P-3 Colombia, Bogotá"
"LIBRERÍA LA SABIDURÍA";;;"(57) (8) 6610529";"Cl 38 31-06 Centro Colombia, Villavicencio"
"LIBRERÍA LOS PITUFOS";;;"(57) (4) 5112213";"Cr48 # 49-14 L-48 Colombia, Medellín"
"LIBRERÍA Y DISTRIBUIDORA SAN PABLO";;;"(57) (4) 2519392";"Cl 57 N 49-44 L-220 Colombia, Medellín"
"PAPELERÍA Y LIBRERIA CRISTIANA SIÓN";;;"(57) (2) 3302761";"Cl 9 65-23 Colombia, Cali"
"VERDAD Y VIDA";;;"(57) (2) 6588984";"Cr2 12-42 Yumbo Colombia, Yumbo"
"PAPELERÍA Y LIBRERÍA CRISTIANA KAIROS";;;"(57) (2) 5577914";"Cr23 B 13-13 Colombia, Cali"
"LIBRERIA CRISTIANA AGAPE";;;"(57) (7) 6525545";"Cl 36 16-37 L-80 Colombia, Bucaramanga"
"LIBRERÍA Y TECNOLOGÍA L & T";;;"(57) (5) 3580484";"Cr38 74-179 P 2 Int Carrefour C.C. Americano Colombia, Barranquilla"
"LIBRERÍA EDICIONES EL ESCRITOR";;;"(57) (7) 6304705";"Cr19 36-29 Colombia, Bucaramanga"
"LIBRERÍA LEO LIBROS";;;"(57) (6) 8856576";"Cr23 57-62 Colombia, Manizales"
"EL RINCON DE JOSÉ EVER";;;"(57) (2) 2246666";"Cl 27 26-67 Colombia, Tuluá"
"ALIANZA DISTRIBUIDORA DE COLOMBIA LTDA.";;;"(57) (1) 3127275";"Cr6 67-34 Colombia, Bogotá"
"LIBRERIA EL DORADO";;;"(57) (1) 4135281";"Av Eldorado 93-30 L-2375 Colombia, Bogotá"
"DISTRILIBROS COLOMBIA S.A.S";;;"(57) (7) 6703127";"Cl 35 # 14-29 Colombia, Bucaramanga"
"LIBRERÍA EL PRINCIPITO";;;"(57) (6) 8831570";"Cr22 Parque Fundadores Colombia, Manizales"
"LIBRERIA CRISTIANA JONADAB";;;"(57) (1) 2703922";"Dg49 A S 51-08 L-H2 Colombia, Bogotá"
"CÍRCULO DE LECTORES S.A.";;;"(57) (1) 3210808";"Cl 73 7-60 Colombia, Bogotá"
"LIBRERIA COLONIAL";;;"(57) (5) 4211612";"Cl 16 4-81 Colombia, Santa Marta"
"LIBRERÍAS PAULINAS";;;"(57) (5) 3568943";"Cr54 70-121 Colombia, Barranquilla"
"LIBRERIA CRISTIANA LA NUEVA JERUZALEN";;;"(57) (1) 4309686";"Av (Cl) 72 70 D-25 L-118 Colombia, Bogotá"
"First Name";"Email Address";Url;Telephone;Address
"COMERCIALIZADORA EDUCATIVA LTDA.";;;"(57) (1) 2434884";"Cr 39 A 36 33 s Colombia, Bogotá"
"PROYECTOS CULTURALES LA BALSA S.A.S.";;;"(57) (1) 3120225";"Cr 9 73-44 L-2 B Colombia, Bogotá"
"AGUILAR CADAVID BEATRIZ EUGENIA";;;"(57) (5) 3587333";"Cr53 74-99 Colombia, Barranquilla"
"LIBRERIA CRISTINA JERISIM";;;"(57) 3115281621";"Av6 10-48 Colombia, Cúcuta"
"NUEVO BOGOTANO";;;"(57) (8) 5125700";"Av 20 de Julio 1 A-56 Colombia, San Andrés"
"INFOSOURCES LTDA.";;;"(57) (1) 7424496";"Cr18 93-25 Of 103 Colombia, Bogotá"
"PAPELERÍA Y LIBRERÍA JUAN PABLO II";;;"(57) (76) 5654302";"Cl 5 19-30 Colombia, Aguachica"
"LIBRERÍA PAPIROS";;;"(57) (5) 5803916";"Cl 16 A 6-75 Colombia, Valledupar"
"MERIÑO FONTALVO MAYRA ALEJANDRA";;;"(57) (5) 3472552";"Cr3 B 36 B-49 Colombia, Barranquilla"
"PENSAR JURÍDICO";;;"(57) (5) 2810221";"Cr17 22-42 L-1 Edif Los Andes Colombia, Sincelejo"
"DISTRIBUCIONES & EDICIONES";;;"(57) (1) 3347193";"Cl 12 9-86 L-101 Colombia, Bogotá"
"M.T. SUMINISTROS LTDA.";;;"Telefax: (57) (1) 5446084";"Cr97 24 - 15 Ap 104 Colombia, Bogotá"
"PAPELERIA MISCELANEA JC S.A.S.";;;"Telefax: (57) (1) 4494098";"Cr79 F 14 - 82 P-3 Colombia, Bogotá"
"JUGLARES LIBRERÍA";;;"(57) (2) 3343415";"Cr32 A 29-74 Colombia, Cali"
"LIBRERÍA ARCÁNGEL";;;"(57) (2) 6610296";"Av6 A N 24 A N-35 Colombia, Cali"
"SEL SERVICIO ESPECIALIZADO DEL LIBRO LTDA.";;;"(57) (4) 2314081";"Cr49 49-48 Of 201 Colombia, Medellín"
"LA BALSA LIBROS";;;"(57) (4) 2681627";"Cr43 A 6 S-15 L-145 Colombia, Medellín"
"LIBRERÍA CRISTIANA LA AURORA";;;"(57) (2) 2726471";"Cl 30 32-42 Colombia, Palmira"
"LIBRERÍA CRISTIANA LEAL";;;"(57) (7) 6420814";"Cl 37 17-43 P-Rojo L-218 Omnicentro Colombia, Bucaramanga"
"LEGUMBRES LEIDYS";;;"(57) (7) 6364255";"Cr33 95-05 La Pedregosa Colombia, Bucaramanga"
"LIBRERÍA EL CAMPANARIO";;;"(57) (8) 6713380";"Cl 41 30 A -05 Colombia, Villavicencio"
"LIBRERÍA JURÍDICA DANALEX";;;"(57) (2) 8810225";"Cr9 # 11-50 Colombia, Cali"
"LIBRERÍA CRISTIANA SHALEM";;;"(57) (7) 6301893";"Cr15 # 36 L-07 P-1 Colombia, Bucaramanga"
"LIBRERIA Y ARTICULOS MEDICOS UNIVERSITAS";;;"(57) (7) 6451216";"Cl 29 31-22 Edif San Angel Colombia, Bucaramanga"
BANCODELLIBRO.COM;;;"(57) (2) 8881040";"Cl 9 6-48 Colombia, Cali"
FUNDALECTURA;;;"(57) (1) 3201511";"Dg40 ABis 16-46 Colombia, Bogotá"
"LIBRERIA DEL INGENIERO LTDA";;;"(57) (1) 2154456";"Av15 119-38 L-105 Colombia, Bogotá"
"LIBRERÍA DON QUIJOTE";;;"(57) (6) 8822422";"Cl 26 22-41 Colombia, Manizales"
"DISTRIBUIDORA Y COMERCIALIZADORA DOMAR S.A.S";;;"(57) (1) 2989801";"Cr102 24-31 Colombia, Bogotá"
"LIBRERIA CRISTIANA JONADAB";;;"(57) (1) 2703922";"Dg49 A S 51-08 L-H2 Colombia, Bogotá"
"""MAYA"" LIBRERÍA";;;"(57) (7) 5714305";"Av3 11-82 L-106 Centro Colombia, Cúcuta"
"LIBRERÍA TEO";;;"(57) (7) 5730168";"Av4 8-62 L-15 C.C. El Palacio Colombia, Cúcuta"
"LIBRERÍAS PAULINAS";;;"(57) (5) 3568943";"Cr54 70-121 Colombia, Barranquilla"
"GRUPO SM S.A";;;"(57) (4) 2509250";"Cl 36 80 AA-24 Colombia, Medellín"
"PAPELERIA EUREKA";;;"(57) (4) 2172042";"Cl 49 44-17 Colombia, Medellín"
"LIBRERÍA CRISTIANA LA ROCA";;;"(57) (1) 6140390";"Av (Cr) 19 136 A-06 L-255 Colombia, Bogotá"
"LIBRERÍA Y PAPELERÍA LA GRAN PIÑATA";;;"(57) (2) 8240821";"Cl 6 6-98 Colombia, Popayán"
"ENGLISH BOOK SHOP";;;"(57) (4) 2501009";"Av33 78-177 Colombia, Medellín"
"EDITORA Y DISTRIBUIDORA GENIOS";;;"(57) (5) 6615071";"Las Gaviotas Urb La Heroica Et 3 Casa 3 P-2 Colombia, Cartagena"
"LIBRERÍA TICO-TICO";;;"(57) (5) 6642471";"Matuna Av D. Lemaitre Interior Parque Centenario Colombia, Cartagena"
"First Name";"Email Address";Url;Telephone;Address
"ORTIZ LIBARDO";;;"(57) (1) 2848663";"Av (Cl) 72 79 C-06 Colombia, Bogotá"
"GRÃFICOS & ADHESIVOS SAS";;;"(57) (1) 5639580";"Cl 26 S 51 F - 69 Colombia, Bogotá"
"LIBRERÍA Y PAPELERÍA RAYOMOND";;;"(57) (5) 7276786";"Cr6 11-13 Esq Centro Colombia, Riohacha"
"DISTRIIMPRESOS Y SUMINISTROS SOLUMASTER S.A.S.";;;"(57) (1) 4085249";"Cr28 10-97 Colombia, Bogotá"
"IBEROAMÉRICANA DE LIBROS";;;"(57) (2) 6839831";"Cr3 A# 46 A-56 Colombia, Cali"
"LIBRERÍA CRISTIANA FUENTE DE VIDA";;;"(57) (2) 2723777";"Cr19 39-20 Colombia, Palmira"
"CATARSIS LIBROS CAFE Y TERTULIA";;;"(57) (7) 6471199";"Cl 45 35-15 Colombia, Bucaramanga"
"LIBRERÍA CRISTIANA LEAL";;;"(57) (7) 6420814";"Cl 37 17-43 P-Rojo L-218 Omnicentro Colombia, Bucaramanga"
"LIBRERIA Y PAPELERIA ATLANTIS";;;"(57) (7) 6428503";"Cl 35 14-08 Colombia, Bucaramanga"
"PUNTO DE CONTACTO";;;"(57) (7) 6390213";"Carrefour Cañaveral L-12 Av el Bosque Colombia, Bucaramanga"
"DON LIBRO";;;"(57) (7) 6521494";"Cl 41 14-38 Colombia, Bucaramanga"
"LIBRERÍA ARQUIDIOCESANA";;;"(57) (2) 8810811";"Av4 # 8 N-15 Colombia, Cali"
"LIBRERÍA Y PAPELERÍA LOS ANDES";;;"(57) (7) 5711720";"Cl 12 3-26 Centro Colombia, Cúcuta"
"LIBRERÍA CIENCIA DE LEER";;;"(57) (7) 6458072";"Cl 34 21 77 Colombia, Bucaramanga"
"LIBRERÍA RESTAURACIÓN";;;"(57) (6) 3296427";"Cr6 34-34 Colombia, Pereira"
"DISTRIBUIDORA Y COMERCIALIZADORA DOMAR S.A.S";;;"(57) (1) 2989801";"Cr102 24-31 Colombia, Bogotá"
"LIBRERIA COLONIAL";;;"(57) (5) 4211612";"Cl 16 4-81 Colombia, Santa Marta"
"VARIEDADES CAROLAYN LIBRERIA";;;"(57) (1) 7811371";"Cl 6 S 14-44 Soacha Colombia, Soacha"
"TECNIEDUCATIVOS S.A";;;"(57) (5) 4200580";"Cl 22 19-86 Colombia, Santa Marta"
"LIBROS & COMPAÑÍA";;;"(57) (1) 3417100";"Av (Cl) 19 3-16 Of 213 Colombia, Bogotá"
ADN;;;"(57) (2) 6612324";"Cl 16 N 9-42 Colombia, Cali"
FCBOOKS;;;"(57) (5) 4234017";"Cl 23 6-18 L-40 P-2 Colombia, Santa Marta"
"SIGLO DEL HOMBRE EDITORES S.A.";;;"(57) (1) 3377700";"Cr31 A 25 B-50 Colombia, Bogotá"
"LIBRERÍA LA 21";;;"(57) (4) 2280606";"Cl49 41-68 Colombia, Medellín"
"EMISORA LIBRERÍA CASA DE ORACION TIERRA NUEVA";;;"(57) (4) 4481230";"Cl 56 # 41-57 Colombia, Medellín"
"DISTRIBUNA LTDA";;;"(57) (1) 6202294";"Autop Norte 123-93 Colombia, Bogotá"
LUMARTÍNEZ;;;"(57) (6) 7447935";"Cl 22 18-13 Colombia, Armenia"
"EDICIONES ALMA";;;"(57) (6) 7349007";"Cl 22 22-70 Colombia, Armenia"
"FORERO PÉREZ ANDRÓMEDA";;;"(57) (5) 3588392";"Cr48 72-32 Colombia, Barranquilla"
"IDENFORMAS S.A.S.";;;"(57) (1) 6718699";"Cr20 A 187 - 69 Colombia, Bogotá"
"PAPELERÚA SU PAPELERÚA COMERCIALIZADORA & DISTRIBUIDORA S.A.S.";;;"(57) (1) 3412026";"Cr12 A 10 - 29 Colombia, Bogotá"
"LIBRERIA KINGSTUFF LTDA";;;"(57) (1) 6484809";"Cl 151 16-19 L-2120 Colombia, Bogotá"
"LIBRERÍA CRISTIANA""PROMESAS""";;;"(57) (1) 6706980";"Cl 161 19 A-16 Colombia, Bogotá"
"LIBRERÍA HOGAR DE LA BIBLIA";;;"(57) (1) 2834681";"Av (Cr) 10 15-68 L-123 Colombia, Bogotá"
"DISTINTAS RMK S.A.S.";;;"Telefax: (57) (1) 4609417";"Cr79 7 A - 13 Colombia, Bogotá"
"VISIÓN CULTURAL LTDA.";;;"(57) (4) 2933314";"Cl 48 48-14 Of 1304 Colombia, Medellín"
"DISTRIBUIDORA ALBÁN";;;"(57) (8) 2655356";"Cr5 37-94 P-2 Colombia, Ibagué"
"MUNDO ACADEMICO";;;"(57) (1) 6149518";"Cr46 152-46 L 260 Colombia, Bogotá"
"LIBRERÍA BALDOR";;;"(57) (6) 7442838";"Cr14 22-55 Colombia, Armenia"
BANCODELLIBRO.COM;;;"(57) (2) 8881040";"Cl 9 6-48 Colombia, Cali"
"First Name";"Email Address";Url;Telephone;Address
"MUNDO XXI EDICIONES";;;"(57) (1) 6694390";"Cr58 169 A-55 L-129 Colombia, Bogotá"
"LIBRERÍA LOS PITUFOS";;;"(57) (4) 5112213";"Cr48 49-14 L 48 Colombia, Medellín"
"LIBRERÍA LA 24";;;"(57) (4) 5128186";"Cr48 # 49-14 Int 24 Colombia, Medellín"
"LIBRERÍA PENSAMIENTOS ESCRITOS";;;"(57) (6) 7442627";"Cr 14 22-18 Colombia, Armenia"
"LIBRERIA CASA DE LA BIBLIA";;;"(57) (4) 5124255";"Cr47 50-55 Int. 201 Colombia, Medellín"
"CENTRO DE LITERATURA CRISTIANA DE COLOMBIA";;;"(57) (5) 3685227";"Cl 76 No. 52-56 Colombia, Barranquilla"
"LIBRERIA GRAN JERUSALEN";;;"(57) (1) 4422242";"Cr112 76 A 34 Colombia, Bogotá"
"IDENFORMAS S.A.S.";;;"(57) (1) 6718699";"Cr20 A 187 - 69 Colombia, Bogotá"
"GRÃFICOS & ADHESIVOS SAS";;;"(57) (1) 5639580";"Cl 26 S 51 F - 69 Colombia, Bogotá"
"LIBRERÚA MÕDICA BEATRIZ LTDA.";;;"Telefax: (57) (5) 3007215";"Cr42 B1 83-41 Colombia, Barranquilla"
"DELFINES EDITORES";;;"(57) 3233044";"Cr14 D No. 64 C-09 Colombia, Soledad"
"GRUPO SM";;;"(57) (1) 5953344";"Cr85 K 46 A-66 Of 502 Colombia, Bogotá"
"LIBRERÍA PAPIROS";;;"(57) (5) 5803916";"Cl 16 A 6-75 Colombia, Valledupar"
"DISTRIIMPRESOS Y SUMINISTROS SOLUMASTER S.A.S.";;;"(57) (1) 4085249";"Cr28 10-97 Colombia, Bogotá"
"M.T. SUMINISTROS LTDA.";;;"Telefax: (57) (1) 5446084";"Cr97 24 - 15 Ap 104 Colombia, Bogotá"
"LIBRERÍA JUNIOR";;;"(57) (2) 8800001";"Cr10 # 10-65 L-13-B Colombia, Cali"
"LIBRERIA ORGULLO PAISA";;;"(57) (4) 2302582";"Cl 48D 65A-58 Colombia, Medellín"
"LIBRERÍA CRISTIANA CANAAN";;;"(57) (2) 3392551";"Cr66 10-60 Colombia, Cali"
"SUSURROS DE DIOS LIBRERÍA CATÓLICA";;;"(57) (2) 3962557";"Cl 27 N 6 AN-31 Colombia, Cali"
"LIBRERIA CATOLICA SONRIELE A JESUS";;;"(57) (1) 4831258";"Cl 72 A 86-64 Colombia, Bogotá"
"LIBRERÍA Y TECNOLOGÍA L & T";;;"(57) (5) 3580484";"Cr38 74-179 P 2 Int Carrefour C.C. Americano Colombia, Barranquilla"
"LIBRERÍA CRISTIANA ""LA RED""";;;"(57) (1) 2178063";"Cr24 67-28 L-205 Colombia, Bogotá"
"LIBRERÍA LA LUZ";;;"(57) (1) 2856060";"Av(Cl) 32 14-26 Colombia, Bogotá"
"LIBRERÍA Y PAPELERÍA NUEVO MUNDO";;;"(57) (7) 5713470";"Av14 13-01 Centro Colombia, Cúcuta"
"LIBRERÍA ESOTÉRICA";;;"(57) (8) 2650479";"Av Ferrocarril 24-71 Colombia, Ibagué"
"LIBRERÍA BALDOR";;;"(57) (6) 7442838";"Cr14 22-55 Colombia, Armenia"
"LIBRERÍA Y PAPELERÍA DAYAN";;;"(57) (7) 5718877";"Cl 12 3-13 L-115 C.C. Colon centro Colombia, Cúcuta"
"KAIRÓS LIBROS Y DETALLES";;;"(57) (7) 6431891";"Cr36 51-50 Colombia, Bucaramanga"
ASOCOVLIBROS;;;"(57) (1) 5996318";"Cl 15 9-45 Colombia, Bogotá"
"PAPELERIA RODRÍGUEZ LTDA.";;;"Telefax: (57) (1) 3376220";"Cl 14 12-35 Colombia, Bogotá"
"DISTRIBUIDORA Y EDITORA RICHMOND S.A.";;;"Telefax: (57) (1) 7057777";"Cr11 A 98 - 50 Of 501 Colombia, Bogotá"
"THELIBRO COLOMBIA LTDA.";;;"Telefax: (57) (1) 7024873";"Cl 43 A 9-98 Of 509 Colombia, Bogotá"
"EDITORIAL ATENEA LTDA.";;;"(57) (1) 5600594";"Cr24 B 1 D-09 Colombia, Bogotá"
"LIBRERÍA REMA";;;"(57) (2) 7236641";"Cr29 20-61 Las Cuadras Colombia, Pasto"
"PAPELERIA EUREKA";;;"(57) (4) 2172042";"Cl 49 44-17 Colombia, Medellín"
"LIBRERÍA GLORIA";;;"(57) (4) 7820021";"Cr3 25-42 Centro Colombia, Montería"
"LIBRERÍA GRAN COLOMBIA";;;"(57) (1) 2831979";"Cl 15 9-46 L 100 Colombia, Bogotá"
"LIBRERIA ESPACIO LITERARIA";;;"(57) (4) 5137923";"Cr48 49-14 Int 30 Colombia, Medellín"
"DISTRIBUNA LTDA";;;"(57) (1) 6202294";"Autop Norte 123-93 Colombia, Bogotá"
"LIBRERÍA Y PAPELERÍA MANANTIAL DE VIDA";;;"(57) (6) 7412269";"Cl 19 20-48 Colombia, Armenia"
"First Name";"Email Address";Url;Telephone;Address
"LIBRERÍA CRISTIANA SHEKINAH";;;"(57) (5) 5853284";"Cr9 13 A-48 Colombia, Valledupar"
"PAPELERÍA Y MISCELÁNEA MACONDO - VSN";;;"(57) (5) 7281075";"Cl 11 6 A-60 Colombia, Riohacha"
"LIBRERÍA Y PAPELERÍA MAICAO";;;"(57) (5) 7280493";"Cl 7 8-45 Colombia, Riohacha"
"SEL SERVICIO ESPECIALIZADO DEL LIBRO LTDA.";;;"(57) (4) 2314081";"Cr49 49-48 Of 201 Colombia, Medellín"
"VISIÓN CULTURAL LTDA.";;;"(57) (4) 2933314";"Cl 48 48-14 Of 1304 Colombia, Medellín"
"LIBRERÍA CRISTIANA LA AURORA";;;"(57) (2) 2726471";"Cl 30 32-42 Colombia, Palmira"
"LIBRERÍA CRISTIANA HOSANNA";;;"(57) (7) 6213287";"Cr11 49 A-21 Brr. Colombia Colombia, Barrancabermeja"
"LIBRERÍA Y PAPELERÍA PAPELES Y CARTONES";;;"(57) (2) 7234904";"Cl 19 26-40 Colombia, Pasto"
"LIBRERÍA VILLEGAS EDITORES";;;"(57) (2) 4853193";"Av4 A Norte No.-7 N-44 L-122 Colombia, Cali"
"EL BODEGÓN PAPELERO";;;"(57) (7) 6110321";"Cl 52 27-75 Galan Colombia, Barrancabermeja"
"LIBRERÌA Y PAPELERÌA MI TOLIMA";;;"(57) (8) 2630406";"Cl 14 3-17 Centro Colombia, Ibagué"
"LIBRERÍA ARQUIDIOCESANA";;;"(57) (2) 8810811";"Av4 # 8 N-15 Colombia, Cali"
"LIBRERIA EL DORADO";;;"(57) (1) 4135281";"Av Eldorado 93-30 L-2375 Colombia, Bogotá"
"KAIRÓS LIBROS Y DETALLES";;;"(57) (7) 6431891";"Cr36 51-50 Colombia, Bucaramanga"
"ROA EDITORES LTDA.";;;"(57) (1) 2173463";"Cl 52 20-30 P-3 Colombia, Bogotá"
"LIBRERÍA Y PAPELERÍA SAN FRANCISCO";;;"(57) (2) 8208860";"Cl 5 8-65 Colombia, Popayán"
"LIBRERÍA Y PAPELERÍA JUAN PABLO";;;"(57) (2) 7732946";"Cr6 13-35 Colombia, Ipiales"
"BENEDETTI TÚ LIBRERÍA";;;"(57) (4) 2659827";"Cl 32 E 65 C-42 Colombia, Medellín"
"DISTRIBUNA LTDA";;;"(57) (1) 6202294";"Autop Norte 123-93 Colombia, Bogotá"
"KOE S.A.S.";;;"Nal: (57) (1) 6056484";"Cl 77 A 12 A-23 Colombia, Bogotá"
"LIBERÍA REAL";;;"(57) (2) 8833508";"Cl 11 9-19 Colombia, Cali"
"EL MIO CID";;;"(57) (4) 2511532";"Cr48 # 49-14 L-23 Colombia, Medellín"
"LIBRERÍA CRISTIANA EL SEMBRADOR";;;"(57) (1) 2811484";"Cl 19 4-71 L-120 Colombia, Bogotá"
"GERJO SAS";;;"(57) (1) 8850802";"Cl 25 68 B - 27 Int 2 204 Colombia, Bogotá"
"SISTEMAS Y DISTRIBUCIONES FORMACON LTDA.";;;"(57) (1) 2830292";"Cl 16 A 13 - 66 Of 502 Colombia, Bogotá"
"LIBRERÍA SANTA GERTRUDIS";;;"(57) (4) 3315855";"Cr42 37 S-60 Envigado Colombia, Envigado"
"LIBRERÍA JEAN PIERRE";;;"(57) (4) 2310198";"Cr 48 # 49-14 Colombia, Medellín"
"MERIÑO FONTALVO MAYRA ALEJANDRA";;;"(57) (5) 3472552";"Cr3 B 36 B-49 Colombia, Barranquilla"
"EDICIONES PERINI S.A.S.";;;"Telefax: (57) (1) 2309957";"Dg49 S 61 - 61 Colombia, Bogotá"
"LIBRERÍA Y CIGARRERÍA DE LA ONCE";;;"(57) (8) 7702044";"Cr11 13-71 Centro Colombia, Sogamoso"
"LA TIENDA DE JESÚS";;;"(57) (5) 6615065";"Cl 31 58-118 L-35 Supercentro Los Ejecutivos Colombia, Cartagena"
"LIBRERÍA LOS PITUFOS";;;"(57) (4) 5112213";"Cr48 # 49-14 L-48 Colombia, Medellín"
"PAPELERÍA Y LIBRERIA CRISTIANA SIÓN";;;"(57) (2) 3302761";"Cl 9 65-23 Colombia, Cali"
"¡ OHHH LA LA !";;;"(57) (1) 6200232";"Cr7 115-60 L-A-107 C.C Hda Santa Bárbara Colombia, Bogotá"
"LIBRERÍA CRISTIANA FUENTE DE VIDA";;;"(57) (2) 2723777";"Cr19 39-20 Colombia, Palmira"
"LIBRERÍA EL CASTILLO DE LOS LIBROS";;;"(57) (7) 6803181";"Cl 41 # 14-73 L-14 Sector 15 Colombia, Bucaramanga"
"LIBRERIA EL NAZARENO";;;"(57) (2) 4852700";"Cl 13 75-109 Colombia, Cali"
"LIBRERÍA MINUTOS DE AMOR";;;"(57) (5) 8783358";"Cl 21 17-59 Colombia, Sabanalarga"
"LIBRERÍA ACADÉMICA";;;"(57) (4) 5115017";"Cr45 50-48 Of 210 Colombia, Medellín"
"GRUPO ANDES COLOMBIA S.A.S";;;"(57) (5) 4203620";"Cr2 16-27 Colombia, Santa Marta"
"First Name";"Email Address";Url;Telephone;Address
"LIBRERÍA Y VARIEDADES ELIZABETH";;;"(57) (5) 7281336";"Cl 7 8-16 Colombia, Riohacha"
"LIBRERÍA Y PAPELERÍA OBREGÓN";;;"(57) (75) 5695656";"cll 10 11 63 centro Colombia, Ocaña"
ASOCOVLIBROS;;;"(57) (1) 5996318";"Cl 15 9-45 Colombia, Bogotá"
"LIBRERIA CRISTIANA JONADAB";;;"(57) (1) 2703922";"Dg49 A S 51-08 L-H2 Colombia, Bogotá"
"LIBRERÍA CENTRO CRISTIANO LOS ANDES";;;"(57) (2) 7212413";"Cl 18 15-57 P-1 Colombia, Pasto"
"PAPELMAX SUMINISTROS PARA OFICINA S.A.S";;;"(57) (1) 6208946";"Cl 113 7 - 45 L- 117 Colombia, Bogotá"
"LIBRERIA EL TOPO";;;"(57) (1) 3413282";"Cr8 A 15-63 L-151 Sotano Colombia, Bogotá"
"LIBRERÍA SOLAR ESOTÉRICA";;;"(57) (1) 2843212";"Cr8 18-77 L-129 Colombia, Bogotá"
"LIBRERIA CRISTIANA LA NUEVA JERUZALEN";;;"(57) (1) 4309686";"Av (Cl) 72 70 D-25 L-118 Colombia, Bogotá"
"LIBRERÍA CRISTIANA SENDA DE LUZ";;;"(57) (7) 6421569";"Cl 36 17-56 P-Marrón Colombia, Bucaramanga"
"PIESCAHCÓN FRANCISCO";;;"(57) (1) 2714391";"C1 127 60-90 Int- 3 l- 62 Colombia, Bogotá"
"LIBRERÍA JEAN PIERRE";;;"(57) (4) 2310198";"Cr 48 # 49-14 Colombia, Medellín"
"LIBRERÍA EL GRAN CAMBIO";;;"(57) (7) 6803187";"Cl 41 # 14-94 Colombia, Bucaramanga"
"LIBRERÍA MI LIBRO";;;"(57) (6) 3357052";"Cr5 20-86 Colombia, Pereira"
"LIBRERÍA LA GRUTA SIMBOLICA";;;"(57) (4) 2316805";"Cr48 49-14 L 47 Colombia, Medellín"
"LIBERÍA REAL";;;"(57) (2) 8833508";"Cl 11 9-19 Colombia, Cali"
"PAVAL DISTRIBUCIONES SAS";;;"(57) (1) 2410681";"Cl 21 1 - 88 Trr B Ap 902 Colombia, Bogotá"
"PAPELERÍA LA CORAZA LTDA.";;;"(57) (5) 3796874";"Cr42 32-92 Colombia, Barranquilla"
"MUNDO LITOGRAFÍCO EDITORIAL EDUCATIVA";;;"(57) (1) 4082000";"Cr21 5 A-18 Colombia, Bogotá"
"GRUPO EDITORIAL IBAÑEZ";;;"(57) (1) 2300731";"Cr69 Bis 36-20 S. Colombia, Bogotá"
"LIBRERÍA MAHANAIM";;;"(57) (2) 7203278";"Cl 18 12-34 Fátima Colombia, Pasto"
"LIBRERÍA Y PAPELERÍA NUEVO MUNDO";;;"(57) (7) 5713470";"Av14 13-01 Centro Colombia, Cúcuta"
"INTER-AMERICAN DIVISION PUBLISHING-LADPA";;;"(57) (7) 6473422";"Cl 55 28-07 Colombia, Bucaramanga"
"SURTIPRINT E.U.";;;"Telefax: (57) (1) 6823054";"Cr95 A 138-65 Int 202 Colombia, Bogotá"
"MUNDO EDITORIAL";;;"(57) (4) 4647885";"Cl 24 A 58 C-106 Bello Colombia, Bello"
"EDICIONES HISPÁNICAS";;;"(57) (4) 2605649";"Cr69 46 A-15 Ap 202 Colombia, Medellín"
"ORTIZ LIBARDO";;;"(57) (1) 2848663";"Av (Cl) 72 79 C-06 Colombia, Bogotá"
"LIBRERIA MURILLO";;;"(57) (1) 3428742";"Cr10 12-34 L-116 Colombia, Bogotá"
"LIBRERÌA CRISTIANA TORRE FUERTE";;;"(57) (8) 2730407";"Cl 10 9-53 Colombia, Ibagué"
"LIBRERÍA RINCÓN MARIANO";;;"(57) (6) 3356175";"Cl 14 6-36 Edif Tobon y Giraldo Colombia, Pereira"
"SIGLO DEL HOMBRE EDITORES S.A.";;;"(57) (1) 3377700";"Cr31 A 25 B-50 Colombia, Bogotá"
"PAPELERÍA FUTURO";;;"(57) (5) 6671834";"Almirante Colón Et 2 Manz U Lt 14 Colombia, Cartagena"
"GRÃFICOS & ADHESIVOS SAS";;;"(57) (1) 5639580";"Cl 26 S 51 F - 69 Colombia, Bogotá"
"METODOS ACTUALIZADOS DE EDUCACIÓN";;;"(57) (1) 2959770";"Cl 56 A 70 D- 14 Colombia, Bogotá"
"LIBRERIA NUEVA";;;"(57) (4) 5119067";"Cr49 52-45 Colombia, Medellín"
"LIBRERÍA EDICIONES DEL PROFESIONAL";;;"(57) (1) 2818667";"Cl 12 5-24 Colombia, Bogotá"
"LIBRERIA Y PAPELERIA STUDIO 2010";;;"(57) (1) 3113892";"Cr11 12-48 Colombia, Bogotá"
"LIBRERIA ADONNAY NISSI";;;"(57) (1) 2839475";"Cr10 15-68 l-322 Colombia, Bogotá"
"CORPORACION INTERUNIVERSITARIA DE SERVICIOS";;;"(57) (4) 3124880";"Cl 10 S 48 A-55 Colombia, Medellín"
"ALFINLIBROS LTDA";;;"(57) (1) 7525777";"Cl 41 7-43 Colombia, Bogotá"
"First Name";"Email Address";Url;Telephone;Address
"LA DEPARTAMENTAL";;;"(57) (5) 5743785";"Cl 17 7-64 Colombia, Valledupar"
"LIBRERÍA PALAS ATENEA";;;"(57) (4) 2762661";"Cr43 # 32 S-08 Envigado Colombia, Envigado"
"ORION SOLUCIONES EMPRESARIALES S.A.S.";;;"Telefax: (57) (1) 4246069";"Cr72 B 11 A - 71 Colombia, Bogotá"
"LIBRERÍA TEMAS Y LIBROS";;;"(57) (1) 2842788";"Cl 16 8 A-27 L-109-112 Colombia, Bogotá"
"VILLEGAS EDITORES S.A.";;;"(57) (1) 6160306";"Av82 11-50 Int 3 Colombia, Bogotá"
"PAPELERÍA Y LIBRERIA CRISTIANA SIÓN";;;"(57) (2) 3302761";"Cl 9 65-23 Colombia, Cali"
"LIBRERÍA Y TIENDA DE REGALOS CASA DE DIOS HEFZI-BA";;;"(57) (2) 2532496";"Cl 4 10-26 Colombia, Guacarí"
"PAPELERÍA Y LIBRERÍA CRISTIANA KAIROS";;;"(57) (2) 5577914";"Cr23 B 13-13 Colombia, Cali"
"ORGANIZACION GROW S.A.";;;"(57) (1) 8631016";"Vda Fonquetá Sector Los Lavaderos Chía Colombia, Bogotá"
"LIBRERIA CRISTIANA MANANTIAL DE AGUA VIVA";;;"(57) (2) 2447800";"Cl 6 46-60 Nivel 2 L-10 Colombia, Buenaventura"
"DISTRIBUIDORA ALBÁN";;;"(57) (8) 2655356";"Cr5 37-94 P-2 Colombia, Ibagué"
"CENTRO COMERCIAL DEL LIBRO";;;"(57) (6) 3345788";"Cl 21 5-35 Colombia, Pereira"
"LIBRERÍA EL GRAN CAMBIO";;;"(57) (7) 6803187";"Cl 41 # 14-94 Colombia, Bucaramanga"
"LIBRERIA CATOLICA SONRIELE A JESUS";;;"(57) (1) 4831258";"Cl 72 A 86-64 Colombia, Bogotá"
"PITÁGORAS LIMITADA";;;"(57) (1) 2672017";"Cr100 20-78 Colombia, Bogotá"
"LIBRERÍA MAHANAIM";;;"(57) (2) 7203278";"Cl 18 12-34 Fátima Colombia, Pasto"
"UNIVERSAL DE LIBROS";;;"(57) (2) 7290050";"Cr25 20-45 Of 210 Colombia, Pasto"
"LIBRERÍA CRISTIANA YIREH";;;"(57) (2) 7315454";"Cl 19 30-45 Las Cuadras Colombia, Pasto"
"PAPELERÍA CAMBALACHE";;;"(57) (8) 8715127";"C.C.Los Comuneros L-1645 E-4 A Colombia, Neiva"
"LIBRERÍA Y PAPELERÍA OBREGÓN";;;"(57) (75) 5695656";"cll 10 11 63 centro Colombia, Ocaña"
"LIBRERÍA EL CID";;;"(57) (5) 4213909";"Cl 16 3-106 Colombia, Santa Marta"
"LIBRERIA CATOLICA MISIONERA SAGRADA FAMILIA";;;"(57) (7) 7245091";"Cr4 5-02 Pablo VI Colombia, San Gil"
"EL BODEGÓN PAPELERO";;;"(57) (7) 6110321";"Cl 52 27-75 Galan Colombia, Barrancabermeja"
EXLIBRIS;;;"(57) (4) 2301836";"Cl 53 64 A-27 Colombia, Medellín"
"LIBRERÍA Y PAPELERÍA CORSI";;;"(57) (8) 7423906";"Cr11 19-86 Colombia, Tunja"
"GAMARRA SONIA";;;"(57) (1) 2303104";"Cr49 B 29-07 S Colombia, Bogotá"
"SUPPLIES.COM S.A.S.";;;"Telefax: (57) (1) 2959284";"Cl 23 C 72-50 Trr 6 Of 603 Colombia, Bogotá"
"LIBRERIA CRISTIANA JONADAB";;;"(57) (1) 2703922";"Dg49 A S 51-08 L-H2 Colombia, Bogotá"
"LANGUAGE PRODUCTS S.A.S.";;;"Telefax: (57) (1) 2837432";"Cl 13 8-39 Of 202 Colombia, Bogotá"
PAULINAS;;;"(57) (2) 8842615";"Cl 10 7-53 Colombia, Cali"
"LIBRERÍA CENTRO CRISTIANO LOS ANDES";;;"(57) (2) 7212413";"Cl 18 15-57 P-1 Colombia, Pasto"
"LIBRERIA CONTADOR DEL SIGLO XXI";;;"(57) (1) 2432321";"Cl 20 4-94 Colombia, Bogotá"
"LIBRERÍA LUZ Y VERDAD";;;"(57) (5) 3458818";"Cl 69 D 39-116 Colombia, Barranquilla"
"LIBRERÍA JURÍDICA LEX NOVA";;;"(57) (4) 2620068";"Cr52 42-60 L-235 Colombia, Medellín"
"REPRESENTACIONES PLUTO LTDA.";;;"Telefax: (57) (1) 4520956";"Cl 54 S 80-66 Colombia, Bogotá"
"LIBRERÍA EL SEMBRADOR";;;"(57) (2) 5548519";"Cr56 1 B-112 Colombia, Cali"
"CARRERO DOMINGO";;;"(57) (1) 2837520";"Cr8 A 15-63 L-134 Colombia, Bogotá"
"LIBRERÍA GARFIELD";;;"(57) (5) 2826660";"Cl 20 19 27 L-B-19 Gran Centro El Parque Colombia, Sincelejo"
"LIBRERIA BAUTISTA CENTRAL";;;"(57) (1) 3401529";"Cr7 31-90 Colombia, Bogotá"
"LIBRERÍA ESTUDIO EXPRESS";;;"(57) (1) 6717548";"Cr20 168-12 Colombia, Bogotá"
"First Name";"Email Address";Url;Telephone;Address
"GUIA DIGITAL EDITORIAL EDUCATIVA S.A.S.";;;"Telefax: (57) (1) 2371318";"Cr27 4 A-56 Colombia, Bogotá"
"TODO LIBROS SALAZAR";;;"(57) (1) 3418905";"Cr8 A 15-63 L-129 Colombia, Bogotá"
"LIBRERIA CRISTIANA LA NUEVA JERUZALEN";;;"(57) (1) 4309686";"Av (Cl) 72 70 D-25 L-118 Colombia, Bogotá"
"LIBRERIA CONTADOR DEL SIGLO XXI";;;"(57) (1) 2432321";"Cl 20 4-94 Colombia, Bogotá"
"MUNDO EDITORIAL";;;"(57) (4) 4647885";"Cl 24 A 58 C-106 Bello Colombia, Bello"
"LIBRERIA Y PAPELERIA MARIN";;;"(57) (4) 2516324";"Cl 50 46-42 Colombia, Medellín"
"PAPELERIA CARTAGENA";;;"(57) (8) 8710482";"Cl 7 4-60 Colombia, Neiva"
"EL LIBERAL";;;"(57) (1) 2877966";"Cl 40 A 13-09 Of 1504 Colombia, Bogotá"
"ABACO LIBROS Y CAFÉ";;;"(57) (5) 6648338";"Cl 36 3-86 Calle de la Mantilla Colombia, Cartagena"
"EDITORA Y DISTRIBUIDORA GENIOS";;;"(57) (5) 6615071";"Las Gaviotas Urb La Heroica Et 3 Casa 3 P-2 Colombia, Cartagena"
"LIBRERÍA EL SALVADOR";;;"(57) (8) 6621447";"C.C. Los Centauros L-134 Colombia, Villavicencio"
"DISTRIBUIDORA DE LIBROS BERNA";;;"(57) (1) 2844682";"Cr9 17-24 Of 204 Colombia, Bogotá"
"LIBRERÍA SENDA DE LUZ LTDA.";;;"(57) (6) 7469533";"Cl 12 14-31 Colombia, Armenia"
"LIBRERÍA PENSAMIENTOS ESCRITOS";;;"(57) (6) 7442627";"Cr 14 22-18 Colombia, Armenia"
"LIBRERIA ATENAS";;;"(57) (2) 2730210";"Cr24 30-41 Colombia, Palmira"
"LIBRERÍA MANANTIALES DE VIDA";;;"(57) (4) 5123830";"Cl 50 # 53-22 L-206 Colombia, Medellín"
"LIBRERÍA EDUCATIVA";;;"(57) (1) 2833681";"Cr8 A 15-63 L-108 Sector 116 Colombia, Bogotá"
"LIBRERIA NEW MILLENIUM";;;"(57) (1) 3425159";"Cr10 12-38 l-08 Colombia, Bogotá"
"LIBRERÍA LEYER LTDA.";;;"(57) (6) 7441522";"Cl 21 11-29 Colombia, Armenia"
"EDICIONES MALIBº LTDA.";;;"(57) (1) 2267370";"Cl 125 60 - 63 Colombia, Bogotá"
"SISTEMAS Y DISTRIBUCIONES FORMACON LTDA.";;;"(57) (1) 2830292";"Cl 16 A 13 - 66 Of 502 Colombia, Bogotá"
"AGUILAR CADAVID BEATRIZ EUGENIA";;;"(57) (5) 3587333";"Cr53 74-99 Colombia, Barranquilla"
"LIBRERÍA SANTA GERTRUDIS";;;"(57) (4) 3315855";"Cr42 37 S-60 Envigado Colombia, Envigado"
"ALARCÓN EDICIONES S.A.";;;"(57) (4) 4445999";"Cl 27 80-52 Colombia, Medellín"
"LIBRERIA MURILLO";;;"(57) (1) 3428742";"Cr10 12-34 L-116 Colombia, Bogotá"
"MUNDO LITOGRAFÍCO EDITORIAL EDUCATIVA";;;"(57) (1) 4082000";"Cr21 5 A-18 Colombia, Bogotá"
"LIBRERÍA CATÓLICA CAMINO,VERDAD Y VIDA";;;"(57) (5) 5742176";"Cr7 13 ABis-07 Colombia, Valledupar"
"PENSAR JURÍDICO";;;"(57) (5) 2810221";"Cr17 22-42 L-1 Edif Los Andes Colombia, Sincelejo"
"INVERSIONES PARDISAN S.A.S.";;;"Telefax: (57) (1) 6053997";"Cr28 11 - 65 L-111-A Colombia, Bogotá"
"LIBRERÍA PEDAGÓGICA SABIDURÍA";;;"(57) (5) 4102933";"Cl 8 A 11-40 Colombia, Ciénaga"
"LIBRERÍA LOS PITUFOS";;;"(57) (4) 5112213";"Cr48 # 49-14 L-48 Colombia, Medellín"
"LIBRERÍA Y PAPELERÍA TANIA";;;"(57) (4) 5614539";"Cl 51 50 -54 L-101 Rionegro Colombia, Medellín"
"LIBRERIA SIMSALABIM";;;"(57) (4) 3163184";"Cl34 66 B-81 Colombia, Medellín"
"LIBRERIA CATOLIA Y APOSTOLICA";;;"(57) (4) 2513622";"Cl 57 49-44 Colombia, Medellín"
"LA BALSA LIBROS";;;"(57) (4) 2681627";"Cr43 A 6 S-15 L-145 Colombia, Medellín"
"CENTROS DE LITERATURA CRISTIANA";;;"(57) (2) 5584215";"Cl 6 37-2 Bis-32 Colombia, Cali"
"LIBRERÍA Y REVISTERÍA ALMACÉN CURIOSIDADES";;;"(57) (6) 3142655";"Aeropuerto L-12 Colombia, Pereira"
"GRUPO ANDES COLOMBIA S.A.S";;;"(57) (5) 4203620";"Cr2 16-27 Colombia, Santa Marta"
"PATARROYO CÓRDOBA MARTHA LORENZA";;;"(57) (8) 8710429";"Cl 8 5-58 L-104 Pasaje Colonial Colombia, Neiva"
"INDUSTRIA PAPELERA LUIS H. PINZÓN";;;"(57) (1) 2479521";"Cr24 5 C-28 Colombia, Bogotá"
"First Name";"Email Address";Url;Telephone;Address
"LIBRERÍA EL CONDE LECTOR";;;"(57) (7) 6804572";"Cl 41 14-73 L-11 Colombia, Bucaramanga"
"LIBRERÍA PAULINAS";;;"(57) (2) 8842615";"Cl 10 7-53 Colombia, Cali"
"LIBRERÍA LA 21";;;"(57) (4) 2280606";"Cl49 41-68 Colombia, Medellín"
"ABACO LIBROS Y CAFÉ";;;"(57) (5) 6648338";"Cl 36 3-86 Calle de la Mantilla Colombia, Cartagena"
"LIBRERÍA ESTUDIO EXPRESS";;;"(57) (1) 6717548";"Cr20 168-12 Colombia, Bogotá"
"LIBRERIA Y PAPELERIA GRAN COLOMBIA M&M";;;"(57) (1) 2435210";"Cr6 13-98 Colombia, Bogotá"
"LIBRERÍA EL AGORA LTDA.";;;"(57) (1) 2817344";"Cl 19 3 A-37 Of 1102 Colombia, Bogotá"
"LIBRERÍA UNIVERSAL POPAYÁN";;;"(57) (2) 8240910";"Cl 3 5-14 Colombia, Popayán"
"LIBRERIA LA TERTULIANA";;;"(57) (4) 5112178";"Cr48 49-14 L-40 Colombia, Medellín"
"LIBRERÍA Y PAPELERÍA WILMER S.A.S.";;;"(57) (5) 6602052";"Centro Av Daniel Lemaitre Sector Parque Centenario Locales 3 y 22 Colombia, Cartagena"
LIBROTECA;;;"(57) (1) 2490233";"Cr13 55-39 P-1 Colombia, Bogotá"
"PAPELERÍA Y LIBRERÍA CLAUPAT";;;"(57) (5) 6628482";"Bazurto C.C. Colmenar L-5-B Colombia, Cartagena"
"LIBRERÍA & TIENDA DE LUZ KUANYIN";;;"(57) (6) 7459867";"Cr15 15-31 Colombia, Armenia"
"COMPRO LIBROS A DOMICILIO";;;"(57) (1) 2826897";"Cr8 16-14 Colombia, Bogotá"
"LIBRERÍA LEYER LTDA.";;;"(57) (6) 7441522";"Cl 21 11-29 Colombia, Armenia"
"PAVAL DISTRIBUCIONES SAS";;;"(57) (1) 2410681";"Cl 21 1 - 88 Trr B Ap 902 Colombia, Bogotá"
"MI LIBRERIA DEL CENTRO";;;"(57) (5) 3515382";"Cl 35 43-23 Colombia, Barranquilla"
"SOJAR IMAGEN SAS";;;"(57) (1) 4087963";"Cr28 10 - 40 L- 319A Colombia, Bogotá"
"CREACIONES Y SUMINISTROS S.A.S.";;;"(57) (1) 5757510";"Cr67 10-10 Colombia, Bogotá"
"REPRESENTACIONES PIO Y CÚA. LTDA.";;;"(57) (1) 2360077";"Cr7 82-62 Ap 22 05 Colombia, Bogotá"
"DISTRIBUCIONES ALIADAS BJ SAS";;;"(57) (1) 7470154";"Cr28 78 - 27 Colombia, Bogotá"
"VIDA EN ACCION IGLESIA CRUZADA CRISTIANA";;;"(57) (1) 2010965";"Av30 1 D 15 Colombia, Bogotá"
"LIBRERÍA CRISTIANA SHEKINAH";;;"(57) (5) 5853284";"Cr9 13 A-48 Colombia, Valledupar"
"DISTRIBUCIONES & EDICIONES";;;"(57) (1) 3347193";"Cl 12 9-86 L-101 Colombia, Bogotá"
"PAPELERIA MISCELANEA JC S.A.S.";;;"Telefax: (57) (1) 4494098";"Cr79 F 14 - 82 P-3 Colombia, Bogotá"
"LIBRERÍA TEMAS Y LIBROS";;;"(57) (1) 2842788";"Cl 16 8 A-27 L-109-112 Colombia, Bogotá"
"LIBRERÍA CATÓLICA JESÚS MISERICORDIA";;;"(57) (2) 5581113";"Cl 6 # 28-34 Colombia, Cali"
"LIBRERÍA LATINOAMERICANA";;;"(57) (2) 8802043";"Cl 10 9-41 Colombia, Cali"
"LIBRERÍA ARCÁNGEL";;;"(57) (2) 6610296";"Av6 A N 24 A N-35 Colombia, Cali"
LADPA;;;"(57) (4) 2503658";"Cr84 # 33 AA-01 Colombia, Medellín"
"LIBRERÍA Y PAPELERÍA TANIA";;;"(57) (4) 5614539";"Cl 51 50 -54 L-101 Rionegro Colombia, Medellín"
"LIBRERIA SIMSALABIM";;;"(57) (4) 3163184";"Cl34 66 B-81 Colombia, Medellín"
"LIBRERÍA CRISTIANA LA AURORA";;;"(57) (2) 2726471";"Cl 30 32-42 Colombia, Palmira"
"ORGANIZACION GROW S.A.";;;"(57) (1) 8631016";"Vda Fonquetá Sector Los Lavaderos Chía Colombia, Bogotá"
"LIBRERÍA EDITORIAL MW MIGUEL WILCHES";;;"(57) (8) 2630466";"Cl 10 No. 2-36 Colombia, Ibagué"
"LIBRERÍA EL CAMPANARIO";;;"(57) (8) 6713380";"Cl 41 30 A -05 Colombia, Villavicencio"
"LIBRERÍA CRISTIANA SHALOM";;;"(57) (2) 7313313";"Cr31 C 20-18 Las Cuadras Colombia, Pasto"
"PITÁGORAS LIMITADA";;;"(57) (1) 2672017";"Cr100 20-78 Colombia, Bogotá"
"LIBRERÍA CRISTIANA EL SHADDAI";;;"(57) 3133877361";"Cr2 9-18 P-2 Colombia, Neiva"
"LIBRERÍA IBEROAMERICANA";;;"(57) (7) 5712348";"Cl 12 2-48 Colombia, Cúcuta"
"First Name";"Email Address";Url;Telephone;Address
"SPOOKY HOUSE";;;"(57) (1) 3203483";"Cl 42 7-35 Colombia, Bogotá"
EDISPROE;;;"(57) (2) 2706220";"Cr29 28-26 L-11 Colombia, Palmira"
"LA ORQUESTA INSTRUMENTOS MUSICALES";;;"(57) (1) 6143076";"Cl 151 16-79 L-10-67 C.C. Cedritos Colombia, Bogotá"
"AUTHORS BOOKSTORE";;;"(57) (1) 2177788";"Cl 70 5-23 Colombia, Bogotá"
"TELEXPRESS INTER S.A.S.";;;"Telefax: (57) (1) 8051901";"Cl 100 9 A-65 Of 401 Colombia, Bogotá"
"LIBRERÍA CATÓLICA GLADYS C.A.";;;"(57) (2) 8244606";"Cr6 5-44 Colombia, Popayán"
"LIBRERÍA SAN PABLO";;;"(57) (2) 8806167";"Cr8 9-60 Colombia, Cali"
"ABACO LIBROS Y CAFÉ";;;"(57) (5) 6648338";"Cl 36 3-86 Calle de la Mantilla Colombia, Cartagena"
"LIBRERÍA PAIDEIA";;;"(57) (5) 3488473";"Cr65 75-175 Colombia, Barranquilla"
"LIBRERÍA GRAN COLOMBIA";;;"(57) (1) 2831979";"Cl 15 9-46 L 100 Colombia, Bogotá"
"DISTRIBUIDORA Y PAPELERÍA VENEPLAST LTDA.";;;"Domic.: (57) (5) 6614414";"C.C. Los Ejecutivos L-51 Colombia, Cartagena"
"JORGE ALBERTO GALEANO";;;"(57) (5) 3795269";"Cr41 30-80 Colombia, Barranquilla"
"LIBRERIA SEÑAL EDITORA";;;"(57) (4) 2519882";"Cl 50 # 45-28 Colombia, Medellín"
"LIBRERÍA SERVIMÉDICA";;;"(57) (5) 3799290";"Cl 48 21-50 Colombia, Barranquilla"
"LIBRERIA CALIMA";;;"(57) (1) 2823791";"Cl 12 9-86 L-222/223 Colombia, Bogotá"
"ABC LIBRERIA MEDICA Y TÉCNICA";;;"(57) (5) 6646151";"Cl.30 8B-70 L-1-B-101 CC Getsemani Colombia, Cartagena"
"LIBRERÍA POPULAR";;;"(57) (1) 2835001";"Cl 15 9-48 L-70 Colombia, Bogotá"
"LIBROS COLOMBIA";;;"(57) (5) 3406058";"Cr42 33-19 Colombia, Barranquilla"
"PAPELERÍA LA CORAZA LTDA.";;;"(57) (5) 3796874";"Cr42 32-92 Colombia, Barranquilla"
"LIBRERÍA ANTAÑO";;;"(57) (4) 5129828";"Cr 49 46-75 P4 Colombia, Medellín"
"VIDA EN ACCION IGLESIA CRUZADA CRISTIANA";;;"(57) (1) 2010965";"Av30 1 D 15 Colombia, Bogotá"
"LIBRERÍA JURÍDICA DEL CAFÉ";;;"(57) (6) 3290026";"Cr8 40 B-21 Venecia Colombia, Pereira"
"CENTRO COMERCIAL DEL LIBRO";;;"(57) (6) 3345788";"Cl 21 5-35 Colombia, Pereira"
"LIBRERIA Y PAPELERIA PALABRAS DE VIDA";;;"(57) (7) 6849674";"Cr26 A 30-14 Cañaveral Colombia, Bucaramanga"
"LIBRERÍA Y PAPELERÍA OBREGÓN";;;"(57) (75) 5695656";"cll 10 11 63 centro Colombia, Ocaña"
"EMPRESA NIFE";;;"(57) (4) 5809668";"Cr82 45 F-45 La Floresta Colombia, Medellín"
"LIBRERIA CRISTIANA JONADAB";;;"(57) (1) 2703922";"Dg49 A S 51-08 L-H2 Colombia, Bogotá"
"LIBRERÍA MEDELLÍN";;;"(57) (4) 4446144";"Cr46 # 47-66 L-1100 Colombia, Medellín"
"LIBRERIA SAN LIBRAÑO";;;"(57) (1) 3101738";"Cl70 12-48 Colombia, Bogotá"
"CANAL 2 LTDA";;;"(57) (1) 3413015";"Cl 16 9-64 Of 601 Colombia, Bogotá"
"PAVAL DISTRIBUCIONES SAS";;;"(57) (1) 2410681";"Cl 21 1 - 88 Trr B Ap 902 Colombia, Bogotá"
"DIOMEDES SARMIENTO RUIZ";;;"(57) (5) 3432858";"Cl 18 # 19-81 Colombia, Barranquilla"
"BOOK MARKET S.A.S.";;;"(57) (1) 5429429";"Cl 73 60 - 71 Colombia, Bogotá"
"BOOKS SERVICES COMPANY S.A.S.";;;"(57) (1) 2692542";"Cr33 23 - 71 B-1 L- 3 Colombia, Bogotá"
"COMPAPER S.A.S";;;"(57) (1) 6786984";"Cr18 160 A - 22 Colombia, Bogotá"
"LIBRERÍA Y VARIEDADES ELIZABETH";;;"(57) (5) 7281336";"Cl 7 8-16 Colombia, Riohacha"
"LIBROS ACTUALES";;;"(57) (1) 6473153";"Cr92 162-40 Mz2 Casa 47 Colombia, Bogotá"
"LIBRERIA ORGULLO PAISA";;;"(57) (4) 2302582";"Cl 48D 65A-58 Colombia, Medellín"
"LIBRERÍA LATINOAMERICANA";;;"(57) (2) 8802043";"Cl 10 9-41 Colombia, Cali"
"MR BOOKS LTDA.";;;"(57) (2) 3961697";"Cr50 9 B-20 L-112 Colombia, Cali"
"First Name";"Email Address";Url;Telephone;Address
"LIBRERIA MUNDO CIENCIA";;;"(57) (4) 5114817";"Cr 48 49-14 L 45 Colombia, Medellín"
"LIBRERIAS SAN PABLO";;;"Conm.: (57) (4) 5134085";"Dg50 49-45 Colombia, Medellín"
"PAPELERÍA Y LIBRERIA CRISTIANA SIÓN";;;"(57) (2) 3302761";"Cl 9 65-23 Colombia, Cali"
"PROMOCIONES DE LITERATURA CRISTIANA 'EL 'OLAM";;;"(57) (2) 8850484";"Cr14 # 5-77 Colombia, Cali"
"LIBRERÍA A A LIBROS";;;"(57) (2) 8894506";"Cr5 9-33 Colombia, Cali"
"LIBRERÍA MINUTOS DE AMOR";;;"(57) (5) 8783358";"Cl 21 17-59 Colombia, Sabanalarga"
"LIBRERÍA EDITORIAL MW MIGUEL WILCHES";;;"(57) (8) 2630466";"Cl 10 No. 2-36 Colombia, Ibagué"
"LIBRERIA Y PAPELERIA PALABRAS DE VIDA";;;"(57) (7) 6849674";"Cr26 A 30-14 Cañaveral Colombia, Bucaramanga"
"LIBRERIA CRISTIANA EL ALFOLI®";;;"(57) (4) 3664685";"Cl 10 32-115 L-101 Colombia, Medellín"
"PUNTO DE CONTACTO";;;"(57) (7) 6390213";"Carrefour Cañaveral L-12 Av el Bosque Colombia, Bucaramanga"
"LIBRERIA CATOLICA SONRIELE A JESUS";;;"(57) (1) 4831258";"Cl 72 A 86-64 Colombia, Bogotá"
"ARCANO LIBRERIA ESOTERICA";;;"(57) (1) 2119031";"Cl 56 15-32 Colombia, Bogotá"
"FUNDACIÓN LIBRERIA SEMINARIO";;;"(57) (1) 5624472";"Cr6 10-47 Colombia, Bogotá"
"PAPELERÍA Y LIBRERÍA PANAMERICANA";;;"(57) (7) 5920627";"Cl 8 3-42 Centro Colombia, Cúcuta"
"LIBRERÍA CRISTIANA EMMANUEL";;;"(57) (2) 7733720";"Cl 11 5-20 Colombia, Ipiales"
"LIBRERÍA Y PAPELERÍA LÍDER";;;"(57) (75) 5692738";"Cl 11 16 A-05 San Agustín Colombia, Ocaña"
"LIBRERÍA JURÍDICA DANALEX";;;"(57) (2) 8810225";"Cr9 # 11-50 Colombia, Cali"
"PAPELERÍA Y LIBRERÍA UNIVERSAL";;;"(57) (1) 8352943";"Cl 21 10-30 Colombia, Girardot"
"LIBRERÍA CRISTIANA SHALEM";;;"(57) (7) 6301893";"Cr15 # 36 L-07 P-1 Colombia, Bucaramanga"
"LIBRERÍA CRISTIANA SHEKINA";;;"(57) (2) 6651795";"C.C. La 14 Calima L-216 Colombia, Cali"
"LIBRERÍA CIENCIA DE LEER";;;"(57) (7) 6458072";"Cl 34 21 77 Colombia, Bucaramanga"
"LIBRERÍA MANANTIAL";;;"(57) (7) 6705650";"Cl 41 14-73 L-1 Colombia, Bucaramanga"
"LIBRERIA MUNDIAL LTDA";;;"(57) (1) 3418346";"Cr8 21-39 Colombia, Bogotá"
"LIBRERÍA EL PRINCIPITO";;;"(57) (6) 8831570";"Cr22 Parque Fundadores Colombia, Manizales"
"CARLOS ALEJANDRO RAMOS LIBRERIA";;;"(57) (1) 4150172";"Cl 18 102-43 Colombia, Bogotá"
"COMERCIALIZADORA OFFIFAST S.A.S.";;;"Telefax: (57) (1) 4673321";"Cl 5 C 41 B-32 Colombia, Bogotá"
"DECORAULA S.A.S.";;;"Telefax: (57) (1) 3465212";"Cr23 67-41 L 249 Colombia, Bogotá"
"LIBRERÍA MAYA";;;"(57) (7) 5714305";"Av3 11-82 L-106 Centro Colombia, Cúcuta"
"LIBRERÍA Y PAPELERÍA BARBOSA";;;"(57) (75) 5623661";"Cl 11 13-29 Centro Colombia, Ocaña"
"PAPELERÍA TEXTUAL";;;"(57) (7) 5731213";"Av7 8-30 Colombia, Cúcuta"
"PERDOMO GRACIELA";;;"(57) (1) 2829607";"Cr8 16-79 Int 109 Colombia, Bogotá"
"LIBRERIA CRISTIANA LA NUEVA JERUZALEN";;;"(57) (1) 4309686";"Av (Cl) 72 70 D-25 L-118 Colombia, Bogotá"
"EL CAYADO LIBRERÍA CRISTIANA";;;"(57) (4) 3318623";"Cl 37 S 46 A-21 Envigado Colombia, Envigado"
"LIBRERÍA ANTICUARIA LA TIENDA DEL LIBRO";;;"(57) (4) 3473880";"Cl 32 # 77-111 Colombia, Medellín"
"EDICIONES HISPÁNICAS";;;"(57) (4) 2605649";"Cr69 46 A-15 Ap 202 Colombia, Medellín"
"BENEDETTI TÚ LIBRERÍA";;;"(57) (4) 2659827";"Cl 32 E 65 C-42 Colombia, Medellín"
"DONDE MEMO ENCUADERNACIÓN";;;"(57) (4) 3013512";"Cr 43 B 69 S-32 Colombia, Medellín"
"LIBRERÍA CRISTIANA EL REFUGIO";;;"(57) (2) 6645669";"Cl 38 N 5 N-25 Colombia, Cali"
"EDICIONES EL GRILLO";;;"(57) (1) 2575510";"Cl 85 12 -04 Colombia, Bogotá"
"NETWORK COL S.A.S.";;;"Telefax: (57) (1) 8100314";"Cr70 52-13 Colombia, Bogotá"
"First Name";"Email Address";Url;Telephone;Address
"LIBRERÍA PRODECOL";;;"(57) (5) 3447953";"Cr45 44-34 Colombia, Barranquilla"
