"First Name";"Email Address";Url;Telephone;Address
"FAJAS BODY FLEX S.A.S.";info@fajasbodyflex.com;www.fajasbodyflex.com;"(57) (4) 4440417";"Cr78 B 49 A-05 Colombia, Medellín"
NOMADA;info@nomadaoutdoor.com;www.nomadaoutdoor.com;"(57) (1) 2035743";"Av1 de Mayo-35 79 Colombia, Bogotá"
"ATLANTA DEPORTES";hybatlanta@hotmail.com;www.atlanta-deportes.com.co;"(57) (1) 2813998";"Cr10 18-64 P-3 Colombia, Bogotá"
INTERDEPORTES;info@interdeportes.co;www.interdeportes.co;"(57) (5) 3512708";"Cr43 43-17 Colombia, Barranquilla"
"BRAHMA CONCEPT";stanton@stanton.com.co;www.brahmafootwear.com;"(57) (1) 7198415";"Km 25 Vía Sibate Colombia, Sibaté"
GOLDEPORTES;goltes@hotmail.com;www.goldeportessarig.com;"Telefax: (57) (1) 5639403";"Dg44   S 50-93 Colombia, Bogotá"
"ALMACÉN DEPORTES REGOL";deportesregol@hotmail.com;www.deportesregol.com;"(57) (4) 4442751";"Cr49 45-95 Colombia, Medellín"
"TRUCCO'S FASHION S.A.S.";cmercadeo@truccosjeans.com;www.truccosjeans.com;"(57) (4) 5120440";"Cr56 46-49 L-902 Colombia, Medellín"
"DEPORTIVOS CARVAJAL";freddy@deportivoscarvajal.com;www.deportivoscarvajal.com;"(57) (7) 6186883";"Cr35 A 51-109 Colombia, Bucaramanga"
"UNIFORMES CONFENUR";info@uniformes.com;www.uniformesconfenur.com;"(57) (4) 4481939";"Cr41 38 A   S-33 Envigado Colombia, Medellín"
"TEXTIMEDIAS COLOMBIA SAS";textimediascolombia@gmail.com;www.textimediascolombiasas.com;"(57) (1) 2483255";"Cr24 63 C-08 Colombia, Bogotá"
"DEPORTE TOTAL";contadeportetotal@gmail.com;www.deportetotal.co;"(57) (7) 6305087";"Cr21 37-38 Colombia, Bucaramanga"
"FB. DIRECT";gerenciamarrocar@feriadelbrasier.com.co;www.feriadelbrasier.com.co;"(57) (4) 4487970";"Cr48 35-74 Colombia, Medellín"
"MARROCAR S.A.S.";gerenciamarrocar@feriadelbrasier.com.co;www.feriadelbrasier.com.co;"(57) (4) 4487970";"Cr48 35-74 Colombia, Medellín"
"CENTRO COMERCIAL Y EMPRESARIAL OBELISCO";comercial@obelisco.com.co;www.obelisco.com.co;"(57) (4) 2305952";"Cr74 48-37 L-312 Colombia, Medellín"
"DEPORTES VERA LIMA";gerencia@deportesveralima.com;www.deportesveralima.com;"(57) (7) 6335237";"Cl 37 21-29 Colombia, Bucaramanga"
"CENTRO COMERCIAL PEREIRA PLAZA";comunicaciones@pereiraplaza.co;www.pereiraplaza.co;"(57) (6) 3251582";"Cl 15 13-110 P-3 Colombia, Pereira"
"CENTRO COMERCIAL UNICO";mercadeo@unico.com.co;www.unico.com.co;"(57) (2) 4865050";"Cl 52 Cr3 y Cr4 Colombia, Cali"
"INNOVAR UNIFORMES";myrianrocharomero@gmail.com;www.innova-uniformes.com;"(57) (1) 3040337";"Cr109 Bis 16 I-55 Colombia, Bogotá"
"A.A CAMISETAS Y ESTAMPACIONES";sayatex.eu@hotmail.com;;"(57) (1) 2770583";"Cl 2 30 A-25 Colombia, Bogotá"
"ALMACÉN Y FÁBRICA PATÍN SPORT";;www.patin-sport.com;"(57) (4) Ext34484114";"Cl 60 A   S 48-68 Sabaneta Colombia, Medellín"
"CLUB SKATE SPORT";;www.patin-sport.com;"(57) (4) Ext34484114";"Cl 60 A   S 48-68 Sabaneta Colombia, Medellín"
"CONFECCIONES VAIN";cartera.vian@une.net.co;www.vain.com;"(57) (4) 5121001";"Cl 49 56-06 Bodegas La 49 L-1301 Colombia, Medellín"
"MARKETING PERSONAL S. A.";mercadeo@marketingpersonal.com;www.marketingpersonal.com;"(57) (4) 3656565";"Cl 10   S 51 C-77 Colombia, Medellín"
"SUÁREZ ROPA DE CICLISMO";juandavid@suarez.com.co;www.suarezclothing.com;"(57) (4) 3050200";"Cr43 A 61   S-152 L-179 Sabaneta Colombia, Medellín"
"DEPORTES MUNDIAL";compras@deportesmundial.com.co;www.deportesmundial.com.co;"(57) (4) 3810802";"Cr50 36-51 Colombia, Medellín"
"INSPIRACIONES DNOCHE";inspiracionesdnoche@hotmail.com;www.inspiracionesdnoche.com;"(57) (1) 8114563";"Cl 10 10-37 L-1075 C.C. San Victorino Colombia, Bogotá"
"MUNDO OLIMPICO";ventas@mundolimpico.com;www.mundolimpico.com;"(57) (1) 2810344";"Cl 17 6-12 Colombia, Bogotá"
"ALMACENES FLAMINGO S.A.";linag@flamingo.com.co;www.flamingo.com.co;"(57) (4) 5768888";"Oficinas Centrales: Cl 51 48-09 P-3 Colombia, Medellín"
"HEREDEROS DE EUGENIO ALZATE CEBALLOS S.A.S.";jcg126@gmail.com;;"(57) (4) 4141801";"Cq 5 71-41 Colombia, Medellín"
"QS BORDADOS COMPUTARIZADOS, ESTAMPADOS Y CORTE LASER";qsbordados@hotmail.com;www.qsbordadosyestampados.com;"(57) (1) 7602436";"Cr27 Sur 42-47 Colombia, Bogotá"
"CANARIAM S.A.S.";info@canariam.com;www.canariam.com;"(57) (4) 4482668";"Cr71 AC 5-85 Colombia, Medellín"
"VENTURA PLAZA CENTRO COMERCIAL Y DE NEGOCIOS";venturaplaza@venturaplaza.com.co;www.venturaplaza.com.co;"(57) (7) 5756194";"Dg Santander Cl 10 y 11 Sector Qta Vélez Colombia, Cúcuta"
"MUNDO PATÍN";info@mundopatin.net;www.mundopatin.net;"(57) (4) 4444958";"Cr70 1-200 L-102 U. Dep. María Luisa Calle. Colombia, Medellín"
AGAVAL;contactenos@agaval.com;www.agaval.com;"(57) (4) 4444999";"Oficinas Cr43 B 23-117 Colombia, Medellín"
"CENTRO COMERCIAL CAÑAVERAL";mercadeo@cccanaveral.net;www.canaveral.co;"(57) (7) 6393147";"Cl 30 25-71 Autop a Floridablanca Colombia, Bucaramanga"
IGLU;iglu@iglu.com.co;www.iglu.com.co;"(57) (1) 2452369";"Cr24 45 C-90 Colombia, Bogotá"
"ST. EVEN S.A.";info@stevensa.com;www.stevensa.com;"(57) (4) 5767970";"Cr46 30-61 Colombia, Medellín"
ENJOY;gerencia@enjoy.com.co;www.enjoy.com.co;"(57) (4) 4111733";"Tr39 B 74 A-04 Colombia, Medellín"
"CENTRO COMERCIAL MEGAMALL";gerencia@megamall.com.co;www.megamall.com.co;"(57) (7) 6340020";"Cr33 A 29-15 Colombia, Bucaramanga"
"First Name";"Email Address";Url;Telephone;Address
"CENTRO COMERCIAL CAÑAVERAL";mercadeo@cccanaveral.net;www.canaveral.co;"(57) (7) 6393147";"Cl 30 25-71 Autop a Floridablanca Colombia, Bucaramanga"
"CONFECCIONES PUNTO CIEN LTDA";cpcien@impsat.net.co;www.puntocien.com;"(57) (1) 5336041";"Cr60 D No. 98 A-39 Colombia, Bogotá"
ENJOY;gerencia@enjoy.com.co;www.enjoy.com.co;"(57) (4) 4111733";"Tr39 B 74 A-04 Colombia, Medellín"
"CENTRO COMERCIAL COSMOCENTRO";;www.cosmocentro.com;"(57) (2) 5531150";"Cl 5 50-130 Colombia, Cali"
"ARTEIKOS S.A.S.";comercial@arteikos.com;www.ryad.com.co;"(57) (4) 4442856";"Cr50 36-51 Colombia, Medellín"
"CANARIAM S.A.S.";info@canariam.com;www.canariam.com;"(57) (4) 4482668";"Cr71 AC 5-85 Colombia, Medellín"
IGLU;iglu@iglu.com.co;www.iglu.com.co;"(57) (1) 2452369";"Cr24 45 C-90 Colombia, Bogotá"
SAFETTI;safety@une.net.co;www.safetti.com.co;"Conm.: (57) (4) 4110246";"Cl 41 73-29 Colombia, Medellín"
"CREACIONES SEX S.A.S";creaciones_sex@yahoo.com;www.sexunderwear.com.co;"(57) (4) 2855714";"Cl 7   S 51 A-21 Bdg 112 Colombia, Medellín"
"QS BORDADOS COMPUTARIZADOS, ESTAMPADOS Y CORTE LASER";qsbordados@hotmail.com;www.qsbordadosyestampados.com;"(57) (1) 7602436";"Cr27 Sur 42-47 Colombia, Bogotá"
"MUNDO PATÍN";info@mundopatin.net;www.mundopatin.net;"(57) (4) 4444958";"Cr70 1-200 L-102 U. Dep. María Luisa Calle. Colombia, Medellín"
AEROSPORT;informacion@aerosports.com.co;www.aerosport.co;"Telefax: (57) (8) 2641259";"Cr2 41-129 Sta Helena Colombia, Ibagué"
"DEPORTES VILLA OLIMPICA";diosmary.lara@hotmail.com;www.deportesvillaolimpica.com;"(57) (1) 2511813";"Av (Cl) 72 70 D-23 Colombia, Bogotá"
"BODY & SOUL ACTIVE WEAR S.A.S. .S. D@ .";bodysoulaw@hotmail.com;www.bodysoulactivewear.com;"(57) (4) 4182702";"C.C. San Nicolás L-1513 Colombia, Rionegro"
"UNIFORMES EN UNA HORA";uniformes.enunahora@hotmail.com;www.uniformesenunahora.co;"(57) (1) 7022070";"Cr24 63 A-18 Colombia, Bogotá"
"TEJIDOS TECALTEX S.A.S.";tecaltexsas@gmail.com;;"(57) (4) 4480785";"Cr80 A 62-99 Colombia, Medellín"
"CALCETERÍA NUMBER ONE S.A.S.";numberone@une.net.co;calceterianumberone.com;"(57) (4) 2853894";"Cr51 C 12 B   S-36 Colombia, Medellín"
"TECALTEX S.A.S.";tecaltexsas@gmail.com;;"(57) (4) 4480785";"Cr80 A 62-99 Colombia, Medellín"
"GALERIA SPORT";galeriasport@hotmail.com;www.sportgaleria.com;"(57) (1) 3481757";"Cr19 A 63 C-51 Colombia, Bogotá"
"CREACIONES BERNA LTDA.";marbrato@hotmail.com;;"(57) (1) 2127583";"Cr24 63 D-80 Colombia, Bogotá"
"TSB SUDADERAS";tsbropadeportiva@hotmail.com;;"(57) (1) 03751840";"Cr32 8 A-14 Colombia, Bogotá"
"CENTRO COMERCIAL BOLÍVAR PLAZA";comercial@ccbolivarplaza.com;www.ccbolivarplaza.com;"(57) (6) 3340922";"Cr8 19-41 Piso 5 Colombia, Pereira"
"LA CASA DEL DEPORTISTA CÍA. LTDA.";lacasadeldeportistacra25@hotmail.com;www.lacasadeldeportistapasto.com;"(57) (2) 7232522";"Cl 17 26-64 Colombia, Pasto"
"PALACIO DE LOS DEPORTES";palacio1728@vistalsur.com;www.elpalaciodelosdeportes.com;"(57) (7) 6803701";"Cl 34 23-20 Colombia, Bucaramanga"
"INVERSIONES SAMANTHA & CÍA S.A.S.";fajasamantha@hotmail.com;www.fajasamantha.com;"(57) (2) 6626165";"Dg15 71-130 P-2 Colombia, Cali"
"KINEMA - ROPA DEPORTIVA";kinema@une.net.co;www.kinema.com.co;"(57) (4) 3163707";"Cr58 A 29-90 Int 301 Colombia, Medellín"
"AM RECONOCIMIENTOS";mavelsa@hotmail.com;;"(57) (1) 2243634";"Cr96 A 66 A-99 Colombia, Bogotá"
"TODO DEPORTES TIENDA DEPORTIVA.COM";tododeportesbca@hotmail.com;;"(57) (7) 6025060";"Cr36 B 53 A-05 Brr. 1 Mayo Colombia, Barrancabermeja"
"ALMACÉN CENTRO DE LOS DEPORTES";centrodelosdeportes@hotmail.com;;"(57) (6) 8821050";"Cr21 24-64 Centro Colombia, Manizales"
BIANCHI;bianchi@bianchimoda.com;www.bianchimoda.com;"(57) (4) 3602870";"Cl 14 52 A-245 Colombia, Medellín"
"ALMACÉN PIKALOOK";pikalooktienda@yahoo.com;;"(57) (6) 7449211";"Cr16 20-46 Colombia, Armenia"
"JLB SPORTS TIENDA DEPORTIVA";distribuciones@jlbsports.com;www.jlbsports.com;"(57) (4) 4133804";"Cl 45 B 75-20 Colombia, Medellín"
"INSUDEPORTES S.A.S.";insucolombia@insudeportes.net;www.insudeportes.net;"(57) (4) 4219195";"Cr76 49-63 Colombia, Medellín"
SURTIDEPORTES;ventas@surtideportes.com;;"(57) (4) 5131290";"Cr52 49-94 Colombia, Medellín"
"SESCO PUNTADAS ESPECIALES S.A.S.";chavalitos@une.net.co;www.sescopuntadasespeciales.com;"(57) (4) 4448348";"Cl 38   S 36-32 Envigado Colombia, Medellín"
"ALMACEN CHINO DEPORTES";chinodeportesltda@gmail.com;;"Telefax: (57) (4) 2304471";"Cr74 48-37 C.C. Obelisco 259 Colombia, Medellín"
"FLOWERS - AMELLINE S.A.S.";m.ruizuribe@hotmail.com;www.amelline.com.co;"(57) (4) 4484404";"Cr56 29-21 P-2 Colombia, Medellín"
"ARTES MARCIALES ILYONG S.A.S.";flavioperez@artesmarcialesilyong.com;www.artesmarcialesilyong.com;"(57) (4) 2684706";"Cr48 10-45 L-85 Colombia, Medellín"
"GAVIRIA SPORT";gaviriasport@hotmail.com;www.gaviriasport.com;"(57) (1) 4887565";"Cl 66 A 80-10 Colombia, Bogotá"
"CICLOVIA SPORT RAVELO";kathyravelo@hotmail.com;www.cicloviasportravelo.com;"(57) (1) 8298825";"Cr3 22 B-16 Mosquera Colombia, Bogotá"
"First Name";"Email Address";Url;Telephone;Address
"ACTIVE WORLD IDENTIDAD DEPORTIVA";activedeportivos@hotmail.com;www.elmundodelasudadera.com;"(57) (1) 3426464";"Cl 11 11-70 L-204 Colombia, Bogotá"
"CONFECCIONES TOLEDO E.U.";confetoledoeu@hotmail.com;www.confeccionestoledo.com;"(57) (5) 6666159";"Popa Cl 32 21-42 P-2 Of 2-A Av Pedro de Heredia Colombia, Cartagena"
"SANCANCIO CENTRO COMERCIAL";centrocomercial@sancancio.com;www.sancancio.com;"(57) (6) 8874508";"Cr27 A 66-30 Colombia, Manizales"
"NIRVANA SPORT S.A.S.";nirvana-sport@hotmail.com;;"(57) (4) 5124010";"Cl 50 53-24 L-116-A C.C. Univers Colombia, Medellín"
"ALMACÉN EL MUNDO DEPORTIVO";elmundodeportivoprincipal@hotmail.com;;"(57) (5) 3780731";"Cr46 92-30 Colombia, Barranquilla"
"ARTDEPORTES ATLAS";artdeportes@gmail.com;;"(57) (1) 7595824";"Cr52 41 B-15 Sur Colombia, Bogotá"
"PARAMO LTDA.";claudiarobayo@pasar.net;;"(57) (1) 4734204";"Cr8 A 27 B-29 S Colombia, Bogotá"
"BODEGA MAYORISTA ESTRENO";alianzagsa@hotmail.com;;"(57) (5) 5708552";"Cr7 16 A-133 Colombia, Valledupar"
"BÉSAME PRENDAS INTIMAS";gerencia@besamecali.com;www.tiendavirtualbesame.com;"(57) (2) 6592520";"C.C. Chipichape L-8-211 P-2 Colombia, Cali"
"CREACIONES HUMGLO S.A.S- NADAVI";humglo04@yahoo.es;www.nadavi.amawebs.com;"(57) (4) 2513220";"Cl 49 54-50 Int 602 Colombia, Medellín"
"DISTRIBUCIONES DEPORTIVAS CARLOS A. CALDERÓN";distribucionesdeportivascac@hotmail.com;www.distribucionesdeportivascac.com;"(57) (4) 2910773";"Cl 57 DD 23 A-36 Colombia, Medellín"
"CREACIONES EDILMA";edilmaayaladuran@yahoo.es;;"(57) (7) 3143135909";"Cl 8 9-91 San Rafael Colombia, Piedecuesta"
"CREACIONES TATIANA SPORT";creaciones_tatisport@hotmail.com;;"(57) (7) 6211715";"Cr28 49-35 L-3 Recreo Colombia, Barrancabermeja"
"CONFECCIONES Y DOTACIONES DEL RISARALDA LTDA.";eveliocuervo@hotmail.com;;"(57) (6) 3301945";"Cl 21 17-30 La Pradera Dosq Colombia, Pereira"
"DEPORTES EL GOLAZO";deportes_el_golazo@hotmail.com};;"(57) (7) 6228015";"Cr19 50-14 Colombia, Barrancabermeja"
"RACKETBALL S.A.";mercadeo@racketball.com;www.racketball.com.co;"(57) (4) 4445244";"Cr60 A 49-57 Colombia, Medellín"
"ALMACENES STERLING S.A.";sterling5296@hotmail.com;;"(57) (4) 5114711";"Cr49 52-96 Colombia, Medellín"
"SURTIDORA DE CONFECCIONES";alianzagsa@hotmail.com;;"(57) (5) 5708552";"Cr7 16 B-24 Colombia, Valledupar"
"DELEMENTOS S.A.S.";delementos@gmail.com;www.delementos.com;"(57) (6) 8803228";"Cl 9 9 A-38 Chipre Colombia, Manizales"
"DISTRICATALOGOS G.J LTDA";districatalogos@hotmail.com;www.districatalogos.com;"(57) (2) 5584456";"Cr28 9 E-21 Colombia, Cali"
"DEPORTIVOS FERCHO SPORT";ferchosport1@hotmail.com;;"(57) (7) 5886878";"Cl 11 8-29 Centro Colombia, Cúcuta"
"ROPA DEPORTIVA MCLAREN";carlosarias@industriasmclaren;www.industriasmclaren.com;"(57) (6) 3255206";"Cr7 15-51 Colombia, Pereira"
"DEPORTES MEMO'S";guileonru@yahoo.es;;"(57) (4) 5112636";"Cr49 45-81 Colombia, Medellín"
"CASA DEL TENNIS";lacasadeltennis@hotmail.com;www.casadeltennis.com;"(57) (1) 6240488";"Cr58 127-42 Colombia, Bogotá"
"ALMACEN TIERRA SANTA";tierrasantaitagui@hotmail.com;;"(57) (4) 3668647";"Cr49 49-50 Itagüí Colombia, Medellín"
"SURATEX S.A.";gerenciacuentas@cisuratex.com;www.cisuratex.com;"(57) (4) 4440395";"Cl 46 A   S 48-81 Envigado Colombia, Medellín"
"ITACA ACCESORIOS S.A.S.";Itacamed@gmail.com;;"(57) (4) 2345191";"Cr77 A 48 A-43 Colombia, Medellín"
"ASESORÍA EN CONFECCIÓN Y PRODUCCIÓN";ddiego923@hotmail.com;www.planeador.webs.com;"(57) (4) 3108946357";"Medellín Colombia, Medellín"
"SPORTIVA S.A.S";sportiva@une.net.co;sportiva.com.co;"(57) (4) 2726655";"Cr47 47-21 Bello Colombia, Medellín"
"OLIMPICA'S SPORT";;;"(57) (7) 6211219";"Cr19 52-98 Torcoroma Colombia, Barrancabermeja"
"CENTRO COMERCIAL ESTACIÓN CENTRAL";gerenciasocomer@etp.net.co;;"(57) (6) 3355122";"Cr6 Cl 20 Esq Colombia, Pereira"
"ACADEMIA ARDEMO";academia_ardemo@hotmail.com;;"(57) (1) 2955038";"Cr85 B 52 B-44 Colombia, Bogotá"
"CONFECCIONES MODAS PANEL S.A.S";modaspanel@une.net.co;www.sbelt.com.co;"(57) (4) 3421212";"Cl 31 77-32 Colombia, Medellín"
"BIGBIKER PRENDAS INTELIGENTES";andresarangoad@gmail.com;andresarango.com;"(57) (4) 2556277";"Cr65 1 A-05 Colombia, Medellín"
"BARUC SHOP";andresfcruz10@gmail.com;;"(57) (4) 2308233";"Cl 51 73-134 L-2181 C.C El Diamante Colombia, Medellín"
"DEPORTIVOS BUCARICA";;;"(57) (7) 6484297";"B-20-6 L-102-B Bucarica Av El Comercio Colombia, Bucaramanga"
"GAM DEPORTIVOS LTDA";gamdeportivos@hotmail.com;;"(57) (1) 6006575";"Cl 82 A 22-14 Colombia, Bogotá"
"TATUAJES NYOTATTOO";nyotattoo@hotmail.com;myotattoo.com;"(57) (2) 2248933";"Cr23 22-68 Colombia, Tuluá"
"CONFECCIONES EFEJOTA S.A.S.";fjsport@une.net.co;www.fjsport.com.co;"(57) (4) 2760695";"Cl 37   S 39-09 Int 301 Envigado Colombia, Medellín"
"ZONA DEPORTIVA";info@zonadeportiva.co;www.zonadeportiva.co;"(57) (2) 8810107";"Cl 15 4-17 Colombia, Cali"
"First Name";"Email Address";Url;Telephone;Address
"BIBICLETAS CYCLO AVENTURA";cycloaventura@live.com;;"(57) (6) 3347874";"Cl 19 10-60 Colombia, Pereira"
"INDUSTRIAS VESTIARTE S.A.S.";iren417@hotmail.com;;"(57) (4) 3514306";"Cr72 A 30 A-33 Colombia, Medellín"
"BÉSAME PRENDAS INTIMAS";gerencia@besamecali.com;www.tiendavirtualbesame.com;"(57) (2) 6592520";"C.C. Chipichape L-8-211 P-2 Colombia, Cali"
"JUMP SPORTING S.A.S.";maojara@hotmail.com;jumpsporting.blogspot.com;"(57) (6) 8813593";"Cr27 49-25 Planta Baja Colombia, Manizales"
"DISTRIBUCIONES DEPORTIVAS CARLOS A. CALDERÓN";distribucionesdeportivascac@hotmail.com;www.distribucionesdeportivascac.com;"(57) (4) 2910773";"Cl 57 DD 23 A-36 Colombia, Medellín"
"CONFECCIONES ROSEL";rosa_guerrero23@hotmail.com;;"(57) (7) 6359566";"Cl 18 32 D-16 San Alonso Colombia, Bucaramanga"
"ALMACEN TIERRA SANTA";tierrasantaitagui@hotmail.com;;"(57) (4) 3668647";"Cr49 49-50 Itagüí Colombia, Medellín"
"CREACIONES KAROL";gloquir@hotmail.com;;"(57) (2) 7229649";"Cr16 A 10 A-22 Atahualpa Colombia, Pasto"
"RAQUETAS PAISA TENNIS-RACKET CENTER";paisatennis@gmail.com;www.paisatennis.com;"(57) (4) 5813912";"Cl 49 Número 75-05 Estadio Colombia, Medellín"
"ALMACENES STERLING S.A.";sterling5296@hotmail.com;;"(57) (4) 5114711";"Cr49 52-96 Colombia, Medellín"
"COMERCIALIZADORA JUANGUI";juanguigeneral@une.net.co;viaggioalestremo.com;"(57) (4) 2324804";"Cl 30 45-29 P. 3 Colombia, Medellín"
"DEPORTIVOS FERCHO SPORT";ferchosport1@hotmail.com;;"(57) (7) 5886878";"Cl 11 8-29 Centro Colombia, Cúcuta"
"SURATEX S.A.";gerenciacuentas@cisuratex.com;www.cisuratex.com;"(57) (4) 4440395";"Cl 46 A   S 48-81 Envigado Colombia, Medellín"
"BICICLETAS RAÚL MESA";lilianamesa2@hotmail.com;;"(57) (4) 4136341";"Cr73 C 1-34 Colombia, Medellín"
"CREACIONES EDILMA";edilmaayaladuran@yahoo.es;;"(57) (7) 3143135909";"Cl 8 9-91 San Rafael Colombia, Piedecuesta"
"DEPORTES EL GOLAZO";deportes_el_golazo@hotmail.com};;"(57) (7) 6228015";"Cr19 50-14 Colombia, Barrancabermeja"
"RACKETBALL S.A.";mercadeo@racketball.com;www.racketball.com.co;"(57) (4) 4445244";"Cr60 A 49-57 Colombia, Medellín"
"ROPA DEPORTIVA MCLAREN";carlosarias@industriasmclaren;www.industriasmclaren.com;"(57) (6) 3255206";"Cr7 15-51 Colombia, Pereira"
"ALMACÉN EL MUNDO DEPORTIVO";elmundodeportivoprincipal@hotmail.com;;"(57) (5) 3780731";"Cr46 92-30 Colombia, Barranquilla"
"DELEMENTOS S.A.S.";delementos@gmail.com;www.delementos.com;"(57) (6) 8803228";"Cl 9 9 A-38 Chipre Colombia, Manizales"
"TALLER DE MAQUILA DEISI ALEGRIA";maquila1@hotmail.com;o;"(57) (2) 8831666";"Cr14 18-35 Colombia, Cali"
"DISTRICATALOGOS G.J LTDA";districatalogos@hotmail.com;www.districatalogos.com;"(57) (2) 5584456";"Cr28 9 E-21 Colombia, Cali"
"CONFECIONES ROMADY";conf_romady@hotmail.com;;"(57) (2) 7210113";"Cl 18 12-53 Fátima Colombia, Pasto"
"EXCOLBI S.A.S.";info@ciyess.com;www.excolbi.wix.com/excolbi;"(57) (4) 4448631";"Cr68 32 C-41 Colombia, Medellín"
"TATUAJES NYOTATTOO";nyotattoo@hotmail.com;myotattoo.com;"(57) (2) 2248933";"Cr23 22-68 Colombia, Tuluá"
"DEPORTES MEMO'S";guileonru@yahoo.es;;"(57) (4) 5112636";"Cr49 45-81 Colombia, Medellín"
"CREACIONES TATIANA SPORT";creaciones_tatisport@hotmail.com;;"(57) (7) 6211715";"Cr28 49-35 L-3 Recreo Colombia, Barrancabermeja"
"CASTRIVILLA S.A.S.";;;"(57) (4) 2659252";"Cr52 14-200 Of 205 Colombia, Medellín"
"ASESORÍA EN CONFECCIÓN Y PRODUCCIÓN";ddiego923@hotmail.com;www.planeador.webs.com;"(57) (4) 3108946357";"Medellín Colombia, Medellín"
"GAM DEPORTIVOS LTDA";gamdeportivos@hotmail.com;;"(57) (1) 6006575";"Cl 82 A 22-14 Colombia, Bogotá"
"BODEGA MAYORISTA ESTRENO";alianzagsa@hotmail.com;;"(57) (5) 5708552";"Cr7 16 A-133 Colombia, Valledupar"
GAROTAS;garotas@garotas.com.co;www.garotas.co;"(57) (4) 2558501";"Cl 6   S 52-62 Colombia, Medellín"
"ZONA DEPORTIVA";info@zonadeportiva.co;www.zonadeportiva.co;"(57) (2) 8810107";"Cl 15 4-17 Colombia, Cali"
"MERCADOMAK SAS";ventas@mercadomak.com;;"(57) (1) 2359918";"Cl 64 # 9-05 L-103 Colombia, Bogotá"
"CREACIONES NILSA";;;"(57) (1) 2868398";"Cr11 11-65 L-3 Colombia, Bogotá"
"ENERGY FASHION";;;"(57) (5) 6741797";"Brr. Chino Cl 29 D 24-36 Av Pedro de Heredia Colombia, Cartagena"
EVERLAST;;;"(57) (5) 3775768";"Cr51 B 106-01 L-18 Gran Boulevard Colombia, Barranquilla"
GOCITEX;;;"(57) (1) 2512049";"Dg79 B 71 B-60 Colombia, Bogotá"
"PAUL & SHARK CARTAGENA";;;"(57) (5) 6605161";"Calle de Ayos 4-03 Colombia, Cartagena"
"TIENDA IMPERIO ROJO";;;"(57) (4) 3738811";"Cr49 46 A-21 Itagüí Colombia, Itagüí"
"First Name";"Email Address";Url;Telephone;Address
COOPMODA;;;"(57) 3178306128";"Cl 31 D 64-123 Carrt 13 de Junio Colombia, Cartagena"
"DISTRIBUIDOR DEPORTIVO SPEEDO Y MOLTEN";;;"(57) (8) 8744093";"Cl 17 8-97 Colombia, Neiva"
"CUELLO - TEX";;;"(57) (1) 2806065";"Cr10 A 3-12 S Colombia, Bogotá"
"WEST SPORT";;;"(57) (2) 8881503";"Cl 14 8-54 L-12 Colombia, Cali"
"CD SPORT";;;"(57) (7) 5726135";"Cl 10 1-80 Centro Colombia, Cúcuta"
"DEPORTES REVELACIÓN";;;"(57) (4) 5136926";"Cl 48 44-12 P-2 L-202 Colombia, Medellín"
"ALMACÉN EL PUNTO DE LA MODA";;;"(57) (5) 3654699";"Cl 71 27-15 Colombia, Barranquilla"
"SSCW S.A.S.";;;"Telefax: (57) (1) 5409301";"Cl 73 13 - 12 Colombia, Bogotá"
"ALMACEN SPORT DAVIS";;;"(57) (7) 6473588";"Cl 51 35-26 L-26 Colombia, Bucaramanga"
IMPULSO;;;"(57) (2) 8882802";"Cr7 14-52 L-22 Colombia, Cali"
"CONFECCIONES SAMUEL MOLINA";;;"(57) (1) 4900860";"Cr69 P 78-30 Colombia, Bogotá"
"MEGA SPORTS INC S.A.S.";;;"(57) (1) 2860278";"Cl 17 N 6-27 Colombia, Bogotá"
"CONFECCIONES ROPA DEPORTIVA JACO";;;"(57) 3206643538";"Cr20 5 B-02 Brr. La Esmeralda Colombia, Popayán"
"TAGU'S SPORT LÍNEA DEPORTIVA";;;"(57) (1) 2051302";"Cr24 37-55 S Colombia, Bogotá"
"PROTOKOLO LTDA";;;"(57) (2) 6641541";"Cl 47 4 B- N-75 La Flora Colombia, Cali"
"J SPORT";;;"(57) (2) 4263065";"Cl 72 Z 2 28 E 6-44 Colombia, Cali"
"CONFECCIONES OLIMPIC STAR";;;"(57) (1) 4165146";"Cr74 A 52 A -08 Colombia, Bogotá"
AVIGATORS;;;"(57) (8) 2611050";"C.C. Pasaje Real L-109 Colombia, Ibagué"
"INVERSIONES DILETTO";;;"(57) (4) 2687908";"Cl 5 45-121 Int 403 Colombia, Medellín"
"SLAN SPORT";;;"(57) (1) 2909376";"Cl 10 60-57 Colombia, Bogotá"
"JM UNIFORMES";;;"(57) (4) 7814784";"Cl 36 8-61 Colombia, Montería"
"TIENDA DEPORTIVA LA VERDOLAGA";;;"(57) (4) 4214594";"Cl 47 DD 86-12 Colombia, Medellín"
"CREACIONES JORDIS";;;"(57) (2) 8805736";"Cl 13 9-31 Colombia, Cali"
"OPEN STORE FOR EVERY BODY";;;"(57) (2) 8844453";"Cr6 16-32 Colombia, Cali"
"JUANK SPORT";;;"(57) (5) 5802401";"Cr9 16 A-55 Centro Colombia, Valledupar"
"DEPORTIVOS WORD SPORT";;;"(57) (4) 2511718";"Cr54 45-18 Int 501 Colombia, Medellín"
"TONO A TONO ACTIVE LINE LTDA";;;"(57) (4) 3227108";"Cr29 B 39 S-17 Envigado Colombia, Envigado"
"ALMACÉN DEPORTIVO LA LLAMA OLÍMPICA";;;"(57) (76) 5650860";"Cl 6 16-72 Colombia, Aguachica"
"INVERSIONES MAX FASHIÓN";;;"(57) (4) 5140953";"Cr52 A 45-95 P-3 Colombia, Medellín"
"BOLAÑOS ANTONIO";;;"(57) (1) 7139436";"Cl 28 S 32-52 Colombia, Bogotá"
"RESTÁN SPORT";;;"(57) (2) 5547306";"Cl 9 C 53-25 Ap 212-F Colombia, Cali"
"ARISTY EL PALACIO DE LAS CAMISETAS";;;"(57) (5) 6693655";"Cl 30 26-106 L-11-12-A Pasaje El Colmenar Colombia, Cartagena"
"TIENDA MUNDO DEPORTIVO";;;"(57) (8) 8717303";"Cr2 11-19 Centro Colombia, Neiva"
"DODO WEAR";;;"Nal: (57) (4) 2355912";"Cr 70 30 A -70 Colombia, Medellín"
"VASCOR CONFECCIONES S.A.S.";;;"(57) (1) 7274454";"Cl 17 A   S 29 B-22 Colombia, Bogotá"
"CONFECCIONES Y DEPORTES PEGASUS";;;"(57) (1) 4114251";"Cl 11 A 72 B-15 Colombia, Bogotá"
"MARCAS E IMAGEN";;;"(57) (2) 4013842";"Cl 125 26 H-03 12 Colombia, Cali"
"DEPORTIVOS CORONEL LTDA.";;;"(57) (7) 6716379";"Cl 13 18-32 Colombia, Bucaramanga"
"CREACIONES REACTORES";;;"(57) (4) 5113804";"Cr56 C 49-30 P-8 Colombia, Medellín"
"DINAMICA TEXTIL";;;"(57) (4) 4480456";"Cr52 D 76-67 L-1222 Itaguí Colombia, Medellín"
"First Name";"Email Address";Url;Telephone;Address
"JM UNIFORMES";;;"(57) (4) 7814784";"Cl 36 8-61 Colombia, Montería"
"J.L. SPORT";;;"(57) (1) 7155361";"Cl 72 S 73 B-13 Colombia, Bogotá"
"ALMACÉN WE. CAMERINO SPORT";;;"(57) (5) 3416833";"Cr43 40-57 Colombia, Barranquilla"
VIOLETA;;;"(57) (4) 2814258";"Cl 51 49-28 Itagüí Colombia, Itagüí"
"UNIFORMES MARTEX";;;"(57) (4) 5130496";"Cl 52 49-71 Of 402 Colombia, Medellín"
"MONDRAGÓN S.A.S.";;;"Nal: (57) (4) 5791967";"Cl 56 41-170 Int 301 Colombia, Medellín"
"DISTRIBUIDORA FEDERAL E.U";;;"(57) (2) 8960600";"Cl 14 8-63 Of 103 Colombia, Cali"
"TUN TUN SPORT";;;"(57) (7) 6480863";"Cr8 6-69 Floridablanca Colombia, Floridablanca"
"STYLO & COMFORT PRENDAS PARA SOÑAR Y VIVIR";;;"(57) (1) 2376100";"Cr25 13-99 Colombia, Bogotá"
PRONTO;;;"(57) (6) 8756566";"Cr 23 65-11 L-102 Colombia, Manizales"
B.KUL;;;"(57) (6) 8756535";"Cr 23 65-11 Colombia, Manizales"
"PIBES SPORT";;;"(57) (2) 7238744";"Cr22 15-40 Colombia, Pasto"
"SKORNIO SPORT LTDA.";;;"(57) (1) 2607940";"Cr66 A 7-54 Colombia, Bogotá"
"DEPORTIVOS FONSECA";;;"(57) (7) 6526539";"Cr17 52-57 Colombia, Bucaramanga"
"METRO MODAS MEDELLIN";;;"(57) (7) 5830267";"Cl 9 5-30 Centro Colombia, Cúcuta"
"EL PALACIO DE LA LYCRA";;;"(57) (7) 6337927";"Cr18 33-49 Centro Colombia, Bucaramanga"
UB40;;;"(57) (1) 2478572";"Cl 9 36 A-38 Colombia, Bogotá"
"SIDNEY S.A.";;;"(57) (1) 2606489";"Cr57 4 B-69 Colombia, Bogotá"
"FAJAS LOREN SLIM";;;"(57) (2) 5140666";"Cr29 8-33 Colombia, Cali"
"CONFECCIONES EL MILAGRO";;;"(57) (4) 8687322";"Cr49 44-36 Colombia, San Pedro de los Milagros"
SPORTFUL;;;"(57) (4) 5138466";"Tr49 C 59-76 Int 201 Colombia, Medellín"
"MHN FASHION";;;"(57) (2) 5514495";"Cr45 5 A-45 Colombia, Cali"
"SLAN SPORT";;;"(57) (1) 2909376";"Cl 10 60-57 Colombia, Bogotá"
COOPMODA;;;"(57) 3178306128";"Cl 31 D 64-123 Carrt 13 de Junio Colombia, Cartagena"
"KENNETH COLE";;;"(57) (1) 2563647";"Cr 11 82-71 L-332 Colombia, Bogotá"
"EXTREME STYLE S.A.S.";;;"(57) (2) 3798961";"Cl 9 32 A-16 L 2 22 Colombia, Cali"
"MEGA SPORTS INC S.A.S.";;;"(57) (1) 2860278";"Cl 17 N 6-27 Colombia, Bogotá"
"UNIFORMES DEPORTIVOS MASTER";;;"(57) (1) 2094408";"Cl 27 S 12 J-38 Colombia, Bogotá"
"DEPORTIVAS J.J.";;;"(57) (1) 2318405";"Cr69 H 64 H-71 Colombia, Bogotá"
"EL RINCÓN DE LA MEDIA Y LA LICRA";;;"(57) (2) 8890275";"Cl 14 8-49 L-564 Colombia, Cali"
"CREACIONES DEPORTIVAS MARLIVETH";;;"(57) (2) 3373834";"Cr24 18 E-59 Colombia, Cali"
"CONFECCIONES DEPORTIVAS WILSOR";;;"(57) (2) 5562811";"Cr36 A 5 B-1 -83 Colombia, Cali"
"VARIEDADES HUMONIS";;;"(57) (4) 2311405";"Cl 45 51-44 L-27 Colombia, Medellín"
"ATL ROPA DEPORTIVA";;;"(57) (4) 3131954";"Cl 6 B S 37-45 Colombia, Medellín"
"RUNNING WORLD";;;"(57) (2) 3169051";"Unicentro L-313 Colombia, Cali"
"BIKES AND MORE";;;"(57) (4) 4489160";"Cl 38 B Sur 43 A-35 Envigado Colombia, Medellín"
"ALMACÉN ZEUS DEPORTES";;;"(57) (2) 2245840";"Pasaje C.C. del Parque Cr27 27-31 Colombia, Tuluá"
"DISEÑOS EFEZETA SPORT LTDA.";;;"(57) (2) 6680020";"Av2 C N 24 N-121 Colombia, Cali"
SLON;;;"(57) (2) 8961345";"Cl 14 8-54 Of 106 Colombia, Cali"
"CROQUET CLUB";;;"(57) (2) 6615555";"Av3 A N 25 N-19 Colombia, Cali"
"First Name";"Email Address";Url;Telephone;Address
"ALMACÉN WILLY DEPORTES";;;"(57) (5) 4230402";"Cl 14 7-41 Colombia, Santa Marta"
UB40;;;"(57) (1) 2478572";"Cl 9 36 A-38 Colombia, Bogotá"
"SPORT WEAR VERÓNICA";;;"(57) (2) 3154377";"Cl 13 B 74-13 Ap 38 Colombia, Cali"
"ESTRENOS SPRINT";;;"(57) (8) 8369199";"Cr4 6-45 Centro Colombia, Pitalito"
"COMERCIALIZADORA VOLEA SPORT";;;"(57) (1) 2731964";"Cl 42 S 81 A-50 L-2 Colombia, Bogotá"
STYLOIDE;;;"(57) (4) 4485999";"Cr25 A 1 A Sur-45 L-1309 Colombia, Medellín"
"UNIVERSAL SPORT";;;"(57) (4) 2311861";"Cl 48 49-49 Int 101 Colombia, Medellín"
"DODO WEAR";;;"Nal: (57) (4) 2355912";"Cr 70 30 A -70 Colombia, Medellín"
"ALMACÉN LA JUGADA TIENDA DEPORTIVA";;;"(57) (4) 2780445";"Cl 130 S 50-31 L-208 Caldas Colombia, Medellín"
"STOP CÚCUTA CALLE 10";;;"(57) (7) 5833747";"Cl 10 1-97 Colombia, Cúcuta"
"CAMISETAS Y LICRAS GOGO";;;"(57) (8) 4351213";"Cl 18 11-26 Centro Colombia, Florencia"
"JM UNIFORMES";;;"(57) (4) 7814784";"Cl 36 8-61 Colombia, Montería"
GOCITEX;;;"(57) (1) 2512049";"Dg79 B 71 B-60 Colombia, Bogotá"
"TIENDA DEPORTIVA LA VERDOLAGA";;;"(57) (4) 4214594";"Cl 47 DD 86-12 Colombia, Medellín"
"POLE FITNESS ACADEMY 100% FITNESS";;;"(57) (4) 2717626";"Cl 10 32-115 L-160 Colombia, Medellín"
BOT21;;;"Telefax: (57) (4) 5114658";"Cr56 B 49-45 P-2 Colombia, Medellín"
"CONFECCIONES YENELIA";;;"(57) (2) 4382399";"Cr24 D 34-46 P-2 Colombia, Cali"
"ALMACENES BOXNIA";;;"(57) (2) 8963343";"Cl 14 8-54 L-108 Colombia, Cali"
"ALMACEN BIG-BEN";;;"(57) (4) 2315206";"Cl 46 51 A-36 Colombia, Medellín"
"SUMMER STYLE INGENIO";;;"(57) (2) 6832939";"Cl 14 85-25 C.C. Plaza 85 L-2 Colombia, Cali"
"TUN TUN SPORT";;;"(57) (7) 6480863";"Cr8 6-69 Floridablanca Colombia, Floridablanca"
"STYLO & COMFORT PRENDAS PARA SOÑAR Y VIVIR";;;"(57) (1) 2376100";"Cr25 13-99 Colombia, Bogotá"
SPORTY;;;"(57) (4) 3023626";"Cr45 38 A-S 29 Int 503 Envigado Colombia, Envigado"
PRONTO;;;"(57) (6) 8756566";"Cr 23 65-11 L-102 Colombia, Manizales"
B.KUL;;;"(57) (6) 8756535";"Cr 23 65-11 Colombia, Manizales"
"LEÓN TORRES GLORIA JUDITH";;;"(57) (1) 2129638";"Cr24 63 D-27 Colombia, Bogotá"
"VENTA POR CATALOGO RYOCCO";;;"(57) (6) 3257469";"C.C. Novacentro L-310 Colombia, Pereira"
BLACK;;;"(57) (8) 2483013";"Cl 9 7-61 Centro Colombia, Espinal"
"FUERA DE SERIE";;;"(57) (8) 7454337";"Av Universitaria 39-77 L-1024 Colombia, Tunja"
"BODY SPORT FITNESS";;;"(57) (1) 6886343";"Cr104 148-07 L-269 Colombia, Bogotá"
"RESTÁN SPORT";;;"(57) (2) 5547306";"Cl 9 C 53-25 Ap 212-F Colombia, Cali"
"CONFECCIONES DANTEX";;;"(57) (2) 3157472";"Cr78 A 9-94 Colombia, Cali"
"SKIL FIORELLI LTDA.";;;"(57) (1) 2620560";"Cr56 2 A -59 P-2 Colombia, Bogotá"
"CICLODEPORTES AVENIR 88";;;"(57) (1) 2901367";"Cl 3 54-11 Colombia, Bogotá"
"SUPER GANGA LA 17";;;"(57) (2) 8227548";"Cr17 6 A-30 Colombia, Popayán"
"DEPORTIVO RUDATO PUBLICIDAD";;;"(57) (5) 5749910";"Cl 17 9-106 Colombia, Valledupar"
"ALMACÉN OLÍMPICO LTDA.";;;"(57) (8) 7604390";"Cr17 17-74 Centro Colombia, Duitama"
"ALMACÉN DEPORTIVAS LA BOMBONERA";;;"(57) (7) 5812605";"Manz J-6 19 I Et Atalaya Colombia, Cúcuta"
"CREACIONES SANDORY E.U.";;;"(57) (4) 4119394";"Cl 32 EE 75 C-72 Colombia, Medellín"
"LÍNEA DEPORTIVA NOVO";;;"(57) (4) 2656630";"Cr72 31-38 Colombia, Medellín"
"First Name";"Email Address";Url;Telephone;Address
"J.L. SPORT";;;"(57) (1) 7155361";"Cl 72 S 73 B-13 Colombia, Bogotá"
"ROPA DEPORTIVA WERM SPORT";;;"(57) (4) 2840811";"Cl 57 FF 22 B-10 Colombia, Medellín"
"CAMERINO SPORT";;;"(57) (4) 5131463";"Cr49 52-116 L-244 Colombia, Medellín"
"VARIEDADES KATHEGLOR";;;"(57) (4) 5119558";"Cl 46 53 A-10 L-117 Colombia, Medellín"
"PAUL & SHARK CARTAGENA";;;"(57) (5) 6605161";"Calle de Ayos 4-03 Colombia, Cartagena"
"ROPA ESTRELLITA";;;"(57) (8) 8718323";"Cl 9 1 H-49 Colombia, Neiva"
"EQUIPMENT TENNIS";;;"(57) (1) 7609304";"Cl 47B sur 24B 33 loc.1101 Colombia, Bogotá"
"C.I. PRENDAS INTIMAS BESAME";;;"(57) (5) 3570750";"Cl 98 51 B-76 L-4 C.C. Millenium Colombia, Barranquilla"
"EXTREME STYLE S.A.S.";;;"(57) (2) 3798961";"Cl 9 32 A-16 L 2 22 Colombia, Cali"
"MORAGA SPORT LTDA.";;;"(57) (1) 2490554";"Dg54 15-36 Colombia, Bogotá"
"MEGA SPORTS INC S.A.S.";;;"(57) (1) 2860278";"Cl 17 N 6-27 Colombia, Bogotá"
"DSS DOTACIÓN Y SUMINISTROS";;;"(57) (4) 4441966";"Cl 32 F 66 B-250 Colombia, Medellín"
"DEPORTIVAS JMC";;;"(57) (1) 4205196";"Cr71 A 8-47 S Colombia, Bogotá"
"DEPORTIVOS MICEL";;;"(57) (1) 2354681";"Cr24 63 C-36 Ap 302 Colombia, Bogotá"
"DÍAZ ARISTÓBULO";;;"(57) (1) 7112883";"Cl 35 S 49 B-37 Ap 202 Colombia, Bogotá"
"DEPORTIVAS J.J.";;;"(57) (1) 2318405";"Cr69 H 64 H-71 Colombia, Bogotá"
"HORTA MÉNDEZ DUVY";;;"(57) (1) 3429408";"Cl 11 11-63 L-7-8 Colombia, Bogotá"
"SPORT REAL";;;"(57) (4) 2302624";"Cr74 48-37 L-201 Colombia, Medellín"
"MISTYC DT S.A.S.";;;"(57) (2) 3721693";"Cr49 12 B-39 Colombia, Cali"
"TIENDA MUNDO DEPORTIVO";;;"(57) (8) 8717303";"Cr2 11-19 Centro Colombia, Neiva"
"DEPORTIVOS KARMIL";;;"(57) (1) 3410013";"Cl 13 9-63 Colombia, Bogotá"
"DEPORTIVOS ELIANA";;;"(57) (1) 6862455";"Cr100 138 A-23 Colombia, Bogotá"
"DISTRIBUIDORA DE CONFECCIONES DON FAVORABLE";;;"(57) (4) 5118049";"Cr52 45-103 Colombia, Medellín"
"ALMACÉN REBEL SPR";;;"(57) (2) 4306707";"Cr1 61 A-30 L-26 Colombia, Cali"
"AZURE S.A.S.";;;"(57) (4) 5113755";"Cl 46 58-28 Int 801 Colombia, Medellín"
"PECADO CONCEBIDO STORE";;;"(57) 3127928202";"Av3 E N 53 N-24 Colombia, Cali"
"CREACIONES DEPORTIVAS MARLIVETH";;;"(57) (2) 3373834";"Cr24 18 E-59 Colombia, Cali"
"WEST SPORT";;;"(57) (2) 8881503";"Cl 14 8-54 L-12 Colombia, Cali"
"DISEÑOS DEPORTIVOS P.L";;;"(57) (2) 5531374";"Cl 6 A 62 B-30 Colombia, Cali"
"NATURAL ROPA DEPORTIVA";;;"(57) (2) 8802707";"Cl 14 8-49 Colombia, Cali"
"SPORT LOCKER";;;"(57) (8) 2749488";"C.C. Multicentro L-243 Colombia, Ibagué"
"STREET 74";;;"Nal: (57) (4) 2601474";"Cr 74 48 B 35 Colombia, Medellín"
"SHEYLA PATIN";;;"(57) (5) 3775713";"Cr53 94-50 Patinodromo Colombia, Barranquilla"
"ALMACÉN FILA";;;"(57) (8) 2749450";"C.C. Multicentro L-126 Colombia, Ibagué"
"M. Y L. DE COLOMBIA S.A.";;;"(57) (6) 3355452";"Cl 19 6-48 L-112 Colombia, Pereira"
"RUNNING WORLD";;;"(57) (2) 3169051";"Unicentro L-313 Colombia, Cali"
"CONFECCIONES JAZMIN";;;"(57) (2) 7315672";"Cl 19 A 30-43 Las Cuadras Colombia, Pasto"
"ALMACEN PUNTO 34";;;"(57) (7) 6337124";"Cl 34 18-24 Colombia, Bucaramanga"
"EURO DEPORTES";;;"(57) (7) 6522016";"Cr21 34-09 Colombia, Bucaramanga"
"FUERA DE SERIE";;;"(57) (8) 7454337";"Av Universitaria 39-77 L-1024 Colombia, Tunja"
"First Name";"Email Address";Url;Telephone;Address
"BODEGA MAYORISTA ESTRENO";;;"(57) (2) 2750588";"Cl 30 27-35 Colombia, Palmira"
"CONFECCIONES MONICA HERRERA S.A.S.";;;"(57) (2) 5585130";"Cl 13 B 23 A-18 Colombia, Cali"
"MAX MODA";;;"(57) (5) 3247023";"Cl 45 1-85 L42 Metrocentro Colombia, Barranquilla"
"HUILA DEPORTES";;;"(57) (8) 8710641";"Cr4 10-61 Colombia, Neiva"
"DINAMICA TEXTIL";;;"(57) (4) 4480456";"Cr52 D 76-67 L-1222 Itaguí Colombia, Medellín"
"PENALTY DEPORTES";;;"(57) (2) 8813075";"Cr6 13-77 Colombia, Cali"
"NATURAL ROPA DEPORTIVA";;;"(57) (2) 8802707";"Cl 14 8-49 Colombia, Cali"
"INTERDEPORTES VERANO SPORT";;;"(57) (8) 2522135";"CR 4 5-16 Centro Colombia, Mariquita"
"DEPORTIVO RUDATO PUBLICIDAD";;;"(57) (5) 5749910";"Cl 17 9-106 Colombia, Valledupar"
"BIANCA SWIM SPORT";;;"(57) (2) 6814464";"Cl 9 17-40 Colombia, Cali"
BETTA;;;"(57) (4) 2345283";"Cl 63 80 A- 88 Colombia, Medellín"
"MAGIC SUM";;;"(57) (2) 6689760";"Cl 24 N 5 A-14 Colombia, Cali"
"ADIDAS STORE";;;"Nal: 018009520682";"Tr96 70 A-85 L-123 Colombia, Bogotá"
"GEORGES SPORT";;;"(57) (2) 8851259";"Cl 14 8-75 Colombia, Cali"
"EURO SPORT";;;"(57) (2) 7253861";"Cr7 9-39 Colombia, Ipiales"
"ROPA DEPORTIVA VALEN SPORT";;;"(57) (2) 3315794";"Cl 13 B 85 C-75 Colombia, Cali"
"ALMACÉN LIGA DEPORTIVA";;;"(57) (8) 2610869";"Pasaje Comercial La 14 L-226 Colombia, Ibagué"
"M. Y L. DE COLOMBIA S.A.";;;"(57) (6) 3355452";"Cl 19 6-48 L-112 Colombia, Pereira"
"VESTIDOS DE BAÑO CHARO HERRERA";;;"(57) (5) 6605152";"Manga Cl 26 17-100 Av Jiménez Colombia, Cartagena"
"ALMACÉN ARTÍCULOS DEPORTES JAIMEGO";;;"(57) (2) 8851306";"Cr7 13-104 Colombia, Cali"
"PROMOCIONAR DEPORTES S.A.S";;;"(57) 3168318740";"Cr36 C 5 B-544 Colombia, Cali"
"SOBERANO SPORT";;;"(57) (7) 5710234";"Av7 12-41 Centro Colombia, Cúcuta"
BLACK;;;"(57) (8) 2483013";"Cl 9 7-61 Centro Colombia, Espinal"
BOT21;;;"Telefax: (57) (4) 5114658";"Cr56 B 49-45 P-2 Colombia, Medellín"
"VASCOR CONFECCIONES S.A.S.";;;"(57) (1) 7274454";"Cl 17 A   S 29 B-22 Colombia, Bogotá"
"AZURE S.A.S.";;;"(57) (4) 5113755";"Cl 46 58-28 Int 801 Colombia, Medellín"
"BOLAÑOS BLANCA LUZ";;;"(57) (1) 4191281";"Cr56 5 B-63 Colombia, Bogotá"
"ALMACÉN DEPORTIVO LA LLAMA OLÍMPICA";;;"(57) (76) 5650860";"Cl 6 16-72 Colombia, Aguachica"
"ALMACÉN DEPORTIVO LA LLAMA OLÍMPICA";;;"(57) (7) 5712902";"Av10 8-41 Centro Colombia, Cúcuta"
"ALMACÉN DEPORTIVAS LA BOMBONERA";;;"(57) (7) 5812605";"Manz J-6 19 I Et Atalaya Colombia, Cúcuta"
"DEPORTIVOS CORONEL LTDA.";;;"(57) (7) 6716379";"Cl 13 18-32 Colombia, Bucaramanga"
"DEPORTES REVELACIÓN";;;"(57) (4) 5136926";"Cl 48 44-12 P-2 L-202 Colombia, Medellín"
"SURTIDORA BETANIA";;;"(57) (4) 5115314";"Cr53 46 -10 Colombia, Medellín"
"DISEÑOS SPAZ";;;"(57) (4) 2532388";"Cr97 A 48 A-21 Colombia, Medellín"
"ALMACÉN CHICOS GUAPOS";;;"(57) (8) 7400219";"Cl 19 11-94 Colombia, Tunja"
"BODYFIT LTDA.";;;"(57) (4) 2765148";"Cl 10 32-115 Int 127 Colombia, Medellín"
"SURF LAND";;;"(57) (4) 3260853";"Cr43 A 7-S 26 Colombia, Medellín"
"KIWI SPORT";;;"(57) (7) 5747275";"Cl 13 N 11 Este-35 Guaimaral Colombia, Cúcuta"
"LA CASA DEL PORTERO";;;"(57) (4) 2609041";"Cr74 48-37 L-228 Colombia, Medellín"
X-SPORT;;;"(57) (1) 2917884";"Cl 71 A 68 A-74 L-136 Colombia, Bogotá"
"First Name";"Email Address";Url;Telephone;Address
"CONFECCIONES NOWELL";;;"(57) (4) 2518357";"Cl 46 53-35 L-110 Colombia, Medellín"
"DEPORTES DE LA COSTA";;;"(57) (5) 3415325";"Cr43 44-11 Colombia, Barranquilla"
"GEF PUNTO BLANCO";;;"Nal: 018000517536";"Bgde Cr1 12-18 L-215 Colombia, Cartagena"
TAUXER;;;"(57) (2) 3129145";"C.C. San Andresito del Sur L-117 Colombia, Cali"
"LUIBER SPORT";;;"(57) (7) 5818368";"Av Libertadores Canal Bogotá L-185-186 Colombia, Cúcuta"
"CASA DEL DEPORTE";;;"(57) (75) 5682032";"Cl 7 5-50 Colombia, Pamplona"
"GEF PUNTO BLANCO";;;"(57) (5) 3735676";"Cl 99 Cr52 L-321-B Colombia, Barranquilla"
"ANTRÓN STORE";;;"(57) (4) 2309418";"Cl 51 73-120 L-2159-2160 Colombia, Medellín"
X-SPORT;;;"(57) (1) 2917884";"Cl 71 A 68 A-74 L-136 Colombia, Bogotá"
BRANCHOS;;;"(57) (4) 4481919";"Cr51 45-75 Int 119 Colombia, Medellín"
"SPERM DEPORTES";;;"(57) (1) 2553184";"Cr24 63 A-08 Colombia, Bogotá"
"YARA BOUTIQUE";;;"(57) (76) 5654762";"Cl 5 11-17 Colombia, Aguachica"
"RESTITUTION SPORT";;;"(57) (2) 8801832";"Cl 14 8-54 L-7 Colombia, Cali"
"CONFECCIONES DANTEX";;;"(57) (2) 3157472";"Cr78 A 9-94 Colombia, Cali"
SWEAT;;;"Nal: (57) (4) 4448462";"Cr35 7-61 Colombia, Medellín"
"INDUSTRIA DEPORTIVA KINDEMOR";;;"(57) (1) 7265328";"Cl 29 B 5-70 E San Mateo Soacha Colombia, Soacha"
"EURO DEPORTES";;;"(57) (7) 6522016";"Cr21 34-09 Colombia, Bucaramanga"
"SUPER GANGA LA 17";;;"(57) (2) 8227548";"Cr17 6 A-30 Colombia, Popayán"
"SILVER STORE";;;"(57) (1) 6168703";"Cr 11 82-71 L-286 Colombia, Bogotá"
"SOLO MODA";;;"(57) (4) 2550331";"Cr52 3 S-61 Colombia, Medellín"
BABOLAT;;;"(57) (1) 4270183";"Terrapuerto Parque Industrial El Dorado Bg. 19 Colombia, Bogotá"
"WORK & FASHION S.A.";;;"(57) (1) 6795513";"Cl 164 22-50 Colombia, Bogotá"
"ROPA DEPORTIVA FAHER";;;"(57) (6) 3333366";"Cr8 22-42 Colombia, Pereira"
"MATEOS TIENDA";;;"(57) (4) 2811187";"Cl 52 49-33 Itagüí Colombia, Itagüí"
"ABC EL MAGO";;;"(57) (2) 3044643";"Cr11 G 30-35 Colombia, Cali"
"W SPORT";;;"(57) (4) 3777139";"Cl 78 52 C-17 Itagüí Colombia, Medellín"
"SPORT MARCAS";;;"(57) (4) 2858736";"Cl 81 A 52 D-72 Itagüí Colombia, Itagüí"
"CONFECCIONES OLIMPIC STAR";;;"(57) (1) 4165146";"Cr74 A 52 A -08 Colombia, Bogotá"
"OMAR MELO / CONFECCIONES Z-GUERRERO";;;"(57) (2) 5547737";"Cr64 6 A-47 Colombia, Cali"
"ALMACÉN PUNTO CLASS";;;"(57) (7) 6213570";"Cr30 49-85 Palmira Colombia, Barrancabermeja"
"FITNESS TOTAL";;;"(57) (7) 6221618";"Cr 19 49-60 Colombia, Barrancabermeja"
"ALMACÉN ZEUS DEPORTES";;;"(57) (2) 2245840";"Pasaje C.C. del Parque Cr27 27-31 Colombia, Tuluá"
"SURF STILE";;;"(57) (1) 2011272";"Cl 8 A 37-56 L-42 Colombia, Bogotá"
"TIENDA DEPORTIVA LA VERDOLAGA";;;"(57) (4) 4214594";"Cl 47 DD 86-12 Colombia, Medellín"
"VESTIDOS DE BAÑO CHARO HERRERA";;;"(57) (5) 6605152";"Manga Cl 26 17-100 Av Jiménez Colombia, Cartagena"
"FANDANGO SPORT";;;"(57) (2) 2711656";"Cl 31 25-50 Colombia, Palmira"
"VARIEDADES D'VINCI";;;"(57) (4) 2316799";"Cl 46 52 A-32 Colombia, Medellín"
"ALMACÉN JUN BAR SPORT";;;"(57) (8) 5124016";"Av Colón 2-20 L-104 Edif Bread Fruit Colombia, San Andrés"
BEEFREE;;;"(57) (1) 8137696";"Cl 53 B 25-21 L-2070 Colombia, Bogotá"
"SURF LAND";;;"(57) (4) 3260853";"Cr43 A 7-S 26 Colombia, Medellín"
"First Name";"Email Address";Url;Telephone;Address
"CREACIONES NILSA";;;"(57) (1) 2868398";"Cr11 11-65 L-3 Colombia, Bogotá"
"SURF STILE";;;"(57) (1) 2011272";"Cl 8 A 37-56 L-42 Colombia, Bogotá"
OUTDOOR;;;"(57) (1) 6058141";"Cl 185 45-03 L-2-016 Colombia, Bogotá"
"PROTOKOLO LTDA";;;"(57) (2) 6641541";"Cl 47 4 B- N-75 La Flora Colombia, Cali"
"ALMACÉN EL DEPORTE";;;"(57) (2) 2416462";"Cr6 4 A-50 Colombia, Buenaventura"
"ALMACÉN WILLY DEPORTES";;;"(57) (5) 4230402";"Cl 14 7-41 Colombia, Santa Marta"
"ALMATEX S.A.S";;;"(57) (7) 5756121";"C.C. Ventura Plaza L-201 Colombia, Cúcuta"
"INVERSIONES SACHA";;;"(57) (1) 2436602";"Av (Cl) 13 12-08 Colombia, Bogotá"
"EXTREME STYLE S.A.S.";;;"(57) (2) 3798961";"Cl 9 32 A-16 L 2 22 Colombia, Cali"
"ALMACÉN FILA";;;"(57) (8) 2749450";"C.C. Multicentro L-126 Colombia, Ibagué"
"CASTOR TENNIS";;;"(57) (7) 6028380";"Cr16 49-33 C.C. Parque Infantil Colombia, Barrancabermeja"
"CONFECCIONES VIMOS";;;"(57) (4) 5125863";"Cr51 45-84 Int 401 Colombia, Medellín"
SWEAT;;;"Nal: (57) (4) 4448462";"Cr35 7-61 Colombia, Medellín"
"CREACINES AJAVI";;;"(57) (4) 5139794";"cl45 51-69 Int 201 Colombia, Medellín"
XENTENARIO;;;"(57) (5) 2807382";"Cl 23 B 05-03 La Selva Colombia, Sincelejo"
"ABECE SPORT";;;"(57) (1) 7110198";"Cr 29 51 A-09 Sur Colombia, Bogotá"
"SPERM DEPORTES";;;"(57) (1) 2553184";"Cr24 63 A-08 Colombia, Bogotá"
"TAGU'S SPORT LÍNEA DEPORTIVA";;;"(57) (1) 2051302";"Cr24 37-55 S Colombia, Bogotá"
"WEST SPORT";;;"(57) (2) 8881503";"Cl 14 8-54 L-12 Colombia, Cali"
"CREACIONES SUSAN LORE";;;"(57) (2) 3273973";"Cr48 42-24 Colombia, Cali"
"BOLAÑOS ANTONIO";;;"(57) (1) 7139436";"Cl 28 S 32-52 Colombia, Bogotá"
"C.I ACTIVA FITWEAR S.A.S";;;"(57) (2) 4855894";"Cl 47 A 3-11 Colombia, Cali"
"CCTA ROPA DEPORTIVA";;;"(57) (2) 3345658";"Cr49 23-39 Colombia, Cali"
"W SPORT";;;"(57) (4) 3777139";"Cl 78 52 C-17 Itagüí Colombia, Medellín"
"DACAR.CO S.A.";;;"(57) (4) 3510248";"Cl 32 E 63 A-38 Colombia, Medellín"
"TIENDA DEPORTIVA F.S SPORT";;;"(57) 3138545937";"Cr2 12-06 Colombia, Neiva"
"STOP LA PLAZUELA";;;"(57) (5) 6633673";"Cl 31 71-132 L-113 Multicentro Plazuela Colombia, Cartagena"
"FAD DESIGN";;;"(57) (1) 6033173";"Av (Cr) 15 105 A-80 Colombia, Bogotá"
"DEPORTIVAS VIMAR LTDA.";;;"(57) (1) 2307179";"Cr68 N 40 B S -08 Colombia, Bogotá"
"CREACIONES DEPORTIVAS SNAD";;;"(57) (1) 2601032";"Cr53 B 5 B-31 Colombia, Bogotá"
"LIBARDO HERNANDEZ";;;"(57) (1) 7112876";"Cl 69 B S 63 A-40 Colombia, Bogotá"
"UNIFORMES MARTEX";;;"(57) (4) 5130496";"Cl 52 49-71 Of 402 Colombia, Medellín"
"SPORT LOCKER";;;"(57) (8) 2749488";"C.C. Multicentro L-243 Colombia, Ibagué"
"DARING BORDADOS Y CONFECCIONES";;;"(57) (4) 2314390";"Cr55 52-42 Int 102 Colombia, Medellín"
"SUDADERAS KATHARSIS";;;"(57) (1) 2473931";"Cr28 12A-12 Colombia, Bogotá"
"ALMACÉN LA ESQUINA DEL DEPORTE";;;"(57) (5) 4212359";"Cl 12 7-57 Colombia, Santa Marta"
"PUBLI MUÑOZ";;;"(57) (8) 8705284";"Cl 12 23-16 Colombia, Neiva"
"CREACIONES HECNYCA";;;"(57) (4) 5136104";"Cr56 46-49 Int 1103 Colombia, Medellín"
"TORRALBA SPORTSWEAR";;;"(57) (1) 2493794";"Cl 67 17-69 Colombia, Bogotá"
"SPARK FASHION LDV";;;"(57) (2) 4416307";"Cr15 49-88 Colombia, Cali"
"First Name";"Email Address";Url;Telephone;Address
STYLOIDE;;;"(57) (4) 4485999";"Cr25 A 1 A Sur-45 L-1309 Colombia, Medellín"
"LA CASA DEL PORTERO";;;"(57) (4) 2609041";"Cr74 48-37 L-228 Colombia, Medellín"
"SILVER STORE";;;"(57) (1) 6168703";"Cr 11 82-71 L-286 Colombia, Bogotá"
"REXIXTENXIA NORTE";;;"(57) (4) 2301490";"Cr74 48-37 Int 257 Colombia, Medellín"
"DODO WEAR";;;"Nal: (57) (4) 2355912";"Cr 70 30 A -70 Colombia, Medellín"
"WORK & FASHION S.A.";;;"(57) (1) 6795513";"Cl 164 22-50 Colombia, Bogotá"
"TIENDA VERDE";;;"(57) (4) 4363762";"Estadio Atanasio Girardot Colombia, Medellín"
"PASION MODA INTIMA";;;"(57) (4) 3728739";"Cr63 39-44 Ap 201 Itagüí Colombia, Itagüí"
"SURTIDORA BETANIA";;;"(57) (4) 5115314";"Cr53 46 -10 Colombia, Medellín"
RATMAN;;;"(57) (1) 3565186";"Cl 20 82-52 L-1-111-A Colombia, Bogotá"
WILSAGA'IN;;;"(57) (1) 2802859";"Cr25 3-40 Colombia, Bogotá"
"DYNAMYK NEW PLAYS";;;"(57) (1) 4403936";"Cr107 C 70-81 Colombia, Bogotá"
COOPMODA;;;"(57) 3178306128";"Cl 31 D 64-123 Carrt 13 de Junio Colombia, Cartagena"
"BOLAÑOS BLANCA LUZ";;;"(57) (1) 4191281";"Cr56 5 B-63 Colombia, Bogotá"
"SMARTCOM LTDA.";;;"(57) (4) 5360988";"Rionegro Colombia, Medellín"
"CENTRO DEPORTES";;;"(57) 3162992242";"Cr25 41-38 Colombia, Calarcá"
"ESTAMPADOS MOSTER";;;"(57) 3202613538";"Cr14 W 60 Bis-39 P-3 Colombia, Bucaramanga"
"TIENDA IMPERIO ROJO";;;"(57) (4) 3738811";"Cr49 46 A-21 Itagüí Colombia, Itagüí"
"DISEÑOS SPAZ";;;"(57) (4) 2532388";"Cr97 A 48 A-21 Colombia, Medellín"
"EQUIPMENT TENNIS";;;"(57) (1) 7609304";"Cl 47B sur 24B 33 loc.1101 Colombia, Bogotá"
"SUDAO MODA PARA GIMNASIO";;;"(57) (5) 6514555";"La Plazuela Cr71 26-249 L-26 C.C. Shopping Center La Plazuela 2 Colombia, Cartagena"
AMERICANINO;;;"(57) (5) 3581396";"Cl 78 53-70 L-109-Y 110 Colombia, Barranquilla"
"MORAGA SPORT LTDA.";;;"(57) (1) 2490554";"Dg54 15-36 Colombia, Bogotá"
"PUNTA GAIRA";;;"(57) (5) 4337522";"C.C. Buenavista L-62 Colombia, Santa Marta"
"DSS DOTACIÓN Y SUMINISTROS";;;"(57) (4) 4441966";"Cl 32 F 66 B-250 Colombia, Medellín"
"GEF.PUNTO BLANCO";;;"(57) (1) 6148537";"Cr7 139-07 L-134 Colombia, Bogotá"
"BODY LOVE";;;"(57) (5) 3459946";"Cr53 78-78 L-46 C C Country Plaza Colombia, Barranquilla"
"ALMACÉN Y FÁBRICA STAND DEPORTIVO";;;"(57) (8) 7432428";"Cra 10 No 18-34 Colombia, Tunja"
"DEPORTIVOS ELIANA";;;"(57) (1) 6862455";"Cr100 138 A-23 Colombia, Bogotá"
"HINCAPIÉ SPORTSWEAR";;;"(57) (4) 2547454";"Cr50 A 61-43 Colombia, Medellín"
NATIVOS;;;"(57) (4) 5137640";"Cr59 49-110 Colombia, Medellín"
"NATURAL ROPA DEPORTIVA";;;"(57) (2) 8802707";"Cl 14 8-49 Colombia, Cali"
"SPORT LOCKER";;;"(57) (8) 2749488";"C.C. Multicentro L-243 Colombia, Ibagué"
"OPEN STORE FOR EVERY BODY";;;"(57) (2) 8844453";"Cr6 16-32 Colombia, Cali"
"ALMACEN RAGON";;;"(57) (7) 6314184";"Cl 83 24 A-80 Diamante II Colombia, Bucaramanga"
"EURO SPORT";;;"(57) (2) 7253861";"Cr7 9-39 Colombia, Ipiales"
"VENTA POR CATALOGO RYOCCO";;;"(57) (6) 3257469";"C.C. Novacentro L-310 Colombia, Pereira"
"PEPO SPORT";;;"(57) (4) 5719430";"Cl 48 53-39 L-234 Colombia, Medellín"
"INDUSTRIAS NKI";;;"(57) (2) 8808485";"Cl 14 6-17 Ap 402 Colombia, Cali"
"DEPORTES PENALTY";;;"(57) (7) 7275222";"Cr14 12-19 Colombia, Socorro"
"First Name";"Email Address";Url;Telephone;Address
SWEAT;;;"Nal: (57) (4) 4448462";"Cr35 7-61 Colombia, Medellín"
"DYNAMYK NEW PLAYS";;;"(57) (1) 4403936";"Cr107 C 70-81 Colombia, Bogotá"
"DART BASIC ALTERNATIVE";;;"(57) (1) 2374005";"cl 150 16-56 L-1011 Colombia, Bogotá"
"CUELLO - TEX";;;"(57) (1) 2806065";"Cr10 A 3-12 S Colombia, Bogotá"
"CREACIONES NADAR S.A.";;;"(57) (5) 3580451";"Cl 78 53-70 L-112 Colombia, Barranquilla"
"ATL ROPA DEPORTIVA";;;"(57) (4) 3131954";"Cl 6 B S 37-45 Colombia, Medellín"
"ZIDANE SPORT";;;"(57) 3202439040";"Manz 20 Casa 2 Ciudadela Comfenalco Colombia, Ibagué"
"CASA DEL DEPORTE";;;"(57) (75) 5682032";"Cl 7 5-50 Colombia, Pamplona"
"DISEÑOS DECARE";;;"(57) (7) 6344051";"Cl 20 28-21 Colombia, Bucaramanga"
"HOT LIMITED";;;"(57) (1) 3546187";"Cl 20 82-52 L-1-125 Colombia, Bogotá"
SISLEY;;;"(57) (1) 6168685";"Cr 11 82-71 L-282 Colombia, Bogotá"
"ALMACÉN MUNDO DEPORTIVO";;;"(57) (5) 5700217";"Cl 14 C 20-15 Av La Popa Colombia, Valledupar"
"ALMACEN DE DEPORTES TACTICAL FASHION XTREME";;;"(57) (2) 2177402";"Cr 3 Cl 10 Esq L-2 Colombia, Cartago"
PRONTO;;;"Nal: (57) (8) 7430758";"Cl 20 10-40 Colombia, Tunja"
B.KUL;;;"Nal: (57) (5) 5606420";"Cl 16 9-58 Centro Colombia, Valledupar"
"ALMACEN SPORT RIVER";;;"(57) (4) 2160652";"Cl 47 42-76 L-113 Colombia, Medellín"
"GEORGES SPORT";;;"(57) (2) 8851259";"Cl 14 8-75 Colombia, Cali"
"HIDRATA2O ROPA DEPORTIVA";;;"Nal: (57) (4) 3327870";"Cr 41 33 B S 38 Colombia, Medellín"
KASSIS;;;"(57) (1) 6021115";"Av19 102-31 Colombia, Bogotá"
"ANCINES GARCÍA HÉCTOR";;;"(57) (1) 2313994";"Cr70 64 I-38 Colombia, Bogotá"
SLON;;;"(57) (2) 8961345";"Cl 14 8-54 Of 106 Colombia, Cali"
"ZUZUKA ROPA";;;"(57) (2) 8223944";"Cl 6 11-45 L 1 Colombia, Popayán"
"REMO'S SPORT";;;"(57) (2) 8845299";"Cr21 19 B-21 Colombia, Cali"
"ENCORDADOS Y RAQUETAS";;;"(57) (4) 2664948";"Cr41 10-14 Colombia, Medellín"
"TIENDA MUNDO DEPORTIVO";;;"(57) (8) 8717303";"Cr2 11-19 Centro Colombia, Neiva"
"JORDY'S NATURAL J'S";;;"(57) (2) 3341681";"Cr9 13-48 L-107 Colombia, Cali"
"RUNNING WORLD";;;"(57) (2) 3169051";"Unicentro L-313 Colombia, Cali"
"FECRAR S LTDA";;;"(57) (1) 2727174";"Av 21 17-78 5 Colombia, Bogotá"
"DEPORTES LUCHO GOLAZO";;;"(57) 3115336198";"Cr16 10 A-55 Colombia, Socorro"
"C.I TIZZIANA LTDA.";;;"(57) (4) 4440761";"Cr51 C 12 B S-100 Colombia, Medellín"
"COMERCIALIZADORA MOVE SWIM WEAR";;;"(57) (2) 5579574";"Cr26 8-02 Colombia, Cali"
STYLOIDE;;;"(57) (4) 4485999";"Cr25 A 1 A Sur-45 L-1309 Colombia, Medellín"
"UNIFORMES DE FÚTBOL MARVI EN FB";;;"(57) (2) 4386602";"Cl 48 13-26 Colombia, Cali"
"SPORT MARCAS";;;"(57) (4) 2858736";"Cl 81 A 52 D-72 Itagüí Colombia, Itagüí"
TOTTO;;;"(57) (8) 5131337";"Av Costa Rica 1-41 L-105 Colombia, San Andrés"
"EL FORTIN CHAQUETAS";;;"(57) (1) 2862095";"Cl 12 13-69 L-135 Colombia, Bogotá"
"LINEA DEPORTIVA MARO";;;"(57) (4) 2312335";"Cl 49 51-43 Of-203 Colombia, Medellín"
BABOLAT;;;"(57) (1) 4270183";"Terrapuerto Parque Industrial El Dorado Bg. 19 Colombia, Bogotá"
"XXX LTDA.";;;"(57) (1) 2140913";"Cr17 A 122-08 Colombia, Bogotá"
"VASCOR CONFECCIONES S.A.S.";;;"(57) (1) 7274454";"Cl 17 A   S 29 B-22 Colombia, Bogotá"
"First Name";"Email Address";Url;Telephone;Address
"MAX FORCE";;;"(57) (4) 5111865";"Cr52 48-45 Int 360 Colombia, Medellín"
"DEPORTIVAS PONNY LTDA.";;;"(57) (1) 2827859";"Cl 17 5-29 Colombia, Bogotá"
"VASCOR CONFECCIONES S.A.S.";;;"(57) (1) 7274454";"Cl 17 A   S 29 B-22 Colombia, Bogotá"
ZERIE;;;"Conm.: (57) (4) 3340909";"Cr46 48 C S-40 Int 126 Envigado Colombia, Envigado"
"CREACIONES VANELI";;;"(57) (4) 2508830";"Cr81 43 -41 Colombia, Medellín"
"TRIAL C.G. LTDA.";;;"(57) (1) 2624798";"Dg9 48 C-90 Colombia, Bogotá"
"SHE STYLE";;;"(57) (1) 5262710";"C.C. Cedritos L-2-124 Colombia, Bogotá"
"VIRUS MODA";;;"(57) (1) 6859441";"Av Cl 145 91-19 L-3-101 Colombia, Bogotá"
"DISTRIBUCIONES DEPORTIVA L E M S.A.S.";;;"(57) (2) 8850311";"Cl 13 9-35 L-332 Colombia, Cali"
"MATEOS TIENDA";;;"(57) (4) 2811187";"Cl 52 49-33 Itagüí Colombia, Itagüí"
"C.I.APARELL WEAR S.A";;;"(57) (4) 3511020";"Cl 20 65-62 Colombia, Medellín"
"MONDRAGÓN S.A.S.";;;"Nal: (57) (4) 5791967";"Cl 56 41-170 Int 301 Colombia, Medellín"
"LACK PUNTO DEPORTIVO";;;"(57) (1) 8334829";"Cr10 14-60 Colombia, Girardot"
BORITEX;;;"(57) (8) 2480198";"Cr5 9-39 Centro Colombia, Espinal"
"TIENDA DEPORTIVA TATA";;;"(57) (8) 2648327";"Av Ferrocarril 26-58 Colombia, Ibagué"
O'SPORT;;;"(57) (6) 3255547";"Cr5 16-78 Colombia, Pereira"
"PIBES SPORT";;;"(57) (2) 7238744";"Cr22 15-40 Colombia, Pasto"
"KASSÍS S.A.S.";;;"(57) (2) 5583752";"Cl 3 Oe 27-21 Colombia, Cali"
"SURF LAND";;;"(57) (4) 3260853";"Cr43 A 7-S 26 Colombia, Medellín"
"CONFECCIONES JAHERTEX LTDA.";;;"(57) (1) 2782928";"Cl 22 S 16-60 Colombia, Bogotá"
"J SPORT";;;"(57) (2) 4263065";"Cl 72 Z 2 28 E 6-44 Colombia, Cali"
"FANDANGO SPORT";;;"(57) (2) 2711656";"Cl 31 25-50 Colombia, Palmira"
"CROQUET CLUB";;;"(57) (2) 6615555";"Av3 A N 25 N-19 Colombia, Cali"
"EL PALACIO DE LA LYCRA";;;"(57) (7) 6337927";"Cr18 33-49 Centro Colombia, Bucaramanga"
"BODEGA DE LA LYCRA";;;"(57) (7) 6423281";"Cr18 33-75 Colombia, Bucaramanga"
"ALMACÉN DISTRIBUIDORA ARISTI";;;"(57) (6) 3257899";"Cr8 16 - 75 Nivel-02 L-59-C-C La Octava Colombia, Pereira"
"HOT LIMITED";;;"(57) (1) 3546187";"Cl 20 82-52 L-1-125 Colombia, Bogotá"
FELIRY;;;"(57) (1) 2119085";"Cl 64 11-37 L-106 Colombia, Bogotá"
UB40;;;"(57) (1) 2478572";"Cl 9 36 A-38 Colombia, Bogotá"
"TIENDA DEPORTIVA WJ";;;"(57) (4) 2724315";"Cr 49 52-71 Bello Colombia, Bello"
"SPORT MARCAS";;;"(57) (4) 2858736";"Cl 81 A 52 D-72 Itagüí Colombia, Itagüí"
"LA TIENDA DEL INTERIOR";;;"(57) (4) 2310738";"Cl 49 53-79 L-107 Colombia, Medellín"
"TORRALBA SPORTSWEAR";;;"(57) (1) 2493794";"Cl 67 17-69 Colombia, Bogotá"
"EL FORTIN CHAQUETAS";;;"(57) (1) 2862095";"Cl 12 13-69 L-135 Colombia, Bogotá"
"LINEA DEPORTIVA MARO";;;"(57) (4) 2312335";"Cl 49 51-43 Of-203 Colombia, Medellín"
SURCOL;;;"(57) (4) 2505850";"Cr81 42-81 int 301 Colombia, Medellín"
"VARIEDADES KATHEGLOR";;;"(57) (4) 5119558";"Cl 46 53 A-10 L-117 Colombia, Medellín"
"DOTACIONES DEPORTIVAS";;;"(57) (2) 4026797";"Cl 101 E 22 B-85 Colombia, Cali"
"ROPA ESTRELLITA";;;"(57) (8) 8718323";"Cl 9 1 H-49 Colombia, Neiva"
"PB SPORTS";;;"(57) (5) 6676920";"Nuevo Bosque Tr52 29 E-105 Colombia, Cartagena"
"First Name";"Email Address";Url;Telephone;Address
"ALMACÉN DEPORTIVAS LA BOMBONERA";;;"(57) (7) 5812605";"Manz J-6 19 I Et Atalaya Colombia, Cúcuta"
STYLOIDE;;;"(57) (4) 4485999";"Cr25 A 1 A Sur-45 L-1309 Colombia, Medellín"
"STORE BRAND";;;"(57) (4) 5120140";"Cl 49 52-49 L-120 Colombia, Medellín"
"DINAMICA TEXTIL";;;"(57) (4) 4480456";"Cr52 D 76-67 L-1222 Itaguí Colombia, Medellín"
"LEBON MANCHE";;;"(57) (4) 4536071";"Dg55 34-67 int 1028 C.C. Puerta del Norte Bello Colombia, Bello"
"YES BRASIL SPORT";;;"(57) (2) 6615723";"Cl 23 D N 5 B-93 Of 501 Colombia, Cali"
"INDUSTRIAS DRIGOM CÍA LTDA";;;"(57) (1) 2732381";"Cl 35 A S 78 K-23 Colombia, Bogotá"
"TONO A TONO ACTIVE LINE LTDA";;;"(57) (4) 3227108";"Cr29 B 39 S-17 Envigado Colombia, Envigado"
"ZIG ZAG WEAR";;;"(57) (4) 4166947";"Cl 34 B 80-51 Colombia, Medellín"
"MAX MODA";;;"(57) (5) 3247023";"Cl 45 1-85 L42 Metrocentro Colombia, Barranquilla"
"ROJO TRADICIÓN DEPORTIVA";;;"(57) (4) 3330073";"Cr 32 37 S-49 Envigado Colombia, Envigado"
"ESCUELA TÉCNICA DE DISEÑO DE MODAS Y PATRONAJE INDUSTRIAL MARÍA T";;;"(57) (5) 5707425";"Cl 19 D 11-25 Colombia, Valledupar"
"LÓPEZ TORO Y CIA S EN C.S";;;"(57) (4) 4446780";"Cr36 34-02 Colombia, Medellín"
"CREACIONES SUSAN LORE";;;"(57) (2) 3273973";"Cr48 42-24 Colombia, Cali"
"TUN TUN SPORT";;;"(57) (7) 6480863";"Cr8 6-69 Floridablanca Colombia, Floridablanca"
BORITEX;;;"(57) (8) 2480198";"Cr5 9-39 Centro Colombia, Espinal"
"CAMPEÓN - INDUSTRIAS DEPORTIVAS";;;"(57) (6) 3312256";"Cr11 Bis 2-45 Popular Modelo Colombia, Pereira"
"JANLU SPORT";;;"(57) (7) 5778824";"Av11 Este 11 A N-101 Guaimaral Colombia, Cúcuta"
"DEPORTES PENALTY";;;"(57) (7) 7275222";"Cr14 12-19 Colombia, Socorro"
"CONFECCIONES DANTEX";;;"(57) (2) 3157472";"Cr78 A 9-94 Colombia, Cali"
"CROQUET CLUB";;;"(57) (2) 6615555";"Av3 A N 25 N-19 Colombia, Cali"
"METRO MODAS MEDELLIN";;;"(57) (7) 5830267";"Cl 9 5-30 Centro Colombia, Cúcuta"
TOTTO;;;"(57) (7) 5834050";"Av 0 11-153 Of 201 Edif Surco Colombia, Cúcuta"
"ALMACEN LINE NOVO";;;"(57) (4) 2656630";"Cr72 31-38 Colombia, Medellín"
CANAIMA;;;"(57) (4) 3216383";"C.C. El Tesoro L-3321 Colombia, Medellín"
"BIANCA SWIM SPORT";;;"(57) (2) 6814464";"Cl 9 17-40 Colombia, Cali"
"TIENDA DEPORTIVA F.S SPORT";;;"(57) 3138545937";"Cr2 12-06 Colombia, Neiva"
"CREACINES AJAVI";;;"(57) (4) 5139794";"cl45 51-69 Int 201 Colombia, Medellín"
"CALIFORNIA INN";;;"(57) (1) 2136303";"Cr15 124-30 L-2-114 Colombia, Bogotá"
"PB SPORTS";;;"(57) (5) 6676920";"Nuevo Bosque Tr52 29 E-105 Colombia, Cartagena"
"EXTREME STYLE S.A.S.";;;"(57) (2) 3798961";"Cl 9 32 A-16 L 2 22 Colombia, Cali"
"RINCÓN DEL HINCHA";;;"(57) (4) 4542429";"Cr50 50-15 L-250 Bello Colombia, Bello"
"PUNTO TÁCTICO";;;"(57) (6) 7313315";"Cl 13 21-13 Colombia, Armenia"
"TRIAL C.G. LTDA.";;;"(57) (1) 2624798";"Dg9 48 C-90 Colombia, Bogotá"
"GEF.PUNTO BLANCO";;;"(57) (1) 6148537";"Cr7 139-07 L-134 Colombia, Bogotá"
"DEPORTIVAS J.J.";;;"(57) (1) 2318405";"Cr69 H 64 H-71 Colombia, Bogotá"
"CONFECCIONES JM SPORT";;;"(57) (2) 5576826";"Cl 9 23 A-95 P-2 Colombia, Cali"
"CREACIONES DEPORTIVAS MARLIVETH";;;"(57) (2) 3373834";"Cr24 18 E-59 Colombia, Cali"
"NATURAL ROPA DEPORTIVA";;;"(57) (2) 8802707";"Cl 14 8-49 Colombia, Cali"
"MARCAS E IMAGEN";;;"(57) (2) 4013842";"Cl 125 26 H-03 12 Colombia, Cali"
"First Name";"Email Address";Url;Telephone;Address
"CAMARGO JIMÉNEZ MARTHA ROCÍO";;;"(57) (1) 7131829";"Cr27 53 B-19 S Colombia, Bogotá"
"RINCÓN DEL HINCHA";;;"(57) (4) 4542429";"Cr50 50-15 L-250 Bello Colombia, Bello"
"MEGA SPORTS INC S.A.S.";;;"(57) (1) 2860278";"Cl 17 N 6-27 Colombia, Bogotá"
"CREACIONES MIBRA";;;"(57) (1) 2488188";"Cra 24 63B -26 Colombia, Bogotá"
SEBASTIANO;;;"(57) (1) 4129736";"Cl 21 69B 94 Colombia, Bogotá"
"ALMACÉN CASA DEL DEPORTE";;;"(57) (5) 3708235";"Cr43 39-01 Barranquilla Colombia, Barranquilla"
"SATELITE EMMANUEL";;;"(57) (1) 7104193";"Cl 39 C S 68 G-36 Colombia, Bogotá"
"DEPORTIVOS KARMIL";;;"(57) (1) 3410013";"Cl 13 9-63 Colombia, Bogotá"
"VARIEDADES HUMONIS";;;"(57) (4) 2311405";"Cl 45 51-44 L-27 Colombia, Medellín"
"DISEÑOS DEPORTIVOS P.L";;;"(57) (2) 5531374";"Cl 6 A 62 B-30 Colombia, Cali"
"CODE BLUE";;;"(57) (4) 5321000";"Cr50 47-22 Int 110 Rionegro Colombia, Medellín"
"LÓPEZ TORO Y CIA S EN C.S";;;"(57) (4) 4446780";"Cr36 34-02 Colombia, Medellín"
"PUNTO VERDOLAGA";;;"(57) (7) 6418310";"Av Samanes 9-140 L-2-45-A Acrópolis Colombia, Bucaramanga"
"M. Y L. DE COLOMBIA S.A.";;;"(57) (6) 3355452";"Cl 19 6-48 L-112 Colombia, Pereira"
"MAS DEPORTES";;;"(57) (8) 8713757";"Cr3 9-38 Colombia, Neiva"
"PAOLA CARMÉN";;;"(57) (2) 3303528";"Cr85 C 13 A-51 Ap 404 Colombia, Cali"
"ALMACEN PUNTO 34";;;"(57) (7) 6337124";"Cl 34 18-24 Colombia, Bucaramanga"
"DEPORTIVOS TATYS";;;"(57) (7) 6521192";"Cl 31 13 Occ-74 Don Bosco Colombia, Bucaramanga"
MANISOL;;;"(57) (4) 2689371";"Cr48 10-45 L-936 Colombia, Medellín"
"ALMACEN DEPORTIVOS MOTAS SPORT";;;"(57) (7) 6348926";"Cl 9 25-06 Colombia, Bucaramanga"
PRONTO;;;"(57) (2) 4395766";"Cr 3 49-120 L-412 Colombia, Cali"
"CHINA SPARK LTDA.";;;"(57) (2) 4359126";"Parque Industrial La Nubia Colombia, Cali"
"ARAQUE MARIELA";;;"(57) (7) 6429931";"Cl 34 18-33 Colombia, Bucaramanga"
"JUANK SPORT";;;"(57) (5) 5802401";"Cr9 16 A-55 Centro Colombia, Valledupar"
"ALMACEN DEPORTIVO LUMAR";;;"(57) (7) 6803168";"Cr22 33-79 Colombia, Bucaramanga"
"ALMACÉN LA ESQUINA DEL DEPORTE";;;"(57) (5) 4212359";"Cl 12 7-57 Colombia, Santa Marta"
"ALMATEX S.A.S";;;"(57) (7) 5756121";"C.C. Ventura Plaza L-201 Colombia, Cúcuta"
"PUNTO DEPORTES";;;"(57) (8) 8331999";"Cr10 5-64 Centro Colombia, Garzón"
"CREACIONES HECNYCA";;;"(57) (4) 5136104";"Cr56 46-49 Int 1103 Colombia, Medellín"
"CONFECCIONES VIMOS";;;"(57) (4) 5125863";"Cr51 45-84 Int 401 Colombia, Medellín"
"ALMACENES STOP S.A.";;;"(57) (2) 2242895";"Cl 27 26-06 Colombia, Tuluá"
SISLEY;;;"(57) (1) 6168685";"Cr 11 82-71 L-282 Colombia, Bogotá"
"AÑMACÉN VARIEDADES TOLENTA";;;"(57) (4) 4665842";"Cl 50 50-37 Bello Colombia, Bello"
"DEPORTIVOS WORD SPORT";;;"(57) (4) 2511718";"Cr54 45-18 Int 501 Colombia, Medellín"
"ESTAMPADOS MOSTER";;;"(57) 3202613538";"Cr14 W 60 Bis-39 P-3 Colombia, Bucaramanga"
"CI CREACIONES CASTING S.A";;;"(57) (1) 2565487";"Av (Cr) 50 94 C-18 Suba Colombia, Bogotá"
"TIENDA DEPORTIVA EL FARO";;;"(57) (2) 5545311";"Cr34 5B-25 Colombia, Cali"
"EL REVOLCÓN MAYORISTA";;;"(57) (8) 6629512";"Cl 37 D 28-43 Colombia, Villavicencio"
"DEPORTIVAS VIMAR LTDA.";;;"(57) (1) 2307179";"Cr68 N 40 B S -08 Colombia, Bogotá"
"ROJO TRADICIÓN DEPORTIVA";;;"(57) (4) 3330073";"Cr 32 37 S-49 Envigado Colombia, Envigado"
"First Name";"Email Address";Url;Telephone;Address
"PRENDAS Y MODAS YETEX";;;"(57) (4) 2751710";"Cl 50 50-86 Bello Colombia, Bello"
"STOP CÚCUTA CALLE 10";;;"(57) (7) 5833747";"Cl 10 1-97 Colombia, Cúcuta"
"TIENDA OSLY ADIDAS";;;"(57) (6) 8894035";"Cl 33 B 20-03 P-1 L-136 Colombia, Manizales"
EVERLAST;;;"(57) (5) 3775768";"Cr51 B 106-01 L-18 Gran Boulevard Colombia, Barranquilla"
"DOTACIONES DEPORTIVAS";;;"(57) (2) 4026797";"Cl 101 E 22 B-85 Colombia, Cali"
"PIVOT SPORT";;;"(57) (1) 4076015";"Cl 27 S 12-64 Colombia, Bogotá"
GAS;;;"(57) (1) 2130631";"Cr15 124-30 L-2-185 Colombia, Bogotá"
NIKE;;;"(57) (1) 5714444";"Cl 116 15 B-94 Colombia, Bogotá"
"PUNTA GAIRA";;;"(57) (5) 4337522";"C.C. Buenavista L-62 Colombia, Santa Marta"
"CREACIONES DEPORTIVAS SNAD";;;"(57) (1) 2601032";"Cr53 B 5 B-31 Colombia, Bogotá"
"TRIAL C.G. LTDA.";;;"(57) (1) 2624798";"Dg9 48 C-90 Colombia, Bogotá"
"TAGU'S SPORT LÍNEA DEPORTIVA";;;"(57) (1) 2051302";"Cr24 37-55 S Colombia, Bogotá"
"GUEPARD SPORT";;;"(57) (1) 2869614";"Cl 15 9-18 P-5 Colombia, Bogotá"
"TIENDA MUNDO DEPORTIVO";;;"(57) (8) 8717303";"Cr2 11-19 Centro Colombia, Neiva"
"DEPORTIVOS ELIANA";;;"(57) (1) 6862455";"Cr100 138 A-23 Colombia, Bogotá"
"DISTRIBUIDORA DE CONFECCIONES DON FAVORABLE";;;"(57) (4) 5118049";"Cr52 45-103 Colombia, Medellín"
"OMAR MELO / CONFECCIONES Z-GUERRERO";;;"(57) (2) 5547737";"Cr64 6 A-47 Colombia, Cali"
"CONFECCIONES YENELIA";;;"(57) (2) 4382399";"Cr24 D 34-46 P-2 Colombia, Cali"
"CONFECCIONES DEPORTIVAS WILSOR";;;"(57) (2) 5562811";"Cr36 A 5 B-1 -83 Colombia, Cali"
"AQUARIUS-VERANO SPORT";;;"(57) (2) 5143665";"Cl 10 23 A-11 L-201 Colombia, Cali"
"YOLY BAM SPORT";;;"(57) (2) 4427037";"Cl 73 28 E-6 52 Colombia, Cali"
"SUMMER STYLE INGENIO";;;"(57) (2) 6832939";"Cl 14 85-25 C.C. Plaza 85 L-2 Colombia, Cali"
"OPEN STORE FOR EVERY BODY";;;"(57) (2) 8844453";"Cr6 16-32 Colombia, Cali"
"ALMACÉN FILA";;;"(57) (8) 2749450";"C.C. Multicentro L-126 Colombia, Ibagué"
"PIBES SPORT";;;"(57) (2) 7238744";"Cr22 15-40 Colombia, Pasto"
"MAS DEPORTES";;;"(57) (8) 8713757";"Cr3 9-38 Colombia, Neiva"
"CONFECCIONES DEPORTIVAS CONDESA";;;"(57) (1) 8314339";"Cl 14 11-16 Colombia, Girardot"
"MAYA DEPORTES";;;"(57) (8) 2638628";"Cl 16 4-03 L-3 Colombia, Ibagué"
"MAGIC SUM";;;"(57) (2) 6689760";"Cl 24 N 5 A-14 Colombia, Cali"
"CREACIONES ZANDRA D.M.";;;"(57) (2) 4365712";"Cr33 46-165 Colombia, Cali"
"FABY SPORT";;;"(57) (2) 3313524";"La 14 de Pasoncho L-108 Colombia, Cali"
"CASA DEL DEPORTE";;;"(57) (75) 5682032";"Cl 7 5-50 Colombia, Pamplona"
"DEPORTIVOS JUAN LEÓN";;;"(57) (7) 5704813";"Cr8 6-25 Centro Villa del Rosario Colombia, Cúcuta"
"ALMACÉN DE ROPA SHAKIRA";;;"(57) (7) 6421979";"Cr17 33-51 Búrbuja C Centro Colombia, Bucaramanga"
"BENÍTEZ L. CÉSAR AUGUSTO";;;"(57) (1) 2710560";"Cl 129 57-36 Colombia, Bogotá"
"ALMATEX S.A.S";;;"(57) (7) 5756121";"C.C. Ventura Plaza L-201 Colombia, Cúcuta"
"SUPER LYCRAS (317-8787210 - 316-3281674)";;;"(57) (7) 6472695";"Cr7 8-09 Colombia, Bucaramanga"
"PUBLI MUÑOZ";;;"(57) (8) 8705284";"Cl 12 23-16 Colombia, Neiva"
"RAPAZ DISTRIBUCIONES DEPORTIVAS LTDA.";;;"(57) (1) 2732819";"Cr79 B 42 C-09 S Colombia, Bogotá"
"CONFECCIONES ALEXIS";;;"(57) (4) 2372652";"Tr103 A 74 A-113 Colombia, Medellín"
"First Name";"Email Address";Url;Telephone;Address
"MAYA DEPORTES";;;"(57) (8) 2638628";"Cl 16 4-03 L-3 Colombia, Ibagué"
"CROQUET CLUB";;;"(57) (2) 6615555";"Av3 A N 25 N-19 Colombia, Cali"
"METRO MODAS MEDELLIN";;;"(57) (7) 5830267";"Cl 9 5-30 Centro Colombia, Cúcuta"
"MAX SPORT";;;"(57) (7) 6307129";"Dg15 45-143 L-121 Colombia, Bucaramanga"
"WORLD PEOPLE";;;"(57) (7) 6478687";"Cl 51 33-06 Colombia, Bucaramanga"
"ALMACEN DEPORTIVO LUMAR";;;"(57) (7) 6803168";"Cr22 33-79 Colombia, Bucaramanga"
FELIRY;;;"(57) (1) 2119085";"Cl 64 11-37 L-106 Colombia, Bogotá"
"ALMACÉN DEPORTIVAS LA BOMBONERA";;;"(57) (7) 5812605";"Manz J-6 19 I Et Atalaya Colombia, Cúcuta"
"EL GAMÍN";;;"(57) (2) 7235373";"Cr27 19-26 Colombia, Pasto"
"COMERCIALIZADORA VOLEA SPORT";;;"(57) (1) 2731964";"Cl 42 S 81 A-50 L-2 Colombia, Bogotá"
CANAIMA;;;"(57) (4) 3216383";"C.C. El Tesoro L-3321 Colombia, Medellín"
"GUEPARD SPORT";;;"(57) (4) 4717428";"Cl 101 A 74B-031 Colombia, Medellín"
"LA CASA DEL TENISTA";;;"(57) (5) 3687942";"Cl 79 52-31 Colombia, Barranquilla"
"DEPORTIVOS WORD SPORT";;;"(57) (4) 2511718";"Cr54 45-18 Int 501 Colombia, Medellín"
"ALMACÉN REEBOK";;;"(57) (4) 2304909";"Cl 51 73-134 L-318 Colombia, Medellín"
"CREACINES AJAVI";;;"(57) (4) 5139794";"cl45 51-69 Int 201 Colombia, Medellín"
"DEPORTIVAS PONNY LTDA.";;;"(57) (1) 2827859";"Cl 17 5-29 Colombia, Bogotá"
"ROPA ESTRELLITA";;;"(57) (8) 8718323";"Cl 9 1 H-49 Colombia, Neiva"
"ALMACÉN MUNDO DEPORTIVO";;;"(57) (5) 5700217";"Cl 14 C 20-15 Av La Popa Colombia, Valledupar"
"COMERCIALIZADORA NIÞO MOLINA S.A.S.";;;"(57) (1) 7754427";"Cl 64 71 F - 47 S Colombia, Bogotá"
"DEPORTIVAS 387 SPORT";;;"(57) (4) 5115181";"Cl 48 53-53 L-387 Colombia, Medellín"
"ALMACÉN CASA DEL DEPORTE";;;"(57) (5) 3708235";"Cr43 39-01 Barranquilla Colombia, Barranquilla"
"INDUTEX VELUZKA LTDA";;;"(57) (2) 2245726";"Cr30 20-19 Colombia, Tuluá"
"PÁEZ DEPORTES";;;"(57) (1) 2937764";"Cl 1 72-59 Colombia, Bogotá"
"LIBARDO HERNANDEZ";;;"(57) (1) 7112876";"Cl 69 B S 63 A-40 Colombia, Bogotá"
"MATEOS TIENDA";;;"(57) (4) 2811187";"Cl 52 49-33 Itagüí Colombia, Itagüí"
"PECADO CONCEBIDO STORE";;;"(57) 3127928202";"Av3 E N 53 N-24 Colombia, Cali"
"LÍNEA SPORT";;;"(57) (2) 8961903";"Cr5 15-86 Of 106 Colombia, Cali"
AVIGATORS;;;"(57) (8) 2611050";"C.C. Pasaje Real L-109 Colombia, Ibagué"
"INTERDEPORTES VERANO SPORT";;;"(57) (8) 2522135";"CR 4 5-16 Centro Colombia, Mariquita"
"CAMPEÓN - INDUSTRIAS DEPORTIVAS";;;"(57) (6) 3312256";"Cr11 Bis 2-45 Popular Modelo Colombia, Pereira"
"RUNNING WORLD";;;"(57) (2) 3169051";"Unicentro L-313 Colombia, Cali"
"SURF LAND";;;"(57) (4) 3260853";"Cr43 A 7-S 26 Colombia, Medellín"
"REPRESENTACIONES DEPORTIVAS REDE SPORT";;;"(57) (2) 3957626";"Cl 13 A 100-35 Trr Empresarial Of 411 Colombia, Cali"
"CONFECCIONES DEPORTIVAS CONDESA";;;"(57) (1) 8314339";"Cl 14 11-16 Colombia, Girardot"
"ALMACÉN SAND-SOCCER";;;"(57) (2) 5240121";"La 14 Pasoancho Colombia, Cali"
"CCTA ROPA DEPORTIVA";;;"(57) (2) 3345658";"Cr49 23-39 Colombia, Cali"
SLON;;;"(57) (2) 8961345";"Cl 14 8-54 Of 106 Colombia, Cali"
"C.I TIZZIANA LTDA.";;;"(57) (4) 4440761";"Cr51 C 12 B S-100 Colombia, Medellín"
"FAJAS LOREN SLIM";;;"(57) (2) 5140666";"Cr29 8-33 Colombia, Cali"
"First Name";"Email Address";Url;Telephone;Address
"CONFECCIONES EL MILAGRO";;;"(57) (4) 8687322";"Cr49 44-36 Colombia, San Pedro de los Milagros"
"PARQUE ARBOLEDA CENTRO COMERCIAL";;;"(57) (6) 3316060";"Av Circunvalar 5-20 Colombia, Pereira"
"ALMACEN LINE NOVO";;;"(57) (4) 2656630";"Cr72 31-38 Colombia, Medellín"
XTREMO;;;"(57) (2) 4220579";"Dg26 M Tr77-81 Colombia, Cali"
BABOLAT;;;"(57) (1) 4270183";"Terrapuerto Parque Industrial El Dorado Bg. 19 Colombia, Bogotá"
"ALMACÉN PUNTO CLASS";;;"(57) (7) 6213570";"Cr30 49-85 Palmira Colombia, Barrancabermeja"
