"First Name";"Email Address";Url;Telephone;Address
PANAMERICANA;angela.becerra@panamericana.com.co;www.panamericana.com.co;"(57) (1) 3649000";"Cl 12 34-20 Colombia, Bogotá"
"GRUPO EIB-OPTIMUS";gerencia@grupoeib.com;www.grupoeib.com;"(57) (1) 3428045";"Carera 12 16-81 Centro Colombia, Bogotá"
"INVENTOR ILUMINACIÓN";gerencia@grupoeib.com;www.esinventor.com;"(57) (1) 3428045";"Carera 12 16-81 Centro Colombia, Bogotá"
"SOS INGENIERIA Y TELECOMUNICACIONES S.A.S";gerencia@sos-ingenieria.com;www.sos-ingenieria.com;"(57) (2) 6140880";"Cl 36   N 2 BN-132 Colombia, Cali"
ACCESAR;afernandez@accesar.com;www.accesar.com;"(57) (5) 3680368";"Cl 76 47-26 Colombia, Barranquilla"
"DELL COLOMBIA I.N.C";maria_hermida@dell.com;;"(57) (1) 5202740";"Cr7 113-43 Of 1401 Colombia, Bogotá"
S&M;coinsi@coninsi.com;www.coinsi.com;"(57) (4) 4449185";"Cl 25 52-20 Colombia, Medellín"
"CO&NSI S.A.S";coinsi@coninsi.com;www.coinsi.com;"(57) (4) 4449185";"Cl 25 52-20 Colombia, Medellín"
PRICESMART;infocali@pricesmart.com;www.pricesmart.com;"(57) (5) 3673150";"Cr53 Cl 106 Esq Colombia, Barranquilla"
"NEWTEC INGENIERÍA";andresnextcom@hotmail.com;www.newtecingenieria.com;"(57) (2) 3725195";"Cr17F1 Dg18 A-41 Colombia, Cali"
"TECHNOLOGY SERVICES LTDA.";ventas@ts.com.co;www.ts.com.co;"(57) (1) 6910796";"Cr15 93-75 Of 312 Colombia, Bogotá"
"CONEXION IO S.A.S.";info@conexionio.com;www.conexionio.com;"(57) (2) 5580995";"Cl 6 26-19 Of 301 Colombia, Cali"
"TOTUS SOLUCIONES INTEGRALES SAS";soluciones@totus.com.co;www.totus.com.co;"(57) (2) 6687788";"Av5 An 23 Dn-68 L 201 Colombia, Cali"
"TIENDA TRONEX S.A.S";tiendacaselogic@tronex.com;www.tienda.tronex.com;"(57) (4) 4488090";"Cr67 1   S-92 Colombia, Medellín"
AVANSIS;administracion@avansis.com.co;www.avansis.com.co;"(57) (6) 3330621";"Cl 19 9-50 Of 1305 Colombia, Pereira"
"ALMACÉN NAVARRO OSPINA S.A.";representantecomercial@navarrospina.com;www.navarrospina.com;"(57) (4) 2318956";"Cr51 51-17 Int 504 Colombia, Medellín"
"UPSERVICIOS CALI LTDA.";upserviciosgerencia@emcali.net.co;www.upservicioscali.com;"(57) (2) 6534558";"Cl 37   N 2 B   N-106 Colombia, Cali"
"ANDINO TECNOLOGÍA LTDA.";claudiamcr@andinotec.com;andinotec.com;"(57) (2) 6677101";"Av5 A   N 23 D   N-68 L-101-102 C.C. La Pasarela Colombia, Cali"
"ARTE Y HOBBY STUDYART";info@arteyhobby.co;www.arteyhobby.co;"(57) (4) 2311566";"Cr45 50-23 Colombia, Medellín"
"TONER EXPRESS";gerencia@tonerexpress.com.co;www.tonerexpress.com.co;"(57) (4) 4480333";"Cl 50 45-45 L-141 Colombia, Medellín"
"TONER EXPRESS S.A.S.";gerencia@tonerexpress.com.co;www.tonerexpress.com.co;"(57) (4) 4480333";"Cl 50 45-45 L-141 Colombia, Medellín"
"TECNOLOGÍA CAQUETÁ";;www.tecnologiacaqueta.com.co;"(57) (8) 4361074";"Cl 15 6-47 Brr. 7 de Agosto Colombia, Florencia"
"LINALCA S.A.";pvela@linalca.com;www.linalca.com;"(57) (1) 6351055";"Cr13 79-50 Colombia, Bogotá"
"INK COLOR";info@inkcolorsuministros.com;www.inkcolorsuministros.com;"(57) (1) 2128266";"Cl 64 18-46 Colombia, Bogotá"
"BINARIO RENTING S.A.S.";binariomedellin@une.net.co;www.alquilerdecomputadores.co;"(57) (4) 3162828";"Medellín Colombia, Medellín"
"A.A DOMICILIO SERVIMANTENIMIENTO";aservimantentimento@hotmail.c;www.servimantenimiento.com;"(57) (2) 6819118";"Cr4   N 62   N-135 Colombia, Cali"
"TELEFONÍA Y SISTEMAS S.A.S.";comercial@telefoniaysistemas.com;www.telefoniaysistemas.com.co;"(57) (2) 5243060";"Cl 23 B   N 3   N-42 P-2 L-101 Brr. San Vicente Colombia, Popayán"
"R & S SERVICIOS EMPRESARIALES";serviciosempresariales.sas@hotmail.com;www.rysserviciosempresariales.com;"(57) (1) 7021275";"Cl 63 18-29 Colombia, Bogotá"
"JM MULTISISTEMAS S.A.S";diana.perez@jmmultisitemas.com;www.jmmultisistemas.com;"(57) (6) 3171312";"Cl 20 8-19 Sector Plaza de Bolívar Colombia, Pereira"
"A.S.C. SISTEMAS & CÍA. S.A.S.";ascsistemas@ascsistemas.com;www.ascsistemas.com;"(57) (2) 5519089";"Cr62 Bis 6 A-77 Urbanización Cañaveralejo Colombia, Cali"
"COMPUSERVICIO ALFA & OMEGA LTDA.";contactenos@compualfaomega.com.co;www.compuservicioalfayomega.com;"(57) (1) 6484112";"Cl 142 23-05 P-1 Colombia, Bogotá"
"HOGAR COOMULTRASAN";mercadeo@coomultrasan.com.co;www.coomultrasan.com.co;"(57) (7) 6300167";"Cl 36 18-50 Colombia, Bucaramanga"
UPSERVICIOS;gerencia@upservicios.com;upservicios.com;"(57) (6) 3212404";"Cl 19 No. 20-60 Av Sur Frente a la 14 Colombia, Pereira"
"INFOTEC DE OCCIDENTE";infotecdeoccidente@gmail.com;www.infotecdeoccidente.com;"(57) (2) 3879188";"Cr95 3-46 P-2 Meléndez Colombia, Cali"
"JONÁN S.A.";mirella.perez@jonan.com.co;jonan.com.co;"(57) (5) 6641414";"Centro Cl. Porvenir 35-70 Colombia, Cartagena"
MULTITINTAS.INK;multitintas.ink@hotmail.com;www.multitintasink.com;"(57) (7) 6577342";"Cr33 48-109 L-125 C.C. Gratamira Colombia, Bucaramanga"
"RPG DEL CARIBE";rpg.limitada@gmail.com;www.rpg.com.co;"(57) (5) 3197390";"Cr42 78 100 OF.-01 Edif Sinfonía Colombia, Barranquilla"
"RPG DEL CARIBE LTDA.";rpg.limitada@gmail.com;www.rpg.com.co;"(57) (5) 3197390";"Cr42 78 100 OF.-01 Edif Sinfonía Colombia, Barranquilla"
"ALCOM LTDA.";alcom@une.net.co;www.alcomltda.com;"(57) (4) 4125529";"Cl 44 A 68 A-36 Colombia, Medellín"
"TIENDA Q S.A.S.";leonardogil@tiendaq.com;www.tiendaq.com;"(57) (4) 4034350";"Cr48 10-45 L-2-y L-384 C.C. Monterrey Colombia, Medellín"
"First Name";"Email Address";Url;Telephone;Address
"ALCOM LTDA.";alcom@une.net.co;www.alcomltda.com;"(57) (4) 4125529";"Cl 44 A 68 A-36 Colombia, Medellín"
"AMERICAN INSAP INGENIERÍA Y SERVICIOS S.A.S.";insap@une.net.co;www.americaninsap.com.co;"(57) (4) 4361616";"Cl 49 A 68-50 Colombia, Medellín"
"RENTASISTEMAS LTDA.";gerencia@rentasistemas.com;www.rentasistemas.com;"(57) (1) 6181250";"Av15 100-21 Of 604 Colombia, Bogotá"
"EL PUNTO DE LA IMPRESORA, CABLEADOS Y ACCESORIOS S.A.S.";puntoimpresora@une.net.co;www.elpuntodelaimpresora.com;"(57) (4) 2685210";"Cr48 10-45 L-265 Colombia, Medellín"
"LOS ORGANIZADORES";losorganizadorescolombia@gmail.com;www.losorganizadorescolombia.com;"(57) (4) 3529578";"Medellín Colombia, Medellín"
"COMPUTADORES PC SYSTEM";johnnybejarano@hotmail.com;www.pcsystemcolombia.com;"(57) (7) 6473450";"Cl 52 36-10 Cabecera Colombia, Bucaramanga"
"HITEK LTDA.";andrik@hitekltda.com;www.hitekltda.com;"(57) (1) 4831147";"Cl 40 20-18 Colombia, Bogotá"
TELEMARCAR;gerencia@telemarcar.com;www.telemarcar.com;"(57) (5) 3606501";"Cl 76 50-13 L-2 Colombia, Barranquilla"
"DOPPLER INGENIERÍA Y TECNOLOGÍA";doppler_remoto@hotmail.com;www.doppler-ingenieria.com;"(57) (7) 6573232";"Av Gonzalez Valencia 25-43 Colombia, Bucaramanga"
"TEK SOLUCIONES TECNOLÓGICAS";info@imdecom.net;www.tek.com.co;"(57) (6) 3201020";"Cr9 22-52 L-116 C.C. Lago Plaza Colombia, Pereira"
"TELSYS GROUP";ventas@telsysgroup.com.co;www.telsysgroup.com.co;"(57) (1) 5921823";"Cl 124 No. 7-35 Of 701 Colombia, Bogotá"
"COMERCIALIZADORA MAXI PC S.A.S.";maxipc_ltda@hotmail.com;www.maxipcltda.com;"(57) (4) 2688622";"Cr48 10-45 Int 298-B Colombia, Medellín"
"CORAL ACCESSORY";gerencia@coralac.com.co;www.bodegadelpc.com;"(57) (4) 4442107";"Cr78 45 E-115 Colombia, Medellín"
"VERTICAL I.T.";agiraldo@verticalit.com.co;www.verticalit.com.co;"(57) (4) 3110052";"Cr48 C 10   S-130 Colombia, Medellín"
"PAPELERÍA EL PUNTO LTDA.";gerencia@elpunto.com.co;www.elpunto.com.co;"(57) (4) 4447070";"Cr50 35-40 Colombia, Medellín"
"XER PRODUCTS S.A.S.";gerencia@xerproducts.com;www.xerproducts.com;"(57) (5) 6656500";"Bgde Carrera 3 N° 6-128 L-103 Colombia, Cartagena"
"MASSYSTEM SOLUCIONES TECNOLOGICAS";massystemsas@gmail.com;www.massystem.com;"(57) (1) 4856081";"Cr20 B 72-06 Colombia, Bogotá"
ACOPRINT;acoprintcolombia@gmail.com;www.acoprint.com.co;"(57) (4) 5856633";"Cl 38 77-10 Colombia, Medellín"
"RENTA PC";comercial@rentapc.com.co;www.rentapcalquiler.com;"(57) (1) 6113790";"Cr49 No. 104 A-42 Colombia, Bogotá"
"CARTUCHOS Y TONERS DE LA 80";cartuchosytonersdela80@hotmail.com;www.cartuchosytonersdela80.com;"(57) (1) 4306267";"Av (Cl) 80 70 C-67 Colombia, Bogotá"
"DS EMPRESARIAL";ventas@dsempresarial.com;www.dsempresarial.co;"Telefax: (57) (4) 7918597";"Cl 27 4-22 Colombia, Montería"
"REDES INFORMÁTICAS DE COLOMBIA";servicliente@reincol.com;www.reincol.com;"Telefax: (57) (1) 4538007";"Bogotá Colombia, Bogotá"
"MEMORIAS MICROS Y PARTES";info@memoriasmicrosypartes.com;www.memoriasmicrosypartes.com;"(57) (1) 6221349";"Cr16 A 79-95 Of 704 Colombia, Bogotá"
"ADISCOMPUTO Y CÍA. S.A.";adiscomputo@adiscomputo.com;www.adiscomputo.com;"(57) (2) 8813013";"Cr4 11-45 Of 706 Colombia, Cali"
"REPRESENTACIONES T Y S";representacionestys@hotmail.com;www.fotocopiadorastys.com;"(57) (7) 5710485";"Av3 14-23 Centro Colombia, Cúcuta"
"ALMACENES FLAMINGO S.A.";linag@flamingo.com.co;www.flamingo.com.co;"(57) (4) 5768888";"Oficinas Centrales: Cl 51 48-09 P-3 Colombia, Medellín"
"ASIATECH DISTRIBUTORS & CÍA. LTDA.";asiatech-gerencia@hotmail.com;www.asiatechdistributors.com;"(57) (1) 5424212";"Cl 73 15-40 Of 304 Colombia, Bogotá"
"ALMACÉN COMPRAVENTA TAURO";compraventatauro@hotmail.com;;"(57) (4) 5131451";"Cl 54 50-11 Colombia, Medellín"
"ALMACÉN COMPRAVENTA NUTIBARA";compraventatauro@hotmail.com;;"(57) (4) 5131458";"Cr50 53-65 Colombia, Medellín"
"ASESORÍA INFORMÁTICA";jzuluaga@aseinformatica.com;www.aseinformatica.com;"(57) (4) 4444668";"Cr70 30 A-25 Colombia, Medellín"
"COMPRAVENTA PALACÉ";compraventatauro@hotmail.com;;"(57) (4) 5113634";"Cr50 53-62 Colombia, Medellín"
"IMPORMARCAS S.A.S.";impormarcas@une.net.co;impormarcas.com;"(57) (4) 4480429";"Cr68 48 D-33 P-1 Colombia, Medellín"
"IT & SECURITY CONSULTORES LTDA.";gerencia.comercial@its-consultores.com;www.its-consultores.com;"(57) (4) 4102370";"Cl 37 79-17 Of 201 Colombia, Medellín"
GOTEC;jardila@gotec.co;www.gotec.co;"(57) (1) 6218558";"Cl 96 12-65 Of 214 Colombia, Bogotá"
"COMPURENT S.A.S.";info@compurent.com.co;www.compurent.com.co;"(57) (4) 4485100";"Cl 10   S 48 A-55 Colombia, Medellín"
COMPUADVANCE;dayronvelasquez@hotmail.com;www.compuadvance.com.co;"(57) (4) 5206464";"C.C. Monterrey L-394 Colombia, Medellín"
"CENTRO DE ALTA TECNOLOGÍA";gerencia@cat.com.co;www.cat.com.co;"Telefax: (57) (1) 6060634";"Cr15 77-05 Colombia, Bogotá"
"CASATRONIC S.A.S";casatronic@hotmail.com;;"(57) (7) 6465551";"Cl 36 23-02 Colombia, Bucaramanga"
"MULTITONER Y SUMINISTROS";multitoner@une.net.co;;"(57) (4) 4480178";"Cl 33 76-28 Colombia, Medellín"
"APLICACIONES INTEGRADAS APLIN S.A.";comercial@aplinsa.com;www.aplinsa.com;"(57) (4) 4443990";"Cr81 A 47-27 Colombia, Medellín"
"First Name";"Email Address";Url;Telephone;Address
"COMPRAVENTA PALACÉ";compraventatauro@hotmail.com;;"(57) (4) 5113634";"Cr50 53-62 Colombia, Medellín"
"DIGITAL CENTER";soportedigitalcenter@gmail.com;www.digitalcenter.net.co;"(57) (4) 4446038";"Cr48 10-45 L-6 Colombia, Medellín"
"MULTITONER Y SUMINISTROS";multitoner@une.net.co;;"(57) (4) 4480178";"Cl 33 76-28 Colombia, Medellín"
"GENUINE TECHNOLOGY S.A.S";genutec@hotmail.com;www.genuinetechnology.com.co;"(57) (4) 4441399";"Cl 48 D 65 A-57 L-1 Colombia, Medellín"
"CENTRO COMERCIAL SANANDRESITO";gerencia@sanandresitopereira.com;www.sanandresitopereira.com;"(57) (6) 3261106";"Cr8 Calle 30-31 Colombia, Pereira"
"COMPURENT S.A.S.";info@compurent.com.co;www.compurent.com.co;"(57) (4) 4485100";"Cl 10   S 48 A-55 Colombia, Medellín"
"CENTRO DE ALTA TECNOLOGÍA";gerencia@cat.com.co;www.cat.com.co;"Telefax: (57) (1) 6060634";"Cr15 77-05 Colombia, Bogotá"
"APLICACIONES INTEGRADAS LTDA";comercialcali@aplinsa.com;www.aplinsa.com;"(57) (2) 6534347";"Av3   N 37-70 L-5 Colombia, Cali"
"IT & SECURITY CONSULTORES LTDA.";gerencia.comercial@its-consultores.com;www.its-consultores.com;"(57) (4) 4102370";"Cl 37 79-17 Of 201 Colombia, Medellín"
GOTEC;jardila@gotec.co;www.gotec.co;"(57) (1) 6218558";"Cl 96 12-65 Of 214 Colombia, Bogotá"
COMPUADVANCE;dayronvelasquez@hotmail.com;www.compuadvance.com.co;"(57) (4) 5206464";"C.C. Monterrey L-394 Colombia, Medellín"
CREDINORTE;lizarazogustavo@yahoo.com.mx;;"(57) (7) 5731866";"Av5 8-15 Centro Colombia, Cúcuta"
"RECARGAMOS & SUMINISTROS";recargamosysuministros@hotmail.es;www.recargamosysuministros.com;"(57) (5) 6640685";"C.C. Get L-1 C-1-1 C-2-1 C-10 Cl Larga Colombia, Cartagena"
"LA TIENDA DEL HOGAR";contactenos@latiendadelhogar.com.co;;"(57) (6) 7440995";"Cr14 18-39 Colombia, Armenia"
"ALMACÉN NUEVOHOGAR S.A.S.";gerencianuevohogar@une.net.co;www.almacennuevohogar.com;"(57) (4) 5133131";"Cl 50 54-50 Colombia, Medellín"
CABLETRONIK;contacto@cabletronik.com;cabletronik.com;"(57) (6) 8903090";"Cr23 64 B-33 L-4 Edif Casa Luker Colombia, Manizales"
"PG SISTEMAS S.A.";subgerente@pgsistemas.com;www.pgsistemas.com;"(57) (6) 8808000";"Cr20 17-48 Colombia, Manizales"
"CORSA COLOMBIA S.A.S.";corsa@corsa.com.co;www.corsa.com.co;"(57) (4) 7910808";"Cl 41 20-11 Colombia, Montería"
"ALMACENES IVÁN BOTERO GÓMEZ S.A";diseno@ibg.com.co;www.ibg.com.co;"(57) (6) 7418200";"Cl 20 14-56 Colombia, Armenia"
"NOVATECH SOLUCIONES LTDA.";info@novatech.com.co;www.novatech.com.co;"(57) (5) 3606281";"Cr50 74-103 L-4 Colombia, Barranquilla"
LAMCOMPUTER;lamcomputercali@hotmail.com;www.lamcomputer.com;"(57) (2) 5249599";"Cl 5 A 27-11 Colombia, Cali"
"PAPELERIA TAYRONA";provisionestayrona@hotmail.com;www.papeleriatayrona.com;"(57) (5) 4313696";"Cr4 16-30 Plaza de la Catedral Colombia, Santa Marta"
"UCI URGENCIAS TECNOLÓGICAS";info@uci.com.co;www.uci.com.co;"(57) (5) 6643599";"Matuna Cl 32 C 8 A-44 L-205 C.C. Centro Uno Colombia, Cartagena"
"SOLUTEC-SOLUCIONES TÉCNICAS S.A.S.";asistente@soluteconline.com;www.soluteconline.com;"(57) (6) 8853687";"Cr23 46-06 Colombia, Manizales"
"VALENCIA RENTERIA WILSON ALBERTO";albertossee@hotmail.com;www.electronicaycontroles.com;"(57) (4) 5855003";"Cr50 67-10 Colombia, Medellín"
"PC Y PORTÁTILES";pcyportatiles@hotmail.com;www.pcyportatiles.com;"(57) (5) 3720376";"Cr43 50-12 L-121 C.C. Parque Central Colombia, Barranquilla"
"OFIPRINTING SOLUTIONS S.A.S.";ofiprintingsolutions@yahoo.com;www.ofiprintingsolutions.com;"(57) (6) 3332171";"Cl 19 12-69 Nivel 0 L-P-L-1 C.C. Fiducentro Colombia, Pereira"
"SAB GATE WAY";bitcomputadores@hotmail.com;www.sabgateway.com;"(57) (1) 2847020";"Autop Medellín Km 2.5 Vía E-Parcelas 900 Mts Oikos Ciem L- Colombia, Bogotá"
"SJ PRINTER LDA";sjprinterltda@hotmail.com;www.sjprinterltda.com;"(57) (1) 7030799";"Cl 17 A 96 B-66 Colombia, Bogotá"
"DISASEL S.A.S.";gerencia@disasel.com;www.disasel.com;"(57) (7) 5777652";"Cl 5   N 15 AE-48 L-3 Av Libertadores San Eduardo Colombia, Cúcuta"
COMPRANDOFÁCIL.COM;soporteweb@comprandofacil.com;www.comprandofacil.com;"(57) (4) 6040458";"Cl 30 75-23 Int 101 Colombia, Medellín"
"ALFA SUMINISTROS F.G.";ceballosehijos@hotmail.com;www.alfasuministrosfg.com;"(57) (1) 3232265";"Av Caracas 48-20 Colombia, Bogotá"
"KEYSYS TECNOLOGÍA";comercial@keysys.com.co;www.keysys.com.co;"(57) (2) 6605505";"Av5 A   N 23 D   N-68 Locales 105-124 Colombia, Cali"
"UNICENTRO ARMENIA";gerencia@unicentrodearmenia.com;unicentrodearmenia.com;"(57) (6) 7313633";"Cr14 6-02 Colombia, Armenia"
"ABACO VIDEO BEAM";abacocorreo@hotmail.com;www.abaco-bucaramanga.com;"(57) (7) 6574444";"Cr34 54-79 Cabecera Colombia, Bucaramanga"
"BESTPRINT SERVICOPIAS";division.comercial@bestprinssuministros.com;www.bestprintsuministros.com;"(57) (7) 6224807";"Cl 47 23-14 Inscredial Colombia, Barrancabermeja"
COMPUDEMANO;info@compudemano.com;www.compudemano.com;"(57) (6) 3359494";"Cr15 13-35 Los Alpes Colombia, Pereira"
"ULTRA LINE ELECTRONICA S.A.S.";ultra_line@hotmail.com;www.ultralineelectronica.com;"(57) (5) 3604887";"Cr45 60-37 Colombia, Barranquilla"
"PUNTO TECNOLÓGICO";comercial@puntotecnologico.co;www.puntotecnologico.co;"(57) (6) 3351783";"Cl 19 5-48 C.C. Novacentro L-219 Colombia, Pereira"
"COMPUTADORES Y SUMINISTROS DEL CESAR";oscarruizruiz@hotmail.com;;"(57) (5) 5742877";"Cr10 16 A-66 Colombia, Valledupar"
"First Name";"Email Address";Url;Telephone;Address
"CENTRO COMERCIAL LA HERRADURA";mercadeo@laherradura.com.co;www.laherradura.com.co;"(57) (2) 2253512";"Cr19 28-76 Of Colombia, Tuluá"
"PAYPHONE CALI";payphone_24@hotmail.com;www.payphonecali.com.co;"(57) (2) 6534495";"Av5   N 23 D   N-76 L-1-29 Trr 2 Colombia, Cali"
"SISTEMAS DE INFORMACIÓN EMPRESARIAL S.A.";cali@siesa.com;www.siesa.com;"(57) (2) 4865888";"Av3 A   N 26   N-83 Colombia, Cali"
"SISTEMAS A.P.C";gerencia@sistemasapc.com;www.sistemasapc.com;"Telefax: (57) (1) 2762807";"Cl 82 Abis 86-15 Colombia, Bogotá"
"TECNICINTAS PC";eduardagudelo@hotmail.com;;"(57) (4) 3775030";"Cr50 50-28 L-121 Itagüí Colombia, Medellín"
ELECTROFERIA;gerencia@electroferia.com.co;www.electroferia.com;"(57) (4) 2511200";"Cl 50 51-87 Colombia, Medellín"
"ACCESORIOS COMPUTADORES TECNYCOM";tecnycom@une.net.co;www.tecnycom.com.co;"(57) (4) 4444864";"Cr76 32 BB-38 Colombia, Medellín"
"OASIS IT S.A.S";info@oasis.com.co;www.oasis.com.co;"(57) (1) 3105201";"Cr. 11 No. 71-73 P-8 Colombia, Bogotá"
"ALMACÉN DE DETALLES Y LIBRERÍA RAYITAS";rayilasadl@gmail.com;;"(57) (4) 4419290";"Cl 78 B 69-240 Int 125 Colombia, Medellín"
QUINDITEC;quinditec@hotmail.com;www.facebook.com/pages/Quinditec/188287477938537;"(57) 3155629365";"Calleja de San Jose Et 1 B-E 2-501 Colombia, Armenia"
"COMPRA VENTA NUEVA COLOMBIA";nuevacolombia@hotmail.com;;"(57) (4) 2305272";"Cl 50 65-11 Colombia, Medellín"
MEGATONER;info@megatoner.co;;"(57) (4) 4444765";"Cl 35 A 80 A-39 Int 201 Colombia, Medellín"
"S.R. TECNOLOGÍA";srtecnologiasr@hotmail.com;www.srtecnologia.wix.com/srtecnologia;"(57) (4) 2315977";"Cl 52 46-22 L-215 Colombia, Medellín"
"ELECTRO HOME S.A.S.";electroventas@une.net.co;;"(57) (4) 5128172";"Cr52 51-42 L-9901 C.C Veracruz Colombia, Medellín"
"PC MART";orlandomurillo_2@yahoo.es;www.pcmartcolombia.com;"(57) (5) 3049146";"Cl 84 47-36 L-7 Colombia, Barranquilla"
"COMPU CITY";compucityibague2012@hotmail.com;;"(57) (8) 2655212";"C.C. La Quinta L-235 Colombia, Ibagué"
"SOLUMAZTER S.A.S.";comercialmayorista@compuinjet.net;www.solumazter.co;"(57) (4) 5116614";"Cl 52 46-22 L-222-2 Colombia, Medellín"
"SOLUCIONES EN SEGURIDAD INFORMATICA S.A.S.";info@tuseguridadinformatica.com;www.tuseguridadinformatica.com;"(57) (4) 4445088";"Cr79 A 53 B-116 Int 101 Colombia, Medellín"
"MES ANTIOQUIA LTDA.";gerencia@mesantioquia.com;www.mesantioquia.com;"(57) (4) 2309636";"Cr64 C 48-206 B-6 L-101 Colombia, Medellín"
"OFFICE CONEXION S.A.S.";info@officeconexion.com;ocx.com.co;"(57) (4) 2302266";"Cr68 A 44 B-20 Int 201 Colombia, Medellín"
"3S SOFTWARE SISTEMAS Y SOLUCIONES";joseariza@3-s.com.co;www.3-s.com.co;"(57) (7) 6365677";"Cr20 87-50 Diamante II Colombia, Bucaramanga"
"SISTELEC LTDA.";eddy.tarazona@sistelec.com.co;www.sistelec.com.co;"(57) (7) 6437181";"Cr33 62-34 Colombia, Bucaramanga"
COMPU-TONER;jairmunoz99@hotmail.com;;"Telefax: (57) (6) 3350024";"Cr5 17-62 Colombia, Pereira"
"AQUA COMPUTERS";aqua_pc@hotmail.com;www.aqua-computers.com;"(57) (7) 6223166";"Cr17 51-19 Colombia Colombia, Barrancabermeja"
"ALMACÉN COMPRAVENTA SUCRE";compraventatauro@hotmail.com;;"(57) (4) 5112456";"Cl 53 47-01 Colombia, Medellín"
"SYSTECING SOLUCIONES INFORMATICAS SAS";jose.diaz@systecing.com;www.systecing.com;"(57) (7) 6166744";"Cl 35 Bis 18 A-09 Colombia, Bucaramanga"
MUNDOTINTAS;mundotintasnelson@hotmail.com;www.mundotintas.com;"(57) (6) 3351319";"Cl 23 8-55 L-217 C.C. Lago Plaza Colombia, Pereira"
"COMPRAVENTA PRENDERÍA LA MEJOR ESQUINA";mejoresquina@hotmail.com;;"(57) (4) 5120129";"Cl 49 52-75 Colombia, Medellín"
"SAINT CENTER";saintcenter@une.net.co;www.saintnet.com;"(57) (4) 4486890";"Cr79 48 B-41 P-3 Colombia, Medellín"
"BIOTECH S.A.S";gerencia@biotechltda.com;www.biotechltda.com;"(57) (4) 4484565";"Cl 32 AA 69-14 Colombia, Medellín"
"ACTIVE SYSTEMS COLOMBIA";ventas3@activess.net;www.activess.net;"(57) (4) 4442233";"Cl 10   S 43 A-54 Int 320 Colombia, Medellín"
"CARGAR TINTAS";cargartintas@hotmail.com;;"(57) (6) 8850147";"Cr23 47-39 Colombia, Manizales"
"DOCTOR PORTÁTIL Y PC";doctorportatilypc@hotmail.com;;"(57) (4) 2663802";"Cr48 10-45 L-278 C.C. Monterrey Colombia, Medellín"
"DOCTOR PORTATIL";aristizabal-14@hotmail.com;www.doctorportatilcolombia.com;"(57) (2) 3955594";"Av5 A 23 D   N-68 L-247 Colombia, Cali"
"WORLD MYD SOLUCIÓN MOBILIARIA Y TECNOLÓGICA PARA SU EMPRESA";worldmyd@hotmail.com;www.worldmydsolucionmobiliariaytecnologica.com;"(57) (7) 6471784";"Cr17 65-105 Of 201 Colombia, Bucaramanga"
"MULTIRECARGAS YHC";yackes_08@hotmail.com;www.multirecargasyhc.com;"(57) (8) 8714857";"Cr2 8-05 C.C. Los Comuneros P-3 L-3049 Colombia, Neiva"
SOLYTEC;sol_tecsistemas@outlook.com;www.solytec.co;"(57) (2) 2830591";"Cl 69 A 21-109 Colombia, Palmira"
"OPTIMUS SERVICE S.A.S.";optimusservicesas@gmail.com;www.optimusservices.com.co;"(57) (4) 3669884";"Cr48 10-45 L 291 Colombia, Medellín"
"MÁQUINAS Y REGISTRADORAS";fliahamann@hotmail.com;www.maquinasyregistradoras.com;"(57) (4) 2777632";"Cr56 62-82 Urbanización La Aldea Itagüí Colombia, Medellín"
"AB TECH S.A.S";abtech@abtech.com.co;www.abtech.com.co;"(57) (4) 4448148";"Cr81 43-56 Mall la Gran Esquina-Medellín Colombia, Medellín"
"First Name";"Email Address";Url;Telephone;Address
"TES LTDA.";gerencia@tesltda.com;www.tesltda.com;"(57) (6) 3360507";"Cr11 48-188 Maraya Colombia, Pereira"
"INGENIERIA TELEMÁTICA S.A.S";2omercial@ingenieriatelematic;www.ingenieriatelematica.com.co;"(57) (6) 3347444";"Cl 14 16-47 Pinares Colombia, Pereira"
NETCOMPUSERVICIO;netcompuservicio@gmail.com;www.netcompuservicio.com;"(57) (5) 4300344";"Cl 15 7-89 Centro Colombia, Santa Marta"
"CENTRAL DE SUMINISTROS LTDA.";centralsumi@andinet.com;www.centraldesuministrosltda.com;"(57) (7) 6452226";"Cr24 31-73 L-3 Colombia, Bucaramanga"
"DISOFT LTDA.";disoftcucuta@hotmail.com;www.disoft.co;"(57) (7) 5771111";"Av0 4-74 Lleras Colombia, Cúcuta"
"CINTAS & CARTUCHOS";wwtk909@hotmail.com;www.cintasycartuchos.com;"(57) (8) 2613401";"Cr3 16-51 C.C. Sanandrexitos L 2069-1012 Colombia, Ibagué"
"ALQUILER TODO EQUIPO";carlossh50@hotmail.com;www.alquilertodoequiposbun.com;"(57) (2) 2433435";"Cl 6 # 19 D-14 Colombia, Buenaventura"
"PUNTO CENTER LTDA.";gerencia@puntocenter.com.co;www.facebook.com/almacenpuntocenterltda;"(57) (5) 4233145";"Cl 21 4-79 Colombia, Santa Marta"
"OFINEXT S.A.S.";contactenos@ofinextsas.com;;"(57) (5) 4319552";"Av del Libertador 11 A-35 L-2 Colombia, Santa Marta"
"ASERTEC SOLUCIONES INTEGRALES";asertecsas@gmail.com;www.asertecsi.com;"(57) (7) 6781627";"Cl 52 # 21 A-15 Sotomayor Colombia, Bucaramanga"
"DISTRIBUCIONES MUNDIAL PAPELERÍA Y CACHARRERÍA";distrimundialvillavicenciond4@gmail.com;;"(57) (8) 6713722";"Cl 39 29-42 Las Palmaditas Colombia, Villavicencio"
"H.Y B.";hernanhyb@hotmail.com;www.hybsas.com;"(57) (4) 7897168";"Cl 26 2-40 Centro Colombia, Montería"
MULTITINTAS;multitintasarmenia@hotmail.com;www.multitintas.com.co;"(57) (6) 7462762";"Cr15 20-19 L-5 Colombia, Armenia"
"SOLUCIONES INFORMATICAS";;;"(57) (8) 4358791";"Cr8 17-47 Brr. 7 de Agosto Colombia, Florencia"
COODESS;coodess@gmail.com;coodess.com.co;"(57) (6) 8834076";"Cl 22 22-26 Of 405 Edif Del Comercio Colombia, Manizales"
"COMPUCENTRO LTDA.";gerencia@compucentroltda.com;www.compucentroltda.com;"(57) (8) 7407777";"Cl 28 11-22 Colombia, Tunja"
SERTECOMPU;emma10nuel@hotmail.com;www.reparaciondecomputadorescali.com.co;"(57) (2) 3853426";"Cl 83 D# 5   N-48 Colombia, Cali"
"CIUDAD VIRTUAL";ciudadvirtual1@yahoo.com;www.ciudadvirtual.oferto.co;"(57) (6) 7414772";"Cr13 17-40 L-1 Colombia, Armenia"
"UNIVERSAL DE SUMINISTROS LA VID S.A.S";lavidimportaciones@gmail.com;www.universaldesuministroslavid.com;"(57) (1) 5614718";"Cl 9 26-53 Of 109 Colombia, Bogotá"
SUDECOMP;sudecomp@sudecomp.com;www.sudecomp.com;"(57) (1) 6111107";"Cl 97 15-60 Of 301 Colombia, Bogotá"
CONECTRA;gerencia@conectra.net;www.conectra.net;"(57) (7) 6946749";"Cl 19 11 C-15 Brr. Rosales Colombia, Bucaramanga"
"ZONA TINTAS";zonatintas@hotmail.com;;"(57) (4) 2932842";"Cl 50 45-45 L-124 Colombia, Medellín"
"SERVITEG LAB.";;;"(57) (7) 6569436";"Cl 37 16-04 L-301/309 Colombia, Bucaramanga"
"BTG SUMINISTROS E INGENIERÍA";frocam@hotmail.com;;"(57) (5) 3566201";"Cr49 B 79-64 Colombia, Barranquilla"
"MAXY RECARGAS";jancar941@hotmail.com;;"(57) (2) 2123707";"Cl 9 4-43 Colombia, Cartago"
"MÁS SISTEMAS";masmiguelp@hotmail.com;;"(57) (7) 5718591";"Av0 A 12-05 Of 211 Edif Ingrid Colombia, Cúcuta"
"OFICOMPUT LTDA.";comercial@oficomput.com;www.oficomput.com;"(57) (7) 6573111";"Cr31 34-22 Colombia, Bucaramanga"
"SHOPPING PC";ivgomezd@hotmail.com;www.shoppingpc.com.co;"(57) (7) 6432996";"Cr33 48-109 C.C. Gratamira L-223-230-324 Colombia, Bucaramanga"
"PRINT COLOR";printcolorpereira@hotmail.com;;"(57) (6) 3347369";"Cl 21 5-21 L-1 Edif El Capiro Colombia, Pereira"
"MAXTINTA MEGAMARCAS";maxtinta1@hotmail.com;;"(57) (7) 6470117";"Cr33 48-109 L-116/117 C.C.Gratamira Colombia, Bucaramanga"
"PAPELERÍA LOS CORALES";ventas@loscorales.com.co;;"(57) (4) 4117695";"Cl 41 74-95 Colombia, Medellín"
OFICANON;gerencia@oficanon.com;www.oficanon.com;"Telefax: (57) (7) 5752222";"Av0 1-119 Quinta Bosch Colombia, Cúcuta"
"TECNO NACHO";aquitodo@hotmail.com;www.tecnonacho.com;"(57) (5) 3458177";"Cl 84 47-30 L-4 El Porvenir Colombia, Barranquilla"
"SURTICÓMPUTOS S.A.S";surticomputos@telecom.com.co;;"(57) (5) 6561433";"Crespo Cl 65 2-35 EDIF ACQUARELA Colombia, Cartagena"
"CR SYSTEMS LTDA";crsystemltda@hotmail.com;;"(57) (1) 3510362";"Cr43 24 A-25 Colombia, Bogotá"
"A.M. SYSTEM E.U.";amsystemeu@hotmail.com;;"(57) (5) 3654891";"Cl 60 15-144 L-1 Colombia, Barranquilla"
TECNOLOGY;doctorpcpereira@hotmail.com;;"(57) (6) 3454558";"Cl 24 8-11 Colombia, Pereira"
ECOPRINTERS;ecoprinters@hotmail.com;;"(57) (2) 2177656";"Cr5 15-60 Colombia, Cartago"
"SOLUCIONES TECNOLÓGICAS DEL ARCHIPIÉLAGO S.A.S.";"gerencia@sotecnar.com                   comercial@sotecnar.com";;"(57) (8) 3202376442";"Vía San Luis Cr4-13 -146 L-102 frente a la Iglesia Sagrada Familia Colombia, San Andrés"
TECNIPLANET;ventas@tecniplanet.net;www.tecniplanet.com;"(57) (7) 6190364";"Cr12 22-13 Los Rosales Floridablanca Colombia, Bucaramanga"
"First Name";"Email Address";Url;Telephone;Address
COMPUTIENDA;gerencia@lacomputienda.net;www.lacomputienda.net;"(57) (6) 3333666";"Cr6 22-35 L-101 Edif Trujillo Colombia, Pereira"
TODOWIFI;gerencia@todowifi.com;todowifi.com;"(57) (4) 3142122";"Cr43 A 7   S-170 L-3 Colombia, Medellín"
"IP TECNOLOGÍA";info@iptecnologia.com;www.iptecnologia.com;"(57) (4) 8288878";"Cl 95 106-08 P-2 Colombia, Apartadó"
"SOLUCIONES INTEGRALES MIXTAS S.A.S.";info@sidelquindio.com;;"(57) 3164334085";"Cr17 22-32 L-18 Colombia, Armenia"
"SURTICÓMPUTOS S.A.S";surticomputos@telecom.com.co;;"(57) (5) 6561433";"Crespo Cl 65 2-35 EDIF ACQUARELA Colombia, Cartagena"
"MICRONET S.A.S.";micronet@micronetsas.com.co;www.micronetsas.com.co;"(57) (2) 2864668";"Cr28 54-84 Colombia, Palmira"
"ALMACEN Y GALERIA SURTIHOGAR";eschate_09@hotmail.com;;"(57) (7) 6226950";"Cr12 49 A-00 ESQ PARQUE URIBE Colombia, Barrancabermeja"
"COMPUTARIZAMOS M.L.G.";computarizamos.mlg@hotmail.com;;"(57) (2) 6679997";"Av5 A   N 23 D   N-68 L-265 C.C. Pasarela Colombia, Cali"
"AULA VIRTUAL";info@campusaulavirtual.com;www.campusaulavirtual.com;"(57) (2) 5249933";"Cl 24   N 5 A   N-55 Colombia, Cali"
SKYNETCOMPUTADORES;skynetcomputadores@hotmail.com;;"(57) (6) 8702521";"Cl 28 21-60 Colombia, Manizales"
"A.J ESPECIALISTAS EN SISTEMAS";juancho_arenas5@hotmail.com;;"(57) (4) 4445717";"Cl 41 89-57 Colombia, Medellín"
"SQA S.A.";monica.villareal@sqasa.com;www.sqasa.com;"(57) (4) 4488567";"Cr43 B 9-33 Colombia, Medellín"
"AR TECNOLOGIA";;;"(57) (4) 4342524";"Cl 48 D 65 A-57 Int 108 Colombia, Medellín"
"PRINTONER C Y C";printonercyc@hotmail.com;;"(57) (5) 3720263";"Cr43 50-12 L 33 Colombia, Barranquilla"
"COMERCIALIZADORA TRIUNFO EXPRESS S.A.S.";eltriunfoexpress@hotmail.com;;"(57) (5) 6602417";"Get Cl 25 8 B 127 L-01 B-68 C.C. Getsemaní Colombia, Cartagena"
"DISTRIBUCIONES ESTELAR S.A.S.";armanhr@gmail.com;;"(57) (8) 5121733";"Av Newball 4-169 L-227 Torres Sunrise Beach Colombia, San Andrés"
"RECARGAS & SUMINISTROS";ossiermauricio@hotmail.com;;"(57) (2) 2092301";"Cl 10 5-45 Colombia, Cartago"
"PAPELERÍA COLONIAL & CÍA. LTDA.";papcolonial@etb.net.co;www.papeleriacolonial.com;"(57) (1) 3608088";"Cr27 1 G-46 Colombia, Bogotá"
"CIBEX COLOMBIA";gerencia@cibexcolombia.com;www.cibexcolombia.net;"(57) (5) 6531723";"Urb. La Princesa Cl 31 D Manz. 3 Lt.-28 Colombia, Cartagena"
"NEO COMPUTER";;;"(57) (7) 6410268";"Cl 55 1 W-20 Colombia, Bucaramanga"
"ATYSHOP S.A.S.";info@atyshop.com;www.atyshop.com;"(57) (6) 7310089";"Cl 21 18-13 Of 301 Edif San Marcos Colombia, Armenia"
"TIENDA TECNOLÓGICA IMPORSYSTEM S.A.S.";ju_betancourt@hotmail.com;www.imporsystem.com;"(57) (2) 2386668";"Cl 6 6-15 Colombia, Buga"
"CLINICA DE PORTÁTILES";clinicadeportatiles@tecnogrupo.com.co;;"(57) (4) 4485840";"Cr48 10-45 L-387 Colombia, Medellín"
"SERVILAPTOPS Y PC";servilaptops@hotmail.com;;"(57) (4) 2657386";"Cr48 10-45 L-297 Colombia, Medellín"
"ANTIVIRUS ESPECIALISTS - REAL TIME SOLUTIONS LTDA.";comercialrts@rtsolutions.net;www.rtsolutions.net;"(57) (1) 2154477";"Cl 114 A 45-32 Of 302 Colombia, Bogotá"
PCD®S;maoguarin30@hotmail.com;;"(57) (4) 3345102";"Cl 39   S 41-25 Colombia, Medellín"
QUORUMSYSTEM;quorumsystem@hotmail.com;es-la.facebook.com/pages/quorum-system-Tulu%Cc3%A1/14358425235351;"(57) (2) 2252508";"Cr27 Cl 30 Esq Colombia, Tuluá"
"PRICE COMPUTER";gus_uribe@hotmail.com;;"(57) (7) 6572939";"Cr22 51-06 L-1 Colombia, Bucaramanga"
CYBERWORLD;empresadeexito@gmail.com;;"(57) (7) 6117259";"Cr17 50-36 Br Colombia Colombia, Barrancabermeja"
"IMPORTACIONES Y SUMINISTROS J&R S.A.S.";"E-mai: importacionesjyr@une.net.co";;"(57) (4) 4486066";"Cl 69 B S 50-150 Bdg 163 La Estrella Colombia, Medellín"
"FERROMATEL S.A.S.";ferromatel@hotmail.com;;"(57) (4) 4484589";"Cl 80 52 A-21 Itagüí Colombia, Medellín"
"HERLOZ SUMINISTROS LTDA";germanlopez@herloz.com;www.herloz.com;"(57) (1) 2477378";"Cl 9 37 A-62 Of. 3005 Colombia, Bogotá"
"A.EQUIPOS Y SERVICIOS HP";hpmedellin@yahoo.com;;"(57) (4) 2610342";"Cl 41 51-15 L-143 Colombia, Medellín"
"ACARIBE LIBROS";"ventas@acaribe.com                      info@acaribe.com";www.acaribe.com;"(57) (8) 5124657";"Av20 de Julio-3 -100 Colombia, San Andrés"
"T.I. TECNOLOGÍA INFORMÁTICA";luisabaena@tecnologiainformatica.com.co;www.titecnologiainformatica.com;"(57) (8) 4346446";"Cl 18 A 11-58 Colombia, Florencia"
"DATHOTECH COLOMBIA LTDA";dathotech2008@gmail.com;www.dathotechltda.com.co;"(57) (1) 2496941";"Cr18 60-66 P-2 Colombia, Bogotá"
EXCELENTER;excelenter@hotmail.com;www.excelenter.com;"(57) (2) 5243363";"C.C. Pasarela L-225 Colombia, Cali"
"TECNOSISTEMAS Y REDES";omar_tecnoredes@hotmail.com;www.tecnosistemasyredes.blogspot.com;"(57) (2) 7224906";"Cr33 A 6-23 Colombia, Pasto"
"MÁS SISTEMAS";masmiguelp@hotmail.com;;"(57) (7) 5718591";"Av0 A 12-05 Of 211 Edif Ingrid Colombia, Cúcuta"
"AMÉRICA MÓVIL COMUNICACIONES S.A.S.";americamovil.com@gmail.com;;"(57) (7) 6306819";"Cl 35 13-16 Colombia, Bucaramanga"
"First Name";"Email Address";Url;Telephone;Address
"POWERNET COMPUTERS S.A.S.";powernetcali@hotmail.com;;"(57) (2) 6677674";"C.C. Pasarela L-297 Colombia, Cali"
"MAXTINTA MEGAMARCAS";maxtinta1@hotmail.com;;"(57) (7) 6470117";"Cr33 48-109 L-116/117 C.C.Gratamira Colombia, Bucaramanga"
"COMPU MILENIUM";nayibetoro@hotmail.com;;"(57) (2) 7227534";"Cr24 15-60 L-205-206 C.C. San Agustín Colombia, Pasto"
TODOWIFI;gerencia@todowifi.com;todowifi.com;"(57) (4) 3142122";"Cr43 A 7   S-170 L-3 Colombia, Medellín"
"SOLUCIONES INTEGRALES MIXTAS S.A.S.";info@sidelquindio.com;;"(57) 3164334085";"Cr17 22-32 L-18 Colombia, Armenia"
F1HELP;contacto@f1h.com.co;www.f1h.com.co;"(57) (7) 6960850";"Cr27 36-14 Edif Sura Of 319 Colombia, Bucaramanga"
"CENTRO ORIENTAL S.A.S.";centrooriental@une.net.co;www.centrooriental.com;"(57) (4) 5533333";"Cl 20 23-11 La Ceja Colombia, Medellín"
DF&G;gonzadanny@gamil.com;dfyg.weebly.com;"(57) (4) 7832914";"Cl 12 8 C-37 Brr. Buenavista Colombia, Montería"
"MAXY RECARGAS";jancar941@hotmail.com;;"(57) (2) 2123707";"Cl 9 4-43 Colombia, Cartago"
"LINK TECNOLÓGICO S.A.S";fespana@linktecnologico.com.co;www.linktecnologico.com.co;"(57) (4) 4488517";"Cr80 44-73 Colombia, Medellín"
"A & M MAC SERVICE";aymmacservice@mac.com;;"(57) (6) 8874670";"C.C Sancancio L-830 Colombia, Manizales"
"S.I. TECNOLOGÍCO";;;"(57) 3043519474";"Cr13 4-17 L-22 C.C. San Andoble Colombia, Santa Marta"
"J.P.C. REPRESENTACIONES";info@jpcrepresentaciones.com;;"(57) (5) 3687856";"Cl 63 43-68 Colombia, Barranquilla"
"AMERICAN PC STORE";americanpcstore@gmail.com;www.americanpcstoreqgmail.com;"(57) (7) 6026444";"Cl 50 20-30 Br Colombia Colombia, Barrancabermeja"
"CR SYSTEMS LTDA";crsystemltda@hotmail.com;;"(57) (1) 3510362";"Cr43 24 A-25 Colombia, Bogotá"
"TECNOTRONIC PC";tecnotronicpc@hotmail.com;www.tecnotronicpc.com;"(57) (5) 3722812";"Cr43 50-12 L-107 Colombia, Barranquilla"
"SQA S.A.";monica.villareal@sqasa.com;www.sqasa.com;"(57) (4) 4488567";"Cr43 B 9-33 Colombia, Medellín"
OFICANON;gerencia@oficanon.com;www.oficanon.com;"Telefax: (57) (7) 5752222";"Av0 1-119 Quinta Bosch Colombia, Cúcuta"
"J.C.R. IMPORTS E.U.";adminweb@jcrimports.com;www.jcrimports.com;"(57) (6) 3358142";"Cr15 20 B-15 Colombia, Pereira"
"IP TECNOLOGÍA";info@iptecnologia.com;www.iptecnologia.com;"(57) (4) 8288878";"Cl 95 106-08 P-2 Colombia, Apartadó"
"ALMACÉN CALZADO ZULY";calzadozuly@gmail.com;;"(57) (4) 5111880";"Cr50 48-20 Colombia, Medellín"
"PASARELA PALMIRA";gerencia@pasarelapalmira.com;www.pasarelapalmira.com;"(57) (2) 2586632";"Cl 31 24-09 Colombia, Palmira"
"SISTEMAS MIG S.A.S.";ventas@sistemasmig.net;www.sistemasmig.net;"(57) (4) 4123899";"Cl 47 D 72-183 Of 103 Colombia, Medellín"
COMPUTIENDA;gerencia@lacomputienda.net;www.lacomputienda.net;"(57) (6) 3333666";"Cr6 22-35 L-101 Edif Trujillo Colombia, Pereira"
"PAPELERÍA LOS CORALES";ventas@loscorales.com.co;;"(57) (4) 4117695";"Cl 41 74-95 Colombia, Medellín"
"CIBEX COLOMBIA";gerencia@cibexcolombia.com;www.cibexcolombia.net;"(57) (5) 6531723";"Urb. La Princesa Cl 31 D Manz. 3 Lt.-28 Colombia, Cartagena"
"ANTIVIRUS ESPECIALISTS - REAL TIME SOLUTIONS LTDA.";comercialrts@rtsolutions.net;www.rtsolutions.net;"(57) (1) 2154477";"Cl 114 A 45-32 Of 302 Colombia, Bogotá"
"ELECTRODOMÉSTICOS J.E. S.A.S.";electrodomesticosje@hotmail.com;www.electrodomesticosje.com;"(57) (4) 5118729";"Cl 49 52-48 L-138 Colombia, Medellín"
"ACCESORIOS Y EQUIPOS MI PC LTDA.";gerenci@mipcequipos.com;;"(57) (5) 3410364";"Cr43 50-12 L-72 C.C. Parque Central Colombia, Barranquilla"
"TUYOFACIL S.A.S.";leidy.sanchez@tuyofacil.co;www.tuyofacil.co;"(57) (4) 4488896";"Cr48 25 B-S 12 Envigado Colombia, Medellín"
"PADILLA JULIO SERVICIO ESPECIALIZADO";padilla_julio@outlook.com;www.padillajulio.co;"(57) (6) 8875983";"28 B N 71 A-48 Of 101 Colombia, Manizales"
"SERVICIOS & SOLUCIONES INFORMÁTICAS";luis.melgarejo@serviciosysolu;www.serviciosysoluciones-sys.com;"(57) 3144699054";"Cl 0 5 A   N-98 Chapinero Colombia, Cúcuta"
MAGACOMPUTO;fortiz139@hotmail.com;www.megacomputo.co;"(57) (2) 2251988";"Cr26 31-44 Colombia, Tuluá"
COMPUCENTER;claudiapatahumada@hotmail.com;;"(57) (5) 6602603";"C.C. Centro Uno L-201 Colombia, Cartagena"
"TECNO NACHO";aquitodo@hotmail.com;www.tecnonacho.com;"(57) (5) 3458177";"Cl 84 47-30 L-4 El Porvenir Colombia, Barranquilla"
"MEJÍA ASOCIADOS LTDA.";mejiaasociados@hotmail.com;;"(57) (8) 7404667";"Cr9 17-36 Int 102 C.C. 450 Años Colombia, Tunja"
"BET-EL S.A.S.";gerencia@betel.com.co;www.betel.com.co;"(57) (1) 3170484";"Cr16 A 75-41 Colombia, Bogotá"
COMPUTECSUMINISTROS;elsamariahurtado@gmail.com;;"(57) (6) 8858313";"Cr23 57-52 Colombia, Manizales"
ECOPRINTERS;ecoprinters@hotmail.com;;"(57) (2) 2177656";"Cr5 15-60 Colombia, Cartago"
"ARISTA SOLUCIÓN EN TECNOLOGIA";info@aristatecnologia.com;www.aristatecnologia.com;"(57) (4) 7827911";"Cl 30 8-50 Centro Colombia, Montería"
"First Name";"Email Address";Url;Telephone;Address
COMPUTECSUMINISTROS;elsamariahurtado@gmail.com;;"(57) (6) 8858313";"Cr23 57-52 Colombia, Manizales"
TECNOLOGY;doctorpcpereira@hotmail.com;;"(57) (6) 3454558";"Cl 24 8-11 Colombia, Pereira"
"TECNOLOGICOS ETC";tecnologicosetc@hotmail.com;www.tecnologicosetc.com;"(57) (6) 3432048";"Cl 21 19-19 La Pradera Colombia, Pereira"
"TECNIHARDWARE PC STORE";tecnihardwarepcstore@hotmail.com;;"(57) (7) 5719571";"C.C. Gran Bulevar L-231 Colombia, Cúcuta"
"PAPELERÍA COLONIAL & CÍA. LTDA.";papcolonial@etb.net.co;www.papeleriacolonial.com;"(57) (1) 3608088";"Cr27 1 G-46 Colombia, Bogotá"
"DISTRICOM DE COLOMBIA LTDA.";gerencia@districom.co;www.districomltda.com;"(57) (6) 3338424";"Cr6 16-22 L-103 Colombia, Pereira"
"ING INGENIERIA Y SISTEMAS SAS";gerencia.ingenieriaysistemas@gmail.com;;"(57) (1) 2995462";"Cr78 DBis 41 G-10 Sur P-3 Colombia, Bogotá"
"DOCUXER LTDA.";margarita.giraldo@docuxer.com;www.docuxer.com;"(57) (7) 5755247";"Av9 E 11-52 La Riviera Colombia, Cúcuta"
"TRIANGULO DIGITAL";triangulodigital@hotmail.com;;"(57) (4) 2684801";"Cr48 10-45 Int 147 Colombia, Medellín"
"SOLUCIONES INTEGRALES MIXTAS S.A.S.";info@sidelquindio.com;;"(57) 3164334085";"Cr17 22-32 L-18 Colombia, Armenia"
"COMPUMUNDO BARRANQUILLA";compumundob@hotmail.com;;"(57) (5) 3702370";"Cr43 50-12 L-118 Colombia, Barranquilla"
"TECNO-TRONIC COLOMBIA";jhsaenz@hotmail.com;;"(57) (5) 3514780";"Cl 34 43 110 L-B-170 P-2 Colombia, Barranquilla"
"BTG SUMINISTROS E INGENIERÍA";frocam@hotmail.com;;"(57) (5) 3566201";"Cr49 B 79-64 Colombia, Barranquilla"
EXCELENTER;excelenter@hotmail.com;www.excelenter.com;"(57) (2) 5243363";"C.C. Pasarela L-225 Colombia, Cali"
"NIO CENTRO TECNOLÓGICO";info@nio.com.co;www.facebook.com/niotechnology;"(57) (6) 3244480";"Cr6 16-40 Colombia, Pereira"
MEGASERVICIOS;soporte@megaservicios.com;megaservicios.com;"(57) (6) 8806030";"Cr24 A 56-58 Belén Colombia, Manizales"
MAGACOMPUTO;fortiz139@hotmail.com;www.megacomputo.co;"(57) (2) 2251988";"Cr26 31-44 Colombia, Tuluá"
"PAPELERÍA LOS CORALES";ventas@loscorales.com.co;;"(57) (4) 4117695";"Cl 41 74-95 Colombia, Medellín"
CELLCOM;rdva12@hotmail.com;;"(57) (5) 6532813";"Villa Sandra Cl 31 63 C-24 L-3 Colombia, Cartagena"
"BET-EL S.A.S.";gerencia@betel.com.co;www.betel.com.co;"(57) (1) 3170484";"Cr16 A 75-41 Colombia, Bogotá"
"CR SYSTEMS LTDA";crsystemltda@hotmail.com;;"(57) (1) 3510362";"Cr43 24 A-25 Colombia, Bogotá"
"A.M. SYSTEM E.U.";amsystemeu@hotmail.com;;"(57) (5) 3654891";"Cl 60 15-144 L-1 Colombia, Barranquilla"
"MAXY RECARGAS";jancar941@hotmail.com;;"(57) (2) 2123707";"Cl 9 4-43 Colombia, Cartago"
"CANO VERA Y CÍA. S. EN C.";canoveraycia@gmail.com;www.canoveracia.amawebs.com;"(57) (4) 4487779";"Cr73 45 F-16 Colombia, Medellín"
"COMPUTINTAS & SOLUCIONES";ventas@computintasysoluciones.com;www.computintasysoluciones.com;"(57) (5) 6909332";"Blas de Lezo Et 5 Manz 6 A Lt 12 Colombia, Cartagena"
INSTECH;info@instech.com.co;www.instech.com.co;"(57) (4) 4449155";"Cr80 48 B-56 Colombia, Medellín"
"PRINT COLOR";printcolorpereira@hotmail.com;;"(57) (6) 3347369";"Cl 21 5-21 L-1 Edif El Capiro Colombia, Pereira"
"COMPUDATOS S.A.S.";compudatospasto@telmex.net.co;www.compudatos.com;"(57) (2) 7315131";"Cl 20 29-24 Colombia, Pasto"
"IMPORTACIONES Y SUMINISTROS J&R S.A.S.";"E-mai: importacionesjyr@une.net.co";;"(57) (4) 4486066";"Cl 69 B S 50-150 Bdg 163 La Estrella Colombia, Medellín"
"J.P.C. REPRESENTACIONES";info@jpcrepresentaciones.com;;"(57) (5) 3687856";"Cl 63 43-68 Colombia, Barranquilla"
"COMPRA VENTA ESTRELLA";;;"(57) (4) 2773847";"Cr49 50-09 Itagüí Colombia, Medellín"
"CENTRO ORIENTAL S.A.S.";centrooriental@une.net.co;www.centrooriental.com;"(57) (4) 5533333";"Cl 20 23-11 La Ceja Colombia, Medellín"
"SERVITEG LAB.";;;"(57) (7) 6569436";"Cl 37 16-04 L-301/309 Colombia, Bucaramanga"
"TINTAS Y SUMINISTROS DEL VALLE LTDA.";tintasysuministrosdelvalle@hotmail.com;www.tintasysuministrosdelvalle.com.co;"(57) (2) 3962205";"Cl 25 4   N-35 Colombia, Cali"
"PADILLA JULIO SERVICIO ESPECIALIZADO";padilla_julio@outlook.com;www.padillajulio.co;"(57) (6) 8875983";"28 B N 71 A-48 Of 101 Colombia, Manizales"
"SOLUCIONES TECNOLÓGICAS DEL ARCHIPIÉLAGO S.A.S.";"gerencia@sotecnar.com                   comercial@sotecnar.com";;"(57) (8) 3202376442";"Vía San Luis Cr4-13 -146 L-102 frente a la Iglesia Sagrada Familia Colombia, San Andrés"
"MAXTINTA MEGAMARCAS";maxtinta1@hotmail.com;;"(57) (7) 6470117";"Cr33 48-109 L-116/117 C.C.Gratamira Colombia, Bucaramanga"
"FERROMATEL S.A.S.";ferromatel@hotmail.com;;"(57) (4) 4484589";"Cl 80 52 A-21 Itagüí Colombia, Medellín"
"J.C.R. IMPORTS E.U.";adminweb@jcrimports.com;www.jcrimports.com;"(57) (6) 3358142";"Cr15 20 B-15 Colombia, Pereira"
MICROHOME;german.casas@microhome.com.co;www.microhome.com.co;"(57) (1) 3455030";"Cr20 C 72 A-39 Colombia, Bogotá"
"First Name";"Email Address";Url;Telephone;Address
"LINK TECNOLÓGICO S.A.S";fespana@linktecnologico.com.co;www.linktecnologico.com.co;"(57) (4) 4488517";"Cr80 44-73 Colombia, Medellín"
"AMERICAN TECHNET 574 S.A.S.";djaramillo@americantechnet.com;americantechnet.com;"(57) (4) 4444025";"Cr43 D 11 A-40 Colombia, Medellín"
"COMPUTINTAS & SOLUCIONES";ventas@computintasysoluciones.com;www.computintasysoluciones.com;"(57) (5) 6909332";"Blas de Lezo Et 5 Manz 6 A Lt 12 Colombia, Cartagena"
QUORUMSYSTEM;quorumsystem@hotmail.com;es-la.facebook.com/pages/quorum-system-Tulu%Cc3%A1/14358425235351;"(57) (2) 2252508";"Cr27 Cl 30 Esq Colombia, Tuluá"
"XERTECH LTDA.";ventas@xertechltda.com;www.xertechltda.com;"(57) (2) 4038549";"Cl 28   N 6 Bis   N-42 Colombia, Cali"
"DOCUXER LTDA.";margarita.giraldo@docuxer.com;www.docuxer.com;"(57) (7) 5755247";"Av9 E 11-52 La Riviera Colombia, Cúcuta"
"INSTALTEC LTDA";johnsalazar@instaltecltda.com;;"(57) (2) 3282833";"Cr42 B 38 A-70 Colombia, Cali"
"UPS INGENIERIA LTDA.";info@upsingenieria.com;;"(57) (1) 4165047";"Cr72 A 48-72 Colombia, Bogotá"
"LA CASA DEL TONER";lacasadeltoner@hotmail.com;;"(57) (1) 3422277";"Cl 18 8-10 L-102 Colombia, Bogotá"
"ALMACÉN ELECTROMUNDO";gerencia@electromundo.com.co;;"(57) (4) 7921800";"Cr2 30-32 Colombia, Montería"
"INSTITUTO TECNISISTEMAS";gerencia@institutotecnisistemas.com;;"(57) (1) 2983945";"Cr100 22 K-05 Colombia, Bogotá"
COMPUFAST;gerencia@compufastpremium.com;;"(57) (1) 6912363";"Bogotá Colombia, Bogotá"
"COMPU LIFE";comercial@compulife.com.co;;"(57) (1) 6917702";"Cl 86 A 24-23 P-1 Colombia, Bogotá"
"ADVANCE SYSTEMS S.A.";;;"(57) (4) 4446134";"Cr48 10-45 L-247-Y L-708 Colombia, Medellín"
ROKA;;;"(57) (1) 6412939";"Cr15 78-33 L-113 Colombia, Bogotá"
"PALACIO ARCINIEGAS ALEJANDRO";;;"(57) (1) 2368687";"Cr15 78-05 L-2 Ap 306 Colombia, Bogotá"
"ETHOS SOFTWARE";;;"(57) (1) 2171072";"Tr2 A 67-15 Colombia, Bogotá"
"SISCAD LTDA.";;;"(57) (5) 6568051";"Crespo Cl 70 6-47 Colombia, Cartagena"
"ENCIZO ROJAS LIGIA MARINA";;;"(57) (1) 6347476";"Cr16 76-42 Of 206 Colombia, Bogotá"
"CD'S DVD'S IMPORTADORES MEGAMEDIA";;;"(57) (1) 7586930";"Cr15 77-59 L-130 Colombia, Bogotá"
"BEF COMPUTADORES";;;"(57) (1) 2188207";"Cr15 79-69 L-105 Colombia, Bogotá"
"SISTIR SISTEMAS Y ELECTRÓNICA";;;"(57) (1) 4506880";"Tr78 H Bis B 41 B 34 S Colombia, Bogotá"
"SISTEMAS PORTATILES";;;"(57) (1) 2186573";"Av.Cr.15 78-33 Colombia, Bogotá"
"PC PYRAMID COMPUTER COLOMBIA";;;"(57) (5) 2815546";"Cr20 23-65 L-2B Centro Colombia, Sincelejo"
"DYSA SOLUCIONES TECNOLÓGICAS";;;"(57) (6) 3350762";"Cl 19 5-34 L-213 Colombia, Pereira"
"CANEL CANON";;;"(57) (5) 6551698";"Bgde Cr4 7-26 Colombia, Cartagena"
PC.COM;;;"(57) (8) 8721040";"Cr5 12-42 Colombia, Neiva"
DATA;;;"(57) (5) 3701937";"Cr43 50-12 L-117 Colombia, Barranquilla"
"MIKRONET S.A.";;;"(57) (1) 8966393";"Autop Medellín Km 3.4 Cem Bdg 1 Mód 3 Colombia, Bogotá"
DOECSYSTEM;;;"(57) (2) 3259038";"Cj Mayorga Conj Pinares del Río Km 5.5 La Buitrera Colombia, Cali"
"COMPUTEL COMUNICACIONES";;;"(57) (4) 8287621";"Cl 97 101-11 Colombia, Apartadó"
"COSMOSYSTEM S.A";;;"(57) (1) 6919355";"Cr 16 A 78-65 Of 201 Colombia, Bogotá"
"SISTEMA CHAOR LTDA.";;;"(57) (1) 6403695";"Cl 47 13-33 Colombia, Bogotá"
"CAFÉ CLICK";;;"(57) (2) 8244657";"Cl 6 13-38 Colombia, Popayán"
"F Y F SUMINISTRO Y ACCESORIOS E.U.";;;"(57) (1) 5410126";"Tr70 H 77 A-06 P-3 Colombia, Bogotá"
"DATA SHOP";;;"(57) (5) 3015253";"Cr43 75-144 L-3 Colombia, Barranquilla"
"E & S COMPUTADORES LTDA.";;;"(57) (4) 6708450";"Cr3 27-46 Brr. Roma Colombia, Quibdó"
"MEMORY CONEXION LTDA.";;;"Telefax: (57) (1) 8073131";"Cr15 76 - 53 Ap 100 Colombia, Bogotá"
"ONA SYSTEMS Y CÍA LTDA.";;;"(57) (1) 2532970";"Cl 103 70 B-25 Colombia, Bogotá"
"MULTISERVICIOS M&V";;;"(57) (5) 4207233";"Cr17 22-38 Alcázares Colombia, Santa Marta"
"First Name";"Email Address";Url;Telephone;Address
"COMPUTADORES TECNORED";;;"(57) (2) 2257311";"Cr25 29-69 Colombia, Tuluá"
RECARLASER;;;"(57) (2) 2321717";"Cl 27 30-66 Colombia, Tuluá"
TECNOPARAISO;;;"(57) (2) 2255009";"Cl 29 24 A-18 Colombia, Tuluá"
TECNO-SHOP;;;"(57) (6) 3255568";"Cl 24 8-22 L-4 Sector Lago Uribe Colombia, Pereira"
"SCHOOL TECHNOLOGY";;;"(57) (8) 8721100";"Cr4 12-17 Colombia, Neiva"
"IT MANAGEMENT E.U.";;;"(57) (1) 6583433";"Cl 118 19-52 Of 204 Colombia, Bogotá"
"COMERCIALIZADORA ASTM LTDA.";;;"(57) (7) 6527570";"Cl 36 17-52 L-3 Piso Marrón Colombia, Bucaramanga"
"NAKIRO SYSTEM";;;"(57) (6) 3439059";"Cr17 22-12 Colombia, Pereira"
"AGRICULTURA Y SISTEMAS LTDA.";;;"(57) (1) 3483680";"Cl 72 A 17-24 Of 202 Colombia, Bogotá"
"FENIX EVOLUTION 1 S.A.S";;;"(57) (4) 2687635";"Cr48 10-45 Int 391 Colombia, Medellín"
COMPUMAXTER;;;"(57) (2) 7224482";"Cl 16 23-35 L-17 C.C. El Dorado Colombia, Pasto"
"DATA NET";;;"(57) (2) 8202521";"Cl 17 N 8-11 Colombia, Popayán"
"CENTRAL DE TECNOLOGÍA";;;"(57) (2) 3153023";"Cl 18 A 56-65 L-66 Colombia, Cali"
"E.I.L. COMPUTADORES";;;"(57) (7) 6524343";"C.C. Sanandresito Centro P-4 L-2-16 Colombia, Bucaramanga"
MICRON;;;"(57) (6) 3301050";"Cl 16 6-34 L-20 C.C. Pasarela Colombia, Pereira"
KONNEN;;;"(57) (8) 2654735";"C.C. La Quinta L-260 Colombia, Ibagué"
"ONLINE COMPUTERS";;;"(57) (8) 8626847";"Cr6 40-50 Colombia, Neiva"
"SODITEK DE COLOMBIA LTDA.";;;"(57) (2) 4897902";"Av3 Bis 24 N-47 Of 203 Colombia, Cali"
"ACCESORIOS & SUMINISTROS";;;"(57) (2) 2708256";"Cl 30 30-55 Colombia, Palmira"
"SUMINISTROS MILENIUM CÚCUTA LTDA.";;;"(57) (7) 5714287";"Av1 11-36 Centro Colombia, Cúcuta"
"OASIS DEL PORTATIL";;;"(57) (1) 2817439";"Cl 21 9-48 L 419 Colombia, Bogotá"
"ALMACÉN PRINTCOLOR";;;"(57) (5) 2825488";"Cl 25 18-53 L-3 Centro Colombia, Sincelejo"
APROVINET;;;"(57) (6) 3231862";"Manz 15 Casa 6 Campestre D Dosq Colombia, Pereira"
"SOLUCIONES TECNOLÓGICAS DIVISIÓN SISTEMAS LTDA.";;;"(57) (1) 6354172";"Cr13 A 97-82 Of 305 Colombia, Bogotá"
"ORANGE MEN PC S.A.S.";;;"(57) (2) 6687672";"Av 3 N 37-16 L 15 Colombia, Cali"
"MOBILITY GLOBAL S.A.S.";;;"Telefax: (57) (1) 6156689";"Cl 152 A 7 H - 11 Colombia, Bogotá"
"SUMI PRINTERS LTDA";;;"(57) (1) 2104149";"Cl 67 13-09 Colombia, Bogotá"
"EH COMPUTERS S.A.";;;"(57) (2) 7297902";"C.C. Unicentro L-113 Colombia, Pasto"
"ACTIVA S.A.";;;"Conm.: (57) (6) 3254483";"Av Circunvalar 11-80 Of 1101 Edif Capitol San José Colombia, Pereira"
"PUENTES PUENTES DIEGO";;;"(57) (1) 6171780";"Cr19 79 A-19 Of 203 Colombia, Bogotá"
"MUNDO INFORMÁTICO";;;"(57) (4) 3065332";"Cr46 B 75 S-10 Sabaneta Colombia, Sabaneta"
COMPUTRONIX;;;"(57) (2) 7234953";"C.C. Sebastián de Belalcázar L-139 Colombia, Pasto"
"JP COMPUTADORES";;;"(57) (8) 4365070";"Cl 11 9 A-20 La Estrella Baja Colombia, Florencia"
"ALMACÉN PLAZA COMPUTO";;;"(57) (4) 2301419";"Cr74 48-37 Int 316 Colombia, Medellín"
INFOSERVER;;;"(57) (4) 2319260";"Cr48 10-45 Of 2203 Colombia, Medellín"
MULTISYSTEM;;;"(57) (8) 5124547";"Av20 de Julio 3-95 Colombia, San Andrés"
"LLANUS LTDA.";;;"(57) (1) 4049317";"Cr106 15-25 Bdg 26 Int 31 Colombia, Bogotá"
"COMPUSUMINISTROS LTDA.";;;"(57) (7) 6472695";"Cl 35 # 18-65 L-217 Colombia, Bucaramanga"
EXPLORET.NET;;;"(57) (1) 7507867";"Cr73 5-10 Colombia, Bogotá"
"XPAPELES LTDA.";;;"(57) (4) 7910371";"Cl 29 4-63 Colombia, Montería"
"First Name";"Email Address";Url;Telephone;Address
COMPU@CCESORIOS;;;"(57) (5) 6431266";"Centro Comercial Los Ejecutivos L-103 Colombia, Cartagena"
COPIERCOMPUTER;;;"Nal: (57) (5) 6612265";"Sector San Pedro Manz 4 Lt 11 Colombia, Cartagena"
"MAYASIS S.A.S";;;"(57) (5) 3789888";"Cr66 81-69 Colombia, Barranquilla"
"SUMINISTROS & PAPELES";;;"(57) (5) 6609636";"Cl 30 8 B-70 L-1 A-127 Calle Larga Get Colombia, Cartagena"
"CALÓ COMPUTADORES";;;"(57) (7) 6551697";"Cr7 8-00 Piedecuesta Colombia, Piedecuesta"
SETINFORNET;;;"(57) (7) 6850870";"Cr36 51-52 L-2 Cabecera Colombia, Bucaramanga"
"XEROX DE COLOMBIA S.A.";;;"(57) (1) 4251180";"Av Eldorado 69-76 Colombia, Bogotá"
"IT MANAGEMENT E.U.";;;"(57) (1) 6583433";"Cl 118 19-52 Of 204 Colombia, Bogotá"
"COMERCIALIZADOTA MAXX";;;"(57) (7) 6569472";"Cl 36 23-51 Centro Colombia, Bucaramanga"
"INFOSTORE INFORIENTE LTDA.";;;"(57) (7) 5711226";"Av0 14-46 La Playa Colombia, Cúcuta"
"HARMOD COMPUTADORES";;;"(57) (6) 8849497";"Cr23 24-25 L-5 Colombia, Manizales"
AMISTECH;;;"(57) (6) 8401022";"Cr9 9-24 Colombia, Chinchiná"
"ALMACEN COMPUMARK TURBACO";;;"(57) (5) 6638529";"Turbaco Cr15 19-49 L-2 Av Pastrana Colombia, Cartagena"
"LOS CLONEX.COM";;;"(57) (7) 6728383";"C.C. Sanandresito Centro P-4 L-D-31-33 Colombia, Bucaramanga"
"COMPECOL S.A.";;;"Telefax: (57) (2) 3301414";"Cr1 N 70- Colombia, Cali"
TECNOCENTER;;;"(57) (6) 8903322";"Cr22 26-18 Colombia, Manizales"
"ACCESORIOS & SUMINISTROS";;;"(57) (2) 2708256";"Cl 30 30-55 Colombia, Palmira"
"R & A";;;"(57) (1) 2188408";"Cr15 79-75 L-122 Colombia, Bogotá"
"DISCOVERY COMPUTER LTDA.";;;"(57) (1) 6913903";"Cr15 78-33 L-119 /120 Colombia, Bogotá"
"PC & SUMINISTROS.NET LTDA.";;;"(57) (7) 5723790";"Av5 11-63 L-315 C.C. Lecs Colombia, Cúcuta"
"INTER SYSTEM TECHNOLOGY";;;"(57) (4) 4444674";"Cr 46 50-63 Int 13 Colombia, Medellín"
"TECNOSOLUCIONES LTDA.";;;"(57) (4) 2681356";"Cr 48 10-45 L.388A Colombia, Medellín"
"BEF COMPUTADORES";;;"(57) (1) 2188207";"Cr15 79-69 L-105 Colombia, Bogotá"
"COMPUMANIA PLUS S.A.S.";;;"(57) (5) 4301887";"Cl 32 16-13 Colombia, Santa Marta"
"MICROXOL E.U.";;;"(57) (1) 6065038";"Cr15 78-33 L-2-262-L Colombia, Bogotá"
CONDIMAC;;;"(57) (4) 5627953";"Cl 55 45-16 Int 3 Rionegro Colombia, Medellín"
"INGENIERÍA & SERVICIOS INFORMÁTICOS";;;"(57) (4) 2926675";"Cr45 D 60-04 P-2 Colombia, Medellín"
"CENTRO COMERCIAL LAS PULGAS";;;"(57) (7) 6714586";"Cl 19 14-38 Colombia, Bucaramanga"
"COMPUTADORES Y ACCESORIOS ROCA";;;"(57) (4) 3746505";"Cr52 D 76-67 Int 1168 Colombia, Itagüí"
"SOLUCIONES REALES PARA SU EMPRESA S.R.E. S.A.S.";;;"(57) (4) 3146359315";"Cl 95 76-23 Int 301 Colombia, Medellín"
"E-SYSTEMS GROUP S.A.";;;"(57) (5) 6642600";"Cl 32 C 8 A-44 C.C. Centro Uno L-231 Colombia, Cartagena"
"I.R COMPUTADORES Y SUMINISTROS";;;"(57) (4) 7812072";"Cr8 30-03 Esq Colombia, Montería"
"COMPU MILENIO JG LTDA.";;;"(57) (1) 7589374";"Cr19 A 77-44 Colombia, Bogotá"
"MAKRO VISIÓN LTDA.";;;"(57) (1) 6222036";"Cr15 78-33 L-2-300 Colombia, Bogotá"
"HARDWARE & SISTEMAS LTDA.";;;"(57) (5) 3590518";"Cl 84 44-49 L-3 Colombia, Barranquilla"
"LENOVO MCL";;;"(57) 3156942901";"Cove Sea Side Km 9 + 541 Colombia, San Andrés"
"BELCAMER LTDA.";;;"(57) (1) 5365621";"Cl 82 B 95 C-15 Int 204 Colombia, Bogotá"
"IP2STORE S.A.S.";;;"Telefax: (57) (1) 7511365";"Cr8 D 191 - 15 Trr 7 Ap 202 Colombia, Bogotá"
"MULTISERVICIOS M&V";;;"(57) (5) 4207233";"Cr17 22-38 Alcázares Colombia, Santa Marta"
MICROMÁSTER;;;"(57) (4) 2300648";"Cl 43 66-24 Colombia, Medellín"
"First Name";"Email Address";Url;Telephone;Address
"COMPUTADORES H&P SYSTEM";;;"(57) (2) 8239096";"C.C. Campanario L-91 Colombia, Popayán"
"NANO TECH";;;"(57) (1) 2561969";"Cr15 77 Esq P-2 Colombia, Bogotá"
"TECH DATA COLOMBIA S.A.S.";;;"(57) (1) 7452626";"Complejo Logístico Industrial Colombia, Bogotá"
"E.S. EDUCACIÓN INTERNACIONAL";;;"(57) (7) 5711490";"Av 0 11-30 L-209 C.C. Gran Bulevar ya Colombia, Cúcuta"
NETTSYS;;;"(57) (2) 7296053";"Cl 17 25-60 El Liceo L-127 Colombia, Pasto"
"PC PAISA";;;"(57) (4) 4225378";"Cr77 B 49 B-13 Colombia, Medellín"
"COMPUTADORES Y SERVICIOS LTDA.";;;"(57) (4) 2507692";"Cr73 40-51 Colombia, Medellín"
"TRIPLE A COMPUTADORES Y EQUIPOS";;;"(57) (4) 2319206";"Cl 50 45-36 Colombia, Medellín"
"COMPUTADORES PARA EDUCAR";;;"(57) (1) 4132953";"Cr100 25 C-11 Colombia, Bogotá"
"M.A.S. PC";;;"(57) (4) 5480037";"Cr34 28-114 Marinilla Colombia, Medellín"
"COMPUTADORES COMPU CITY";;;"(57) (4) 2768269";"Cr41 36SUR-13 Colombia, Medellín"
"E.P.S. ELECTRONIC'S E.U.";;;"(57) (2) 5244420";"Cr38 A 7-65 Colombia, Cali"
FACICRÉDITOS;;;"(57) (5) 2820370";"Cl 25 21-137 Calle Cauca Colombia, Sincelejo"
"LLANUS LTDA.";;;"(57) (1) 4049317";"Cr106 15-25 Bdg 26 Int 31 Colombia, Bogotá"
"A Y S COMPUTADORES S.A.";;;"Telefax: (57) (1) 5339843";"Cr22 83-40 Colombia, Bogotá"
"SERVI-INGENIERÍA CARTAGENA";;;"(57) 3126699441";"Cartagena Colombia, Cartagena"
TAURO;;;"(57) (4) 7826345";"Cl 37 2-32 Colombia, Montería"
"FABRINTEL LTDA.";;;"(57) (1) 2992718";"Av1 de Mayo-49 B-38 Sur Colombia, Bogotá"
"ENTERPRISE INFORMATICS";;;"(57) (5) 6642374";"Cl 35 8 A-44 L-202 C.C. Centro Uno Colombia, Cartagena"
"PC TECNOLOGÍA Y SISTEMAS";;;"(57) (1) 2123653";"Cr15 73-34 Of 406 Colombia, Bogotá"
"UNIVERSAL SISTEMAS LTDA.";;;"(57) (5) 5844392";"Cr10 15-83 Colombia, Valledupar"
"MAKRO POINT LTDA.";;;"(57) (1) 4163358";"Cr82 24-17 Of 201 Colombia, Bogotá"
"TOTAL COMPUTER";;;"(57) (7) 6576724";"Cr35 A 46-12 Colombia, Bucaramanga"
"CONECCION 2000";;;"(57) (1) 6913923";"Cr15 78-33 L-2-219 Colombia, Bogotá"
"LCA SISTEMAS";;;"(57) (1) 3414132";"Cr22 165-54 Of 43 Colombia, Bogotá"
TECNISOFTWARE;;;"(57) (6) 7466560";"Cl 15 14-28 L-8 Colombia, Armenia"
"D & G COMPUTADORES";;;"(57) (8) 7711313";"C.C. Metrópoli Suamox L-216 Colombia, Sogamoso"
"TECHNICAL SERVICE PC LTDA.";;;"(57) (1) 6065028";"Cr15 78-33 L-1-188 P-1 Colombia, Bogotá"
"COMPUTADORES MUNDO PORTATIL";;;"(57) (4) 2685098";"Cr48 10-45 L-170 Colombia, Medellín"
"CYTECH CALIDAD Y TECNOLOGÍA S.A.S.";;;"(57) (5) 3006921";"Cl 92 70-22 Colombia, Barranquilla"
"SUMINISTROS EL GANGAZO";;;"(57) (4) 2518649";"Cr52 45-62 Int 156 Colombia, Medellín"
"GAMA S.A.";;;"(57) (1) 6347478";"Av (Cr) 15 77-5 L-201 Colombia, Bogotá"
"SERTECOPY S.A.S.";;;"(57) (4) 4444506";"Cl 47 72-64 Colombia, Medellín"
"SOLUCIONES & LTDA.";;;"(57) (1) 2815947";"Av (Cl) 13 4-70 Of 206 Colombia, Bogotá"
"INKDEPOT S.A.S.";;;"(57) (4) 4487621";"Cr35 8 A-44 Of 202 Colombia, Medellín"
"INTELLIGENCE TECHNOLOGIES AND SYSTEMS LTDA.";;;"(57) (1) 4824441";"Tr19 59-63 Colombia, Bogotá"
"BLUE POINT";;;"(57) (1) 6166702";"Cr15 78-33 L-101 Colombia, Bogotá"
"CIERTO INFORMÁTICO";;;"(57) (1) 4802965";"Cr 56A 128-94 Colombia, Bogotá"
"PC SERVISISTEM LTDA.";;;"(57) (5) 3706122";"Cr43 50-12 L-55 Colombia, Barranquilla"
"HARD CONEXION";;;"(57) (5) 3707115";"Cr43 50-12 L-160 C.C. Parque Central Colombia, Barranquilla"
"First Name";"Email Address";Url;Telephone;Address
"HARDWARE & SISTEMAS LTDA.";;;"(57) (5) 3590518";"Cl 84 44-49 L-3 Colombia, Barranquilla"
"COMU PARK";;;"(57) (5) 3721035";"Cr43 50-12 L-140 C.C. Parque Central Colombia, Barranquilla"
"PUNTO DE SERVICIOS CARIBE LTDA.";;;"(57) (5) 3603116";"Cr50 76-19 Colombia, Barranquilla"
"MILENIUM PC S.A.S.";;;"(57) (6) 3446288";"Cr4 20-25 Colombia, Pereira"
"LENOVO MCL";;;"(57) 3156942901";"Cove Sea Side Km 9 + 541 Colombia, San Andrés"
"COMPUNOTA LTDA.";;;"(57) (2) 8243123";"Cr6 5-67 Int 103 Colombia, Popayán"
"BETHEL COMPUTER";;;"(57) (1) 8767117";"Cl 80 Km 1.5 Vía Siberia Parque Agroindustrial Bdg Colombia, Bogotá"
"HARD COMPUTER";;;"(57) (1) 6347664";"Cr15 76-53 Of 404 Colombia, Bogotá"
"FACTORYCERRA LTDA.";;;"(57) (1) 2365059";"Av 15 80-74 Of 302 Colombia, Bogotá"
"FORBES INTERNATIONAL";;;"(57) (8) 5133078";"Loma Barrack 44-107 Colombia, San Andrés"
"VARIEDADES PC-TODO";;;"(57) (4) 8274022";"Cr14 B Cl 101 Colombia, Turbo"
"COMPUCLICK DE COLOMBIA";;;"(57) (2) 6603710";"Av 5 N 23D-68 L-292B Colombia, Cali"
"CENTRAL PARK";;;"(57) (5) 3701014";"Cr43 50-12 L-103 Colombia, Barranquilla"
"DPC SISTEMAS & TELECOMUNICACIONES";;;"(57) (5) 5742020";"CR 11 16-89 L-5 Colombia, Valledupar"
"TINTAS & SUMINISTROS";;;"(57) (5) 7282086";"Cl 7 10-60 L-2 Colombia, Riohacha"
"CDS COMPUTADORES";;;"(57) (1) 6957244";"Cl 59 13-52 Of.203 Colombia, Bogotá"
CM-TECHNOLOGY;;;"(57) 3143804886";"cra 44 B 43-26 Colombia, Barranquilla"
"INGENIERÍA COLOMBIANA DE INFORMÁTICA";;;"(57) (1) 2564739";"Cr15 80-36 Colombia, Bogotá"
"SOLUCIONES SISTEMATIZADAS CALI";;;"(57) (2) 5565951";"Cr34 6-14 Colombia, Cali"
"CISCONEXION S.A.S.";;;"Telefax: (57) (1) 6729302";"Cr63 174 B - 25 Colombia, Bogotá"
"NETDATA COLOMBIA S.A.S.";;;"Telefax: (57) (1) 7563757";"Cr15 88 - 64 Of 714 Colombia, Bogotá"
"ZEBRA TECHNOLOGIES COLOMBIA S.A.S.";;;"Telefax: (57) (1) 6230199";"Tr21 98 - 05 Colombia, Bogotá"
"SISTEMAS CREATIVOS COMPUTADORES";;;"(57) (1) 4646791";"Cr 116 C 65-07 Colombia, Bogotá"
"AMERICAN CORPORATION DISTRIBUIDOR MAYORISTA";;;"(57) (2) 6534861";"Av 5 A N 23 D N-68 Colombia, Cali"
"H.B. INGENIERÍA DEL COMPUTADOR LTDA.";;;"(57) (2) 6649300";"Cl 47 A N 3 G-06 Colombia, Cali"
"REAL WORLD";;;"(57) (2) 6679577";"c.c. La Pasarela Local 201 Colombia, Cali"
"SISTEMAS & TINTAS DE COLOMBIA";;;"(57) (5) 3049986";"Cr 43 50-12 L-3 Colombia, Barranquilla"
"SITEC S.A";;;"(57) (4) 2321010";"Cr 51 41-144 L-109 Colombia, Medellín"
"OASIS COMPUTER.COM";;;"(57) (2) 6677543";"C.C. La Pasarela Cilindro 1 y 2 Colombia, Cali"
"EVOLUTION TECNOLOGÍA DIGITAL";;;"(57) (2) 6679895";"C.C La Pasarela L-2-118 B P-2 Colombia, Cali"
"MUNDO COMPUTO E.U.";;;"(57) (2) 6684926";"Av5 A N 23 D N-68 L-249-C-C La Pasarela Colombia, Cali"
"OMEGA STORE MEDELLIN";;;"(57) (4) 2684417";"Cr 48 10-45 L-358 Colombia, Medellín"
"ASESORÍAS EN SISTEMAS O.F.A.";;;"(57) (2) 6679741";"Cl 28N N 3AN 41 Colombia, Cali"
"MASTER SISTEMAS";;;"(57) (2) 3324793";"Cr94 4-82 Colombia, Cali"
"ARWO COMPUTER LTDA.";;;"(57) (2) 6603755";"Av 5 A N 23 DN-68 L-156B Colombia, Cali"
MICROMÁSTER;;;"(57) (4) 2300648";"Cl 43 66-24 Colombia, Medellín"
"EBM COMPUTADORES LTDA.";;;"(57) (2) 6534427";"Av5 A N 23 D-68 Ap 279 Colombia, Cali"
"SPLAY FOOT";;;"(57) (7) 6227436";"Cl 52 14-70 Colombia, Barrancabermeja"
"FREE WAY COMPUTACIÓN";;;"(57) (2) 2321925";"C.C. La Herradura L-D-07 Colombia, Tuluá"
"EL PC SERVICIO TÉCNICO";;;"(57) (2) 2712973";"Cr25 37-84 Colombia, Palmira"
"First Name";"Email Address";Url;Telephone;Address
"DOCTOR DE COMPUTADORES E.U.";;;"(57) (5) 4221412";"Cl 17 2-63 L-101 Edif Manzanares Rodadero Colombia, Santa Marta"
COMPUSYSTEM'S;;;"(57) (4) 4300230";"Cr84 43-50 Colombia, Medellín"
"REAL WORLD";;;"(57) (2) 6679577";"c.c. La Pasarela Local 201 Colombia, Cali"
"COMPUDRIVE LTDA";;;"(57) (4) 3524344";"Cl 13 43 D-79 Of 201 Colombia, Medellín"
COMPUFAX;;;"(57) (4) 2685186";"Cr 48 10-45 L-280 Colombia, Medellín"
"EXPOCOHEN LTDA.";;;"(57) (2) 8810061";"Cr53 68 B-37 A Colombia, Cali"
"EBM COMPUTADORES LTDA.";;;"(57) (2) 6534427";"Av5 A N 23 D-68 Ap 279 Colombia, Cali"
"SANDALO STORE";;;"(57) (7) 6222413";"Cr18 D 8-09 L-101 Colombia Colombia, Barrancabermeja"
"HP STORE";;;"(57) (6) 3391174";"C.C. Lago Plaza L-116 Colombia, Pereira"
"OMR SYSTEM";;;"(57) (2) 4381535";"Cr13 36-70 Colombia, Cali"
E.PROM;;;"(57) (7) 6471617";"Cr33 47-44 L-128 Colombia, Bucaramanga"
TECNO-SHOP;;;"(57) (6) 3255568";"Cl 24 8-22 L-4 Sector Lago Uribe Colombia, Pereira"
"REPRESENTACIONES INFORMÁTICAS LTDA.";;;"(57) (8) 2641084";"Cr6 31 A-06 Colombia, Ibagué"
"TECSIM LTDA";;;"(57) (7) 6369247";"Cl 105 35-32 Altoviento I Floridablanca Colombia, Floridablanca"
"FPC MICRO";;;"(57) (7) 6388512";"Cl 31A 26-20 Cañaveral Floridablanca Colombia, Floridablanca"
"GADGET LATINO";;;"(57) (1) 6065013";"Cr16 N. 76-42 Of. 205 Colombia, Bogotá"
"WAREHOUSE COMPUTER";;;"(57) (7) 6439461";"Cr38 48-45 Colombia, Bucaramanga"
"AVANCES SOFTWARE";;;"(57) (7) 6802797";"Cr27 36-14 Of 322 Colombia, Bucaramanga"
"DOBLE CLIK";;;"(57) (8) 2653249";"C.C. La Quinta L-226 Colombia, Ibagué"
"DISTRISISTEMAS JGC";;;"(57) (7) 5730506";"Cl 8 7-27 L-216 Centro Colombia, Cúcuta"
"MICRO SYSTEM";;;"(57) (2) 7228336";"Cr24 15-60 L-106 C.C. San Agustín Colombia, Pasto"
"SOPORTE S.A";;;"(57) (4) 4442612";"Cr43 D 13-26 Colombia, Medellín"
"ALMACEN COMPUMARK TURBACO";;;"(57) (5) 6638529";"Turbaco Cr15 19-49 L-2 Av Pastrana Colombia, Cartagena"
"E.I.L. COMPUTADORES";;;"(57) (7) 6524343";"C.C. Sanandresito Centro P-4 L-2-16 Colombia, Bucaramanga"
"COMPUTADORES FAST HARDWARE";;;"(57) (7) 6020814";"Cr19 53-92 Colombia, Barrancabermeja"
XIECOMPUTER;;;"(57) (7) 6556000";"Cr7 8-37A Piedecuesta Colombia, Piedecuesta"
"ZURICH DE OCCIENTE S.A.";;;"(57) (1) 2553580";"Cl 72 5-83 P-11 Colombia, Bogotá"
"CT COMPUTERS";;;"(57) (8) 2719443";"Cl 37 3-15 Colombia, Ibagué"
"WORLD PC";;;"(57) (2) 2287292";"Cr 9 7-02 Colombia, Buga"
"A.P. COMPUTADORES";;;"(57) (2) 6611666";"C.C. Pasarela L-229 Colombia, Cali"
"VIRTUAL TRONIC";;;"(57) (4) 2609245";"Cl 48 D 65 A-57 Int 201 Colombia, Medellín"
"ACCESORIOS & SUMINISTROS";;;"(57) (2) 2708256";"Cl 30 30-55 Colombia, Palmira"
SERCOMPAL;;;"(57) (2) 2143777";"Cl 12 2-50 P-1 L-4 Colombia, Cartago"
"ASTROCOMPUTO E.U.";;;"(57) (2) 6677477";"Av5 A N 23 D N-68 L-2-100 Colombia, Cali"
"CONEXION DIGITAL";;;"(57) (2) 7292652";"Cl 17 25-60 L-108 Pasaje El Liceo Colombia, Pasto"
"ASIA MICROCOMPUTADORES LTDA.";;;"(57) (1) 3100766";"Cr10 65-35 Of 605 Colombia, Bogotá"
MEGATINTAS;;;"(57) (4) 4133849";"Cl 35 80-48 Colombia, Medellín"
"COMPUMAX COMPUTER";;;"(57) (7) 6323227";"Cl 41 35-39 Colombia, Bucaramanga"
"COMERCIALIZADORA VICENZA";;;"(57) (6) 3330320";"Cr8 16-54 L-160 Colombia, Pereira"
"ALMACEN PC TINTAS";;;"(57) (4) 5128073";"Cl 50 45-45 L-106 Colombia, Medellín"
"First Name";"Email Address";Url;Telephone;Address
"GV COMPUTADORES LTDA.";;;"(57) (1) 2185714";"Cr15 78-33 L-237 Colombia, Bogotá"
"XSYSTEM LTDA.";;;"(57) (1) 4160177";"Av (Cl) 26 69 D-91 Of 705 Colombia, Bogotá"
"INFOSTORE INFORIENTE LTDA.";;;"(57) (7) 5711226";"Av0 14-46 La Playa Colombia, Cúcuta"
"SISTEMAS COMPUSET LTDA.";;;"(57) (1) 5308004";"Cr15 78-33 L-262 M Colombia, Bogotá"
"COLSISMA LTDA.";;;"(57) (1) 2696370";"Cl 28 32 A-67 P-3 Of 302 Colombia, Bogotá"
"AYAMA SYSTEMS";;;"(57) (7) 5722283";"Cl 9 5-68 L-304 C.C. Indianápolis Colombia, Cúcuta"
"ATLAS COMPUTADORES";;;"(57) (1) 2185078";"Cl 77 A 13 A-09 Colombia, Bogotá"
NEXUS;;;"(57) (7) 6571060";"Cr38 52-40 Colombia, Bucaramanga"
"ON LINE DIGITAL STORE";;;"(57) (7) 6475377";"Cr33 48-111 L-101 Cabecera del Llano Colombia, Bucaramanga"
COMPUMARKAS;;;"(57) (5) 2752100";"Cl 28 20-27 L-2 y 3 Edif Cámara de Comercio Colombia, Sincelejo"
"A.P. COMPUTADORES";;;"(57) (2) 6611666";"C.C. Pasarela L-229 Colombia, Cali"
"VIRTUAL TRONIC";;;"(57) (4) 2609245";"Cl 48 D 65 A-57 Int 201 Colombia, Medellín"
JENSEN.NET.COM;;;"(57) (2) 4418404";"Cr23 51-76 P-1 Colombia, Cali"
"COMPUTADORES COLOMBIA CORPORATION";;;"(57) (2) 3808721";"Cr42 1 A-56 Colombia, Cali"
YURISISTEMAS;;;"(57) (2) 6535623";"Av5 A N 23 D-68 L-150 Colombia, Cali"
"CONEXION DIGITAL";;;"(57) (2) 7292652";"Cl 17 25-60 L-108 Pasaje El Liceo Colombia, Pasto"
"DESK'S COMPUTER";;;"(57) (1) 6185617";"Cr15 78-33 L-2-275 Colombia, Bogotá"
"ALMACEN PC TINTAS";;;"(57) (4) 5128073";"Cl 50 45-45 L-106 Colombia, Medellín"
GENERACIÓN;;;"(57) (6) 8759857";"Cr23 63-15 Of. 305-A Colombia, Manizales"
"COMTROLEX LTDA.";;;"Telefax: (57) (1) 5207425";"Cl 143 49 - 37 Colombia, Bogotá"
"OP SYSTEM LTDA.";;;"(57) (1) 8045053";"Tr19 43-62 S Colombia, Bogotá"
"V&M INVERSIONES E.U.";;;"(57) (5) 4217302";"Cl 10 5-52 Colombia, Santa Marta"
TECNOBYTE;;;"(57) (1) 5308018";"Cl 79 14-56 Of 3015 Colombia, Bogotá"
"NEO TRONIX";;;"(57) (1) 2988971";"Cr88 Bis 31-16 Int 1 Ap 301 Colombia, Bogotá"
"NOTEBOOK CENTER E.U";;;"(57) (1) 2578250";"Cl 79 18-34 Of 508 Colombia, Bogotá"
INFOSUR;;;"(57) (2) 8209757";"Cr6 9-74 Colombia, Popayán"
KOMPUKORV;;;"(57) (1) 6356579";"Cr16 79-20 Colombia, Bogotá"
"SUMI PRINTERS LTDA";;;"(57) (1) 2104149";"Cl 67 13-09 Colombia, Bogotá"
"TECH DATA COLOMBIA S.A.S.";;;"(57) (1) 7452626";"Complejo Logístico Industrial Colombia, Bogotá"
"TECNOLOGÍA R.H.";;;"(57) (7) 5830534";"Av5 11-63 L-222 C.C. Internacional Lecs Colombia, Cúcuta"
"LAGA COMPUTERS";;;"(57) (4) 3520363";"Cr48 10-45 L-312 Colombia, Medellín"
"WORLD MERCHANDISE COMPUTER";;;"(57) (4) 2663422";"Cr48 10-45 L-215 Colombia, Medellín"
"OFFISA S.A.S";;;"(57) (4) 4447370";"Cr90 A 42 C-41 Int 201 Colombia, Medellín"
"PORTÁTILES & PORTÁTILES";;;"(57) (4) 3630873";"Cr55 12 S-09 Int 312 Colombia, Medellín"
"PC PORTATIL";;;"(57) (4) 3141803";"Cr48 10-45 L-243 Colombia, Medellín"
"DY COMPUTADORES";;;"(57) (4) 2319266";"Cl 54 57-60 Int 36 Colombia, Medellín"
"SISTEMAS CYBERNET";;;"(57) (4) 2303533";"Cr65 50-19 C C Contemporáneo Colombia, Medellín"
INFOSERVER;;;"(57) (4) 2319260";"Cr48 10-45 Of 2203 Colombia, Medellín"
"ABCL TECNOLOGÍA LTDA.";;;"Conm.: (57) (2) 6662106";"Av4 B N 47 A N-60 Colombia, Cali"
"SISA S.A.";;;"Conm.: (57) (4) 3112124";"Cr43 A 1-85 Of 404 Colombia, Medellín"
"First Name";"Email Address";Url;Telephone;Address
"I.R COMPUTADORES Y SUMINISTROS";;;"(57) (4) 7812072";"Cr8 30-03 Esq Colombia, Montería"
"ARÉVALO AMARIS";;;"(57) (1) 6231825";"Cr16 A 80-74 Of 505 Colombia, Bogotá"
"GALVIS VALENCIA DIANA PATRICIA";;;"(57) (1) 2476201";"Cl 9 37-40 L-2001 Colombia, Bogotá"
"LEXMARK DE COLOMBIA";;;"(57) (1) 6580058";"Av (Cr) 7 114-33 Of 501 Colombia, Bogotá"
"COMPUTER ASOCIADOS DE COLOMBIA LTDA.";;;"(57) (1) 6918014";"Cr15 76-53 Of 502 Colombia, Bogotá"
"BEST BUY COMPUTER";;;"(57) (7) 6430887";"Cr33 48-109 L-205 Cabecera del Llano Colombia, Bucaramanga"
SOFTSTATION;;;"(57) (1) 2327509";"Av Caracas 33-50 P-2 Colombia, Bogotá"
"ENTER SYSTEM";;;"(57) (1) 6357000";"Cl 77 A 13A-09 Colombia, Bogotá"
"TEKNOVA COLOMBIA";;;"(57) (6) 3413385";"Cl 19 5-48 L-216 Colombia, Pereira"
DATA;;;"(57) (5) 3701937";"Cr43 50-12 L-117 Colombia, Barranquilla"
TECNO-EQUIPOS;;;"(57) (5) 3523091";"Cl 75 B 26 C-07 Colombia, Barranquilla"
"E SOURCE DE COLOMBIA S.A.S.";;;"(57) (1) 5085166";"Cr15 106-32 Of 608 Colombia, Bogotá"
"CESCOMP COMPUTADORES & SUMINISTROS LTDA.";;;"(57) (5) 3782330";"Cr52 B 96-68 Colombia, Barranquilla"
"COMPUMAX COMPUTER LTDA.";;;"(57) (2) 4853459";"Av 5 N 23 DN-68 L-2-118 Colombia, Cali"
"SHOPPING COMPUTERS LTDA.";;;"(57) (1) 6160611";"Cr15 78-33 Colombia, Bogotá"
"INFORMATICA & ELECTRÓNICA";;;"(57) (4) 2501484";"Cl 34 B 82 A-03 Colombia, Medellín"
"SUN MICROSYSTEMS DE COLOMBIA S.A.";;;"(57) (1) 6286330";"Av82 10-50 P-8 Colombia, Bogotá"
"MONTES HERRERA CARLOS ANDRÉS";;;"(57) (1) 6065481";"Cr15 77-05 L-281 Colombia, Bogotá"
"ACCESTECH LTDA";;;"(57) (1) 2152125";"Av (Cr) 15 124-49 Altillo A-704 Colombia, Bogotá"
"SYWORKS LATINAMERICA";;;"(57) (1) 6015151";"Cl 100 14-63 Of 203 Colombia, Bogotá"
COMPUOFERTAS;;;"(57) (2) 8390346";"Cr8 2-04 Colombia, Popayán"
COMPYSER;;;"(57) (4) 8315191";"Cl 49 49-05 Colombia, Segovia"
"CK STORE COMPUTER LTDA";;;"(57) (76) 5654928";"Cl 6 16-66 L-3 Colombia, Aguachica"
"COMPUPARTES DEL CARIBE C";;;"(57) (5) 3724400";"Cl 63 14-50 L-1 Colombia, Barranquilla"
"TECNOSISTEMAS Y REDES J.M.I. E.U.";;;"(57) (5) 3793857";"Cr43 50-12 L-137 C.C. Parque Central Colombia, Barranquilla"
"COMPUCLICK DE COLOMBIA";;;"(57) (2) 6603710";"Av 5 N 23D-68 L-292B Colombia, Cali"
"SALES D SERVICES TECHNOLOGY SYSTEMS CÍA.";;;"(57) (1) 2188267";"Av (Cr) 15 79-69 L-108 Colombia, Bogotá"
"OSORIO C. EDWIN R.";;;"(57) (1) 3482662";"Av Caracas 56-16 L-12-B Colombia, Bogotá"
"SISTEMAS & SOLUCIONES E.D.B";;;"(57) (5) 7283131";"Cl 7 10-60 L-1 Colombia, Riohacha"
"MEMORY CONEXION LTDA.";;;"Telefax: (57) (1) 8073131";"Cr15 76 - 53 Ap 100 Colombia, Bogotá"
"ENTER CENTER";;;"(57) (1) 2826359";"Cr9 23-49 L-216 Colombia, Bogotá"
"WORK 2000";;;"(57) (1) 3457403";"Cr14 75-87 Of 305 Colombia, Bogotá"
"COMPU ABI";;;"(57) (5) 3794079";"Cr43 50-12 L-99 Colombia, Barranquilla"
"RECARGAMOS SUS CARTUCHOS";;;"(57) (8) 7407843";"Cr9 18-12 L-203 Colombia, Tunja"
"RUBY & MARIO IMPORTS S.A.S.";;;"Telefax: (57) (1) 2632794";"Av Eldorado 84 D 55 L-38 Colombia, Bogotá"
"COMPU STAR";;;"(57) (8) 7630086";"Cl 18 13-16 Colombia, Duitama"
"TOOLKIT SYSTEM COMPUTER";;;"(57) (1) 5301662";"Cr15 78-77 L-1-197 Colombia, Bogotá"
"LA FRONTERA COMPUTER SHOP";;;"(57) (7) 8851655";"Cr21 26-21 Colombia, Arauca"
"ALMACÉN LOGRAN TECHNOLOGY";;;"(57) (5) 4231422";"Cl 15 5-66 Colombia, Santa Marta"
"COMERCIALIZADORA METROPOLITANA LTDA.";;;"(57) (5) 4314323";"Cl 14 6-31 Colombia, Santa Marta"
"First Name";"Email Address";Url;Telephone;Address
TECNIPROF;;;"(57) (4) 2537403";"Cr88 44-48 Colombia, Medellín"
"COMPUCENTRO DE COLOMBIA";;;"(57) (1) 2840843";"Cr10 21-06 L-243-223 C.C. La 21 Colombia, Bogotá"
CONECTIVA;;;"(57) (7) 6430895";"Cr33 48-109 C.C. Gratamira L-213 Colombia, Bucaramanga"
COMPUDUAL;;;"(57) (7) 6430692";"Cr33 47-44 L-130 Colombia, Bucaramanga"
"COMPUTADORES TECNORED";;;"(57) (2) 2257311";"Cr25 29-69 Colombia, Tuluá"
"SOLUCIONES EN SOFWARE EMPRESARIAL SOLSOFT S.A.";;;"(57) (2) 2262679";"Cr26 31-33 Colombia, Tuluá"
GEOCOMPUTADORES;;;"(57) (7) 6430867";"C.C. Gratamira L-109 Colombia, Bucaramanga"
COPY.COM;;;"(57) (8) 4357410";"Cr12 Cl 13 Esq Colombia, Florencia"
"MÚNERA PARTES LTDA.";;;"(57) (2) 6683333";"Av5 A N 23 D-68 L-107 Colombia, Cali"
"C.I. VIRTUAL E.U.";;;"(57) (7) 6382004";"Cr23 31-24 Casa 25 Cañaveral Campestre III Floridablanca Colombia, Floridablanca"
"IMPORTRANS ZC LTDA.";;;"(57) (1) 6249584";"Autop MedellÚn Km 1.7 VÚa Siberia Costado Sur entrada al Parque La Florida Parqu Colombia, Bogotá"
"ALDELO FOR RESTAURANTS";;;"(57) 3186934611";"Bucaramanga Colombia, Bucaramanga"
"GADGET LATINO";;;"(57) (1) 6065013";"Cr16 N. 76-42 Of. 205 Colombia, Bogotá"
"AVANCES SOFTWARE";;;"(57) (7) 6802797";"Cr27 36-14 Of 322 Colombia, Bucaramanga"
"DOBLE CLIK";;;"(57) (8) 2653249";"C.C. La Quinta L-226 Colombia, Ibagué"
"MICROCELL COLOMBIA LTDA.";;;"Conm.: (57) (1) 6220099";"Cl 89 20-45 Colombia, Bogotá"
"SISTEMAS COMPUSET LTDA.";;;"(57) (1) 5308004";"Cr15 78-33 L-262 M Colombia, Bogotá"
"AGRICULTURA Y SISTEMAS LTDA.";;;"(57) (1) 3483680";"Cl 72 A 17-24 Of 202 Colombia, Bogotá"
COMPUELITE;;;"(57) (5) 3722877";"Cr43 50-12 L-45 Colombia, Barranquilla"
CIBERLINK;;;"(57) (1) 4751921";"Cr15 77-05 L 202 Sentro De Alta Tecnología Colombia, Bogotá"
"ALMACEN COMPUMARK TURBACO";;;"(57) (5) 6638529";"Turbaco Cr15 19-49 L-2 Av Pastrana Colombia, Cartagena"
"LA CASITA TECNÓLOGICA";;;"(57) (2) 6677570";"Av5 A N 23 D N-68 L-171 Colombia, Cali"
"COMPU MEMORY LTDA.";;;"(57) (1) 6101103";"Cr15 79-70 Of 403 Colombia, Bogotá"
"TIENDAS HP";;;"(57) (7) 6471515";"Cr47 65-61 Of 101 La Floresta Colombia, Bucaramanga"
"ZURICH DE OCCIENTE S.A.";;;"(57) (1) 2553580";"Cl 72 5-83 P-11 Colombia, Bogotá"
"EXPLORAR COMPUTADORES E.U";;;"(57) (4) 4487677";"Cr48 10-45 L 375 Colombia, Medellín"
"HP CENTER";;;"(57) (7) 6577779";"Cr29 49-16 Colombia, Bucaramanga"
"SUPER POWER COMPUTER";;;"(57) (5) 7287560";"Cl 7 9-105 Colombia, Riohacha"
"ISL S.A.";;;"Nal: (57) (7) 6455547";"Cl 30 29-58 Colombia, Bucaramanga"
"CLUSTERS COMPUTADORES";;;"(57) (7) 6430886";"Cr33 48-109 L-204 Cabecera del Llano Colombia, Bucaramanga"
KONNEN;;;"(57) (8) 2654735";"C.C. La Quinta L-260 Colombia, Ibagué"
"WORLD PC";;;"(57) (2) 2287292";"Cr 9 7-02 Colombia, Buga"
"ONLINE COMPUTERS";;;"(57) (8) 8626847";"Cr6 40-50 Colombia, Neiva"
"PLANETA PC";;;"(57) (2) 2250863";"Cr25 30-70 Colombia, Tuluá"
"INFORMATICA ACTUALIZADA";;;"(57) (8) 8673336";"Cl 20 A 26-43 Colombia, Neiva"
"COMPU SOFT";;;"(57) (2) 2714522";"Cr29 32-139 Colombia, Palmira"
"ACCESORIOS & SUMINISTROS";;;"(57) (2) 2708256";"Cl 30 30-55 Colombia, Palmira"
"COMPUTADORES COLOMBIA CORPORATION";;;"(57) (2) 3808721";"Cr42 1 A-56 Colombia, Cali"
"TECHNOLOGY CENTER.CO";;;"(57) (2) 3241328";"Cr79 3 C-08 Colombia, Cali"
SYSTEMCOMPUTO;;;"(57) (6) 8805529";"Cr23 23-60 Of 208-A Colombia, Manizales"
"First Name";"Email Address";Url;Telephone;Address
"GRUPO PHOENIX S.A.S.";;;"Telefax: (57) (1) 6433482";"Cl 100 60 - 04 Of 619 Colombia, Bogotá"
"TECNO SISTEM I G S.A.";;;"(57) (2) 8242902";"Cl 7 A 12-31 Brr. Valencia Colombia, Popayán"
"TECH WORLD CO CÍA LTDA.";;;"(57) (1) 6948179";"Cl 80 27-41 P-2 Colombia, Bogotá"
"LOTTOTEC S.A.S.";;;"Telefax: (57) (1) 4039420";"Cr68 M 37 D - 35 S Colombia, Bogotá"
OUTLETSPOT;;;"(57) (1) 6130086";"Av (Cl) 127 71 B-30 Colombia, Bogotá"
"MUNDO PC.COM";;;"(57) (1) 2367154";"Cr15 79-84 Colombia, Bogotá"
"COMPUTER WORKING S.A.S.";;;"(57) (5) 6601555";"Matuna C.C. Centro Uno L-220-221-222 Av Venezuela Colombia, Cartagena"
"MI PC Y SU MUNDO";;;"(57) (8) 8364636";"Cl 3 5-19 Colombia, Pitalito"
"SMITH DATATEL";;;"(57) 3163890512";"Av Newball Torres Sunrise Beach Of 332 Colombia, San Andrés"
NETTSYS;;;"(57) (2) 7296053";"Cl 17 25-60 El Liceo L-127 Colombia, Pasto"
"SISTEMAS EXPERTOS LTDA.";;;"(57) (4) 4441899";"Cr73 30 C-116 Of 301 Colombia, Medellín"
NAVEGANDO.COM;;;"(57) (4) 2538472";"Cl 42 C 88-15 Colombia, Medellín"
"PC GENIUS";;;"(57) (4) 3115296";"Cr36 8 A-33 Colombia, Medellín"
"EMPORIO DIGITAL DE COLOMBIA";;;"(57) (4) 2312949";"Cl 46 53-40 L-131 Colombia, Medellín"
"ENLACE TECNOLÓGICO";;;"(57) (4) 5138697";"Cr45 44-69 Colombia, Medellín"
"M.A.S. PC";;;"(57) (4) 5480037";"Cr34 28-114 Marinilla Colombia, Medellín"
SYSTCOM.COM;;;"(57) (8) 8721068";"Cr8 9-06 Colombia, Neiva"
IMPOEQUIPOS;;;"(57) (1) 2188940";"Cr15 78-33 L-163 Colombia, Bogotá"
FACICRÉDITOS;;;"(57) (5) 2820370";"Cl 25 21-137 Calle Cauca Colombia, Sincelejo"
"LLANUS LTDA.";;;"(57) (1) 4049317";"Cr106 15-25 Bdg 26 Int 31 Colombia, Bogotá"
"COMCENTER LTDA.";;;"(57) (4) 7823711";"Cl 30 7-64 Colombia, Montería"
COMPULAPTOPS;;;"(57) 3004817343";"Cr 5 6-36 C.C. Pasaje la Quinta L-41 Colombia, Popayán"
"A Y S COMPUTADORES S.A.";;;"Telefax: (57) (1) 5339843";"Cr22 83-40 Colombia, Bogotá"
"JG INTEGRADORES DE SISTEMAS LTDA.";;;"(57) 3008088959";"Urb Camagüey Et 3 Casa 10 Colombia, Cartagena"
COMUEBLES;;;"(57) (4) 7824545";"Cl 32 12-36 Colombia, Montería"
ROKA;;;"(57) (1) 6412939";"Cr15 78-33 L-113 Colombia, Bogotá"
"COMPUSUMINISTROS LTDA.";;;"(57) (7) 6472695";"Cl 35 # 18-65 L-217 Colombia, Bucaramanga"
"MAC SOLUTIONS";;;"(57) (1) 3142010";"Cr15 74-45 Of 202 Colombia, Bogotá"
"CREDICOMPUTO DISTRIBUIDORES DE SISTEMAS LTDA.";;;"(57) (1) 4824397";"Cr15 79-69 L-202 Colombia, Bogotá"
"LA TIENDA";;;"(57) 3178273852";"Av Libertadores con Av Costa Rica Colombia, San Andrés"
COMPUFER;;;"Nal: (57) (1) 6409180";"Cra 15 Nro 77-05 Local 230 Colombia, Bogotá"
"FUTURA COMPUTADORES";;;"(57) (1) 2561522";"Cr13 A 78-51 Colombia, Bogotá"
"MI PC CENTER";;;"(57) (5) 6646554";"C.C. Getsemani L-1A-17 Colombia, Cartagena"
"ASESORES LANIER";;;"(57) (5) 5747728";"Cl 17 9-20 L-209 C.C. Torcoroma Colombia, Valledupar"
"AOL GLOBAL";;;"(57) (4) 4443595";"Dg 79 A 5-299 Bl 17 Int 3 Colombia, Medellín"
"TONER EXPRESS";;;"(57) (4) 4480333";"Cl 50 45-45 L 141 Colombia, Medellín"
"N@CHO COMPUTADORES";;;"(57) (6) 7466349";"Cr14 13-18 Colombia, Armenia"
"MULTIMEDIA WORLD";;;"(57) (1) 4123402";"Cl 6 D 79A-76 int 6 Of 429 Colombia, Bogotá"
"DATATEG SOLUCIONES EN TECNOLOGÍA";;;"(57) (6) 3242707";"Cr5 20-09 Colombia, Pereira"
"SIRES LTDA.";;;"(57) (4) 2328582";"Cr51 41-144 L-144 Colombia, Medellín"
"First Name";"Email Address";Url;Telephone;Address
"First Name";"Email Address";Url;Telephone;Address
"INTECSA DE COLOMBIA";;;"(57) (8) 6718191";"Cl 41 30 A-44 Centro Colombia, Villavicencio"
"STORE MEDIA";;;"(57) (6) 7451714";"Cr15 14-38 L-15 Colombia, Armenia"
MEGASYSTEM;;;"(57) (7) 6475437";"C.C. Gratamira Cr33 48-109 L-117 Colombia, Bucaramanga"
"D & G COMPUTADORES";;;"(57) (8) 7711313";"C.C. Metrópoli Suamox L-216 Colombia, Sogamoso"
SERVIMICROS;;;"(57) (4) 4443403";"Cl 33 42 B-41 L-166 Colombia, Medellín"
"SUMINISTROS EL GANGAZO";;;"(57) (4) 2518649";"Cr52 45-62 Int 156 Colombia, Medellín"
"SOLUX SYSTEMS ASOCIADOS LTDA.";;;"(57) (5) 3596690";"Cr44 84-121 Colombia, Barranquilla"
"DATATEG SOLUCIONES EN TECNOLOGÍA";;;"(57) (6) 3242707";"Cr5 20-09 Colombia, Pereira"
"LA CASA DEL CELULAR";;;"(57) (7) 5710080";"Av6 Cl 8 L-14-153 Colombia, Cúcuta"
"HIGH TECH";;;"(57) (1) 8050511";"Cr15 78-33 L-2-315 Colombia, Bogotá"
"DISTRIBUCIONES EL COLEGIO";;;"(57) (4) 7815551";"Cr3 25-12 P-1 Edif María Martelo Colombia, Montería"
"AB TECNOSISTEM S.A.S.";;;"(57) (5) 7275595";"Cl 6 6-70 Colombia, Riohacha"
"EXPRESS COMPUTO";;;"(57) (1) 6101399";"Cr16 76-55 Of 102 Colombia, Bogotá"
"SMART HAUSE P.C S.A.S";;;"(57) (4) 5143049";"Cr46 47-66 Colombia, Medellín"
"DROGUERÍA E-FARMA";;;"(57) (5) 3579301";"Cr47 87-10 Colombia, Barranquilla"
"CABALLERO MARÍA EUGENIA";;;"(57) (1) 5307340";"Cr15 78-33 L-123 Colombia, Bogotá"
SYSLOG;;;"(57) (8) 8714918";"Cl 4 5-98 P-2 Colombia, Neiva"
"HARDWARE Y SOLUTIONS";;;"(57) (5) 3449029";"Cr43 50-12 L-14 C.C. Parque Central Colombia, Barranquilla"
"CD COMPUTO ACTUALIZAMOS TU MUNDO S.A.S.";;;"(57) (5) 3517805";"Cr43 50-12 L-154 Parq Central Colombia, Barranquilla"
"SOLUCIONES EN SISTEMAS JARA";;;"(57) (4) 3740551";"Cr50 31-68 Itagüí Colombia, Itagüí"
"INFORMATICA & ELECTRÓNICA";;;"(57) (4) 2501484";"Cl 34 B 82 A-03 Colombia, Medellín"
"TECNO SISTEM";;;"(57) (4) 3116676";"Centro Comercial Monterrey L-256 Colombia, Medellín"
"COMPU DIZ";;;"(57) (4) 8110447";"Brr. Obrero 8 B 16-48 Colombia, Montería"
"COMPUSAR DE COLOMBIA LTDA.";;;"(57) (1) 6409171";"Cr15 77-05 L-220 Colombia, Bogotá"
"PC NET";;;"(57) (4) 8401846";"Plaza Principal Fredonia Colombia, Fredonia"
"HARD COMPUTER";;;"(57) (1) 6347664";"Cr15 76-53 Of 404 Colombia, Bogotá"
"FACTORYCERRA LTDA.";;;"(57) (1) 2365059";"Av 15 80-74 Of 302 Colombia, Bogotá"
"SERVI COMPUTO";;;"(57) (4) 2930759";"Cl 54 57-60 Int 39 Colombia, Medellín"
"ANTECH E.U.";;;"(57) (2) 8240928";"Cl 2 5-49 Centro Colombia, Popayán"
"COMPUCLÍNICA LTDA.";;;"(57) (1) 6910866";"Cr13 A 78-50 Colombia, Bogotá"
"GF STATION";;;"(57) (1) 6408411";"Av (Cr) 15 77-5 L-117 Colombia, Bogotá"
"COMPU TIENDAS CAUCASIA";;;"(57) (4) 8393341";"Cl 21 8-118 Colombia, Caucasia"
"@LOTUX TECNOLOGY";;;"(57) (1) 2361416";"Cr 48 95 - 28 Colombia, Bogotá"
"INVERSIONES OFICÓMPUTO J Y L LTDA.";;;"(57) (5) 3407862";"Cr43 50-12 L-164 C.C. Parque Central Colombia, Barranquilla"
"MUNDO SISTEMAS LTDA.";;;"(57) (2) 4211126";"Cl 82 C 23 A-04 Colombia, Cali"
"SISTEMAS A.W.";;;"(57) (1) 6221723";"Cr.15-05 L-277 Colombia, Bogotá"
"NOTEBOOK POINT LTDA.";;;"(57) (1) 6221854";"Cr.15 77-05 L-107 Colombia, Bogotá"
"FOCUS TECHNOLOGY S.A.S.";;;"(57) (1) 7589827";"Cr15 83-24 Of 501 D Colombia, Bogotá"
"MAB COMPUTADORES Y SUMINISTROS";;;"(57) (5) 3702460";"Cr43 50-12 L-98 C.C. Parque Central Colombia, Barranquilla"
"HARDWARE & TECNOLOGÍA LTDA.";;;"(57) (5) 3510944";"Cr43 50-12 L-63 Colombia, Barranquilla"
"First Name";"Email Address";Url;Telephone;Address
"M H COMPUTERS LTDA.";;;"(57) (2) 6682488";"Av5 A N 24 N-27 Colombia, Cali"
"TITANIO P.C.";;;"(57) (2) 2119100";"Cl 12 3-66 L-120 C.C. Villa de Robledo Colombia, Cartago"
"NUEVOS & USADOS";;;"(57) (2) 6615276";"Av5 N 23 D N-68 L-276 Colombia, Cali"
"MICROTEL VENTA DE PORTÁTILES Y EQUIPOS DE OFICINA";;;"(57) (7) 5720825";"Cl 12 4-19 Of 603 Edif Panamericano Colombia, Cúcuta"
"DATAPOWER LTDA.";;;"(57) (1) 6169710";"Cl 95 47 A-01 Int 7 Colombia, Bogotá"
"LA BODEGUITA";;;"(57) (2) 2326363";"Cr 30 Cl 27 Esq. L-1 Colombia, Tuluá"
"DESK'S COMPUTER";;;"(57) (1) 6185617";"Cr15 78-33 L-2-275 Colombia, Bogotá"
"QUESADA RODRÍGUEZ DISTRIBUCIONES";;;"(57) (8) 7447030";"Av Colón 21-33 Colombia, Tunja"
"LA CASA DEL USADO";;;"(57) (6) 3336099";"Cl 19 12-69 L-E-114 Colombia, Pereira"
COM.REDES;;;"(57) (1) 6353407";"Cl 99 49-19 Colombia, Bogotá"
"MC COMPUTER SOLUTIONS LTDA.";;;"(57) (1) 6221338";"Cr16 79-20 Of 213 Colombia, Bogotá"
"SMARTTEK S.A.S.";;;"Telefax: (57) (1) 6065666";"Cr25 51 - 42 P-2 Colombia, Bogotá"
"SONIA JIMENA TORRES GARCÍA S.A.S.";;;"Telefax: (57) (1) 7043577";"Cl 70 A 57 B - 77 Colombia, Bogotá"
"CIGARRERÍA PUNTO 15";;;"(57) (1) 2567131";"Cr15 79-99 Ap 301 Colombia, Bogotá"
"PGM SISTEMAS LTDA.";;;"(57) (1) 6107494";"Cr.15 78-05 L-299 Colombia, Bogotá"
COMPUFULL;;;"(57) 3108094502";"Cr6 8-15 Calle Real Colombia, Pamplona"
"JRM COMPUTER LTDA.";;;"Telefax: (57) (5) 3516839";"Cr43 50-12 L-130-A Colombia, Barranquilla"
"COMPULAGO LTDA.";;;"(57) (5) 6602294";"C.C. Centro Uno L-224 Colombia, Cartagena"
"NEO TRONIX";;;"(57) (1) 2988971";"Cr88 Bis 31-16 Int 1 Ap 301 Colombia, Bogotá"
"OPEN TECNOLOGÍA S.A.";;;"(57) (1) 2950100";"Cr70 C 49-68 Colombia, Bogotá"
"COMPUSOFT INGENIERIA LTDA.";;;"Telefax: (57) (1) 2308930";"Cr68 D 34 A - 11 S P-1 Colombia, Bogotá"
"LUERCOMP LTDA.";;;"(57) (1) 7538032";"Luercomp Ltda. Colombia, Bogotá"
"MOBILITY GLOBAL S.A.S.";;;"Telefax: (57) (1) 6156689";"Cl 152 A 7 H - 11 Colombia, Bogotá"
"MICROLOGIC LTDA.";;;"(57) (1) 6910466";"Cr16 79-20 Of 608 Colombia, Bogotá"
"SISTECOM DE OCCIDENTE";;;"(57) (2) 7294722";"Cl 17 25-60 C.C. El Liceo L-132 Colombia, Pasto"
"PC'S - LINE";;;"(57) (2) 7238922";"C.C. San Agustín L-303 Centro Colombia, Pasto"
"NET-TROPOLIS SERVICIOS INTEGRALES";;;"(57) (1) 5420811";"Cl 65 B 71-36 Colombia, Bogotá"
"NEOGEK SOLUCIONES EMPRESARIALES";;;"(57) (1) 8038836";"Cl 38 82 A-38 Colombia, Bogotá"
"JP COMPUTADORES";;;"(57) (8) 4365070";"Cl 11 9 A-20 La Estrella Baja Colombia, Florencia"
"SISTEMAS EXPERTOS LTDA.";;;"(57) (4) 4441899";"Cr73 30 C-116 Of 301 Colombia, Medellín"
"GB TECHX";;;"(57) (4) 4443398";"Cr36 10-15 Of 204 Edif Manantiales Colombia, Medellín"
"PORTÁTILES & PORTÁTILES";;;"(57) (4) 3630873";"Cr55 12 S-09 Int 312 Colombia, Medellín"
CELCOMP;;;"(57) (4) 3222770";"Cl 38 A S 41-52 Envigado Colombia, Envigado"
"SOPORTEC COMPUTADORES";;;"(57) (4) 5530616";"Cl 18 19-74 L-102 La Ceja Colombia, Medellín"
"HP STORE";;;"(57) (8) 5132840";"Av Los Libertadores 257 frente al Palacio de Justicia Colombia, San Andrés"
"ABCL TECNOLOGÍA LTDA.";;;"Conm.: (57) (2) 6662106";"Av4 B N 47 A N-60 Colombia, Cali"
"OFIMAC COMPUTADORES";;;"(57) (4) 2602335";"Cl 48 D 66-15 L-109 Colombia, Medellín"
"MÉNDEZ LUGO JHON FARID";;;"(57) (8) 8717849";"Cl 8 12-25 Of 202 Colombia, Neiva"
"PANTHER SERVICE E.U.";;;"(57) (1) 7595605";"Cr15 78-33 L-1-204 Colombia, Bogotá"
"PC ASSISTANCE LTDA.";;;"(57) (1) 6917951";"Cl 80 14-60 Of 402 Colombia, Bogotá"
"First Name";"Email Address";Url;Telephone;Address
"COMPUTADORES, PARTES Y REDES";;;"(57) (4) 2685272";"Cr48 10-45 L-2204 Colombia, Medellín"
"COMERCIALIZADORA TECNOLOGICA MILENIUM";;;"(57) (2) 2690514";"Cr10 8-22 Jamundí Colombia, Cali"
"ELECTRODOMESTICOS E INFORMATICA E.U.";;;"(57) (1) 7034833";"Cr 111 A 88 B-51 Colombia, Bogotá"
"CARIBEAN DATA";;;"(57) (8) 7610729";"Cl 15 16-25 L-104 Colombia, Duitama"
COPIERCOMPUTER;;;"Nal: (57) (5) 6612265";"Sector San Pedro Manz 4 Lt 11 Colombia, Cartagena"
"SISTEMAS CREATIVOS COMPUTADORES";;;"(57) (1) 4646791";"Cr 116 C 65-07 Colombia, Bogotá"
"MAKROSOLUTIONS S.A.S.";;;"(57) (1) 5354860";"Cl 132 D 144 A-09 Colombia, Bogotá"
"A.T.C. ALTA TECNOLOGÍA EN COMPUTADORES";;;"(57) (2) 2754294";"Cr25 B 47-09 Colombia, Palmira"
"SYSTEC COMPUTADORES";;;"(57) (7) 6340902";"Cl 33 28-75 Colombia, Bucaramanga"
"KREATIVOS EN LINEA";;;"(57) (7) 6570899";"C.C. Gratamira L-217 Colombia, Bucaramanga"
CCBZ;;;"(57) (1) 6221526";"Cr16 79-76 Of 601 Colombia, Bogotá"
"MICROCELL COLOMBIA LTDA.";;;"Conm.: (57) (1) 6220099";"Cl 89 20-45 Colombia, Bogotá"
"CLUB SISTEM EAT";;;"(57) (2) 5579832";"Cl 5 C 29-121 Colombia, Cali"
"LAPTOP PARTES";;;"Nal: (57) (7) 5721403";"C.C. Gran Bulevar loc 229 P2 Colombia, Cúcuta"
"SERTEC 911 TECNOLOGÍA";;;"(57) (2) 2710659";"Cl 33 28-65 L-105 Colombia, Palmira"
"TIENDA ACER COLOMBIA";;;"(57) (2) 3962237";"Av5 N 23 A N-68 L-224 Colombia, Cali"
KONNEN;;;"(57) (8) 2654735";"C.C. La Quinta L-260 Colombia, Ibagué"
"OK INTERNATIONAL COMPUTERS E.U.";;;"(57) (2) 6605000";"Av5 A N 23 D N-68 L-2-107 Colombia, Cali"
"GRUPO PHOENIX S.A.S.";;;"Telefax: (57) (1) 6433482";"Cl 100 60 - 04 Of 619 Colombia, Bogotá"
"COMTROLEX LTDA.";;;"Telefax: (57) (1) 5207425";"Cl 143 49 - 37 Colombia, Bogotá"
"T- BUSINESS S.A.S.";;;"Telefax: (57) (1) 3003006";"Cr9 103 A - 36 Colombia, Bogotá"
"PANORAMA TECHNOLOGIES S.A.S.";;;"Telefax: (57) (1) 4863336";"Cr9 113 - 52 Of 1901 Colombia, Bogotá"
"TECHNOLOGY VIDEO";;;"(57) (1) 2375818";"Cr38 8 A-24 L-023 Colombia, Bogotá"
"COMPUTADORES O.M.G.";;;"(57) (4) 5139060";"Cl 54 57-60 L-69 Colombia, Medellín"
CELCOMP;;;"(57) (4) 3222770";"Cl 38 A S 41-52 Envigado Colombia, Envigado"
"TECH LINE LTDA.";;;"(57) (1) 2846568";"Cr12 16-73 Colombia, Bogotá"
"SISTECO LTDA.";;;"(57) (7) 6705425";"Cl 35 17-77 Of 1206 Colombia, Bucaramanga"
"CENTRO EQUIPOS MULTIFIN";;;"(57) (5) 3193107";"Cr43 45-68 L-3 Colombia, Barranquilla"
COMPUCARIBE;;;"(57) (52) 6876824";"Calle San Roque Cr3 A 53 l-1 Colombia, Magangué"
"IMAGEN P Y G LTDA.";;;"(57) (1) 2185734";"Cr15 78-77 L-242 Colombia, Bogotá"
"MONTES HERRERA CARLOS ANDRÉS";;;"(57) (1) 6065481";"Cr15 77-05 L-281 Colombia, Bogotá"
"PC MANIA COMPUTADORES";;;"(57) (1) 8632941";"Av Pradilla 5-92 L-11 Colombia, Bogotá"
"QOS TECNOLOGY LTDA.";;;"(57) (1) 2628361";"Cr 51 4-41 Colombia, Bogotá"
"CAFÉ CLICK";;;"(57) (2) 8244657";"Cl 6 13-38 Colombia, Popayán"
"X 10";;;"(57) (1) 6184232";"Av 15 78-33 Colombia, Bogotá"
COMPUFAX;;;"(57) (4) 2685186";"Cr 48 10-45 L-280 Colombia, Medellín"
LAPTOPSHOP;;;"(57) (7) 6430890";"C.C. Gratamira L-208 Colombia, Bucaramanga"
"MACROVISION LTDA.";;;"(57) (7) 6212241";"Cr17 50-53 Colombia Colombia, Barrancabermeja"
"TECSIM LTDA";;;"(57) (7) 6369247";"Cl 105 35-32 Altoviento I Floridablanca Colombia, Floridablanca"
"C.I. VIRTUAL E.U.";;;"(57) (7) 6382004";"Cr23 31-24 Casa 25 Cañaveral Campestre III Floridablanca Colombia, Floridablanca"
"First Name";"Email Address";Url;Telephone;Address
"SYNERGI COMP LTDA.";;;"Telefax: (57) (5) 3515556";"Cr43 50-12 L-115 Colombia, Barranquilla"
"CESCOMP COMPUTADORES & SUMINISTROS LTDA.";;;"(57) (5) 3782330";"Cr52 B 96-68 Colombia, Barranquilla"
"ALMACEN TECNO SHOPPING";;;"(57) (4) 2684984";"Cr48 10-45 L-341 Colombia, Medellín"
"SHOPPING COMPUTERS LTDA.";;;"(57) (1) 6160611";"Cr15 78-33 Colombia, Bogotá"
"INFORMATICA & ELECTRÓNICA";;;"(57) (4) 2501484";"Cl 34 B 82 A-03 Colombia, Medellín"
"COMPUWORES PLUS";;;"(57) (1) 2562647";"Cr 16 80-11 Of 202 Colombia, Bogotá"
"COMPUTEL COMUNICACIONES";;;"(57) (4) 8287621";"Cl 97 101-11 Colombia, Apartadó"
"VARIEDADES PC-TODO";;;"(57) (4) 8274022";"Cr14 B Cl 101 Colombia, Turbo"
"COMPUTADORES DATA JIREH";;;"(57) (1) 2847090";"Cr10 21-16 L-160 Colombia, Bogotá"
"CAFÉ CLICK";;;"(57) (2) 8244657";"Cl 6 13-38 Colombia, Popayán"
"COMPU COMERCIAL";;;"(57) (5) 3796380";"Cr53 72-75 L-1 Colombia, Barranquilla"
"INVERSIONES OFICÓMPUTO J Y L LTDA.";;;"(57) (5) 3407862";"Cr43 50-12 L-164 C.C. Parque Central Colombia, Barranquilla"
"BRAXSYS LDTDA.";;;"(57) (1) 6403598";"Cr12 98-35 Of 303 Colombia, Bogotá"
"IKONO COMERCIALIZADORA INTERNACIONAL Y CÚA. LTDA.";;;"(57) (1) 3422718";"Cl 21 9-48 L-S 26 Colombia, Bogotá"
"DATA SHOP";;;"(57) (5) 3015253";"Cr43 75-144 L-3 Colombia, Barranquilla"
"GRUPO QUALITY S.A.S.";;;"(57) (1) 4863354";"Cr9 113-52 Of 1901 Colombia, Bogotá"
"JAVIBOT S.A.S.";;;"(57) (1) 6953061";"Cr56 147-58 Casa 29 Colombia, Bogotá"
"TINTAS & SUMINISTROS";;;"(57) (5) 7282086";"Cl 7 10-60 L-2 Colombia, Riohacha"
"SUSYSCONT LTDA.";;;"(57) (5) 7288521";"Cl 7 10-135 Colombia, Riohacha"
"ADVANCED TECH";;;"(57) (4) 2300690";"Cr74 48-65 Int 319 Colombia, Medellín"
"GO MARKETING EMOTIONS S.A.S.";;;"Telefax: (57) (1) 4678784";"Cr22 87 - 98 Colombia, Bogotá"
"ENTER CENTER";;;"(57) (1) 2826359";"Cr9 23-49 L-216 Colombia, Bogotá"
"C.I. SOLUCIONES & TECNOLOGÍAS COLOMBIA LTDA.";;;"(57) (5) 4214716";"Cr3 17-27 L-6 C.C. Rex Colombia, Santa Marta"
"TECNOSHOP SANTA MARTA";;;"(57) (5) 4210758";"Cl 13 4-86 L-25 C.C. Los Angeles San Andresito Colombia, Santa Marta"
"PUNTO DIGITAL LTDA.";;;"(57) (1) 7028918";"Av 9 164-36 Colombia, Bogotá"
"TOTAL COMPANY S.A.S.";;;"Telefax: (57) (1) 8104032";"Cl 64 B 81 A - 32 Colombia, Bogotá"
"CD LASER";;;"(57) (2) 8821243";"Cr5 15-40 L-218 Colombia, Cali"
"SHOPPING COMPUTER LTDA.";;;"(57) (2) 6616000";"Av5 A N 23 D N-68 L-119 Colombia, Cali"
"MARKETING COMPUTER";;;"(57) (2) 6679719";"Cl 13 N 6-43 L-8 Colombia, Cali"
"SITEC S.A";;;"(57) (4) 2321010";"Cr 51 41-144 L-109 Colombia, Medellín"
"COMPUDRIVE LTDA";;;"(57) (4) 3524344";"Cl 13 43 D-79 Of 201 Colombia, Medellín"
"EBM COMPUTADORES LTDA.";;;"(57) (2) 6534427";"Av5 A N 23 D-68 Ap 279 Colombia, Cali"
COMPUDUAL;;;"(57) (7) 6430692";"Cr33 47-44 L-130 Colombia, Bucaramanga"
"CLON PC";;;"(57) (7) 6430935";"C.C. Gratamira L-317 Colombia, Bucaramanga"
"SUMINISTROS & PAPELES";;;"(57) (5) 6609636";"Cl 30 8 B-70 L-1 A-127 Calle Larga Get Colombia, Cartagena"
PC-COMPUTERS;;;"(57) (2) 2749429";"Cl 41 40-05 Colombia, Palmira"
"CIO. SOLUCIONES INTELIGENTES LTDA.";;;"(57) (2) 2706808";"Cl 33 29-27 Colombia, Palmira"
COMPUMARVIL;;;"(57) (2) 2306718";"Cl 25 21-40 Colombia, Tuluá"
"SOLUCIONES EN SOFWARE EMPRESARIAL SOLSOFT S.A.";;;"(57) (2) 2262679";"Cr26 31-33 Colombia, Tuluá"
HOLISMO;;;"(57) (7) 6477037";"Cr33 47-44 Of 117 C.C. Altamonte Colombia, Bucaramanga"
"First Name";"Email Address";Url;Telephone;Address
"TIENDAS HP";;;"(57) (4) 3121222";"Cl 5 A 39-194 Of 402 Colombia, Medellín"
"J COMPUTADORES";;;"(57) (6) 7466813";"Cr14 1-133 Colombia, Armenia"
"PUNTO HOST COMPUTADORES";;;"(57) (7) 7237956";"Cr9 9-25 Colombia, San Gil"
COMPUDUAL;;;"(57) (7) 6430692";"Cr33 47-44 L-130 Colombia, Bucaramanga"
"MEGA STORE COMPUTER S.A";;;"(57) (7) 6479696";"Cr36 54-90 Colombia, Bucaramanga"
"S Y M";;;"(57) (6) 3331252";"Cl 23 8-59 L-213-C-C Lago Plaza Colombia, Pereira"
"MELCOMEX E.U";;;"(57) (1) 2111171";"Cr7 66-38 Colombia, Bogotá"
"HIGH-TEC COMPUTER";;;"(57) (7) 6478144";"Cr33 48-59 Of 102 Colombia, Bucaramanga"
SETINFORNET;;;"(57) (7) 6850870";"Cr36 51-52 L-2 Cabecera Colombia, Bucaramanga"
ADECOM;;;"(57) (4) 2328569";"Cr52 42-60 Colombia, Medellín"
COMPUCABANA;;;"(57) (5) 4214203";"Cl 13 3-45 Colombia, Santa Marta"
"C & A LTDA. INGENIEROS ASOCIADOS";;;"(57) (7) 6577616";"Cl 51 21-60 Colombia, Bucaramanga"
"MASCH@T COMPUTADORES";;;"(57) (7) 6310087";"Cr37 107-68 Caldas Colombia, Bucaramanga"
COMPULOCURA;;;"(57) (6) 8722974";"Cr22 20-43 L-1-A 3 Colombia, Manizales"
"COMERCIALIZADORA ASTM LTDA.";;;"(57) (7) 6527570";"Cl 36 17-52 L-3 Piso Marrón Colombia, Bucaramanga"
"COMERCIALIZADOTA MAXX";;;"(57) (7) 6569472";"Cl 36 23-51 Centro Colombia, Bucaramanga"
"MANTEL LTDA.";;;"(57) (7) 6313100";"Tr22 87-11 Diamante II Floridablanca Colombia, Floridablanca"
"ALQUILER DE COMPUTADORES S.A.";;;"(57) (1) 6215210";"Cr14 A 101-11 Of 601 Colombia, Bogotá"
"INFOSTORE INFORIENTE LTDA.";;;"(57) (7) 5711226";"Av0 14-46 La Playa Colombia, Cúcuta"
"INACOM INFORMATION SYSTEM DE COLOMBIA S.A";;;"(57) (1) 4855656";"Cr15 77-50 Of 501 Colombia, Bogotá"
"DIGITALL COMPUTADORES";;;"(57) (8) 7722058";"Cr11 14-14 Centro Colombia, Sogamoso"
COMPUELITE;;;"(57) (5) 3722877";"Cr43 50-12 L-45 Colombia, Barranquilla"
"MICRO SYSTEM";;;"(57) (2) 7228336";"Cr24 15-60 L-106 C.C. San Agustín Colombia, Pasto"
CLONEX;;;"(57) (1) 2564502";"Cr18 80-42 Colombia, Bogotá"
M@INSYSTEM;;;"(57) (7) 6111969";"Cr28 48-37 Recreo Colombia, Barrancabermeja"
"ISL S.A.";;;"Nal: (57) (7) 6455547";"Cl 30 29-58 Colombia, Bucaramanga"
KONNEN;;;"(57) (8) 2654735";"C.C. La Quinta L-260 Colombia, Ibagué"
"I.T. CONSULTING LTDA.";;;"(57) (1) 4801000";"Cr15 74-70 Of 201 Colombia, Bogotá"
"OK INTERNATIONAL COMPUTERS E.U.";;;"(57) (2) 6605000";"Av5 A N 23 D N-68 L-2-107 Colombia, Cali"
APPLE-PRONTO;;;"(57) (2) 8933653";"Av Colombia 1-24 Colombia, Cali"
"S.O.S TECNOLOGIA Y SOPORTE";;;"(57) 3217361606";"Cr38 6 B-84 Colombia, Popayán"
"RIVERA ROSERO";;;"(57) (2) 6677116";"C.C. Pasarela L-225-266 Colombia, Cali"
"TECHNOLOGY CENTER.CO";;;"(57) (2) 3241328";"Cr79 3 C-08 Colombia, Cali"
"ALBÁN & ASOCIADOS LTDA.";;;"(57) (2) 6813474";"Cl 2 2-06 Of 1501 Colombia, Cali"
COMPUTECH.NET;;;"(57) (7) 5715585";"Av0 11-30 L-101 C.C. Gran Bulevar Colombia, Cúcuta"
"TECNOTRONIX LTDA.";;;"(57) (7) 5834155";"Cl 11 4-39 L-338 C.C Lecs Colombia, Cúcuta"
"SYSTEM SALUD";;;"(57) (7) 5726433";"Cl 13 4-28 Centro Colombia, Cúcuta"
"NEW AGE SYSTEMS";;;"(57) (7) 6475297";"Cr 33 48-109 L-235/318 Colombia, Bucaramanga"
SYSTEMCOMPUTO;;;"(57) (6) 8805529";"Cr23 23-60 Of 208-A Colombia, Manizales"
"TECNOCOM LTDA.";;;"(57) (1) 2571445";"Cr15 79-69 L-111 Colombia, Bogotá"
"First Name";"Email Address";Url;Telephone;Address
"MELCOMEX E.U";;;"(57) (1) 2111171";"Cr7 66-38 Colombia, Bogotá"
"XEROX DE COLOMBIA S.A.";;;"(57) (1) 4251180";"Av Eldorado 69-76 Colombia, Bogotá"
"MASCH@T COMPUTADORES";;;"(57) (7) 6310087";"Cr37 107-68 Caldas Colombia, Bucaramanga"
COMPUMEP;;;"(57) (2) 2294885";"Cr7 9-97 Colombia, Roldanillo"
"ARLINGTON COMPUTADORES";;;"(57) (7) 6020330";"Cl 48 18 A-14 Colombia, Barrancabermeja"
COMPUGREEN;;;"(57) (7) 6832709";"Cl 14 25-08 San Fransisco Colombia, Bucaramanga"
"ACA COMPUTADORES";;;"(57) (7) 6421289";"Cl 37 14-74 P-4 L-A-29 Centro Colombia, Bucaramanga"
COMPUTES;;;"(57) (2) 5533898";"Av9 A N 10 N-22 Colombia, Cali"
"SOPORTE WINMAC S.A.S.";;;"Telefax: (57) (1) 5355950";"Cl 157 A 92 - 43 Colombia, Bogotá"
"COMPUTADORES Y P@RTES";;;"(57) (2) 7251830";"Cl 9 7-18 Colombia, Ipiales"
"REVOLUTION SYSTEMS";;;"(57) (7) 6472695";"Cr15 1-28 Colombia, Bucaramanga"
NETTSYS;;;"(57) (2) 7296053";"Cl 17 25-60 El Liceo L-127 Colombia, Pasto"
"J & R TECNOLOGIA";;;"(57) (4) 5121655";"Cr47 52-150 L-113 Colombia, Medellín"
"PC UNILAGO COMPUTADORES";;;"(57) (2) 2418301";"Cl 6 5-21 Colombia, Buenaventura"
"MUNDO SISTEMAS LTDA.";;;"(57) (2) 4211126";"Cl 82 C 23 A-04 Colombia, Cali"
"SISTEMAS A.M.C.";;;"(57) (2) 6504014";"C.C. La Pasarela L-1-84 Colombia, Cali"
"MAC STORE LTDA.";;;"(57) (1) 6409198";"Cr15 77-05 L-248 Colombia, Bogotá"
"ORION SERVICIOS INFORMATICOS";;;"(57) (5) 2815722";"Cl 21 17-63 Colombia, Sincelejo"
"COMPUTADORES Y SUMINISTROS SAN DIEGO";;;"(57) (4) 2621385";"Cr43 33-57 L-186 Colombia, Medellín"
"XPAPELES LTDA.";;;"(57) (4) 7910371";"Cl 29 4-63 Colombia, Montería"
"AVANTECH SYSTEM LTDA";;;"(57) (1) 6409187";"Cr15 77-05 L-237 Colombia, Bogotá"
"TIENDAS HP";;;"(57) (4) 2685416";"Cr48 10-45 Int 303 Colombia, Medellín"
OFITECS;;;"(57) (5) 2850097";"Cr26 30-48 Colombia, Corozal"
"ATA COMPUTADORES LTDA";;;"(57) (4) 4446642";"Cr48 16 S-43 Of 302 Colombia, Medellín"
"COMPUNET TECNOLOGIA INFORMATICA LTDA";;;"(57) (1) 6409193";"Cr15 77-05 L-243 Colombia, Bogotá"
"NEW WORLD";;;"(57) (1) 6409306";"Cr15 77-05 L-259 Colombia, Bogotá"
CADEAN;;;"(57) (1) 6624004";"Cr109 B 142-49 Colombia, Bogotá"
"CAFÉ CLICK";;;"(57) (2) 8244657";"Cl 6 13-38 Colombia, Popayán"
"BRAXSYS LDTDA.";;;"(57) (1) 6403598";"Cr12 98-35 Of 303 Colombia, Bogotá"
"LENOVO (ASIA PACIFIC) SUCURSAL COLOMBIA";;;"(57) (1) 3138080";"Cr9 76-49 P-2 Colombia, Bogotá"
"COLOR'S INTERNATIONAL COMPUTER";;;"(57) (1) 6406705";"Cr15 77-05 L-282 Colombia, Bogotá"
"RENT2GO & CIA LTDA.";;;"Telefax: (57) (1) 7040863";"Cr15 79 - 69 L-217 Colombia, Bogotá"
COMPUSYSTEM'S;;;"(57) (4) 4300230";"Cr84 43-50 Colombia, Medellín"
"XREDES LTDA.";;;"(57) (4) 4142626";"Cl 34 B 81 A-105 Colombia, Medellín"
"INFOTEC TECNOLOGÍA";;;"(57) (2) 2372112";"Cr13 9-44 Colombia, Buga"
"ENTER SOPORTE Y TECNOLOGIA";;;"(57) (7) 6212424";"Cl 49 19-25 Colombia Colombia, Barrancabermeja"
"SCHOOL TECHNOLOGY";;;"(57) (8) 8721100";"Cr4 12-17 Colombia, Neiva"
"COMPUTADORES PC WARE";;;"(57) (7) 6430901";"Cr33 48-109 L-218 Cabecera del Llano Colombia, Bucaramanga"
"ALDELO FOR RESTAURANTS";;;"(57) 3186934611";"Bucaramanga Colombia, Bucaramanga"
"XSYSTEM LTDA.";;;"(57) (1) 4160177";"Av (Cl) 26 69 D-91 Of 705 Colombia, Bogotá"
"First Name";"Email Address";Url;Telephone;Address
"CD LASER";;;"(57) (2) 8821243";"Cr5 15-40 L-218 Colombia, Cali"
"MARKETING COMPUTER";;;"(57) (2) 6679719";"Cl 13 N 6-43 L-8 Colombia, Cali"
"REAL WORLD";;;"(57) (2) 6679577";"c.c. La Pasarela Local 201 Colombia, Cali"
"CLEAN UP SYSTEM";;;"(57) (2) 4485420";"Cl 62 8-100 B 14 Ap 502 Colombia, Cali"
"ASESORÍAS EN SISTEMAS O.F.A.";;;"(57) (2) 6679741";"Cl 28N N 3AN 41 Colombia, Cali"
"UNIVERSAL COMPUTER";;;"(57) (2) 6679818";"Av5 A N 23 D N-68 L-106 Colombia, Cali"
"MASTER SISTEMAS";;;"(57) (2) 3324793";"Cr94 4-82 Colombia, Cali"
"ARWO COMPUTER LTDA.";;;"(57) (2) 6603755";"Av 5 A N 23 DN-68 L-156B Colombia, Cali"
RECARSYSTEM;;;"(57) (2) 2258778";"Cr27 29-80 Esq. Colombia, Tuluá"
"INFOTEC TECNOLOGÍA";;;"(57) (2) 2372112";"Cr13 9-44 Colombia, Buga"
RESTORE;;;"(57) (2) 3965130";"Av5 A N 23 D-68 L 204 Colombia, Cali"
"ASIA SUPPLIES LTDA.";;;"(57) (2) 4017605";"Cl 23 D N 3 A N-06 Colombia, Cali"
"DAG SISTEMAS";;;"(57) (2) 2280532";"Cl 4 8-53 Colombia, Buga"
"NASSA SOFT";;;"(57) (6) 3349590";"Información Colombia, Pereira"
TODOCINTAS;;;"(57) (6) 3265265";"Cr8 Bis 30 B-23 Of 207 Colombia, Pereira"
"NEOCOL S.A.S";;;"(57) (4) 2685227";"Cr48 10-45 L- 255 - 259 -062 Colombia, Medellín"
"OFICÓMPUTO LTDA.";;;"(57) (1) 6359360";"Cr 15 78-33 L-143 Colombia, Bogotá"
"MAXITEC E.U.";;;"(57) (7) 6476340";"Cr34 46-67 Colombia, Bucaramanga"
"NAKIRO SYSTEM";;;"(57) (6) 3439059";"Cr17 22-12 Colombia, Pereira"
"GV COMPUTADORES LTDA.";;;"(57) (1) 2185714";"Cr15 78-33 L-237 Colombia, Bogotá"
"XSYSTEM LTDA.";;;"(57) (1) 4160177";"Av (Cl) 26 69 D-91 Of 705 Colombia, Bogotá"
"MICROCELL COLOMBIA LTDA.";;;"Conm.: (57) (1) 6220099";"Cl 89 20-45 Colombia, Bogotá"
"COLSISMA LTDA.";;;"(57) (1) 2696370";"Cl 28 32 A-67 P-3 Of 302 Colombia, Bogotá"
SISALTEC;;;"(57) (2) 7311353";"Cr38 20-22 Colombia, Pasto"
"OKI DATA";;;"(57) (1) 6361258";"Cr13 97-51 Of 101 Colombia, Bogotá"
"RENTA HARDWARE";;;"(57) (1) 6743393";"Cr46 187-65 Int 8 Of 201 Colombia, Bogotá"
"CONALCÓMPUTO LTDA.";;;"Conm.: (57) (1) 3113911";"Cl 76 50-41 Colombia, Bogotá"
DAVITECH;;;"(57) 7262405";"Cl 15 12-43 Colombia, Maicao"
M@INSYSTEM;;;"(57) (7) 6111969";"Cr28 48-37 Recreo Colombia, Barrancabermeja"
"SUN NETWORK SYSTEM LTDA.";;;"(57) (1) 8352726";"Cr12 21-39 Sucre Colombia, Girardot"
"PC AZTECA COMPUTERS";;;"(57) (5) 4311571";"Cr4 30-38 Manzanares Colombia, Santa Marta"
"ZÜRICH DE OCCIDENTE S.A.";;;"(57) (2) 8963987";"Cr4 10-44 Of 1005 Colombia, Cali"
"VIRTUAL TRONIC";;;"(57) (4) 2609245";"Cl 48 D 65 A-57 Int 201 Colombia, Medellín"
"COMPU EXPRESSO";;;"(57) (2) 6676606";"C.C. Pasarela L-113 Colombia, Cali"
MERCAMAR;;;"(57) (2) 6618952";"Av5 A N 23 D-68 Of 274 Colombia, Cali"
"RANYAVE IMPORTACIONES";;;"(57) 2253129";"Cr26 30-16 Colombia, Tuluá"
"M H COMPUTERS LTDA.";;;"(57) (2) 6682488";"Av5 A N 24 N-27 Colombia, Cali"
"SYSTEM SALUD";;;"(57) (7) 5726433";"Cl 13 4-28 Centro Colombia, Cúcuta"
"DESK'S COMPUTER";;;"(57) (1) 6185617";"Cr15 78-33 L-2-275 Colombia, Bogotá"
"PCTECH MILENIUM E.U.";;;"(57) (1) 2185571";"Cr15 78-33 L-140 Colombia, Bogotá"
"First Name";"Email Address";Url;Telephone;Address
"LA PASAREL@.COM";;;"(57) (28) 8294756";"Cr10 5-56 Colombia, Santander de Quilichao"
"TOTAL COMPUTER";;;"(57) (7) 6576724";"Cr35 A 46-12 Colombia, Bucaramanga"
"PYP HS S.A.";;;"(57) (4) 3123902";"Cr48 10-45 Int 302 Colombia, Medellín"
"KEY MARKET";;;"(57) (1) 4162831";"Salitre Plaza L-343 A Colombia, Bogotá"
"COMPUPROYECTOS LTDA.";;;"Telefax: (57) (1) 2959544";"Cl 39 Bis A 29 A-09 Colombia, Bogotá"
"PDM PORTÁTILES Y DISPOSITIVOS MÓVILES LTDA.";;;"(57) (5) 3689341";"Cr53 68 B-21 Colombia, Barranquilla"
"CABLE SERVICIOS S.A.";;;"(57) (1) 2241487";"Tr93 53-48 Int. 93/94 Colombia, Bogotá"
"INPHOENIXTY SYSTEMS DE COLOMBIA LTDA.";;;"(57) (5) 3587524";"Cr48 72-40 Of 307 Colombia, Barranquilla"
"SUN MICROSYSTEMS DE COLOMBIA S.A.";;;"(57) (1) 6286330";"Av82 10-50 P-8 Colombia, Bogotá"
"COMPU TECS@NET";;;"(57) (4) 2504148";"Cl 44 79-157 Colombia, Medellín"
"PC COMPUTADORES & SUMINISTROS";;;"(57) (5) 3786670";"Cl 84 47-30 L-6 Colombia, Barranquilla"
"MAKRO COMPUTO DEL LLANO";;;"(57) (8) 6342047";"Cl 9 22-35 Colombia, Yopal"
"MUEBLES Y COMPUTADORES INDY";;;"(57) (5) 5853630";"Cr8 17-44 Colombia, Valledupar"
"SALES D SERVICES TECHNOLOGY SYSTEMS CÍA.";;;"(57) (1) 2188267";"Av (Cr) 15 79-69 L-108 Colombia, Bogotá"
"QUADDIX TECHNOLOGY S.A.S";;;"(57) (1) 2182546";"Cl 77 16 A-35 Ap 201 Colombia, Bogotá"
"ELECTRODOMESTICOS E INFORMATICA E.U.";;;"(57) (1) 7034833";"Cr 111 A 88 B-51 Colombia, Bogotá"
COMPU@CCESORIOS;;;"(57) (5) 6431266";"Centro Comercial Los Ejecutivos L-103 Colombia, Cartagena"
"COMPUSISTEMAS R.B.";;;"(57) (1) 6400470";"Cr.15 79-65 L-101-4 Colombia, Bogotá"
"TELENLACES LTDA.";;;"(57) (4) 2684656";"Cr48 10-45 L-262 Colombia, Medellín"
"PUNTO HOST COMPUTADORES";;;"(57) (7) 7237956";"Cr9 9-25 Colombia, San Gil"
"TITANIUM STORE";;;"(57) (2) 2756375";"Cl 31 23-73 Colombia, Palmira"
"NASSA SOFT";;;"(57) (6) 3349590";"Información Colombia, Pereira"
COPY.COM;;;"(57) (8) 4357410";"Cr12 Cl 13 Esq Colombia, Florencia"
"ESPACIO VECTORIAL COMPUTADORES";;;"(57) (7) 6904359";"Cr33 48-109 L-207 C.C. Gratamira Colombia, Bucaramanga"
"MAXITEC E.U.";;;"(57) (7) 6476340";"Cr34 46-67 Colombia, Bucaramanga"
"SOLUTEK INFORMÁTICA";;;"(57) (1) 4774488";"Cr15 79-25 Of 306 Colombia, Bogotá"
"CENTRO DE SERVICIOS INFORMÁTICOS DEL HUILA";;;"(57) (8) 8711740";"Cl 8 7-35 L-103 Colombia, Neiva"
COMPUMAXTER;;;"(57) (2) 7224482";"Cl 16 23-35 L-17 C.C. El Dorado Colombia, Pasto"
"EQUIPOS DE COMPUTO GOS";;;"(57) (1) 5404092";"Cr70 65 A-77 Colombia, Bogotá"
CLONEX;;;"(57) (1) 2564502";"Cr18 80-42 Colombia, Bogotá"
"CENTRAL DE TECNOLOGÍA";;;"(57) (2) 3153023";"Cl 18 A 56-65 L-66 Colombia, Cali"
"CMI INGENIEROS";;;"(57) (2) 2758300";"Cr26 31-14 L-206 Colombia, Palmira"
"MEGACOMPUTO LTDA.";;;"(57) (1) 8352458";"Cr10 14-60 L-5-C Colombia, Girardot"
"PCTECH MILENIUM E.U.";;;"(57) (1) 2185571";"Cr15 78-33 L-140 Colombia, Bogotá"
CONSULTEC.WEB;;;"(57) (1) 2485652";"Cr9 53-58 Of 605 Colombia, Bogotá"
COMPUFULL;;;"(57) 3108094502";"Cr6 8-15 Calle Real Colombia, Pamplona"
"HELP SYSTEM E.U";;;"(57) (1) 6226081";"Av (Cr) 15 76-60 Of 202 Colombia, Bogotá"
"AST & T. E.U.";;;"(57) (1) 2319709";"Cr27 A 64-24 Colombia, Bogotá"
"TIENDA LENOVO BAIAT";;;"(57) (2) 4851150";"Av 5 A N 23 D N-68 Colombia, Cali"
"THE OUTLET TECHNOLOGY";;;"(57) (4) 3541646";"Cr48 10-45 Int 394 Colombia, Medellín"
"First Name";"Email Address";Url;Telephone;Address
"PRINTER HOUSE COMPUTER LTDA.";;;"(57) (1) 5307700";"Av15 78-33 P-2 L-227 Colombia, Bogotá"
"OASIS DEL PORTATIL";;;"(57) (1) 2817439";"Cl 21 9-48 L 419 Colombia, Bogotá"
"PC TINTAS";;;"(57) (4) 5128073";"Cl 50 45-45 Int 106 Colombia, Medellín"
"ANNIE COMPUTADORES";;;"(57) (6) 7350268";"Et III B-7 Ap 502 Yulima Colombia, Armenia"
"COMPUTADORES DEL OCCIDENTE";;;"(57) (1) 2481602";"Cr 14 66 - 45 P-2 Colombia, Bogotá"
"COMPULAGO S.A.S.";;;"(57) (5) 4213646";"Centro Comercial Plazuela 23 L-29 Colombia, Santa Marta"
"MICROPROCESS LTDA.";;;"Telefax: (57) (1) 4700886";"Cr7 F 145 - 89 Colombia, Bogotá"
"GEOBIS INTERNATIONAL GEOGRAPHIC BUSINESS INTELIGENCE SOLUTIONS S.A.S.";;;"Telefax: (57) (1) 4802299";"Cr16 A 75 - 17 Colombia, Bogotá"
COMPUNOVEDADES;;;"(57) (2) 7214865";"Cr21 14-28 Colombia, Pasto"
COMPUTSOFTWARE;;;"(57) (7) 5719071";"Av 0 11-30 L-114 Colombia, Cúcuta"
"GOMTEC LTDA";;;"(57) (1) 2185965";"Cr15 78-33 L-103 Colombia, Bogotá"
"WORLD SYSTEM RW";;;"(57) (7) 5718357";"Cl 12 1-62 La Playa Colombia, Cúcuta"
"DOBLE CLICK TECHNOLOGY";;;"(57) (7) 5833270";"Av 0 11-30 L-116 Colombia, Cúcuta"
"ASISTENCIA TÉCNICA EN SISTEMAS";;;"(57) (4) 3024015";"Cl 38 A S 35-23 Envigado Colombia, Envigado"
"COMPUTADORES O.M.G.";;;"(57) (4) 5139060";"Cl 54 57-60 L-69 Colombia, Medellín"
"TECNO PC";;;"(57) (4) 2317287";"Cl 46 51 A-26 Int 409-C Colombia, Medellín"
"J.D. SOLUCIONES LTDA.";;;"(57) (4) 2666015";"Cr48 10-45 L-73 Colombia, Medellín"
"TERABYTE LTDA.";;;"(57) (4) 3124082";"Cr48 10-45 L-360 Colombia, Medellín"
"TECNOCLYCK LTDA.";;;"(57) (4) 2796729";"Cr59 80 S-94 Ap 221 La Estrella Colombia, Medellín"
J.G.A.COMPUTADORES;;;"(57) (4) 3310022";"Cr43 A 49 D S-52 Int 110 Envigado Colombia, Envigado"
LEDACOM;;;"Nal: (57) (4) 3116910";"Cr48 10-15 Int 73 Colombia, Medellín"
"TECNOCOM MONTERREY";;;"(57) (4) 2684914";"Centro Comercial Monterrey L-299 Colombia, Medellín"
"SISA S.A.";;;"Conm.: (57) (4) 3112124";"Cr43 A 1-85 Of 404 Colombia, Medellín"
"OFIMAC COMPUTADORES";;;"(57) (4) 2602335";"Cl 48 D 66-15 L-109 Colombia, Medellín"
"ZAP TECNOLOGÍA";;;"(57) (2) 6535776";"Cl 25 N 4 N-35 Colombia, Cali"
"SMART COMPUTADORES";;;"(57) (1) 2185692";"Cr15 78-33 L-232 Colombia, Bogotá"
"YES COMPUTO";;;"(57) (5) 6714660";"Brr. 5 Noviembre Cl 30 58 A-99 Av Pedro de Heredia Colombia, Cartagena"
"COMCENTER LTDA.";;;"(57) (4) 7823711";"Cl 30 7-64 Colombia, Montería"
COMPULAPTOPS;;;"(57) 3004817343";"Cr 5 6-36 C.C. Pasaje la Quinta L-41 Colombia, Popayán"
"HARDSOFT COMPUTERS S.A.S.";;;"(57) (5) 6618675";"San Pedro Manz 5 Lt 11 Colombia, Cartagena"
"ALVAREZ ALBA LUCÍA";;;"(57) (1) 2863345";"Cr10 21-06 L-147 C.C. 21 Colombia, Bogotá"
"TECNOSOLUCIONES LTDA.";;;"(57) (4) 2681356";"Cr 48 10-45 L.388A Colombia, Medellín"
"CD'S DVD'S IMPORTADORES MEGAMEDIA";;;"(57) (1) 7586930";"Cr15 77-59 L-130 Colombia, Bogotá"
"PC TECNOLOGÍA Y SISTEMAS";;;"(57) (1) 2123653";"Cr15 73-34 Of 406 Colombia, Bogotá"
"MAKRO POINT LTDA.";;;"(57) (1) 4163358";"Cr82 24-17 Of 201 Colombia, Bogotá"
"INVERSIONES HAVARD";;;"(57) (1) 3381177";"Cr20 40-40 Colombia, Bogotá"
"PC CAMARAS & REDES";;;"(57) (6) 7451230";"Cl 11 15 A-11 L-3 Colombia, Armenia"
"C&G COMPUTADORES";;;"(57) (6) 7467013";"Cl 12 14-09 Colombia, Armenia"
"MELO LUNA SANDRA";;;"(57) 3005574990";"C.C. Acrçpolis L-253-B Colombia, Bucaramanga"
SOFT;;;"(57) (5) 2808219";"Cr20 Cl 27 Esq Colombia, Sincelejo"
"First Name";"Email Address";Url;Telephone;Address
COMPULOCURA;;;"(57) (6) 8722974";"Cr22 20-43 L-1-A 3 Colombia, Manizales"
"OKI DATA";;;"(57) (1) 6361258";"Cr13 97-51 Of 101 Colombia, Bogotá"
"PALACIO ARCINIEGAS ALEJANDRO";;;"(57) (1) 2368687";"Cr15 78-05 L-2 Ap 306 Colombia, Bogotá"
"XPAPELES LTDA.";;;"(57) (4) 7910371";"Cl 29 4-63 Colombia, Montería"
"STORE MEDIA";;;"(57) (6) 7451714";"Cr15 14-38 L-15 Colombia, Armenia"
"CYTECH CALIDAD Y TECNOLOGÍA S.A.S.";;;"(57) (5) 3006921";"Cl 92 70-22 Colombia, Barranquilla"
"COLSOF S.A.";;;"(57) (1) 2912000";"Parque Agroindustrial de Occ Bd 3 Colombia, Bogotá"
"GALVIS VALENCIA DIANA PATRICIA";;;"(57) (1) 2476201";"Cl 9 37-40 L-2001 Colombia, Bogotá"
"LEXMARK DE COLOMBIA";;;"(57) (1) 6580058";"Av (Cr) 7 114-33 Of 501 Colombia, Bogotá"
"AB TECNOSISTEM S.A.S.";;;"(57) (5) 7275595";"Cl 6 6-70 Colombia, Riohacha"
"INFORMÁTICA & SOLUCIONES INTEGRALES LTDA";;;"(57) (5) 6813836";"Tr77 31 A-12 Of 1 Colombia, Cartagena"
"MAKRO VISIÓN LTDA.";;;"(57) (1) 6222036";"Cr15 78-33 L-2-300 Colombia, Bogotá"
"COMPU BIT";;;"(57) (5) 3723367";"Parque Central L-51 y 131 Colombia, Barranquilla"
"I SHOP";;;"(57) (1) 4757647";"Av Cl 26 62-47 L-1-49 Colombia, Bogotá"
"TECHNOLOGY HOUSE S.A.S.";;;"(57) (1) 5303237";"Cr15 78-33 L-2279-A Colombia, Bogotá"
"SHOPPING COMPUTERS LTDA.";;;"(57) (1) 6160611";"Cr15 78-33 Colombia, Bogotá"
"INFORMATICA & ELECTRÓNICA";;;"(57) (4) 2501484";"Cl 34 B 82 A-03 Colombia, Medellín"
"COMPU TECS@NET";;;"(57) (4) 2504148";"Cl 44 79-157 Colombia, Medellín"
"COMERCIAL GALILEO S.A.S.";;;"(57) (4) 2933101";"Cr 52 46-68 Int 267 Colombia, Medellín"
"COMPUFERIA DIGITAL";;;"(57) (2) 8302646";"C.C. La Estación L-109 Colombia, Popayán"
"COMPUCOMPRA LTDA.";;;"(57) (1) 8776565";"Autop Medellín Km 2.5 Parque Industrial Guadalaja Colombia, Bogotá"
"C & R COMPUTADORES";;;"(57) (4) 8251211";"Cr104 A 98 A-18 Colombia, Chigorodó"
"GF STATION";;;"(57) (1) 6408411";"Av (Cr) 15 77-5 L-117 Colombia, Bogotá"
"J VARGAS COMPUTADORES LTDA.";;;"(57) (1) 6300978";"Cr69 H 80-40 L-3 Colombia, Bogotá"
"SALES D SERVICES TECHNOLOGY SYSTEMS CÍA.";;;"(57) (1) 2188267";"Av (Cr) 15 79-69 L-108 Colombia, Bogotá"
"GLOBAL DPR COMPUTERS";;;"(57) (5) 3797200";"Cr43 50-12 l-123 C.C. Parque Central Colombia, Barranquilla"
"CAU SYSTEMAS CÍA LTDA.";;;"(57) (5) 3735566";"Cl 36 45-38 Colombia, Barranquilla"
"C & C SOLUCIONES Y SERVICIOS";;;"(57) (1) 2039861";"Dg18 S 30-31 Colombia, Bogotá"
"ENTER SOLUCIONES EN TECNOLOGÍA";;;"(57) (8) 8715595";"Cl 6 5-84 Colombia, Neiva"
"JC TECNOLOGÍA S.A.S";;;"Telefax: (57) (1) 4214066";"Cl 98 22 - 64 Of 212 Colombia, Bogotá"
"PC DOCTOR.COM";;;"(57) (2) 6671683";"Av 5 A N 23 D N-68 L-240 Colombia, Cali"
"PC MALL";;;"(57) (4) 3116890";"Cr48 10-45 L-69 Colombia, Medellín"
"SISTEM PRO";;;"(57) (4) 4444052";"Cr 48 12 Sur-70 L-114 Colombia, Medellín"
"TIENDAS HP";;;"(57) (4) 3121222";"Cl 5 A 39-194 Of 402 Colombia, Medellín"
"AT SISTEMAS INFORMÁTICOS";;;"Domic.: (57) (2) 2370014";"Cr14 8-10 Colombia, Buga"
EUREKA.NET;;;"(57) (7) 6430871";"Cr33 48-109 L-115 Cabecera del Llano Colombia, Bucaramanga"
"ALMACEN TIENDA & TECNOLOGIA";;;"(57) (7) 6414671";"C.C La Isla P-3 L-611 Colombia, Bucaramanga"
E.PROM;;;"(57) (7) 6471617";"Cr33 47-44 L-128 Colombia, Bucaramanga"
"CSI COMUNICACIONES Y SOLUCIONES INFORMÁTICAS";;;"(57) 3138749575";"Cl 39 19-08 Ap 601 Colombia, Bucaramanga"
"JPE INGENIERÍA LTDA.";;;"(57) (1) 4732705";"Cr16 A 80-06 Of 601 Bogotá Colombia, Bogotá"
"First Name";"Email Address";Url;Telephone;Address
"MUNDIAL DE INVERSIONES LTDA.";;;"(57) (7) 6941935";"Dg31 53-82 Colombia, Bucaramanga"
"COMPUTADORES MUNDO PORTATIL";;;"(57) (4) 2685098";"Cr48 10-45 L-170 Colombia, Medellín"
"SUPERTECNOLOGÍA LTDA.";;;"(57) (4) 2685024";"Cr48 10-45 Of 329 Colombia, Medellín"
MAXSISTEMAS;;;"(57) (4) 4485600";"Cr81 45-69 Colombia, Medellín"
"DIGITAL TEX";;;"(57) (4) 3121791";"Cr48 10-45 Int 313 Colombia, Medellín"
JANUT.COM;;;"(57) (6) 7344039";"Cr15 12-28 L-4 Colombia, Armenia"
INGERSOFT;;;"(57) (4) 7815464";"Cr11 40-41 L-101 Centro Colombia, Montería"
"WIRELESS PC Y CÍA. LTDA.";;;"(57) (1) 2185704";"Cr15 78-33 L-234 Colombia, Bogotá"
COMPUDESTELLOS;;;"(57) (2) 8365096";"Cr10 6 N-28 Colombia, Popayán"
"BLUE POINT";;;"(57) (1) 6166702";"Cr15 78-33 L-101 Colombia, Bogotá"
E-SYSTEMS;;;"(57) (5) 3704337";"Cr43 50-12 L-127-A Colombia, Barranquilla"
"D&M TECHNOLOGY S.A.S.";;;"(57) (4) 5118911";"Cr46 47-66 Int 1142 Colombia, Medellín"
SYSLOG;;;"(57) (8) 8714918";"Cl 4 5-98 P-2 Colombia, Neiva"
"MAKRO VISIÓN LTDA.";;;"(57) (1) 6222036";"Cr15 78-33 L-2-300 Colombia, Bogotá"
"COMPUARTE DEL CARIBE LTDA.";;;"(57) (5) 3512393";"Cr40 No. 41-33 L-16 Colombia, Barranquilla"
"DISCOMPUCOL S.A.S.";;;"(57) (1) 6221495";"Cr16 79-20 Of 613 Colombia, Bogotá"
"ASM GLOBAL EQUIPOS";;;"(57) (5) 3005639";"Cr43 50-12 c.cial. Parque Central Colombia, Barranquilla"
"INPHOENIXTY SYSTEMS DE COLOMBIA LTDA.";;;"(57) (5) 3587524";"Cr48 72-40 Of 307 Colombia, Barranquilla"
COMPUMIL;;;"(57) (2) 8223869";"Cr6 8-30 Colombia, Popayán"
"RED-SI TELECOMUNICACIONES Y EQUIPOS LTDA.";;;"(57) (1) 6064784";"Cr15 80-05 L-75 Colombia, Bogotá"
"ANTECH E.U.";;;"(57) (2) 8240928";"Cl 2 5-49 Centro Colombia, Popayán"
"E & S COMPUTADORES LTDA.";;;"(57) (4) 6708450";"Cr3 27-46 Brr. Roma Colombia, Quibdó"
"SUSYSCONT LTDA.";;;"(57) (5) 7288521";"Cl 7 10-135 Colombia, Riohacha"
"ENTER SOLUCIONES EN TECNOLOGÍA";;;"(57) (8) 8715595";"Cl 6 5-84 Colombia, Neiva"
"SOLUCIONES SISTEMATIZADAS CALI";;;"(57) (2) 5565951";"Cr34 6-14 Colombia, Cali"
"BYTE COMPUTER E.U.";;;"(57) (1) 6113848";"Cr15 78-33 L-2-308 Colombia, Bogotá"
COMPUSYSTEM'S;;;"(57) (4) 4300230";"Cr84 43-50 Colombia, Medellín"
"COMPUTIME ORANGE SERVICES";;;"(57) (4) 2668966";"Cc Monterrey l-383 Colombia, Medellín"
"CLON PC";;;"(57) (7) 6430935";"C.C. Gratamira L-317 Colombia, Bucaramanga"
"CREDITECNOLÓGICO E.U.";;;"(57) (2) 5584451";"Cr27 6 A-51 P-2 Colombia, Cali"
"LA CASA DEL PORTÁTIL JUANK";;;"(57) (8) 2665080";"C.C. La Quinta L-263 Hipódromo Colombia, Ibagué"
"SMART SOLUTION NETWORK LTDA";;;"(57) (1) 6809367";"Av (Cl) 117 89-25 Trr 4 Ap 103 Colombia, Bogotá"
NOVATECH;;;"(57) (2) 7232564";"Cr26 17-42 Pasaje El Liceo L-124 Colombia, Pasto"
"DISTRISISTEMAS JGC";;;"(57) (7) 5730506";"Cl 8 7-27 L-216 Centro Colombia, Cúcuta"
"ARIAS CARLOS J.";;;"(57) (1) 2363983";"Av13 81-50 Of 202 Colombia, Bogotá"
MEDETRONICA;;;"(57) (4) 2661170";"Cr48 10-45 L-310 Colombia, Medellín"
&-SISTEMAS;;;"(57) (2) 7227176";"Cr22 19-89 Colombia, Pasto"
"GLOBAL LINE COMPUTADORES";;;"(57) (2) 7752125";"Cl 11 5-44 Colombia, Ipiales"
"DATA & SERVICE LTDA.";;;"(57) (6) 8812277";"Cl 54 20-60 Colombia, Manizales"
"DISTRIBUCIONES GARO";;;"(57) (2) 3327525";"Cl 17 83 C-12 Ap 501 Colombia, Cali"
"First Name";"Email Address";Url;Telephone;Address
"PLANETA PC";;;"(57) (2) 2250863";"Cr25 30-70 Colombia, Tuluá"
TECNOCENTER;;;"(57) (6) 8903322";"Cr22 26-18 Colombia, Manizales"
"ALMACEN PC REMATES LIQUIDACIÓN DE COMPUTADORES";;;"(57) (4) 3311433";"Cr 48 37 Sur-54 Envigado Colombia, Medellín"
"ASTROCOMPUTO E.U.";;;"(57) (2) 6677477";"Av5 A N 23 D N-68 L-2-100 Colombia, Cali"
"COMPURED COLOMBIA";;;"(57) (7) 5711204";"Av0 11-30 Bulevar L-220 Colombia, Cúcuta"
"CONEXION DIGITAL";;;"(57) (2) 7292652";"Cl 17 25-60 L-108 Pasaje El Liceo Colombia, Pasto"
"SISTEMAS QUINTA CENTER";;;"(57) 3138171454";"Av9 Este 2-78 Qta Oriental Colombia, Cúcuta"
"QUESADA RODRÍGUEZ DISTRIBUCIONES";;;"(57) (8) 7447030";"Av Colón 21-33 Colombia, Tunja"
"COMPUTADORES LA BODEGA DEL PC";;;"(57) (6) 8730258";"Cl 32 22-04 Centro Colombia, Manizales"
"ALMACEN PC TINTAS";;;"(57) (4) 5128073";"Cl 50 45-45 L-106 Colombia, Medellín"
"MAKRO OFERTAS";;;"(57) (7) 6576458";"Cr34 48-118 L-103 C.C. Gratamira Colombia, Bucaramanga"
"LINE TECHNOLOGY E.U.";;;"(57) (1) 6068158";"Cr15 77-05 L 106 Colombia, Bogotá"
"MC COMPUTER SOLUTIONS LTDA.";;;"(57) (1) 6221338";"Cr16 79-20 Of 213 Colombia, Bogotá"
"SMARTTEK S.A.S.";;;"Telefax: (57) (1) 6065666";"Cr25 51 - 42 P-2 Colombia, Bogotá"
"SONIA JIMENA TORRES GARCÍA S.A.S.";;;"Telefax: (57) (1) 7043577";"Cl 70 A 57 B - 77 Colombia, Bogotá"
"REDES Y COMUNICACIONES COMPUSYSTEM S.A.S.";;;"Telefax: (57) (1) 2357119";"Dg75 Bis 20 - 68 Of 103 Colombia, Bogotá"
CGSA;;;"(57) (1) 6051212";"Av Boyacá 95-51 Of 201 Colombia, Bogotá"
"OP SYSTEM LTDA.";;;"(57) (1) 8045053";"Tr19 43-62 S Colombia, Bogotá"
"GONZÁLEZ LAVERDE WILLIAM";;;"(57) (1) 2637799";"Av (Cl) 53 71-36 Colombia, Bogotá"
"DINACOMPUTO S.A.S.";;;"Telefax: (57) (1) 4331740";"Cr95 G 91 A - 63 Colombia, Bogotá"
"PRODISUR S.A.";;;"Telefax: (57) (1) 2487437";"Cl 60 14 A - 49 Colombia, Bogotá"
"J Y S COMPUTADORES";;;"(57) (1) 6221924";"Cr16 79-20 Of 202 Colombia, Bogotá"
"MI PC";;;"(57) (2) 8237990";"C.C. La Estación L-111-112 Colombia, Popayán"
"INFORMATION SYSTEMS";;;"(57) (5) 4210774";"Cl 16 5-64 Of 104 Edif Santo Domingo Colombia, Santa Marta"
"COMPUTADORES H&P SYSTEM";;;"(57) (2) 8239096";"C.C. Campanario L-91 Colombia, Popayán"
"ABA COMPUTADORES";;;"(57) (7) 6472695";"Cr36 51-96 Colombia, Bucaramanga"
RECARSURTINTAS;;;"(57) (2) 7294827";"Cr27 19-29 Centro Colombia, Pasto"
"SMITH DATATEL";;;"(57) 3163890512";"Av Newball Torres Sunrise Beach Of 332 Colombia, San Andrés"
"SYSTEM BYT";;;"(57) (4) 2688222";"Cr48 10-45 L-218 Colombia, Medellín"
"TERABYTE LTDA.";;;"(57) (4) 3124082";"Cr48 10-45 L-360 Colombia, Medellín"
"GB TECHX";;;"(57) (4) 4443398";"Cr36 10-15 Of 204 Edif Manantiales Colombia, Medellín"
LEDACOM;;;"Nal: (57) (4) 3116910";"Cr48 10-15 Int 73 Colombia, Medellín"
"INGENIERÍA SITEP";;;"(57) (4) 2921415";"Cr45D 60-04 piso 2 Colombia, Medellín"
"SOPORTEC COMPUTADORES";;;"(57) (4) 5530616";"Cl 18 19-74 L-102 La Ceja Colombia, Medellín"
"E.P.S. ELECTRONIC'S E.U.";;;"(57) (2) 5244420";"Cr38 A 7-65 Colombia, Cali"
"ENERGY PC";;;"(57) (8) 8721256";"Cr15 14-17 Colombia, Neiva"
"ASEINFO IT SUPPORT SYSTEMS S.A.S.";;;"Telefax: (57) (1) 3787592";"Cl 148 107 - 50 Trr 9 Of 902 Colombia, Bogotá"
"INDUSTRIAS D Y G LTDA.";;;"(57) (1) 2257088";"Cl 70 A 41-39 Colombia, Bogotá"
"COMPUMAX ZONA FRANCA S.A.";;;"(57) (1) 4396555";"Cr106 15-25 Manz 15 Bdg 99 Colombia, Bogotá"
"COMPUORIENTE LTDA.";;;"(57) (1) 6022066";"Cr33 98-68 Colombia, Bogotá"
"First Name";"Email Address";Url;Telephone;Address
"ALFA PARTES LTDA.";;;"(57) (1) 6213230";"Av (Cr) 15 77-05 L-251 Colombia, Bogotá"
"TECNICOMPUTO LTDA.";;;"(57) (1) 2871121";"Cl 30A 6-22 Of. 2404 Colombia, Bogotá"
COMPUFAST;;;"(57) (4) 5531658";"Cr21 19-65 Colombia, Medellín"
NAVEGANDO.COM;;;"(57) (4) 2538472";"Cl 42 C 88-15 Colombia, Medellín"
"LAPTOPS & PC PARTES";;;"(57) (4) 2662455";"Cr48 10-45 L-138 Colombia, Medellín"
"PC GENIUS";;;"(57) (4) 3115296";"Cr36 8 A-33 Colombia, Medellín"
"PC PORTATIL";;;"(57) (4) 3141803";"Cr48 10-45 L-243 Colombia, Medellín"
"DY COMPUTADORES";;;"(57) (4) 2319266";"Cl 54 57-60 Int 36 Colombia, Medellín"
"TECNOCOM MONTERREY";;;"(57) (4) 2684914";"Centro Comercial Monterrey L-299 Colombia, Medellín"
"CONIX S.A..";;;"(57) (1) 8766244";"Autop Medellín Km 2 Of 503 Colombia, Bogotá"
"COMPUORIENTE LTDA.";;;"(57) (1) 6022066";"Cr33 98-68 Colombia, Bogotá"
"SOLUCIONES Y SISTEMAS M.G.";;;"(57) (1) 6221171";"Cr16 79-20 Of 309 Colombia, Bogotá"
"ETHOS SOFTWARE";;;"(57) (1) 2171072";"Tr2 A 67-15 Colombia, Bogotá"
"PJR INFORMÁTICA E INGENIERÍA";;;"(57) (1) 4935927";"Cr 46 152-46 L-264 Colombia, Bogotá"
"COMPUTADORES MUNDONET";;;"(57) (5) 2829483";"Cr20 27-07 L-3 Centro Colombia, Sincelejo"
"C & T COMPUTADORES";;;"(57) (1) 2560779";"Cr16 76-42 Of 506 Colombia, Bogotá"
"COMP@NT LTDA.";;;"(57) (1) 4819166";"Cr71A Bis 11B 24 Colombia, Bogotá"
"PUNTO TECNOLOGICO";;;"(57) (6) 7315133";"Cr15 14-32 L-17 P-2 Colombia, Armenia"
"ALFANET EL PRINCIPIO DE LA TECNOLOGÍA";;;"(57) (6) 7466574";"Cr15 12-40 L-2 Colombia, Armenia"
"DYSA SOLUCIONES TECNOLÓGICAS";;;"(57) (6) 3350762";"Cl 19 5-34 L-213 Colombia, Pereira"
"CONSORCIO INTERNACIONAL DE SOLUCIONES INTEGRALES S.A.S.";;;"(57) (4) 4449185";"Cl 25 52-20 Colombia, Medellín"
"RECURSOS & TECNOLOGIA S.A.S.";;;"(57) (1) 6386381";"Cr18 86 A-14 Colombia, Bogotá"
"ANS TECNOLOGÍA";;;"(57) (1) 4353751";"Cl 87 102-60 Int 22 Ap 201 Colombia, Bogotá"
"COMPUTESCA E.U.";;;"(57) (5) 6633504";"Sta Lucía Dg21 54-71 L-6 Multicentro El Amparo Colombia, Cartagena"
"B Y G SISTEMAS";;;"(57) (8) 8720171";"Cl 9 8-19 Colombia, Neiva"
"CABALLERO MARÍA EUGENIA";;;"(57) (1) 5307340";"Cr15 78-33 L-123 Colombia, Bogotá"
"ACTIV@NET COMPUTADORES";;;"(57) (4) 8536195";"Cl 19 19-09 Colombia, Yarumal"
"P.C.SYSTEM'S LTDA.";;;"(57) (5) 3722032";"Cr43 50-12 L-155 El Rosario Colombia, Barranquilla"
"TECHNOLOGY HOUSE S.A.S.";;;"(57) (1) 5303237";"Cr15 78-33 L-2279-A Colombia, Bogotá"
"CABLE SERVICIOS S.A.";;;"(57) (1) 2241487";"Tr93 53-48 Int. 93/94 Colombia, Bogotá"
"MONTES HERRERA CARLOS ANDRÉS";;;"(57) (1) 6065481";"Cr15 77-05 L-281 Colombia, Bogotá"
"COMPUNET TECNOLOGIA INFORMATICA LTDA";;;"(57) (1) 6409193";"Cr15 77-05 L-243 Colombia, Bogotá"
"CAFÉ CLICK";;;"(57) (2) 8244657";"Cl 6 13-38 Colombia, Popayán"
"IRIDIUMNET LTDA.";;;"(57) (4) 6715111";"Cr4 25-54 P-2 Colombia, Quibdó"
"GLOBAL DPR COMPUTERS";;;"(57) (5) 3797200";"Cr43 50-12 l-123 C.C. Parque Central Colombia, Barranquilla"
"S.O.S SYSTEM";;;"(57) (4) 3542981";"Cr48 10-45 L-028 Colombia, Medellín"
TECHOUSE;;;"(57) (1) 6087481";"Cr13 73-35 Of 401 Colombia, Bogotá"
"COMPUTER SYSTEM INFORMATION S.A.S.";;;"Telefax: (57) (1) 6481054";"Cr53 134 - 96 Colombia, Bogotá"
"CLEAN UP SYSTEM";;;"(57) (2) 4485420";"Cl 62 8-100 B 14 Ap 502 Colombia, Cali"
"ANDRÉS LÓPEZ / B.M.S. COMPUTADORES Y PARTES";;;"(57) (2) 5533583";"Cl 5 61-159 L-25 Colombia, Cali"
"First Name";"Email Address";Url;Telephone;Address
"SOLUCIONES REALES PARA SU EMPRESA S.R.E. S.A.S.";;;"(57) (4) 3146359315";"Cl 95 76-23 Int 301 Colombia, Medellín"
"CARO RESTREPO Y ASOCIADOS";;;"(57) (1) 6221540";"Cr16 79-20 Of 710 Colombia, Bogotá"
"CIERTO INFORMÁTICO";;;"(57) (1) 4802965";"Cr 56A 128-94 Colombia, Bogotá"
"QUADDIX TECHNOLOGY S.A.S";;;"(57) (1) 2182546";"Cl 77 16 A-35 Ap 201 Colombia, Bogotá"
"ZINCO COLOMBIA LTDA.";;;"(57) (2) 5244240";"Av6 A N 20 N-29 Of 208 Colombia, Cali"
"TANIUM TEHC";;;"Conm.: (57) (1) 5304071";"Cr16 A 79-05 Of 411 Colombia, Bogotá"
"ASSEMBLER DE COLOMBIA LTDA.";;;"(57) (1) 6311674";"Cr63 78 A-21 Colombia, Bogotá"
"CENTRO COMERCIAL EL CARRUSEL DEL EXITO";;;"(57) (4) 2604612";"Cl 48 D 65 A-57 Of 204 Colombia, Medellín"
CONECTIVA;;;"(57) (7) 6430895";"Cr33 48-109 C.C. Gratamira L-213 Colombia, Bucaramanga"
"MORENO MANUEL";;;"(57) (1) 6912893";"cR. 21a 80-06 Colombia, Bogotá"
"MAI COMPUTADORES Y CÍA LTDA.";;;"(57) (1) 6409179";"Cr 15 77-05 L-229 Colombia, Bogotá"
"COMPUSYSTEM J Y M";;;"(57) (2) 4400818";"Cl 71 A N 4 N-50 Colombia, Cali"
"IONICA XTREAM";;;"(57) (7) 6570919";"Cr33 48-109 L-212 C.C Gratamira Colombia, Bucaramanga"
"AR TECNOLOGY";;;"(57) (8) 2661986";"Cr5 27-10 Colombia, Ibagué"
"ISL S.A.";;;"Nal: (57) (7) 6455547";"Cl 30 29-58 Colombia, Bucaramanga"
"ITEL LTDA.TMC ITEL LTDA.";;;"(57) (2) 6675662";"Av2 C N 23 AN-69 Colombia, Cali"
SYSTEMCOMPUTO;;;"(57) (6) 8805529";"Cr23 23-60 Of 208-A Colombia, Manizales"
"SERVI ARCOT";;;"Nal: (57) (7) 5715763";"Av3 8-27 Centro Colombia, Cúcuta"
"LINE TECHNOLOGY E.U.";;;"(57) (1) 6068158";"Cr15 77-05 L 106 Colombia, Bogotá"
"CATALOGO TECNOLOGICO S.A.S.";;;"Telefax: (57) (1) 3682817";"Cr33 A 27 A - 05 Colombia, Bogotá"
"NUEVACOL S.A.S.";;;"Telefax: (57) (1) 6180940";"Cl 81 11 - 68 Of 508 Colombia, Bogotá"
"QUALIPRINT S.A.S.";;;"Telefax: (57) (1) 3711916";"Cr25 A 8 - 79 Colombia, Bogotá"
TECNOBYTE;;;"(57) (1) 5308018";"Cl 79 14-56 Of 3015 Colombia, Bogotá"
"TALAR MAYORISTAS S.A.";;;"(57) (1) 6224478";"Cr30 91-20 Colombia, Bogotá"
"SMITH DATATEL";;;"(57) 3163890512";"Av Newball Torres Sunrise Beach Of 332 Colombia, San Andrés"
"COMPU IMPRESIÓN LTDA.";;;"(57) (1) 4754255";"Av (Cr) 15 78-33 Colombia, Bogotá"
"TECNOLOGÍA GAMOS Y COMPAÑÍA S.A.S.";;;"Conm.: (57) (4) 3631987";"Cl 60 21 B-41 Barranquilla Colombia, Medellín"
"COMPUTADORES COMPU CITY";;;"(57) (4) 2768269";"Cr41 36SUR-13 Colombia, Medellín"
"VORTICE STORE";;;"(57) (7) 6439595";"C.C. Gratamira Of. 220-325 Colombia, Bucaramanga"
COMPU.MOJANA;;;"(57) (5) 2825169";"Cl 25 19-24 L-3 Centro Colombia, Sincelejo"
TECNICOMPUTO;;;"(57) (8) 4357316";"Cl 13 12-79 Centro Colombia, Florencia"
"CONECCION 2000";;;"(57) (1) 6913923";"Cr15 78-33 L-2-219 Colombia, Bogotá"
"TECNIDATA DE COLOMBIA LTDA";;;"(57) (1) 5306983";"Cr15 78-05 L-2-274 Colombia, Bogotá"
CELUCLOCK;;;"(57) (5) 6602432";"Centro la Matuna Cr8 B 32-12 Colombia, Cartagena"
"TECHNICAL SERVICE PC LTDA.";;;"(57) (1) 6065028";"Cr15 78-33 L-1-188 P-1 Colombia, Bogotá"
"PYP HS S.A.";;;"(57) (4) 3123902";"Cr48 10-45 Int 302 Colombia, Medellín"
"MICRO CHIPS LTDA.";;;"(57) (4) 2317416";"Cr51 D 61-72 Colombia, Medellín"
"SOLUCIONES INTELIGENTES LTDA.";;;"(57) (2) 2706808";"Cl 33 28-25 Colombia, Palmira"
"COMPU TECS@NET";;;"(57) (4) 2504148";"Cl 44 79-157 Colombia, Medellín"
MULTISYSTEM;;;"(57) (8) 5124547";"Av20 de Julio 3-95 Colombia, San Andrés"
"First Name";"Email Address";Url;Telephone;Address
COMPUCARD;;;"(57) (8) 2658853";"C.C. La Quinta L-257 Colombia, Ibagué"
"BASE VIRTUAL LTDA";;;"(57) (7) 6470071";"Cr35 48-117 L-110 Colombia, Bucaramanga"
"INNOVATECH SAI";;;"(57) (8) 5128389";"Av La Jaiba Calle Central Colombia, San Andrés"
"M@KRONET COMPUTER";;;"(57) (7) 6306943";"C.C. Sanandresito Centro P-4 L-D-18 Colombia, Bucaramanga"
"ISL S.A.";;;"Nal: (57) (7) 6455547";"Cl 30 29-58 Colombia, Bucaramanga"
COMPUELECTRÓNICA;;;"(57) (5) 3603913";"Cr45 60-50 Boston Colombia, Barranquilla"
"OK INTERNATIONAL COMPUTERS E.U.";;;"(57) (2) 6605000";"Av5 A N 23 D N-68 L-2-107 Colombia, Cali"
"SODITEK DE COLOMBIA LTDA.";;;"(57) (2) 4897902";"Av3 Bis 24 N-47 Of 203 Colombia, Cali"
"COMPUTADORES COLOMBIA CORPORATION";;;"(57) (2) 3808721";"Cr42 1 A-56 Colombia, Cali"
"A-Z COMPUTADORAS";;;"(57) (2) 4434865";"Cl 34 1-82 Colombia, Cali"
"SERVIOPEN LTDA.";;;"(57) (1) 2185751";"Cl 79 18-34 Of 302 Colombia, Bogotá"
"LA BODEGUITA";;;"(57) (2) 2326363";"Cr 30 Cl 27 Esq. L-1 Colombia, Tuluá"
"J & K SOLUCIONES TECNOLÓGICAS";;;"(57) (6) 7450666";"Cl 12 13-14 Colombia, Armenia"
OLISYSTEM;;;"(57) (6) 3243198";"Cl 20 11-01 Colombia, Pereira"
"LINK COMPUTER";;;"(57) (6) 3243965";"Cr8 20-67 L-102 Colombia, Pereira"
"MAJESTIC SYSTEM";;;"(57) (1) 7581564";"Cl 77 15-25 Colombia, Bogotá"
GENERACIÓN;;;"(57) (6) 8759857";"Cr23 63-15 Of. 305-A Colombia, Manizales"
"SERVI ARCOT";;;"Nal: (57) (7) 5715763";"Av3 8-27 Centro Colombia, Cúcuta"
"CIGARRERÍA PUNTO 15";;;"(57) (1) 2567131";"Cr15 79-99 Ap 301 Colombia, Bogotá"
"SUPERCÓMPUTO MI PC";;;"(57) (1) 2188228";"Av (Cr) 15 79-69 L-120 Colombia, Bogotá"
TEKNOSTORE;;;"(57) (8) 5128247";"Av La Jaiba 2 A-47 Colombia, San Andrés"
"TERCERA DIMENSIÓN";;;"(57) (4) 3416430";"Cl 8 84 F-25 Int 315 Colombia, Medellín"
"COMPULAGO LTDA.";;;"(57) (5) 6602294";"C.C. Centro Uno L-224 Colombia, Cartagena"
"PM SOLUTIONS S.A.S.";;;"Telefax: (57) (1) 7539604";"Cr54 D 135 - 95 Ap 102 Colombia, Bogotá"
"NOTEBOOK CENTER E.U";;;"(57) (1) 2578250";"Cl 79 18-34 Of 508 Colombia, Bogotá"
"R & A";;;"(57) (1) 2188408";"Cr15 79-75 L-122 Colombia, Bogotá"
"SOLUCIONES TECNOLÓGICAS DIVISIÓN SISTEMAS LTDA.";;;"(57) (1) 6354172";"Cr13 A 97-82 Of 305 Colombia, Bogotá"
INFOSUR;;;"(57) (2) 8209757";"Cr6 9-74 Colombia, Popayán"
COMPUTRONIX;;;"(57) (2) 7234953";"C.C. Sebastián de Belalcázar L-139 Colombia, Pasto"
"SERVERS & SOFTWARE";;;"(57) (1) 5200816";"Cr53 127 D-68 Of 301 Colombia, Bogotá"
"TERABYTE LTDA.";;;"(57) (4) 3124082";"Cr48 10-45 L-360 Colombia, Medellín"
"TEC MASTER MONTERREY";;;"(57) (4) 2686668";"Cr48 10-45 L-221 Colombia, Medellín"
"COMPU IMPRESIÓN LTDA.";;;"(57) (1) 4754255";"Av (Cr) 15 78-33 Colombia, Bogotá"
"COMPUTRONIC PC.NET";;;"(57) (4) 5113161";"Cl 54 57-60 Int 4 Colombia, Medellín"
"TRIPLE A COMPUTADORES Y EQUIPOS";;;"(57) (4) 2319206";"Cl 50 45-36 Colombia, Medellín"
"PC BELEN 76";;;"(57) (4) 3417787";"Cr76 27-55 Colombia, Medellín"
"COMPU 2000";;;"(57) (4) 2689106";"Cr 48 10-45 L-105 Colombia, Medellín"
"EMPORIO DIGITAL DE COLOMBIA";;;"(57) (4) 2312949";"Cl 46 53-40 L-131 Colombia, Medellín"
INFOSERVER;;;"(57) (4) 2319260";"Cr48 10-45 Of 2203 Colombia, Medellín"
"ABCL TECNOLOGÍA LTDA.";;;"Conm.: (57) (2) 6662106";"Av4 B N 47 A N-60 Colombia, Cali"
"First Name";"Email Address";Url;Telephone;Address
COMPUTEC.SAI;;;"(57) (8) 5124038";"Vía San Luis frente Iglesia Sagrada Familia Colombia, San Andrés"
"GESTIÓN Y TECNOLOGÍA";;;"(57) (4) 7824152";"Cr6 33-44 Centro Colombia, Montería"
"PALACIO ARCINIEGAS ALEJANDRO";;;"(57) (1) 2368687";"Cr15 78-05 L-2 Ap 306 Colombia, Bogotá"
"ASESORES LANIER";;;"(57) (5) 5747728";"Cl 17 9-20 L-209 C.C. Torcoroma Colombia, Valledupar"
"COMPUTADORES DE CÓRDOBA";;;"(57) (4) 7821853";"Cl 33 5-21 Centro Colombia, Montería"
"PUNTO TECNOLOGICO";;;"(57) (6) 7315133";"Cr15 14-32 L-17 P-2 Colombia, Armenia"
"MELO LUNA SANDRA";;;"(57) 3005574990";"C.C. Acrçpolis L-253-B Colombia, Bucaramanga"
TECNISOFTWARE;;;"(57) (6) 7466560";"Cl 15 14-28 L-8 Colombia, Armenia"
"DYSA SOLUCIONES TECNOLÓGICAS";;;"(57) (6) 3350762";"Cl 19 5-34 L-213 Colombia, Pereira"
"JU@NZONNEO COMPUTADORES";;;"(57) 3012837836";"Dg9 A 10-05 Ap 202 Brr Galilea Colombia, Montería"
"ACELERACIÓN EN SISTEMAS RAPI PC";;;"(57) (4) 4447173";"Cl 16 A 52-143 Colombia, Medellín"
"3 POINTECH S.A.S";;;"(57) (4) 4440314";"Cl 42 69-06 Of 205 Colombia, Medellín"
"LA CASA DEL CELULAR";;;"(57) (7) 5710080";"Av6 Cl 8 L-14-153 Colombia, Cúcuta"
"PUNTO DE ENLACE S.A.";;;"(57) (4) 4441733";"Cr48 10-45 L-314 Colombia, Medellín"
"SERVIRED WORKING S.A.S.";;;"(57) (2) 3700550";"Cr36 B 14 C-36 Colombia, Cali"
"MICRO RAM LTDA";;;"(57) (4) 2685282";"Cr48 10-45 L-291 Colombia, Medellín"
"ARIAS ELIZABETH";;;"(57) (1) 6221651";"Cr16 79-20 Of 711 Colombia, Bogotá"
"COMPUTADORES ACCESORIOS MAXIPC LTDA";;;"Conm.: (57) (4) 2688622";"Cr48 10-45 Int 298 Colombia, Medellín"
"COMPUTEC S.A.";;;"(57) (1) 7242203";"Dg45 S 51-26 Colombia, Bogotá"
"BEST BUY COMPUTER";;;"(57) (7) 6430887";"Cr33 48-109 L-205 Cabecera del Llano Colombia, Bucaramanga"
"LANDATUR LTDA.";;;"(57) (1) 5449392";"Cr12 71-19 Colombia, Bogotá"
PROOFICINAS.COM;;;"(57) (8) 8713292";"Cl 11 5-68 Colombia, Neiva"
NIXCOM;;;"(57) (1) 2952742";"Av Eldorado 84 A-55 L-A-144 Colombia, Bogotá"
RESISTEMAS;;;"(57) (6) 8784229";"Cl 68 35 A-35 Colombia, Manizales"
SYSLOG;;;"(57) (8) 8714918";"Cl 4 5-98 P-2 Colombia, Neiva"
"MAKRO VISIÓN LTDA.";;;"(57) (1) 6222036";"Cr15 78-33 L-2-300 Colombia, Bogotá"
"COMPU BIT";;;"(57) (5) 3723367";"Parque Central L-51 y 131 Colombia, Barranquilla"
DATA;;;"(57) (5) 3701937";"Cr43 50-12 L-117 Colombia, Barranquilla"
"ALMACENES C.M.S.";;;"(57) (5) 3684554";"Cr47 76-88 Colombia, Barranquilla"
"LAP Y PC SUPPLIES";;;"(57) (5) 3706353";"Cr43 50-12 L-97 Colombia, Barranquilla"
"PC SWORD LTDA.";;;"(57) (1) 6166009";"Cl 76 19-39 Colombia, Bogotá"
"JL COMPUTADORES";;;"(57) (4) 2308880";"Cr74 48-37 Int 222 C.C. Obelisco Colombia, Medellín"
"COMPUTADORES, PARTES Y REDES";;;"(57) (4) 2685272";"Cr48 10-45 L-2204 Colombia, Medellín"
"C.R.A. SISTEMAS DE OCCIDENTE";;;"(57) (2) 2273009";"Cr8 5-69 Colombia, Buga"
"COMPU TECS@NET";;;"(57) (4) 2504148";"Cl 44 79-157 Colombia, Medellín"
"COMPUWORES PLUS";;;"(57) (1) 2562647";"Cr 16 80-11 Of 202 Colombia, Bogotá"
"LENOVO MCL";;;"(57) 3156942901";"Cove Sea Side Km 9 + 541 Colombia, San Andrés"
"COMPUTEL COMUNICACIONES";;;"(57) (4) 8287621";"Cl 97 101-11 Colombia, Apartadó"
"VIMA ELECTRONICS";;;"(57) (1) 2842673";"Cl 21 9-48 L-101 Colombia, Bogotá"
"COMPUTADORES Y SERVICIOS";;;"(57) (1) 2725265";"Cl 13 S 24 C-32 Colombia, Bogotá"
"First Name";"Email Address";Url;Telephone;Address
"TECNO-OFFICE INTERNATIONAL & CÍA. S.A.S.";;;"(57) (5) 3693310";"Cl 79 45-10 El Porvenir Colombia, Barranquilla"
"CORE TECHNOLOGY";;;"(57) (7) 6444645";"Cr3 61-19 Int 4 Colombia, Bucaramanga"
"MVP COMPUTADORES LTDA.";;;"(57) (1) 6914013";"Cr15 78-33 L-1 182 A Colombia, Bogotá"
"TECHNICAL SERVICE";;;"(57) (6) 7461639";"Cl 2 14-01 Nivel 2 L-C-22 Colombia, Armenia"
SERVINFORMATICA;;;"(57) (4) 4480124";"Cr43 27 A S-86 L-152 Envigado Colombia, Envigado"
"PC PYRAMID COMPUTER COLOMBIA";;;"(57) (5) 2815546";"Cr20 23-65 L-2B Centro Colombia, Sincelejo"
"MICROXOL E.U.";;;"(57) (1) 6065038";"Cr15 78-33 L-2-262-L Colombia, Bogotá"
"ABC LTDA.";;;"(57) (8) 7706111";"Cr9 A 17-16 Colombia, Sogamoso"
"SYSTEC CÓMPUTO";;;"(57) (6) 7411379";"Cr15 22-25 Colombia, Armenia"
MEGASYSTEM;;;"(57) (7) 6475437";"C.C. Gratamira Cr33 48-109 L-117 Colombia, Bucaramanga"
TECNISOFTWARE;;;"(57) (6) 7466560";"Cl 15 14-28 L-8 Colombia, Armenia"
"EQUI-TEC S.A.S.";;;"(57) (4) 3201984";"Cr71 A 96-28 Int 301 Colombia, Medellín"
"MULTIMEDIA WORLD";;;"(57) (1) 4123402";"Cl 6 D 79A-76 int 6 Of 429 Colombia, Bogotá"
"TIENDAS HP";;;"(57) (4) 2685416";"Cr48 10-45 Int 303 Colombia, Medellín"
"SOLUCIONES EDUCATIVAS TECNOLOGICAS S.A.S.";;;"(57) (4) 4445632";"Cr81 A 35-26 Int 202 Colombia, Medellín"
"CONSORCIO INTERNACIONAL DE SOLUCIONES INTEGRALES S.A.S.";;;"(57) (4) 4449185";"Cl 25 52-20 Colombia, Medellín"
"CENTRO COMERCIAL LAS PULGAS";;;"(57) (7) 6714586";"Cl 19 14-38 Colombia, Bucaramanga"
"SOLUX SYSTEMS ASOCIADOS LTDA.";;;"(57) (5) 3596690";"Cr44 84-121 Colombia, Barranquilla"
"LA CASA DEL CELULAR";;;"(57) (7) 5710080";"Av6 Cl 8 L-14-153 Colombia, Cúcuta"
"PUNTO DE ENLACE S.A.";;;"(57) (4) 4441733";"Cr48 10-45 L-314 Colombia, Medellín"
"SOLUCIONES REALES PARA SU EMPRESA S.R.E. S.A.S.";;;"(57) (4) 3146359315";"Cl 95 76-23 Int 301 Colombia, Medellín"
"SERVIRED WORKING S.A.S.";;;"(57) (2) 3700550";"Cr36 B 14 C-36 Colombia, Cali"
"NRD COMPUTADORES";;;"(57) (4) 2685115";"Cr 48 10-45 L-244 Colombia, Medellín"
"E-SYSTEMS GROUP S.A.";;;"(57) (5) 6642600";"Cl 32 C 8 A-44 C.C. Centro Uno L-231 Colombia, Cartagena"
"COMPUTER ASOCIADOS DE COLOMBIA LTDA.";;;"(57) (1) 6918014";"Cr15 76-53 Of 502 Colombia, Bogotá"
"EAGLE BUSINESS";;;"(57) (1) 6095827";"Cr 4 59-01 Of 706 Colombia, Bogotá"
"INFORMA COLOMBIA S. A.";;;"Nal: (57) (1) 6337000";". Colombia, Bogotá"
1URTIREDES;;;"(57) (1) 8887388";"Cr11 19-88 Colombia, Girardot"
"I.M.C. TECNOLOGÍA DE COLOMBIA S.A.";;;"(57) (2) 5242700";"Cl 39 N 4 N-13 Colombia, Cali"
"LA CASA DEL COMPUTADOR";;;"(57) (4) 8873968";"Cr21 20-09 Colombia, Yarumal"
"INFOTECH PC EU";;;"(57) (1) 6349705";"Cr15 78-33 L-2 288 Colombia, Bogotá"
"MAC STATION LTDA.";;;"(57) (1) 6360400";"Cl 93 B 15-34 L-214/206 Colombia, Bogotá"
"MEDIA PARTNERS";;;"(57) (5) 3023434";"Cr47 79-175 Colombia, Barranquilla"
"KIOSCOS INFORMATICOS";;;"(57) (4) 2666015";"Cr48 10-45 Colombia, Medellín"
"PIXEL DIGITAL";;;"(57) (4) 2388657";"Cl 29 73-34 Colombia, Medellín"
"MIKRONET S.A.";;;"(57) (1) 8966393";"Autop Medellín Km 3.4 Cem Bdg 1 Mód 3 Colombia, Bogotá"
OFFISFLASH;;;"(57) (1) 2573647";"Av (Cr) 15 78-33 L-1218 Colombia, Bogotá"
"BETHEL COMPUTER";;;"(57) (1) 8767117";"Cl 80 Km 1.5 Vía Siberia Parque Agroindustrial Bdg Colombia, Bogotá"
"HARD COMPUTER";;;"(57) (1) 6347664";"Cr15 76-53 Of 404 Colombia, Bogotá"
"D COMPUTADORES";;;"(57) (1) 6910985";"Av (Cr) 15 79-69 L-215 Colombia, Bogotá"
"First Name";"Email Address";Url;Telephone;Address
"CJM INGENIERÍA";;;"(57) (5) 2814237";"Cr20 27-38 Colombia, Sincelejo"
"MASTER SISTEMAS";;;"(57) (2) 3324793";"Cr94 4-82 Colombia, Cali"
"A.T.C. ALTA TECNOLOGÍA EN COMPUTADORES";;;"(57) (2) 2754294";"Cr25 B 47-09 Colombia, Palmira"
"INGENIEROS & ARQUITECTOS LTDA.";;;"(57) (8) 6621792";"Cl 38 32-41 Parque Santander Of 1106 Colombia, Villavicencio"
"SOFSERCOM LTDA.";;;"(57) (7) 6420247";"Cr11 30-21 Colombia, Bucaramanga"
"MERCOMTEL LTDA";;;"(57) (1) 4608526";"Cl 94 72 A-95 Trr 4 Of 24 Colombia, Bogotá"
"COMPU HELP";;;"(57) (2) 2242153";"cra 25 30-16 Colombia, Tuluá"
"MAGIC COMPUTERS";;;"(57) (6) 3244842";"Cl 20 4-10 Colombia, Pereira"
"PC INJET";;;"(57) (7) 6420555";"C.C Sanandresito Centro P-4 L-D-2 Colombia, Bucaramanga"
"JV ELECTRONICS";;;"(57) (7) 6708932";"Cl 35 17-56 Of 203 Edif Davivienda Colombia, Bucaramanga"
"COMERCIALIZADOTA MAXX";;;"(57) (7) 6569472";"Cl 36 23-51 Centro Colombia, Bucaramanga"
"DISTRISISTEMAS JGC";;;"(57) (7) 5730506";"Cl 8 7-27 L-216 Centro Colombia, Cúcuta"
MEDETRONICA;;;"(57) (4) 2661170";"Cr48 10-45 L-310 Colombia, Medellín"
"LA JAPONESA";;;"(57) (2) 7233425";"C.C. San Andresito Círculo 7 L-3 Colombia, Pasto"
"COMPUTINTAS COMERCIALIZADORA";;;"(57) (8) 8350664";"Cr3 2-38 Colombia, Pitalito"
"EQUIPOS DE COMPUTO GOS";;;"(57) (1) 5404092";"Cr70 65 A-77 Colombia, Bogotá"
"SOPORTE S.A";;;"(57) (4) 4442612";"Cr43 D 13-26 Colombia, Medellín"
"ENTER TECHNOLOGY";;;"(57) (7) 6836999";"Cr33 48-109 L-129 C.C. Gratamira Colombia, Bucaramanga"
"JB ELECTRONICS";;;"(57) 3113363621";"Cr15 14-28 L-20 Colombia, Armenia"
"CARDONA NARANJO MAURICIO";;;"(57) (2) 2115110";"Cr4 15-75 Colombia, Cartago"
"GIGA BYTE COMPUTADORES";;;"(57) (7) 6573565";"Cr33 48-109 L-226 Colombia, Bucaramanga"
"COMPUCOSMO HOLGUINES";;;"(57) (2) 3339766";"Cr100 11-60 Of 185 Colombia, Cali"
"N.R.Q & CIA LTDA.";;;"(57) (2) 8811424";"Cl 11 5-61 Of 311 Colombia, Cali"
HORMICOMPUS;;;"(57) (2) 2818452";"Cl 29 27-58 Colombia, Palmira"
"TIENDA ACER COLOMBIA";;;"(57) (2) 3962237";"Av5 N 23 A N-68 L-224 Colombia, Cali"
"LOS CLONEX.COM";;;"(57) (7) 6728383";"C.C. Sanandresito Centro P-4 L-D-31-33 Colombia, Bucaramanga"
"LINEA TECNOLOGICA DE COLOMBIA";;;"(57) (7) 6371961";"Bucaramanga Colombia, Bucaramanga"
"NEXCOM S.A.";;;"(57) (1) 4395325";"Cr106 15-25 Int 74 Bdg 4 Colombia, Bogotá"
"TIENDAS HP";;;"(57) (7) 6471515";"Cr47 65-61 Of 101 La Floresta Colombia, Bucaramanga"
"CLON COMPUTER EVOLUTIONS";;;"(57) (4) 3124205";"Cr48 10-45 L-293 Colombia, Medellín"
"COMPUSYSTEM J Y M";;;"(57) (2) 4400818";"Cl 71 A N 4 N-50 Colombia, Cali"
"IONICA XTREAM";;;"(57) (7) 6570919";"Cr33 48-109 L-212 C.C Gratamira Colombia, Bucaramanga"
"MAC SOPORTE";;;"(57) (2) 6685003";"Cl 28 N 5-12 Colombia, Cali"
OLISYSTEM;;;"(57) (6) 3243198";"Cl 20 11-01 Colombia, Pereira"
TECHNOLOGY;;;"(57) (1) 3510854";"Cl 10 27-39 L 116 Colombia, Bogotá"
APROVINET;;;"(57) (6) 3231862";"Manz 15 Casa 6 Campestre D Dosq Colombia, Pereira"
"SISTEMAS Y PRODUCTOS GENERALES SISPROGEN S.A.S.";;;"Telefax: (57) (1) 5481863";"Cl 54 A 15 - 76 L-06 Colombia, Bogotá"
"RCW ENTERPRISE LTDA.";;;"(57) (1) 2566597";"Cr15 78-33 L 2-217 Colombia, Bogotá"
TEKNOSTORE;;;"(57) (8) 5128247";"Av La Jaiba 2 A-47 Colombia, San Andrés"
"NEO TRONIX";;;"(57) (1) 2988971";"Cr88 Bis 31-16 Int 1 Ap 301 Colombia, Bogotá"
"First Name";"Email Address";Url;Telephone;Address
"PUNTO TECNOLOGICO";;;"(57) (6) 7315133";"Cr15 14-32 L-17 P-2 Colombia, Armenia"
"COMPUCENTRO DE LA 16";;;"(57) (6) 7412274";"Cr16 19-42 Of 203-A Colombia, Armenia"
"HQS HIGH QUALITY SYSTEMS DE COLOMBIA LTDA.";;;"(57) (1) 6368143";"Cr16 A 80-06 Of 201 Colombia, Bogotá"
"STORE S.A.S.";;;"(57) (4) 3116251";"Cr48 10-45 Int 340 Colombia, Medellín"
"COMPUSOLUCIONES 79 LTDA.";;;"(57) (1) 6221305";"Cr16 79-20 Colombia, Bogotá"
SERVIMICROS;;;"(57) (4) 4443403";"Cl 33 42 B-41 L-166 Colombia, Medellín"
"SPECIALTECH - OCTAVIO GONZALEZ";;;"(57) (7) 6478818";"Cr33 48-109 L-310 C.C. Gratamira Colombia, Bucaramanga"
"CLONIX E.U.";;;"(57) (4) 3125822";"Cr 48 10-45 L-153 Colombia, Medellín"
"INKDEPOT S.A.S.";;;"(57) (4) 4487621";"Cr35 8 A-44 Of 202 Colombia, Medellín"
"TECH LINE LTDA.";;;"(57) (1) 2846568";"Cr12 16-73 Colombia, Bogotá"
"DMS S.A.";;;"(57) (1) 2637059";"Av (Cl) 26 69 D-91 Edif Empresarial Arrecife Colombia, Bogotá"
"DISTRIBUCIONES EL COLEGIO";;;"(57) (4) 7815551";"Cr3 25-12 P-1 Edif María Martelo Colombia, Montería"
INGERSOFT;;;"(57) (4) 7815464";"Cr11 40-41 L-101 Centro Colombia, Montería"
"COMPUTEC S.A.";;;"(57) (1) 7242203";"Dg45 S 51-26 Colombia, Bogotá"
"EXPRESS COMPUTO";;;"(57) (1) 6101399";"Cr16 76-55 Of 102 Colombia, Bogotá"
"IMAGEN P Y G LTDA.";;;"(57) (1) 2185734";"Cr15 78-77 L-242 Colombia, Bogotá"
"CIERTO INFORMÁTICO";;;"(57) (1) 4802965";"Cr 56A 128-94 Colombia, Bogotá"
"COMPU CONSULTORES";;;"(57) (5) 3689741";"Cr46 61-58 L-3 Colombia, Barranquilla"
OFITECS;;;"(57) (5) 2850097";"Cr26 30-48 Colombia, Corozal"
"HARD CONEXION";;;"(57) (5) 3707115";"Cr43 50-12 L-160 C.C. Parque Central Colombia, Barranquilla"
"TECHNOLOGY HOUSE S.A.S.";;;"(57) (1) 5303237";"Cr15 78-33 L-2279-A Colombia, Bogotá"
"IMC COMPUTADORES S.A.S.";;;"(57) (4) 3540593";"Cl 14 48-33 Of 507 Colombia, Medellín"
"SHOPPING COMPUTERS LTDA.";;;"(57) (1) 6160611";"Cr15 78-33 Colombia, Bogotá"
CELUCOMPUT;;;"(57) (7) 6026514";"Edificio Super Estrella Local 14 Colombia, Barrancabermeja"
"MONTES HERRERA CARLOS ANDRÉS";;;"(57) (1) 6065481";"Cr15 77-05 L-281 Colombia, Bogotá"
"COMERCIAL GALILEO S.A.S.";;;"(57) (4) 2933101";"Cr 52 46-68 Int 267 Colombia, Medellín"
COMPUTINTAS;;;"(57) (7) 6471888";"Cl 56 34-21 L-1 Colombia, Bucaramanga"
"COMPUSERVER LTDA.";;;"(57) (4) 8393408";"Cl 20 14-15 Colombia, Caucasia"
"NOTEBOOK PC";;;"Nal: (57) (1) 6112158";"Centro Comercial Unilago Local 1-174 Colombia, Bogotá"
"RED-SI TELECOMUNICACIONES Y EQUIPOS LTDA.";;;"(57) (1) 6064784";"Cr15 80-05 L-75 Colombia, Bogotá"
"SISTEMA CHAOR LTDA.";;;"(57) (1) 6403695";"Cl 47 13-33 Colombia, Bogotá"
"COMPU COMERCIAL";;;"(57) (5) 3796380";"Cr53 72-75 L-1 Colombia, Barranquilla"
"RAK COMPUTADORES";;;"(57) (1) 6363931";"Cr15 78-05 L-2270 Colombia, Bogotá"
"SISTEMAS INTELIGENTES LTDA.";;;"(57) (1) 2355696";"Cl 53 21-89 Of 301 Colombia, Bogotá"
"J & Y SYSTEMS WEB S.A.S.";;;"Telefax: (57) (1) 3090743";"Dg61 B 21 - 28 Colombia, Bogotá"
"S.O.S SOLUCIONES TECNOLOGICAS S.A.S.";;;"Telefax: (57) (1) 7752565";"Cr77 H 69 B - 22 S Colombia, Bogotá"
"SATYAM COLOMBIA SERVICIOS DE INFORMATICA S.A.S.";;;"Telefax: (57) (1) 7059000";"Cl 102 A 47 A - 09 Colombia, Bogotá"
"TECHSERVICE S.A.S.";;;"Telefax: (57) (1) 6137323";"Dg115 A 70 F - 15 Colombia, Bogotá"
"USA TECH CORP S.A.S.";;;"Telefax: (57) (1) 6163033";"Cr11 95 - 27 Colombia, Bogotá"
"ELECTRODOMESTICOS E INFORMATICA E.U.";;;"(57) (1) 7034833";"Cr 111 A 88 B-51 Colombia, Bogotá"
"First Name";"Email Address";Url;Telephone;Address
"MORENO CRUZ Y CÍA. TOMÁS";;;"Conm.: (57) (1) 6783100";"Cr7 180-75 Mód 6 P-2 Colombia, Bogotá"
"BEST BUY COMPUTER";;;"(57) (7) 6430887";"Cr33 48-109 L-205 Cabecera del Llano Colombia, Bucaramanga"
"BLUE POINT";;;"(57) (1) 6166702";"Cr15 78-33 L-101 Colombia, Bogotá"
"DROGUERÍA E-FARMA";;;"(57) (5) 3579301";"Cr47 87-10 Colombia, Barranquilla"
"HARDWARE Y SOLUTIONS";;;"(57) (5) 3449029";"Cr43 50-12 L-14 C.C. Parque Central Colombia, Barranquilla"
"TEKNOVA COLOMBIA";;;"(57) (6) 3413385";"Cl 19 5-48 L-216 Colombia, Pereira"
"HARDWARE & SERVICIOS LTDA.";;;"(57) (5) 3015241";"Cr43 50-12 L-161 C.C.Parque Central Colombia, Barranquilla"
"SYNERGI COMP LTDA.";;;"Telefax: (57) (5) 3515556";"Cr43 50-12 L-115 Colombia, Barranquilla"
"CABLE SERVICIOS S.A.";;;"(57) (1) 2241487";"Tr93 53-48 Int. 93/94 Colombia, Bogotá"
COMPUAMERICA;;;"(57) (4) 4139800";"Cl 43 78-22 Colombia, Medellín"
"SOLUCIONES INTELIGENTES LTDA.";;;"(57) (2) 2706808";"Cl 33 28-25 Colombia, Palmira"
"COMPU TECS@NET";;;"(57) (4) 2504148";"Cl 44 79-157 Colombia, Medellín"
"COMPUWORES PLUS";;;"(57) (1) 2562647";"Cr 16 80-11 Of 202 Colombia, Bogotá"
"COMPUSAR DE COLOMBIA LTDA.";;;"(57) (1) 6409171";"Cr15 77-05 L-220 Colombia, Bogotá"
"FULL ENTER COMPUTADORES LTDA.";;;"(57) (1) 2365764";"Av (Cr) 15 78-33 L-2281 Colombia, Bogotá"
"COMPUTADORES & ACCESORIOS";;;"(57) (2) 8393313";"Cr9 8-27 Colombia, Popayán"
"NOTEBOOK PC";;;"Nal: (57) (1) 6112158";"Centro Comercial Unilago Local 1-174 Colombia, Bogotá"
"BETHEL COMPUTER";;;"(57) (1) 8767117";"Cl 80 Km 1.5 Vía Siberia Parque Agroindustrial Bdg Colombia, Bogotá"
"SISTEMA CHAOR LTDA.";;;"(57) (1) 6403695";"Cl 47 13-33 Colombia, Bogotá"
"ANTECH E.U.";;;"(57) (2) 8240928";"Cl 2 5-49 Centro Colombia, Popayán"
"CAFÉ CLICK";;;"(57) (2) 8244657";"Cl 6 13-38 Colombia, Popayán"
"GF STATION";;;"(57) (1) 6408411";"Av (Cr) 15 77-5 L-117 Colombia, Bogotá"
SERVICOMPUTO;;;"(57) (76) 5645175";"Cr4 4-41 Colombia, San Alberto"
"CREANDO NUEVAS SOLUCIONES";;;"(57) (5) 3494468";"Cl 49 54-35 Colombia, Barranquilla"
"HARDWARE & TECNOLOGÍA LTDA.";;;"(57) (5) 3510944";"Cr43 50-12 L-63 Colombia, Barranquilla"
"JAVIBOT S.A.S.";;;"(57) (1) 6953061";"Cr56 147-58 Casa 29 Colombia, Bogotá"
"GO MARKETING EMOTIONS S.A.S.";;;"Telefax: (57) (1) 4678784";"Cr22 87 - 98 Colombia, Bogotá"
"HTS HIGH TECHNICAL SOLUTIONS SERVICE S.A.S.";;;"Telefax: (57) (1) 4704065";"Cr16 B 164 - 26 Colombia, Bogotá"
"TECHNOLOGY INNOVATION S.A.S.";;;"Telefax: (57) (1) 2489358";"Cl 56 14 - 52 P-2 Colombia, Bogotá"
"LENOVO (ASIA PACIFIC) SUCURSAL COLOMBIA";;;"(57) (1) 3138080";"Cr9 76-49 P-2 Colombia, Bogotá"
"INGENIERÍA COLOMBIANA DE INFORMÁTICA";;;"(57) (1) 2564739";"Cr15 80-36 Colombia, Bogotá"
"MP COMPUTERS LTDA.";;;"(57) (1) 6406722";"C.C. de Alta Tecnología Local 2-72 Colombia, Bogotá"
"NEXT SOFTWARE S.A.S.";;;"Telefax: (57) (1) 4007767";"Cl 66 A 73 A - 39 P-3 Colombia, Bogotá"
"X 10";;;"(57) (1) 6184232";"Av 15 78-33 Colombia, Bogotá"
"JOWI SISTEMA";;;"(57) (1) 3612331";"Cl 17 S 15-45 Colombia, Bogotá"
TECNICAL-PC;;;"(57) 3135885595";"Cl 13 4-47 L-31 C.C. Nevado San Andresito Colombia, Santa Marta"
"SISTEMAS CREATIVOS COMPUTADORES";;;"(57) (1) 4646791";"Cr 116 C 65-07 Colombia, Bogotá"
"COMPUTIME ORANGE SERVICES";;;"(57) (4) 2668966";"Cc Monterrey l-383 Colombia, Medellín"
"ECONTA S.A.";;;"(57) (1) 3250800";"Cl 72 10-07 Of 504 Colombia, Bogotá"
"P Y M DE COLOMBIA LTDA.";;;"(57) (2) 6536363";"Av5 A N 23 D N-68 L-1-65 Colombia, Cali"
"First Name";"Email Address";Url;Telephone;Address
"CREDICÓMPUTO DEL VALLE";;;"(57) (2) 3955599";"Av5 AN 23 DN-68 L-252 Colombia, Cali"
CCBZ;;;"(57) (1) 6221526";"Cr16 79-76 Of 601 Colombia, Bogotá"
"INSCOP LTDA.";;;"(57) (7) 6300116";"Cl 37 16-04 P-3 L-302 C.C. Panamá Colombia, Bucaramanga"
"HARMOD COMPUTADORES";;;"(57) (6) 8849497";"Cr23 24-25 L-5 Colombia, Manizales"
"MANTENIMICROS LIMITADA";;;"(57) (1) 6269644";"Cl 153 32-42 Colombia, Bogotá"
MEDETRONICA;;;"(57) (4) 2661170";"Cr48 10-45 L-310 Colombia, Medellín"
&-SISTEMAS;;;"(57) (2) 7227176";"Cr22 19-89 Colombia, Pasto"
COMPUMARCK;;;"(57) 8716754";"C.C. Los Comuneros L-3044 P-3 Colombia, Neiva"
"COMPUTINTAS COMERCIALIZADORA";;;"(57) (8) 8350664";"Cr3 2-38 Colombia, Pitalito"
"GLOBAL LINE COMPUTADORES";;;"(57) (2) 7752125";"Cl 11 5-44 Colombia, Ipiales"
"SOLUCIONES INTEGRALES EN INFORMÁTICA G.R.";;;"(57) (1) 4151985";"Cl 23 D 104-29 Int 11 Colombia, Bogotá"
"ENTER TECHNOLOGY";;;"(57) (7) 6836999";"Cr33 48-109 L-129 C.C. Gratamira Colombia, Bucaramanga"
COMPUMAX;;;"(57) (6) 3255541";"Cr18 9-120 Colombia, Pereira"
"CARDONA NARANJO MAURICIO";;;"(57) (2) 2115110";"Cr4 15-75 Colombia, Cartago"
"TIENDA ACER COLOMBIA";;;"(57) (2) 3962237";"Av5 N 23 A N-68 L-224 Colombia, Cali"
"ARLINGTON COMPUTADORES";;;"(57) (7) 6020330";"Cl 48 18 A-14 Colombia, Barrancabermeja"
"LA CLINICA DEL COMPUTADOR";;;"(57) (7) 6113890";"Cl 51 12-31 Colombia Colombia, Barrancabermeja"
"MACRO TEK SOLUCIONES EMPRESARIALES";;;"(57) (8) 2653428";"C.C. La Quinta L-163 Colombia, Ibagué"
"TIENDAS HP";;;"(57) (7) 6471515";"Cr47 65-61 Of 101 La Floresta Colombia, Bucaramanga"
CITYCOM;;;"(57) (7) 6499177";"Cl 128 47-174 Manz I Casa 123 Valverdi Colombia, Bucaramanga"
"MAD COMPUTERS STORE";;;"(57) (7) 6336301";"C.C. Sanandresito P-3 L-C-28 Ricaurte Colombia, Bucaramanga"
"CLUSTERS COMPUTADORES";;;"(57) (7) 6430886";"Cr33 48-109 L-204 Cabecera del Llano Colombia, Bucaramanga"
COMPUELECTRÓNICA;;;"(57) (5) 3603913";"Cr45 60-50 Boston Colombia, Barranquilla"
"COMPUTER DC";;;"(57) (7) 6430866";"Cr33 48-109 L-108 Cabecera del Llano Colombia, Bucaramanga"
"SERVICIO TÉCNICO B & A";;;"(57) (2) 6624350";"Dg16 71 A-109 Colombia, Cali"
"AMERICAN PC";;;"Nal: (57) (4) 4142373";"Cr79 A 42-29 Colombia, Medellín"
"J & K SOLUCIONES TECNOLÓGICAS";;;"(57) (6) 7450666";"Cl 12 13-14 Colombia, Armenia"
"SUMINISTROS MILENIUM CÚCUTA LTDA.";;;"(57) (7) 5714287";"Av1 11-36 Centro Colombia, Cúcuta"
"SISTEMAS SOLUCIONES";;;"(57) (8) 7612191";"Cl 12 16-30 El Carmen Colombia, Duitama"
"LINK COMPUTER";;;"(57) (6) 3243965";"Cr8 20-67 L-102 Colombia, Pereira"
SERVITECPC-SYSTEMS;;;"(57) (6) 8847713";"Cr21 30-03 Of 709 Colombia, Manizales"
MEGATINTAS;;;"(57) (4) 4133849";"Cl 35 80-48 Colombia, Medellín"
"MICRO INF";;;"Nal: (57) (6) 3344374";"Cl 23 No.-8 -55 L. 211 C.C. Lago Plaza Colombia, Pereira"
"CIGARRERÍA PUNTO 15";;;"(57) (1) 2567131";"Cr15 79-99 Ap 301 Colombia, Bogotá"
"TERCERA DIMENSIÓN";;;"(57) (4) 3416430";"Cl 8 84 F-25 Int 315 Colombia, Medellín"
"MICROPROCESS LTDA.";;;"Telefax: (57) (1) 4700886";"Cr7 F 145 - 89 Colombia, Bogotá"
"SERVINTEL LTDA.";;;"(57) (8) 8670182";"Cr51 C 22-04 Urb El Salitre Colombia, Neiva"
"ACTIVA S.A.";;;"Conm.: (57) (6) 3254483";"Av Circunvalar 11-80 Of 1101 Edif Capitol San José Colombia, Pereira"
"TINTAS & TINTAS";;;"(57) (2) 6680975";"Cl 25   N 4   N-28 Colombia, Cali"
"TIENDA PORTABLE";;;"(57) (2) 2240490";"Cr30 Cl 27Esq. L-4 Colombia, Tuluá"
"First Name";"Email Address";Url;Telephone;Address
"M H COMPUTERS LTDA.";;;"(57) (2) 6682488";"Av5 A N 24 N-27 Colombia, Cali"
"CONEXION DIGITAL";;;"(57) (2) 7292652";"Cl 17 25-60 L-108 Pasaje El Liceo Colombia, Pasto"
"RIVERA EDGAR";;;"(57) (75) 5683218";"Cl 8 5-77 Centro Colombia, Pamplona"
"ROBLEDO SALAZAR SANTIAGO";;;"(57) (6) 8872800";"Cl 69 27-18 Colombia, Manizales"
"MUNDO VIRTUAL LTDA.";;;"(57) (6) 8806421";"Cr22 29-29 Nivel 2 L-PB-16 Colombia, Manizales"
"MAKRO OFERTAS";;;"(57) (7) 6576458";"Cr34 48-118 L-103 C.C. Gratamira Colombia, Bucaramanga"
"MICROTRON LTDA.";;;"(57) (1) 2613526";"Cr45 5-44 Colombia, Bogotá"
"LINE TECHNOLOGY E.U.";;;"(57) (1) 6068158";"Cr15 77-05 L 106 Colombia, Bogotá"
"INFOTECH DE COLOMBIA LTDA.";;;"(57) (2) 8239517";"Cr6 A 3 N-45 Ap 219 Colombia, Popayán"
"MULTIEQUIPOS & CIA.LTDA.";;;"(57) (5) 4232775";"Cr3 15-34 Colombia, Santa Marta"
"RCW ENTERPRISE LTDA.";;;"(57) (1) 2566597";"Cr15 78-33 L 2-217 Colombia, Bogotá"
"SUPERCÓMPUTO MI PC";;;"(57) (1) 2188228";"Av (Cr) 15 79-69 L-120 Colombia, Bogotá"
TEKNOSTORE;;;"(57) (8) 5128247";"Av La Jaiba 2 A-47 Colombia, San Andrés"
"HELP SYSTEM E.U";;;"(57) (1) 6226081";"Av (Cr) 15 76-60 Of 202 Colombia, Bogotá"
"AST & T. E.U.";;;"(57) (1) 2319709";"Cr27 A 64-24 Colombia, Bogotá"
"C & M INGENIERÍA Y COMUNICACIONES";;;"(57) (7) 6036849";"cr 9 N° 7 - 62 Colombia, Piedecuesta"
"MAXICÓMPUTO DEL CARIBE S.A.S";;;"(57) (5) 3563827";"Cr52 76-167 Of 202 Colombia, Barranquilla"
"GEOBIS INTERNATIONAL GEOGRAPHIC BUSINESS INTELIGENCE SOLUTIONS S.A.S.";;;"Telefax: (57) (1) 4802299";"Cr16 A 75 - 17 Colombia, Bogotá"
"ACTIVA S.A.";;;"Conm.: (57) (6) 3254483";"Av Circunvalar 11-80 Of 1101 Edif Capitol San José Colombia, Pereira"
"CENTRO COMERCIAL EL PORTAL DEL QUINDÍO";;;"(57) (6) 7499455";"Cr14 19 N-46 Colombia, Armenia"
"ACT INGENIERÍA DE NEGOCIOS LTDA.";;;"(57) (1) 2577050";"Cr15 97-46 P-4 Colombia, Bogotá"
"COMPUWORK SE S.A.S";;;"(57) (5) 5892803";"Cr10 16 B-27 L 102 Colombia, Valledupar"
COMSUMINISTROS;;;"(57) (2) 7735012";"Cr6 9-12 Of 201 Colombia, Ipiales"
"GRUPO AC ASIA COMPUTADORES";;;"(57) (7) 1000000";"Av0 16-47 Of 203 Centro Colombia, Cúcuta"
"COINCO LTDA";;;"(57) (1) 2319017";"Cl 78 27 A-26 Colombia, Bogotá"
"E-SYSTEMS LTDA.";;;"(57) (1) 2361641";"Cr15 79-25 Colombia, Bogotá"
"JC MAYORISTA";;;"(57) (4) 2645490";"Cr84 C 73-10 Colombia, Medellín"
"TEC MASTER MONTERREY";;;"(57) (4) 2686668";"Cr48 10-45 L-221 Colombia, Medellín"
"MAXCOMPUTER LTDA.";;;"(57) (4) 3615914";"Cr48 10-45 L-384 Colombia, Medellín"
"COMPU USA";;;"(57) (4) 3122072";"Cr48 10-45 L-068 Colombia, Medellín"
"GB TECHX";;;"(57) (4) 4443398";"Cr36 10-15 Of 204 Edif Manantiales Colombia, Medellín"
"TECNOCLYCK LTDA.";;;"(57) (4) 2796729";"Cr59 80 S-94 Ap 221 La Estrella Colombia, Medellín"
"PC MAC S.A.";;;"(57) (4) 4445677";"Cl 10 A 36-32 Colombia, Medellín"
"CLOW SISTEMS";;;"(57) (4) 5831696";"Cl 64 F 93-09 Colombia, Medellín"
"PC BELEN 76";;;"(57) (4) 3417787";"Cr76 27-55 Colombia, Medellín"
"OFFISA S.A.S";;;"(57) (4) 4447370";"Cr90 A 42 C-41 Int 201 Colombia, Medellín"
"PC UNILAGO COMPUTADORES";;;"(57) (2) 2418301";"Cl 6 5-21 Colombia, Buenaventura"
"OFIMAC COMPUTADORES";;;"(57) (4) 2602335";"Cl 48 D 66-15 L-109 Colombia, Medellín"
"ZAP TECNOLOGÍA";;;"(57) (2) 6535776";"Cl 25 N 4 N-35 Colombia, Cali"
"SMART COMPUTADORES";;;"(57) (1) 2185692";"Cr15 78-33 L-232 Colombia, Bogotá"
"First Name";"Email Address";Url;Telephone;Address
"OPCIÓN PC";;;"(57) (4) 3520634";"Cr48 10-45 Of 248 Colombia, Medellín"
"MULTICOMPUTO LTDA.";;;"(57) (2) 5141225";"Cl 9 B 29 A-76 Colombia, Cali"
"PJR INFORMÁTICA E INGENIERÍA";;;"(57) (1) 4935927";"Cr 46 152-46 L-264 Colombia, Bogotá"
"STORE S.A.S.";;;"(57) (4) 3116251";"Cr48 10-45 Int 340 Colombia, Medellín"
"SPECIALTECH - OCTAVIO GONZALEZ";;;"(57) (7) 6478818";"Cr33 48-109 L-310 C.C. Gratamira Colombia, Bucaramanga"
"SOLUX SYSTEMS ASOCIADOS LTDA.";;;"(57) (5) 3596690";"Cr44 84-121 Colombia, Barranquilla"
"TECNOLOGIA Y COMUNICACIONES S.A.";;;"(57) (2) 6808999";"Cl 24   N 5 A   N-79 Colombia, Cali"
PROOFICINAS.COM;;;"(57) (8) 8713292";"Cl 11 5-68 Colombia, Neiva"
"ENTER SYSTEM";;;"(57) (1) 6357000";"Cl 77 A 13A-09 Colombia, Bogotá"
"R.L SISTEMAS 2000";;;"(57) (4) 2847875";"Cr21 E 57 F-65 Colombia, Medellín"
"EASY INDUSTRY LTDA.";;;"(57) (1) 6293166";"Tr19 122-81 Ap 501 Colombia, Bogotá"
"J & Y SYSTEMS WEB S.A.S.";;;"Telefax: (57) (1) 3090743";"Dg61 B 21 - 28 Colombia, Bogotá"
"ECOMPUTOS S.A.S.";;;"Telefax: (57) (1) 4588243";"Cl 141 9 - 85 Ap 416 Colombia, Bogotá"
"RECARGAMOS SUS CARTUCHOS";;;"(57) (8) 7407843";"Cr9 18-12 L-203 Colombia, Tunja"
"NEXT SOFTWARE S.A.S.";;;"Telefax: (57) (1) 4007767";"Cl 66 A 73 A - 39 P-3 Colombia, Bogotá"
"MAITECH COLOMBIA LTDA";;;"(57) (1) 6400836";"Cr15 77-05 L-2-22 Colombia, Bogotá"
"IN SERVICE SOLUCIONES INTEGRALES S.A.S.";;;"(57) (1) 4657821";"Cr96 A 66 A-27 Colombia, Bogotá"
"PC LINK SOLUCIONES INTEGRADAS";;;"(57) (2) 2278266";"Cr15 10-02 Colombia, Buga"
"PACELL TECNOLOGY";;;"(57) (4) 3780121";"Cr40 B 55-S 20 Ap 301 Sabaneta Colombia, Medellín"
"NEOCOL S.A.S";;;"(57) (4) 2685227";"Cr48 10-45 L- 255 - 259 -062 Colombia, Medellín"
"COMPUTADORES J & A";;;"(57) (8) 1000000";"Tr94 29-44 Brr. Maldonado Colombia, Tunja"
"COMPUCOSMO HOLGUINES";;;"(57) (2) 3339766";"Cr100 11-60 Of 185 Colombia, Cali"
HORMICOMPUS;;;"(57) (2) 2818452";"Cl 29 27-58 Colombia, Palmira"
"LAF MEMORY";;;"(57) (7) 6311168";"Cl 115 22 A-64 Provenza Colombia, Bucaramanga"
"COMPUTADORES COLOMBIA CORPORATION";;;"(57) (2) 3808721";"Cr42 1 A-56 Colombia, Cali"
"ALMACÉN PRINTCOLOR";;;"(57) (5) 2825488";"Cl 25 18-53 L-3 Centro Colombia, Sincelejo"
"SYSTEMS TECNOLOGY";;;"(57) (8) 2786362";"Et 3 Manz 29 Casa 23 Ap 202 Jordán Colombia, Ibagué"
"JPB SUMINISTROS";;;"(57) (1) 6156131";"Cr18 136-95 Colombia, Bogotá"
"TIENDA LENOVO BAIAT";;;"(57) (2) 4851150";"Av 5 A N 23 D N-68 Colombia, Cali"
"VIRTUAL S.A.";;;"(57) (1) 3340006";"Cr10 28-49 P-21 Colombia, Bogotá"
"INFOTECH DE COLOMBIA LTDA.";;;"(57) (2) 8239517";"Cr6 A 3 N-45 Ap 219 Colombia, Popayán"
"JG INTEGRADORES DE SISTEMAS LTDA.";;;"(57) 3008088959";"Urb Camagüey Et 3 Casa 10 Colombia, Cartagena"
"LINARES HENRY";;;"(57) (1) 2577465";"Cl 79 15-20 Colombia, Bogotá"
"SYSTEC CÓMPUTO";;;"(57) (6) 7411379";"Cr15 22-25 Colombia, Armenia"
UAMEM;;;"(57) 7255826";"Cl 14 10-110 Centro Colombia, Maicao"
"EQUISERVIS LTDA.";;;"(57) (4) 7824211";"Cl 29 6-14 Centro Colombia, Montería"
"CABALLERO MARÍA EUGENIA";;;"(57) (1) 5307340";"Cr15 78-33 L-123 Colombia, Bogotá"
"PRINT SOLUTIONS";;;"(57) (5) 3452604";"Cl 84 51 B-54 L-1 Colombia, Barranquilla"
"CABLE SERVICIOS S.A.";;;"(57) (1) 2241487";"Tr93 53-48 Int. 93/94 Colombia, Bogotá"
"LENOVO MCL";;;"(57) 3156942901";"Cove Sea Side Km 9 + 541 Colombia, San Andrés"
"First Name";"Email Address";Url;Telephone;Address
"YA! COMPUTADORES";;;"(57) 3102939723";"Cl 32 6-61 Las Granjas Colombia, Neiva"
"COLOMBIAN COMPUTER LTDA.";;;"(57) (1) 5307827";"Cl 79 15-45 L-157 Colombia, Bogotá"
"COMERCIO ELECTRONICO";;;"(57) (2) 6536656";"Av 7 N 25 A-90 Colombia, Cali"
"DISTRIBUCIONES GARO";;;"(57) (2) 3327525";"Cl 17 83 C-12 Ap 501 Colombia, Cali"
"HERITAGE GROUP S.A.";;;"(57) (2) 3798610";"Cl 23 D N 5 N-26 Colombia, Cali"
"S.O.S TECNOLOGIA Y SOPORTE";;;"(57) 3217361606";"Cr38 6 B-84 Colombia, Popayán"
"COMTROLEX LTDA.";;;"Telefax: (57) (1) 5207425";"Cl 143 49 - 37 Colombia, Bogotá"
"T- BUSINESS S.A.S.";;;"Telefax: (57) (1) 3003006";"Cr9 103 A - 36 Colombia, Bogotá"
"DINACOMPUTO S.A.S.";;;"Telefax: (57) (1) 4331740";"Cr95 G 91 A - 63 Colombia, Bogotá"
PLANET@.COM;;;"(57) (2) 4027499";"Cr28 C 72 R-32 Colombia, Cali"
RENTACOMPUTO;;;"(57) (1) 6914175";"Av Cra. 24 83-15 Colombia, Bogotá"
"JC MAYORISTA";;;"(57) (4) 2645490";"Cr84 C 73-10 Colombia, Medellín"
"J & R TECNOLOGIA";;;"(57) (4) 5121655";"Cr47 52-150 L-113 Colombia, Medellín"
"PC MAC S.A.";;;"(57) (4) 4445677";"Cl 10 A 36-32 Colombia, Medellín"
"ANTS PARTES TECNOLOGÍA & SISTEMAS LTDA.";;;"(57) (1) 6376020";"Av (Cr) 15 124-17 Of 502 Colombia, Bogotá"
"COMPUTADORES DE CÓRDOBA";;;"(57) (4) 7821853";"Cl 33 5-21 Centro Colombia, Montería"
"ZARATECH SOPORTE";;;"(57) (7) 5830821";"Av0 11-30 L-225-G C.C. Gran Bulev Colombia, Cúcuta"
"INGENIERÍA & SERVICIOS INFORMÁTICOS";;;"(57) (4) 2926675";"Cr45 D 60-04 P-2 Colombia, Medellín"
SAICOM;;;"(57) (4) 4533013";"Cr69 49-106 Copacabana Colombia, Medellín"
"SERVICIOS DE GESTIÓN INFORMÁTICA LTDA.";;;"(57) (4) 3524736";"Cl 8 S 32-306 Int 1503 Colombia, Medellín"
"ARIZA MIRIAM";;;"(57) (1) 6107112";"Cr15 77-90 Int 204 Colombia, Bogotá"
"EPSON COLOMBIA LTDA.";;;"(57) (1) 5235000";"Dg109 15-49 Colombia, Bogotá"
"JZ ELECTRÓNICA";;;"(57) (6) 7454251";"Av Bolívar 1-133 L-20 C.C. Baleares Colombia, Armenia"
"I SHOP";;;"(57) (1) 4757647";"Av Cl 26 62-47 L-1-49 Colombia, Bogotá"
"COMPUTADORES DATA JIREH";;;"(57) (1) 2847090";"Cr10 21-16 L-160 Colombia, Bogotá"
"CENTRAL PARK";;;"(57) (5) 3701014";"Cr43 50-12 L-103 Colombia, Barranquilla"
"SYSENTEC LTDA.";;;"(57) (1) 2131110";"Cl 120 48-40 Colombia, Bogotá"
"QUADDIX TECHNOLOGY S.A.S";;;"(57) (1) 2182546";"Cl 77 16 A-35 Ap 201 Colombia, Bogotá"
"TECNOLOGÍAS APLICADAS APLI K. E.U.";;;"(57) (1) 2944310";"Cl 23 D 86-51 Int 6 Of 303 Colombia, Bogotá"
"ONA SYSTEMS Y CÍA LTDA.";;;"(57) (1) 2532970";"Cl 103 70 B-25 Colombia, Bogotá"
"INGENIERÍA COLOMBIANA DE INFORMÁTICA";;;"(57) (1) 2564739";"Cr15 80-36 Colombia, Bogotá"
"ASSEMBLER DE COLOMBIA LTDA.";;;"(57) (1) 6311674";"Cr63 78 A-21 Colombia, Bogotá"
"VISIÓN TECHNOLOGY LTDA.";;;"(57) (1) 7585766";"Cr15 80-05 L-85 Colombia, Bogotá"
"MOVIMIENTO COMPUJAPONÉS";;;"(57) (2) 6676898";"Av5 A N 23 D-60 Of 176 Colombia, Cali"
"AVALOS TECHNOLOGY";;;"(57) (4) 5117888";"Cr52 44-04 Of 808 Colombia, Medellín"
"J COMPUTADORES";;;"(57) (6) 7466813";"Cr14 1-133 Colombia, Armenia"
"OMR SYSTEM";;;"(57) (2) 4381535";"Cr13 36-70 Colombia, Cali"
"SOLUCIONES EN SOFWARE EMPRESARIAL SOLSOFT S.A.";;;"(57) (2) 2262679";"Cr26 31-33 Colombia, Tuluá"
"DAG SISTEMAS";;;"(57) (2) 2280532";"Cl 4 8-53 Colombia, Buga"
"GOGLE COMPUTER";;;"(57) (2) 6670546";"Cl 23 D N 5 N-70 Colombia, Cali"
"First Name";"Email Address";Url;Telephone;Address
"UNISYS DE COLOMBIA S.A.";;;"(57) (1) 6380400";"Cl 93 11-26 Colombia, Bogotá"
"GIGABYTE COLOMBIA LTDA.";;;"(57) (2) 6679816";"Av5 A N 23 D N-68 L-285 Colombia, Cali"
CONECTIVA;;;"(57) (7) 6430895";"Cr33 48-109 C.C. Gratamira L-213 Colombia, Bucaramanga"
"INFOTEC TECNOLOGÍA";;;"(57) (2) 2372112";"Cr13 9-44 Colombia, Buga"
RESTORE;;;"(57) (2) 3965130";"Av5 A N 23 D-68 L 204 Colombia, Cali"
"SISTEMAS & SERVICIOS DE PALMIRA";;;"(57) (2) 2747921";"Cl 33 28-21 Colombia, Palmira"
HOLISMO;;;"(57) (7) 6477037";"Cr33 47-44 Of 117 C.C. Altamonte Colombia, Bucaramanga"
"JA SYSTEM.NET";;;"(57) (1) 5314458";"Cr15 79-69 Colombia, Bogotá"
"MACROVISION LTDA.";;;"(57) (7) 6212241";"Cr17 50-53 Colombia Colombia, Barrancabermeja"
"MELCOMEX E.U";;;"(57) (1) 2111171";"Cr7 66-38 Colombia, Bogotá"
"OFICÓMPUTO LTDA.";;;"(57) (1) 6359360";"Cr 15 78-33 L-143 Colombia, Bogotá"
"COMPUTADORES J & A";;;"(57) (8) 1000000";"Tr94 29-44 Brr. Maldonado Colombia, Tunja"
"INSCOP LTDA.";;;"(57) (7) 6300116";"Cl 37 16-04 P-3 L-302 C.C. Panamá Colombia, Bucaramanga"
"COMERCO SUR E.U.";;;"(57) (8) 8701571";"Cr 17 6-33 Colombia, Neiva"
"GLOBAL LINE COMPUTADORES";;;"(57) (2) 7752125";"Cl 11 5-44 Colombia, Ipiales"
"DATA & SERVICE LTDA.";;;"(57) (6) 8812277";"Cl 54 20-60 Colombia, Manizales"
AMISTECH;;;"(57) (6) 8401022";"Cr9 9-24 Colombia, Chinchiná"
"ZÜRICH DE OCCIDENTE S.A.";;;"(57) (2) 8963987";"Cr4 10-44 Of 1005 Colombia, Cali"
"IONICA XTREAM";;;"(57) (7) 6570919";"Cr33 48-109 L-212 C.C Gratamira Colombia, Bucaramanga"
"CD LASER ONLY BIG BRANDS";;;"(57) (2) 8890937";"Cr5 13-68 L-1109 Colombia, Cali"
"ACCESORIOS & SUMINISTROS";;;"(57) (2) 2708256";"Cl 30 30-55 Colombia, Palmira"
"COMPURED COLOMBIA";;;"(57) (7) 5711204";"Av0 11-30 Bulevar L-220 Colombia, Cúcuta"
"ASIA MICROCOMPUTADORES LTDA.";;;"(57) (1) 3100766";"Cr10 65-35 Of 605 Colombia, Bogotá"
"GALERÍA PORTÁTILES";;;"(57) (6) 8827507";"Cr22 29-29 Nivel 7 L-Sm 1 Colombia, Manizales"
"SEI SERVICIOS ESPECIALIZADOS INFORMATICOS";;;"(57) (7) 6472556";"Cr33 48-109 Of 314 Colombia, Bucaramanga"
"GLOBAL COMUNICACIONES SOLUCIONES INTEGRALES S.A";;;"(57) (6) 8721515";"Cl 20 22-27 L-2 Edif Cumanday Colombia, Manizales"
"INGELTROSYSTEMAS IES LTDA.";;;"(57) (1) 2114501";"Dg53 C 27-48 Colombia, Bogotá"
"SERVERS & SOFTWARE";;;"(57) (1) 5200816";"Cr53 127 D-68 Of 301 Colombia, Bogotá"
"QUICK SYSTEM";;;"(57) (4) 2685154";"Cr48 10-45 L-217 Colombia, Medellín"
"CYBERCOL NEW CENTER";;;"(57) (4) 3523790";"Cr48 10-45 L-372 Colombia, Medellín"
"I SHOP";;;"(57) (2) 3247057";"C.C. Jardin Plaza L-170 Colombia, Cali"
"PJR INFORMÁTICA E INGENIERÍA";;;"(57) (1) 4935927";"Cr 46 152-46 L-264 Colombia, Bogotá"
"TECNOSOLUCIONES LTDA.";;;"(57) (4) 2681356";"Cr 48 10-45 L.388A Colombia, Medellín"
"COMPUTADORES MAC";;;"(57) (5) 3691243";"Cl 77 65-37 L-175 Colombia, Barranquilla"
"BITCOM TIENDA TECNOLÓGICA";;;"(57) (6) 7450707";"Cr15 12-13 Colombia, Armenia"
"INVERSIONES HAVARD";;;"(57) (1) 3381177";"Cr20 40-40 Colombia, Bogotá"
"MICROXOL E.U.";;;"(57) (1) 6065038";"Cr15 78-33 L-2-262-L Colombia, Bogotá"
"COINGTEC E.U.";;;"(57) (6) 7461289";"Cr15 10-40 Colombia, Armenia"
"HQS HIGH QUALITY SYSTEMS DE COLOMBIA LTDA.";;;"(57) (1) 6368143";"Cr16 A 80-06 Of 201 Colombia, Bogotá"
"D & G COMPUTADORES";;;"(57) (8) 7711313";"C.C. Metrópoli Suamox L-216 Colombia, Sogamoso"
"First Name";"Email Address";Url;Telephone;Address
"VIRTUAL SMART PC";;;"(57) (7) 6951300";". Colombia, Bucaramanga"
"SERTECOPY S.A.S.";;;"(57) (4) 4444506";"Cl 47 72-64 Colombia, Medellín"
"SOLUCIONES & LTDA.";;;"(57) (1) 2815947";"Av (Cl) 13 4-70 Of 206 Colombia, Bogotá"
"SOLUCIONES REALES PARA SU EMPRESA S.R.E. S.A.S.";;;"(57) (4) 3146359315";"Cl 95 76-23 Int 301 Colombia, Medellín"
".ADVANCED MICROINFORMATICA";;;"(57) (1) 5303459";"Cr15 78-33 L-2-209 Colombia, Bogotá"
"EQUISERVIS LTDA.";;;"(57) (4) 7824211";"Cl 29 6-14 Centro Colombia, Montería"
"CURE OCHOA NADIR";;;"(57) (1) 5352015";"Av (Cl) 80 90 A-54 Colombia, Bogotá"
"VIRTUAL S.A.";;;"(57) (1) 3340006";"Cr10 28-49 P-21 Colombia, Bogotá"
"LANDATUR LTDA.";;;"(57) (1) 5449392";"Cr12 71-19 Colombia, Bogotá"
"MAKRO VISIÓN LTDA.";;;"(57) (1) 6222036";"Cr15 78-33 L-2-300 Colombia, Bogotá"
"APLICACIONES LÓGICAS LTDA.";;;"(57) (5) 3006956";"Cr47 58-34 L-203 Colombia, Barranquilla"
"CD COMPUTO ACTUALIZAMOS TU MUNDO S.A.S.";;;"(57) (5) 3517805";"Cr43 50-12 L-154 Parq Central Colombia, Barranquilla"
"MIRAMAX HOLDING LTDA";;;"(57) (1) 4395317";"Av Centenario 108 A - 85 Lt 84 Bdg 4 Piso 3 Colombia, Bogotá"
"LAP Y PC SUPPLIES";;;"(57) (5) 3706353";"Cr43 50-12 L-97 Colombia, Barranquilla"
"KIOSCOS INFORMATICOS";;;"(57) (4) 2666015";"Cr48 10-45 Colombia, Medellín"
"JL COMPUTADORES";;;"(57) (4) 2308880";"Cr74 48-37 Int 222 C.C. Obelisco Colombia, Medellín"
"SISTEMAS PERSONALIZADOS AA";;;"(57) (4) 3223231";"Cr50 51-49 L-142 Itagüi Colombia, Itagüí"
COMPUAMERICA;;;"(57) (4) 4139800";"Cl 43 78-22 Colombia, Medellín"
"COMPUTADORES, PARTES Y REDES";;;"(57) (4) 2685272";"Cr48 10-45 L-2204 Colombia, Medellín"
INGTECHNOLOGY;;;"(57) (5) 3113086";"Cl 80 74-34 Colombia, Barranquilla"
"CG SYSTEMS";;;"(57) (1) 6221919";"Av (Cr) 15 77-05 L-213 Colombia, Bogotá"
OFFISFLASH;;;"(57) (1) 2573647";"Av (Cr) 15 78-33 L-1218 Colombia, Bogotá"
"D & L COMPUTADORES";;;"(57) (1) 2554651";"Cl 72 A 2O C-50 Colombia, Bogotá"
"CAT CENTRO DE ATENCION TECNOLOGICO";;;"(57) (4) 8688899";"Cr50 44 A-24 Colombia, San Pedro de los Milagros"
"COMPUTADORES DATA JIREH";;;"(57) (1) 2847090";"Cr10 21-16 L-160 Colombia, Bogotá"
"IKONO COMERCIALIZADORA INTERNACIONAL Y CÚA. LTDA.";;;"(57) (1) 3422718";"Cl 21 9-48 L-S 26 Colombia, Bogotá"
"ALMACÉN TIENDA MAC DE COLOMBIA LTDA.";;;"Domic.: (57) (5) 3736647";"Cl 98 51 B-76 L-206 C.C. Millenium Colombia, Barranquilla"
"XYBER INGENIEROS";;;"(57) (1) 4819720";"Tr106 77 B-10 Colombia, Bogotá"
"ENTER SOLUCIONES EN TECNOLOGÍA";;;"(57) (8) 8715595";"Cl 6 5-84 Colombia, Neiva"
"GLOBALTECH COMPUTERS S.A.S.";;;"Telefax: (57) (1) 4705050";"Cl 8 A 88 - 90 Colombia, Bogotá"
"J.A COMPUTADORES";;;"(57) (1) 5301631";"Cl 79 14-39 Colombia, Bogotá"
"PCTECNOLOGIA S.A.S.";;;"Telefax: (57) (1) 4307793";"Cr85 87 - 65 B-1 Ap 302 Colombia, Bogotá"
COMPUSYSTEM'S;;;"(57) (4) 4300230";"Cr84 43-50 Colombia, Medellín"
"MARKETING COMPUTER";;;"(57) (2) 6679719";"Cl 13 N 6-43 L-8 Colombia, Cali"
"UNIPLES S.A.";;;"(57) (4) 4441616";"Cr46 48 C Sur-40 Bdg 105 Envigado Colombia, Medellín"
"REAL WORLD";;;"(57) (2) 6679577";"c.c. La Pasarela Local 201 Colombia, Cali"
COMPUFAX;;;"(57) (4) 2685186";"Cr 48 10-45 L-280 Colombia, Medellín"
"NAZART PC";;;"(57) 3113185674";"Información Colombia, Armenia"
"MICRO SISTEMAS DE AMERICA";;;"(57) (4) 4142033";"Cl 44 82-67 Of 202 Colombia, Medellín"
"CLEAN UP SYSTEM";;;"(57) (2) 4485420";"Cl 62 8-100 B 14 Ap 502 Colombia, Cali"
"First Name";"Email Address";Url;Telephone;Address
LEDACOM;;;"Nal: (57) (4) 3116910";"Cr48 10-15 Int 73 Colombia, Medellín"
"CREAR TECNOLOGIA";;;"(57) (4) 3116063";"Cr32 13-15 Colombia, Medellín"
"M.A.S. PC";;;"(57) (4) 5480037";"Cr34 28-114 Marinilla Colombia, Medellín"
"COMPUTADORES ENIAC";;;"(57) (4) 5613927";"Cl 59 50-59 L-213 Colombia, Rionegro"
"TECHNOLOGY STORE MC S.A.S.";;;"(57) (1) 7030975";"Cr15 77-33 L- 169 Colombia, Bogotá"
"COMPU COMERCIAL";;;"(57) (5) 3796380";"Cr53 72-75 L-1 Colombia, Barranquilla"
MEGATINTAS;;;"(57) (4) 4133849";"Cl 35 80-48 Colombia, Medellín"
"E-SYSTEMS LTDA.";;;"(57) (1) 2361641";"Cr15 79-25 Colombia, Bogotá"
"CLICK COMPUTADORES";;;"(57) (2) 6604521";"C.C. La Pasarella L-289 Colombia, Cali"
LAGOBO;;;"(57) (1) 6224080";"Cr12 84-12 Of 501 Colombia, Bogotá"
"SMART COMPUTADORES";;;"(57) (1) 2185692";"Cr15 78-33 L-232 Colombia, Bogotá"
"HARDSOFT COMPUTERS S.A.S.";;;"(57) (5) 6618675";"San Pedro Manz 5 Lt 11 Colombia, Cartagena"
COMPUTEC.SAI;;;"(57) (8) 5124038";"Vía San Luis frente Iglesia Sagrada Familia Colombia, San Andrés"
"MI PC CENTER";;;"(57) (5) 6646554";"C.C. Getsemani L-1A-17 Colombia, Cartagena"
"AVANTECH SYSTEM LTDA";;;"(57) (1) 6409187";"Cr15 77-05 L-237 Colombia, Bogotá"
DURALASER;;;"(57) (4) 3326883";"Cr 29 A 38S-45 Ap 301 Envigado Colombia, Envigado"
"ALLIX S.A.S";;;"(57) (6) 7464711";"Cl 10 N 15-63 L-7 Colombia, Armenia"
"SUPERTECNOLOGÍA LTDA.";;;"(57) (4) 2685024";"Cr48 10-45 Of 329 Colombia, Medellín"
"COMPU-N LTDA.";;;"(57) (5) 3791607";"Cr43 50-12 L-131 Colombia, Barranquilla"
"3 POINTECH S.A.S";;;"(57) (4) 4440314";"Cl 42 69-06 Of 205 Colombia, Medellín"
"LA CASA DEL CELULAR";;;"(57) (7) 5710080";"Av6 Cl 8 L-14-153 Colombia, Cúcuta"
TECNOMILENIO;;;"(57) 3046101080";"Cr 27 29-56 P 4 Colombia, Manizales"
"COMPUCHECK LTDA.";;;"(57) (4) 3114265";"Cr43 A 11-85 Of 202 Colombia, Medellín"
"POWER IT S.A.S.";;;"(57) (2) 3331010";"Cr62 B 2 A-37 Brr. Pampalinda Colombia, Cali"
"EPSON COLOMBIA LTDA.";;;"(57) (1) 5235000";"Dg109 15-49 Colombia, Bogotá"
"MORENO CRUZ Y CÍA. TOMÁS";;;"Conm.: (57) (1) 6783100";"Cr7 180-75 Mód 6 P-2 Colombia, Bogotá"
"BEST BUY COMPUTER";;;"(57) (7) 6430887";"Cr33 48-109 L-205 Cabecera del Llano Colombia, Bucaramanga"
"INFORMÁTICA & SOLUCIONES INTEGRALES LTDA";;;"(57) (5) 6813836";"Tr77 31 A-12 Of 1 Colombia, Cartagena"
"JZ ELECTRÓNICA";;;"(57) (6) 7454251";"Av Bolívar 1-133 L-20 C.C. Baleares Colombia, Armenia"
OFITECS;;;"(57) (5) 2850097";"Cr26 30-48 Colombia, Corozal"
"IMPRIME TINTAS Y ACCESORIOS";;;"(57) (2) 2099751";"cl 9 4-75 Colombia, Cartago"
"SHOPPING COMPUTERS LTDA.";;;"(57) (1) 6160611";"Cr15 78-33 Colombia, Bogotá"
"COMPUWORES PLUS";;;"(57) (1) 2562647";"Cr 16 80-11 Of 202 Colombia, Bogotá"
"COMPUSERVER LTDA.";;;"(57) (4) 8393408";"Cl 20 14-15 Colombia, Caucasia"
"ALFER TECNOLOGÍA LTDA.";;;"(57) (1) 2181729";"Cr16 A 76-10 Of 202 Colombia, Bogotá"
"CK STORE COMPUTER LTDA";;;"(57) (76) 5654928";"Cl 6 16-66 L-3 Colombia, Aguachica"
"COMPUCLICK DE COLOMBIA";;;"(57) (2) 6603710";"Av 5 N 23D-68 L-292B Colombia, Cali"
"SISTEMAS A.W.";;;"(57) (1) 6221723";"Cr.15-05 L-277 Colombia, Bogotá"
"NOTEBOOK POINT LTDA.";;;"(57) (1) 6221854";"Cr.15 77-05 L-107 Colombia, Bogotá"
"TECHNO SHOP";;;"(57) (5) 3798329";"Cr43 50-12 L-110 Colombia, Barranquilla"
"First Name";"Email Address";Url;Telephone;Address
"COMPU CITY.COM";;;"(57) (8) 2648139";"C.C. La Quinta L-201 Colombia, Ibagué"
"COMPUFACIL DEL CARIBE";;;"(57) (5) 3014568";"Cl 50 43-114 L-2 Colombia, Barranquilla"
"DATA PROCESSING LTDA.";;;"(57) (2) 8892807";"Av4 N 8-37 L-105 Colombia, Cali"
"ALMACEN PC REMATES LIQUIDACIÓN DE COMPUTADORES";;;"(57) (4) 3311433";"Cr 48 37 Sur-54 Envigado Colombia, Medellín"
"MAKROTECH INTERNACIONAL";;;"(57) (2) 6535453";"Av 5 AN 23 D-66 L-137 Colombia, Cali"
"TECHNOLOGY CENTER.CO";;;"(57) (2) 3241328";"Cr79 3 C-08 Colombia, Cali"
"RIVERA EDGAR";;;"(57) (75) 5683218";"Cl 8 5-77 Centro Colombia, Pamplona"
"SYSTEM SALUD";;;"(57) (7) 5726433";"Cl 13 4-28 Centro Colombia, Cúcuta"
"IVANNA TECH";;;"(57) (2) 2244210";"Cr30 Cl 27 Esq. L-6 Colombia, Tuluá"
"IPC TELEFONÍA Y COMPUTACIÓN";;;"(57) (6) 8734940";"Cr22 29-29 Nivel 2 L-PB-5 Colombia, Manizales"
"QUESADA RODRÍGUEZ DISTRIBUCIONES";;;"(57) (8) 7447030";"Av Colón 21-33 Colombia, Tunja"
"COMPUMAX COMPUTER";;;"(57) (7) 6323227";"Cl 41 35-39 Colombia, Bucaramanga"
"SYSTEM PLANETT";;;"(57) (6) 8899795";"Sanandresito Edif Parqueaderos L-62 Colombia, Manizales"
"NCR COMPUTADORES";;;"(57) (1) 2816279";"Cr9 18-51 Ls-401/402 Colombia, Bogotá"
"USL TECHNOLOGY S.A.S.";;;"Telefax: (57) (1) 2510175";"Tr82 Bis 83 - 63 Colombia, Bogotá"
"PROYECTE FOTOGRAFIA S.A.S.";;;"Telefax: (57) (1) 6520890";"Cl 98 48 - 50 Colombia, Bogotá"
"MUNDO PC.COM";;;"(57) (1) 2367154";"Cr15 79-84 Colombia, Bogotá"
"INFORMATION SYSTEMS";;;"(57) (5) 4210774";"Cl 16 5-64 Of 104 Edif Santo Domingo Colombia, Santa Marta"
"INK STORE S.A.S.";;;"Telefax: (57) (1) 7524025";"Cr15 78 - 33 B-2 Ap 160 Colombia, Bogotá"
"SISTEMAS Y ACCESORIOS";;;"(57) (1) 2366020";"Cl 95 15-33 Of 605 Colombia, Bogotá"
"SUMIFORM E IMPRESOS LTDA.";;;"(57) (8) 8756354";"Av la Toma 13-2 L-2 Colombia, Neiva"
"TECH DATA COLOMBIA S.A.S.";;;"(57) (1) 7452626";"Complejo Logístico Industrial Colombia, Bogotá"
"INGELTROSYSTEMAS IES LTDA.";;;"(57) (1) 2114501";"Dg53 C 27-48 Colombia, Bogotá"
"SERVISOFT OCAÑA";;;"(57) (75) 5692626";"Cl 6 A 23-40 Brr. 20 de Julio Colombia, Ocaña"
"TECNO PC";;;"(57) (4) 2317287";"Cl 46 51 A-26 Int 409-C Colombia, Medellín"
"TECNOLOGÍA GAMOS Y COMPAÑÍA S.A.S.";;;"Conm.: (57) (4) 3631987";"Cl 60 21 B-41 Barranquilla Colombia, Medellín"
QUANTICA;;;"(57) (4) 3523152";"Cr48 10-45 L-294 Colombia, Medellín"
"CLICK COMPUTADORES";;;"(57) (2) 6604521";"C.C. La Pasarella L-289 Colombia, Cali"
"OFIMAC COMPUTADORES";;;"(57) (4) 2602335";"Cl 48 D 66-15 L-109 Colombia, Medellín"
"ASESORÍAS EN SISTEMAS G.O.D. S.A.S.";;;"(57) (4) 4038780";"Cl 31 A 65 F-103 Colombia, Medellín"
"MÉNDEZ LUGO JHON FARID";;;"(57) (8) 8717849";"Cl 8 12-25 Of 202 Colombia, Neiva"
"MOTTA COMPUTADORES";;;"(57) (8) 4347891";"Cr11 15-39 L-1-16 Colombia, Florencia"
"DL SYSTEM LTDA.";;;"(57) (1) 6165886";"cr16#76-42 of503 Colombia, Bogotá"
"MUNDO SISTEMAS LTDA.";;;"(57) (2) 4211126";"Cl 82 C 23 A-04 Colombia, Cali"
COMPULOCURA;;;"(57) (6) 8722974";"Cr22 20-43 L-1-A 3 Colombia, Manizales"
"ASECOM LTDA.";;;"Telefax: (57) (2) 5518719";"Cl 9 46-69 Of 205 Colombia, Cali"
"SISTEMAS A.M.C.";;;"(57) (2) 6504014";"C.C. La Pasarela L-1-84 Colombia, Cali"
"FAX & EQUIPOS INGENIERÍA";;;"(57) (8) 8723298";"Cr4 10-19 L-101 Colombia, Neiva"
COMPU.MOJANA;;;"(57) (5) 2825169";"Cl 25 19-24 L-3 Centro Colombia, Sincelejo"
"SERVI-INGENIERÍA CARTAGENA";;;"(57) 3126699441";"Cartagena Colombia, Cartagena"
"First Name";"Email Address";Url;Telephone;Address
"BOARD COMPUTERS";;;"(57) (2) 8243094";"Cl 6 9-28 Colombia, Popayán"
"COMPUCOMPRA LTDA.";;;"(57) (1) 8776565";"Autop Medellín Km 2.5 Parque Industrial Guadalaja Colombia, Bogotá"
"VARIEDADES PC-TODO";;;"(57) (4) 8274022";"Cr14 B Cl 101 Colombia, Turbo"
"COMPU COMERCIAL";;;"(57) (5) 3796380";"Cr53 72-75 L-1 Colombia, Barranquilla"
"COMPUTOSH TELEMEMORIAS E.U";;;"(57) (1) 6407216";"Cr15 77-05 L-1-124 Colombia, Bogotá"
"GF STATION";;;"(57) (1) 6408411";"Av (Cr) 15 77-5 L-117 Colombia, Bogotá"
"SISTEMAS INTELIGENTES LTDA.";;;"(57) (1) 2355696";"Cl 53 21-89 Of 301 Colombia, Bogotá"
"SISTEMAS A.W.";;;"(57) (1) 6221723";"Cr.15-05 L-277 Colombia, Bogotá"
"NOTEBOOK POINT LTDA.";;;"(57) (1) 6221854";"Cr.15 77-05 L-107 Colombia, Bogotá"
"FOCUS TECHNOLOGY S.A.S.";;;"(57) (1) 7589827";"Cr15 83-24 Of 501 D Colombia, Bogotá"
"MUEBLES Y COMPUTADORES INDY";;;"(57) (5) 5853630";"Cr8 17-44 Colombia, Valledupar"
"HARDWARE & TECNOLOGÍA LTDA.";;;"(57) (5) 3510944";"Cr43 50-12 L-63 Colombia, Barranquilla"
"HEILIG S.A.S.";;;"(57) (1) 6163826";"Cr15 78-33 L-1 192 Colombia, Bogotá"
"C.M.C. COMPUTADORES";;;"(57) (6) 3297704";"Manz 6 Casa 14 Ciudad Boquía Colombia, Pereira"
"CDS COMPUTADORES";;;"(57) (1) 6957244";"Cl 59 13-52 Of.203 Colombia, Bogotá"
"SATYAM COLOMBIA SERVICIOS DE INFORMATICA S.A.S.";;;"Telefax: (57) (1) 7059000";"Cl 102 A 47 A - 09 Colombia, Bogotá"
"NEXT SOFTWARE S.A.S.";;;"Telefax: (57) (1) 4007767";"Cl 66 A 73 A - 39 P-3 Colombia, Bogotá"
"LUNA MEDIA COMERCIAL S.A.S.";;;"Telefax: (57) (1) 4215257";"Cr100 18 - 59 L-009 Colombia, Bogotá"
"XIO COMPUTERS LTDA.";;;"(57) (8) 8717101";"Cr5 11-20 Colombia, Neiva"
"TELENLACES LTDA.";;;"(57) (4) 2684656";"Cr48 10-45 L-262 Colombia, Medellín"
"COMERCIALIZADORA M&Y";;;"(57) (8) 5925654";"Cl8 7-99 l-5 Colombia, Leticia"
"COMPUDRIVE LTDA";;;"(57) (4) 3524344";"Cl 13 43 D-79 Of 201 Colombia, Medellín"
"TECNO TONER";;;"(57) (4) 2160860";"Cl 49 42 A-05 Colombia, Medellín"
"STC INFORMATICA";;;"(57) (4) 3566094";"Cr27 D 27 S-56 Envigado Colombia, Envigado"
"PC AZTECA";;;"Conm.: (57) (4) 4144374";"Cl 47 D 70-51 Of 202 Colombia, Medellín"
"ELECTRONICA GENERAL";;;"(57) (7) 6334090";"Cl 33 18-36 P-1 L-127 C.C. Bucacentro Colombia, Bucaramanga"
"TECSIM LTDA";;;"(57) (7) 6369247";"Cl 105 35-32 Altoviento I Floridablanca Colombia, Floridablanca"
SETINFORNET;;;"(57) (7) 6850870";"Cr36 51-52 L-2 Cabecera Colombia, Bucaramanga"
"C & A LTDA. INGENIEROS ASOCIADOS";;;"(57) (7) 6577616";"Cl 51 21-60 Colombia, Bucaramanga"
"CARLOS COMPUTADORES DEL HUILA";;;"(57) (8) 8710047";"Cl 27 9-05 Colombia, Neiva"
COMPULOCURA;;;"(57) (6) 8722974";"Cr22 20-43 L-1-A 3 Colombia, Manizales"
"BLUETECH COMPUTER STORE";;;"(57) (7) 6478483";"Cr33 48-109 L-216 Colombia, Bucaramanga"
"COMPUSTORE BULEVAR";;;"Nal: (57) (7) 5723963";"Av 0 11-30 L-129 Colombia, Cúcuta"
"SED INTERNATIONAL";;;"Conm.: (57) (1) 8614000";"Cr1 7-320 Km-1 Variante Chia Cota Colombia, Cota"
"AYAMA SYSTEMS";;;"(57) (7) 5722283";"Cl 9 5-68 L-304 C.C. Indianápolis Colombia, Cúcuta"
"COMPU GREIFF S.A";;;"(57) (1) 6337600";"Centro Comercial Unilago Cr15 78-33 L-236 Colombia, Bogotá"
"FIXING DATA SERVICE";;;"(57) (8) 7437576";"Cr10 23-33 Colombia, Tunja"
SISALTEC;;;"(57) (2) 7311353";"Cr38 20-22 Colombia, Pasto"
"RENTA HARDWARE";;;"(57) (1) 6743393";"Cr46 187-65 Int 8 Of 201 Colombia, Bogotá"
"EL TALLER DEL PORTÁTIL";;;"(57) 3003195749";"Cl 16 4-57 Colombia, Cartago"
"First Name";"Email Address";Url;Telephone;Address
C.S.T.;;;"(57) (8) 2614284";"Sanandréxitos L-2118 Centro Colombia, Ibagué"
"A.P. COMPUTADORES";;;"(57) (2) 6611666";"C.C. Pasarela L-229 Colombia, Cali"
"ITEL LTDA.TMC ITEL LTDA.";;;"(57) (2) 6675662";"Av2 C N 23 AN-69 Colombia, Cali"
"DATA PROCESSING LTDA.";;;"(57) (2) 8892807";"Av4 N 8-37 L-105 Colombia, Cali"
"COMPU SOFT";;;"(57) (2) 2714522";"Cr29 32-139 Colombia, Palmira"
"NUEVOS & USADOS";;;"(57) (2) 6615276";"Av5 N 23 D N-68 L-276 Colombia, Cali"
"TECNOCOM LTDA.";;;"(57) (1) 2571445";"Cr15 79-69 L-111 Colombia, Bogotá"
"LINK COMPUTER";;;"(57) (6) 3243965";"Cr8 20-67 L-102 Colombia, Pereira"
"MAJESTIC SYSTEM";;;"(57) (1) 7581564";"Cl 77 15-25 Colombia, Bogotá"
"H & S HARDWARE SOFTWARE";;;"(57) (2) 8244469";"Cl 7 9-37 Colombia, Popayán"
"TECNO SISTEM I G S.A.";;;"(57) (2) 8242902";"Cl 7 A 12-31 Brr. Valencia Colombia, Popayán"
"TALAR MAYORISTAS S.A.";;;"(57) (1) 6224478";"Cr30 91-20 Colombia, Bogotá"
"DESIGN TOOLS S.A.S.";;;"Telefax: (57) (1) 6268198";"Cr11 B 134 A - 20 Ap 201 Colombia, Bogotá"
"CLOUD S S.A.S.";;;"Telefax: (57) (1) 4145719";"Cl 9 50 - 15 Colombia, Bogotá"
"MOBILITY GLOBAL S.A.S.";;;"Telefax: (57) (1) 6156689";"Cl 152 A 7 H - 11 Colombia, Bogotá"
RECARSURTINTAS;;;"(57) (2) 7294827";"Cr27 19-29 Centro Colombia, Pasto"
"H & S SISTEMAS";;;"(57) (7) 5730298";"Av0 11-30 L-208 C.C. Gran Bulevar Colombia, Cúcuta"
"GRUPO AC ASIA COMPUTADORES";;;"(57) (7) 1000000";"Av0 16-47 Of 203 Centro Colombia, Cúcuta"
"COMPU USA";;;"(57) (4) 3122072";"Cr48 10-45 L-068 Colombia, Medellín"
"ASESORÍAS EN SISTEMAS G.O.D. S.A.S.";;;"(57) (4) 4038780";"Cl 31 A 65 F-103 Colombia, Medellín"
"MAKRO COMPUTO S.A.";;;"(57) (4) 2665599";"Cr 48 10-45 Of-1008 Colombia, Medellín"
"QUESADA RODRÍGUEZ DISTRIBUCIONES";;;"(57) (8) 7447030";"Av Colón 21-33 Colombia, Tunja"
"FAX & EQUIPOS INGENIERÍA";;;"(57) (8) 8723298";"Cr4 10-19 L-101 Colombia, Neiva"
"ANTS PARTES TECNOLOGÍA & SISTEMAS LTDA.";;;"(57) (1) 6376020";"Av (Cr) 15 124-17 Of 502 Colombia, Bogotá"
EXPLORET.NET;;;"(57) (1) 7507867";"Cr73 5-10 Colombia, Bogotá"
"ALMACÉN MP TECNOTINTAS";;;"(57) (5) 6647534";"Get C.C. Getsemaní L-1-B-11 y 1-B-12 Colombia, Cartagena"
"CYBERTIENDA TECNOLÓGICA";;;"(57) (6) 7457812";"Cr15 14-38 L-16 Colombia, Armenia"
"D & G COMPUTADORES";;;"(57) (8) 7711313";"C.C. Metrópoli Suamox L-216 Colombia, Sogamoso"
"INDUSTRIAS D Y G LTDA.";;;"(57) (1) 2257088";"Cl 70 A 41-39 Colombia, Bogotá"
ONLYTEACNO;;;"(57) (4) 4116583";"Cl 45D 76A-03 Colombia, Medellín"
"SOLUX SYSTEMS ASOCIADOS LTDA.";;;"(57) (5) 3596690";"Cr44 84-121 Colombia, Barranquilla"
"COMPUTER ASOCIADOS DE COLOMBIA LTDA.";;;"(57) (1) 6918014";"Cr15 76-53 Of 502 Colombia, Bogotá"
COMPUCARIBE;;;"(57) (52) 6876824";"Calle San Roque Cr3 A 53 l-1 Colombia, Magangué"
"IMAGEN P Y G LTDA.";;;"(57) (1) 2185734";"Cr15 78-77 L-242 Colombia, Bogotá"
"APLICACIONES LÓGICAS LTDA.";;;"(57) (5) 3006956";"Cr47 58-34 L-203 Colombia, Barranquilla"
"PRINT SOLUTIONS";;;"(57) (5) 3452604";"Cl 84 51 B-54 L-1 Colombia, Barranquilla"
"FRANCOS TIME LTDA.";;;"(57) (1) 5444250";"Av Caracas 70-34 P-2 Colombia, Bogotá"
"EASY SOFWARE LTDA.";;;"(57) (5) 3476599";"Cr16 64 C-20 Colombia, Barranquilla"
"PRODUCTOS ACCESORIOS & SERVICIOS";;;"(57) (4) 4718327";"Cr64 C 97 A-150 Of 345 Colombia, Medellín"
"ACCESTECH LTDA";;;"(57) (1) 2152125";"Av (Cr) 15 124-49 Altillo A-704 Colombia, Bogotá"
"First Name";"Email Address";Url;Telephone;Address
"TECNOCIENCIA IMPORTAMOS";;;"(57) (2) 2818616";"Cr29 Cl 33 Esq L-110 Colombia, Palmira"
"SOLUCIONES TÉCNICAS MARÍN LTDA";;;"(57) (7) 6314968";"Cl 109 A 31-42 El Edén Colombia, Bucaramanga"
"ARDICOMPUTO LTDA";;;"(57) (7) 6442935";"Cr19 W 60-21 Colombia, Bucaramanga"
"BASE VIRTUAL LTDA";;;"(57) (7) 6470071";"Cr35 48-117 L-110 Colombia, Bucaramanga"
"SERVICENTRO DEL COMPUTADOR";;;"(57) (4) 8871560";"Cl 19 18-63 Colombia, Yarumal"
"RECARGAS Y TINTAS";;;"(57) (2) 2126446";"Cr8 18-57 Colombia, Cartago"
"ZURICH DE OCCIENTE S.A.";;;"(57) (1) 2553580";"Cl 72 5-83 P-11 Colombia, Bogotá"
"MC COMPUTADORES";;;"(57) (1) 2578976";"Cl 79 18-34 Of 103 Colombia, Bogotá"
"EDGAR CARDENAS GIRALDO Y/O SISTEMAS Y COMPUTADORES";;;"(57) (2) 6588079";"Cr4 9-19 Yumbo Colombia, Yumbo"
"COMPECOL S.A.";;;"Telefax: (57) (2) 3301414";"Cr1 N 70- Colombia, Cali"
"DATA PROCESSING LTDA.";;;"(57) (2) 8892807";"Av4 N 8-37 L-105 Colombia, Cali"
"APPLE - MAC SERVER";;;"(57) (2) 3963818";"Av6 N 30-32 Colombia, Cali"
"PLANETA PC";;;"(57) (2) 2250863";"Cr25 30-70 Colombia, Tuluá"
"TITANIO P.C.";;;"(57) (2) 2119100";"Cl 12 3-66 L-120 C.C. Villa de Robledo Colombia, Cartago"
"COMPURED COLOMBIA";;;"(57) (7) 5711204";"Av0 11-30 Bulevar L-220 Colombia, Cúcuta"
"RIVERA EDGAR";;;"(57) (75) 5683218";"Cl 8 5-77 Centro Colombia, Pamplona"
"GALERÍA PORTÁTILES";;;"(57) (6) 8827507";"Cr22 29-29 Nivel 7 L-Sm 1 Colombia, Manizales"
"SUMINISTROS MILENIUM CÚCUTA LTDA.";;;"(57) (7) 5714287";"Av1 11-36 Centro Colombia, Cúcuta"
"MAJESTIC SYSTEM";;;"(57) (1) 7581564";"Cl 77 15-25 Colombia, Bogotá"
"PROGANA LTDA";;;"(57) (4) 2855634";"Cr65 8 B-91 Of 484 Colombia, Medellín"
"GLOBAL COMUNICACIONES SOLUCIONES INTEGRALES S.A";;;"(57) (6) 8721515";"Cl 20 22-27 L-2 Edif Cumanday Colombia, Manizales"
"MUNDO VIRTUAL LTDA.";;;"(57) (6) 8806421";"Cr22 29-29 Nivel 2 L-PB-16 Colombia, Manizales"
"COMPUTER INSIDE LTDA.";;;"(57) (7) 6341744";"Cl 16 31-15 San Alonso Colombia, Bucaramanga"
DISTRICLONES;;;"(57) (6) 8807190";"Cr22 65-63 Colombia, Manizales"
COMPUFULL;;;"(57) 3108094502";"Cr6 8-15 Calle Real Colombia, Pamplona"
"SOPORTE TECNOLÓGICO INTEGRADO LTDA.";;;"(57) (1) 3111039";"Cl 71 28-36 Colombia, Bogotá"
"COMPULAGO LTDA.";;;"(57) (5) 6602294";"C.C. Centro Uno L-224 Colombia, Cartagena"
"TU TÉCNICO.COM";;;"(57) (1) 8615445";"Av Pradilla 2 E-71 L-1-50 Chía Colombia, Chía"
"SUMI PRINTERS LTDA";;;"(57) (1) 2104149";"Cl 67 13-09 Colombia, Bogotá"
RENTACOMPUTO;;;"(57) (1) 6914175";"Av Cra. 24 83-15 Colombia, Bogotá"
COMPUTSOFTWARE;;;"(57) (7) 5719071";"Av 0 11-30 L-114 Colombia, Cúcuta"
"TIENDA PORTABLE";;;"(57) (2) 2240490";"Cr30 Cl 27Esq. L-4 Colombia, Tuluá"
"COMPUTADORES Y P@RTES";;;"(57) (2) 7251830";"Cl 9 7-18 Colombia, Ipiales"
"DOBLE CLICK TECHNOLOGY";;;"(57) (7) 5833270";"Av 0 11-30 L-116 Colombia, Cúcuta"
"JP COMPUTADORES";;;"(57) (8) 4365070";"Cl 11 9 A-20 La Estrella Baja Colombia, Florencia"
"REVOLUTION SYSTEMS";;;"(57) (7) 6472695";"Cr15 1-28 Colombia, Bucaramanga"
"PC SOFT";;;"(57) (2) 7225749";"Manz 10 Casa 26 Tamasagra I Colombia, Pasto"
NAVEGANDO.COM;;;"(57) (4) 2538472";"Cl 42 C 88-15 Colombia, Medellín"
"ASESORÍAS EN SISTEMAS G.O.D. S.A.S.";;;"(57) (4) 4038780";"Cl 31 A 65 F-103 Colombia, Medellín"
"MÉNDEZ LUGO JHON FARID";;;"(57) (8) 8717849";"Cl 8 12-25 Of 202 Colombia, Neiva"
"First Name";"Email Address";Url;Telephone;Address
COMPUNOVEDADES;;;"(57) (2) 7214865";"Cr21 14-28 Colombia, Pasto"
"COMP.LOT COMPUTER ASSISTANCE & CÍA. LTDA.";;;"(57) (1) 3459790";"Cr16 A 75-63 Colombia, Bogotá"
"COLORS PRINTER";;;"(57) (7) 5731872";"Av0 11-30 L-126 C.C. Gran Bulevar Colombia, Cúcuta"
"S.O.S SOLUTIONS ON SITE";;;"(57) (4) 4481166";"Cl 1 A 65 A-57 Colombia, Medellín"
"COMPUTADORES O.M.G.";;;"(57) (4) 5139060";"Cl 54 57-60 L-69 Colombia, Medellín"
SGTECH;;;"(57) (2) 6613086";"Av5 C N 23 D N-42 Colombia, Cali"
"CLICK COMPUTADORES";;;"(57) (2) 6604521";"C.C. La Pasarella L-289 Colombia, Cali"

"PC MANIA COMPUTADORES";;;"(57) (1) 8632941";"Av Pradilla 5-92 L-11 Colombia, Bogotá"
"D COMPUTADORES";;;"(57) (1) 6910985";"Av (Cr) 15 79-69 L-215 Colombia, Bogotá"
"CEBALLOS OJEDA SAD MAURICIO";;;"(57) (1) 7573551";"Dg45 D 16 A-40 Colombia, Bogotá"
"ALMACÉN Y SERVICIOS TÉCNICOS STARCOMPUTO";;;"(57) (5) 5805265";"Cl 16 B 9-98 P-2 Colombia, Valledupar"
SERVICOMPUTO;;;"(57) (76) 5645175";"Cr4 4-41 Colombia, San Alberto"
"BRAXSYS LDTDA.";;;"(57) (1) 6403598";"Cr12 98-35 Of 303 Colombia, Bogotá"
MAKROSYSTEMS;;;"(57) (5) 7282760";"Cl 3 7-25 L-2 Colombia, Riohacha"
"MAB COMPUTADORES Y SUMINISTROS";;;"(57) (5) 3702460";"Cr43 50-12 L-98 C.C. Parque Central Colombia, Barranquilla"
"SUSYSCONT LTDA.";;;"(57) (5) 7288521";"Cl 7 10-135 Colombia, Riohacha"
"ASI ASESORÍAS Y SISTEMAS INTEGRALES";;;"(57) (5) 4314403";"Cl 10 10-28 Edif Petecuy Of 105 Colombia, Santa Marta"
"XION SYSTEM MARKETING S.A.S";;;"Telefax: (57) (1) 8053611";"Cr16 79 - 20 Of 302 Colombia, Bogotá"
"ELECTRODOMESTICOS E INFORMATICA E.U.";;;"(57) (1) 7034833";"Cr 111 A 88 B-51 Colombia, Bogotá"
CM-TECHNOLOGY;;;"(57) 3143804886";"cra 44 B 43-26 Colombia, Barranquilla"
COMPU@CCESORIOS;;;"(57) (5) 6431266";"Centro Comercial Los Ejecutivos L-103 Colombia, Cartagena"
"INGENIERÍA COLOMBIANA DE INFORMÁTICA";;;"(57) (1) 2564739";"Cr15 80-36 Colombia, Bogotá"
WAYTECH;;;"(57) (1) 2880992";"Cl 49 14-74 Colombia, Bogotá"
"CARIBEAN DATA";;;"(57) (8) 7610729";"Cl 15 16-25 L-104 Colombia, Duitama"
"CALCSERVICE EU";;;"Telefax: (57) (1) 7525682";"Cl 45 8 - 74 Of 703 Colombia, Bogotá"
"MACKTON INGENIERÍA LTDA.";;;"Telefax: (57) (1) 4645550";"Cl 85 49 A - 69 Colombia, Bogotá"
COPIERCOMPUTER;;;"Nal: (57) (5) 6612265";"Sector San Pedro Manz 4 Lt 11 Colombia, Cartagena"
"COMERCIALIZADORA METROPOLITANA LTDA.";;;"(57) (5) 4314323";"Cl 14 6-31 Colombia, Santa Marta"
"TOTAL COMPANY S.A.S.";;;"Telefax: (57) (1) 8104032";"Cl 64 B 81 A - 32 Colombia, Bogotá"
"AMERICAN CORPORATION DISTRIBUIDOR MAYORISTA";;;"(57) (2) 6534861";"Av 5 A N 23 D N-68 Colombia, Cali"
"OASIS COMPUTER.COM";;;"(57) (2) 6677543";"C.C. La Pasarela Cilindro 1 y 2 Colombia, Cali"
"ATM SISTEMAS CALI SERVICIO 24 HORAS";;;"(57) (2) 4268909";"Cr28 C 72 W-14 Colombia, Cali"
"EVOLUTION TECNOLOGÍA DIGITAL";;;"(57) (2) 6679895";"C.C La Pasarela L-2-118 B P-2 Colombia, Cali"
"XREDES LTDA.";;;"(57) (4) 4142626";"Cl 34 B 81 A-105 Colombia, Medellín"
"STANDARD SYSTEM";;;"(57) (4) 4130528";"Cl 10 42-55 Of 322 Colombia, Medellín"
"SYSTEPARTES E.U";;;"(57) (2) 3352821";"Cl 11 40 B-07 P-1 Colombia, Cali"
"MEGAMARKETING P.C.";;;"(57) (2) 2738975";"Cr28 33-37 Colombia, Palmira"
"INFOTEC TECNOLOGÍA";;;"(57) (2) 2372112";"Cr13 9-44 Colombia, Buga"
ALLTECH;;;"(57) (6) 3243797";"Cl 23 8-55 L-217 C.C. Lago Plaza Colombia, Pereira"
"CLÍNICA DE COMPUTADORES";;;"(57) (2) 2246537";"Cl 25 18-15 Colombia, Tuluá"
"OXIREDES DE COLOMBIA";;;"(57) (2) 3950389";"Cl 3 Oe 53-32 Colombia, Cali"
"GOGLE COMPUTER";;;"(57) (2) 6670546";"Cl 23 D N 5 N-70 Colombia, Cali"
"ACTIVE DIGITAL";;;"(57) (7) 6111430";"Cl 49 18-67 L-104 C.C. Crystalos Colombia, Barrancabermeja"
"ALMACÉN ELECTRO CRÉDITO";;;"(57) (7) 6555795";"Cl 9 5-83 Piedecuesta Colombia, Piedecuesta"
"MAGIC COMPUTERS";;;"(57) (6) 3244842";"Cl 20 4-10 Colombia, Pereira"
"XTREME SYSTEM";;;"(57) (7) 6576336";"Cr33 47-44 L-129 Altamonte Cabecera del Llano Colombia, Bucaramanga"
"ALMACÈN COMPUEQUIPOS";;;"(57) (6) 3257040";"Cr7 24-24 Colombia, Pereira"
"First Name";"Email Address";Url;Telephone;Address
"WMCOMPUTER LTDA.";;;"(57) (1) 6911053";"Cr15 77-05 L-266 Colombia, Bogotá"
"NOTEBOOK PC";;;"Nal: (57) (1) 6112158";"Centro Comercial Unilago Local 1-174 Colombia, Bogotá"
"ANTECH E.U.";;;"(57) (2) 8240928";"Cl 2 5-49 Centro Colombia, Popayán"
CADEAN;;;"(57) (1) 6624004";"Cr109 B 142-49 Colombia, Bogotá"
"MUNDO SISTEMAS LTDA.";;;"(57) (2) 4211126";"Cl 82 C 23 A-04 Colombia, Cali"
"SERVICIOS & PORTÁTILES";;;"(57) (5) 3415338";"Cr43 50-12 L-12 y 79 C.C. Parque Central Colombia, Barranquilla"
"CAU SYSTEMAS CÍA LTDA.";;;"(57) (5) 3735566";"Cl 36 45-38 Colombia, Barranquilla"
COMPUSYSTEM'S;;;"(57) (4) 4300230";"Cr84 43-50 Colombia, Medellín"
"A T C SERVICIOS BROTHERS";;;"(57) (2) 6640406";"Av4 N 40 N-180 Colombia, Cali"
"UNISYS DE COLOMBIA S.A.";;;"(57) (1) 6380400";"Cl 93 11-26 Colombia, Bogotá"
COMPUASES;;;"(57) (2) 2439375";"Cr46 5-07 L-37 Bellavista Colombia, Buenaventura"
"COMPU HELP";;;"(57) (2) 2242153";"cra 25 30-16 Colombia, Tuluá"
SETINFORNET;;;"(57) (7) 6850870";"Cr36 51-52 L-2 Cabecera Colombia, Bucaramanga"
"ALDELO FOR RESTAURANTS";;;"(57) 3186934611";"Bucaramanga Colombia, Bucaramanga"
"COMPUTADORES J & A";;;"(57) (8) 1000000";"Tr94 29-44 Brr. Maldonado Colombia, Tunja"
"DISTRIBUIDORA MUNDIAL LA ESTRELLA";;;"(57) (6) 8746090";"Cr35 100-53 La Enea Colombia, Manizales"
"JV ELECTRONICS";;;"(57) (7) 6708932";"Cl 35 17-56 Of 203 Edif Davivienda Colombia, Bucaramanga"
"COMPUSTORE BULEVAR";;;"Nal: (57) (7) 5723963";"Av 0 11-30 L-129 Colombia, Cúcuta"
"DISTRISISTEMAS JGC";;;"(57) (7) 5730506";"Cl 8 7-27 L-216 Centro Colombia, Cúcuta"
"COMERCO SUR E.U.";;;"(57) (8) 8701571";"Cr 17 6-33 Colombia, Neiva"
"AGRICULTURA Y SISTEMAS LTDA.";;;"(57) (1) 3483680";"Cl 72 A 17-24 Of 202 Colombia, Bogotá"
"DIGIBEN LTDA.";;;"(57) (5) 3683538";"Cr52 70-204 L-3 Colombia, Barranquilla"
"P.C. CLON";;;"(57) (1) 4826708";"Cr15 76-64 L-19 Colombia, Bogotá"
"COLOMBIAN COMPUTER LTDA.";;;"(57) (1) 5307827";"Cl 79 15-45 L-157 Colombia, Bogotá"
"CENTRAL DE TECNOLOGÍA";;;"(57) (2) 3153023";"Cl 18 A 56-65 L-66 Colombia, Cali"
"SERTEC 911 TECNOLOGÍA";;;"(57) (2) 2710659";"Cl 33 28-65 L-105 Colombia, Palmira"
"ACA COMPUTADORES";;;"(57) (7) 6421289";"Cl 37 14-74 P-4 L-A-29 Centro Colombia, Bucaramanga"
"MSD SISTEMAS Y COMPUTADORES";;;"(57) (2) 6608899";"Av5 A N 23 D-68 L-123 Colombia, Cali"
COMPUFRONTERA;;;"(57) (7) 5837236";"Av 0 11-30 L-144 Colombia, Cúcuta"
"NEW AGE SYSTEMS";;;"(57) (7) 6475297";"Cr 33 48-109 L-235/318 Colombia, Bucaramanga"
"COMPUMAX COMPUTER";;;"(57) (7) 6323227";"Cl 41 35-39 Colombia, Bucaramanga"
"CLÍNICA DEL COMPUTADOR PEREIRA";;;"(57) (6) 3251281";"Cl 21 5-19 Consult 2 Colombia, Pereira"
GENERACIÓN;;;"(57) (6) 8759857";"Cr23 63-15 Of. 305-A Colombia, Manizales"
"MC COMPUTER SOLUTIONS LTDA.";;;"(57) (1) 6221338";"Cr16 79-20 Of 213 Colombia, Bogotá"
"TERCERA DIMENSIÓN";;;"(57) (4) 3416430";"Cl 8 84 F-25 Int 315 Colombia, Medellín"
"ASISTENCIA TECNICA INMEDIATA";;;"(57) (7) 6436363";"Cr33 48-109 L-222 C.C. Gratamira Colombia, Bucaramanga"
"MICROLOGIC LTDA.";;;"(57) (1) 6910466";"Cr16 79-20 Of 608 Colombia, Bogotá"
COMPUENTER;;;"(57) (7) 5711677";"Av 0 11-30 L-112/113 C.C.Gran Bulevar Colombia, Cúcuta"
"SH@IK SISTEM@S";;;"(57) (5) 3605851";"Cr44 63-48 L-101 Colombia, Barranquilla"
SERVICOM.CALI;;;"(57) (2) 4880841";"Cr26 P-54 -26 Of 202 Colombia, Cali"
"First Name";"Email Address";Url;Telephone;Address
COMPUWARE;;;"(57) (6) 7412108";"Cr18 22-12 P-2 L-104 Colombia, Armenia"
"COMPUTEC S.A.";;;"(57) (1) 7242203";"Dg45 S 51-26 Colombia, Bogotá"
"SISTEMAS INTEGRALES DE INFORMÁTICA SISA S.A.";;;"Conm.: (57) (1) 6577888";"Autop N 118-30 Of 501 Colombia, Bogotá"
"MAC STATION LTDA.";;;"(57) (1) 6360400";"Cl 93 B 15-34 L-214/206 Colombia, Bogotá"
"C.I. VIRTUAL E.U.";;;"(57) (7) 6382004";"Cr23 31-24 Casa 25 Cañaveral Campestre III Floridablanca Colombia, Floridablanca"
"HP CENTER";;;"(57) (7) 6577779";"Cr29 49-16 Colombia, Bucaramanga"
APROVINET;;;"(57) (6) 3231862";"Manz 15 Casa 6 Campestre D Dosq Colombia, Pereira"
