"First Name";"Email Address";Url;Telephone;Address
"CENTRO COMERCIAL BUENAVISTA";dirmercadeo@ccbuenavista.com;www.ccbuenavista.com;"(57) (5) 3853670";"Cl 98 52-115 Colombia, Barranquilla"
"JOYEROS FONSECA CEDEÑO Y CIA.";info@fonsecacedeno.com;www.condecoracionesygrabados.com;"(57) (1) 6600482";"Cr29 C 74 A-17 Colombia, Bogotá"
"CONDECORACIONES Y GRABADOS LTDA.";info@fonsecacedeno.com;www.condecoracionesygrabados.com;"(57) (1) 6600482";"Cr29 C 74 A-17 Colombia, Bogotá"
UNIX;info@boligrafoslapizdeacero.com;www.boligrafoslapizdeacero.com;"(57) (1) 3510101";"Cl 10 N 20-35 Of 296 Colombia, Bogotá"
"LAPIZ DE ACERO ACCESORIOS";info@boligrafoslapizdeacero.com;www.boligrafoslapizdeacero.com;"(57) (1) 3510101";"Cl 10 N 20-35 Of 296 Colombia, Bogotá"
"LA TIENDA DEL BOLIGRAFO";info@boligrafoslapizdeacero.com;www.latiendadelboligrafo.com;"(57) (1) 3510101";"Cl 10 N 20-35 Of 296 Colombia, Bogotá"
"MACORLYN JOYEROS";info@macorlynjoyeros.com;www.macorlynjoyeros.com;"(57) (1) 2880516";"Cl 45 A 20-81 Colombia, Bogotá"
"MERCEDES SALAZAR JOYERÍA";info@mercedessalazar.com;www.mercedessalazar.com;"(57) (1) 6225533";"Cr18 A 103-29 Colombia, Bogotá"
"JOYERÍA INTERCONTINENTAL";mercadeo@joyeriainter.com;www.joyeriaintercontinental.com;"(57) (4) 3211060";"Cr25 A 1 A Sur-45 L-1009 Colombia, Medellín"
"ALMACÉN COMPRA VENTA PALERMO";palermoarro@hotmail.com;www.compraventapalermo.com;"(57) (2) 3283362";"Cr46 41 A-02 Colombia, Cali"
"TALLER DE ORFEBRES";tallerdeorfebres@hotmail.com;www.tallerdeorfebres.com;"(57) (1) 5473859";"Cr22 76-75 Colombia, Bogotá"
"CENTRO COMERCIAL PARQUE CARACOLÍ";servicioalclientebuc@parauco.com;www.parquecaracoli.com;"(57) (7) 6352239";"Cr27 29-145 C.C. Caracolí Colombia, Bucaramanga"
"CENTRO COMERCIAL PEREIRA PLAZA";comunicaciones@pereiraplaza.co;www.pereiraplaza.co;"(57) (6) 3251582";"Cl 15 13-110 P-3 Colombia, Pereira"
"CENTRO COMERCIAL ALMACENTRO";info@almacentro.com.co;www.almacentro.com.co;"(57) (4) 4446213";"Cr43 A 34-95 Colombia, Medellín"
"PLATERIA VICENZA";ventas@plateriavicenza.com;www.plateriavicenza.com;"(57) (1) 2365163";"Av(Cra). 15 No. 93-60 L-110 Colombia, Bogotá"
ALMACENTRO;info@almacentro.com.co;www.almacentro.com.co;"(57) (4) 4446213";"Cr43 A 34-95 Colombia, Medellín"
"BOUTIQUE INDIANA";boutiqueindiana@hotmail.com;www.boutiqueindiana.com;"(57) (7) 6571693";"Cr35 52-82 Colombia, Bucaramanga"
"CASA COMERCIAL SANTAFE";c_c_santafe@hotmail.com;www.compraventasantafe.com;"(57) (1) 2154444";"Cr7 116-84 L-103 Colombia, Bogotá"
"EL TRIUNFO BY LUZ AMPARO JARAMILLO JOYERÍA";joyeriaeltriunfo@hotmail.com;www.joyeriaeltriunfo.com;"(57) (2) 5573204";"Cl 9 23-21 Colombia, Cali"
"INDUSTRIAS CARÍN LTDA.";precolombinoscarin@yahoo.com.co;www.precolombinoscarin.com;"(57) (1) 2559851";"Cl 77 20 C-29 Colombia, Bogotá"
"ELECTRO HOGAR S.A.S.";gerencia@electrohogar.com.co;www.electrohogar.com.co;"(57) (7) 5730024";"Av2 6-46 Latino Colombia, Cúcuta"
"BOTERO JOYERÍA";sandripa07@hotmail.com;www.boterojoyeria.com;"(57) (2) 3747052";"C.C. Unicentro L-609 Colombia, Cali"
"R.I.V. SERVICIOS GENERALES S.A.";info@rivserviciosgenerales.com;www.rivserviciosgenerales.com;"(57) (2) 4060054";"Cl 18 9-24 Colombia, Cali"
"PAPELERIA EL HUECO";ventaselhueco@gmail.com;www.elhuecobarranca.com;"(57) (7) 6026590";"Cl 49 5-48 Sector Comercial Colombia, Barrancabermeja"
"DISTRIBUIDORA EL HUECO";ventaselhueco@gmail.com;www.elhuecobarranca.com;"(57) (7) 6026590";"Cl 49 5-48 Sector Comercial Colombia, Barrancabermeja"
"ALMACENES FLAMINGO S.A.";linag@flamingo.com.co;www.flamingo.com.co;"(57) (4) 5768888";"Oficinas Centrales: Cl 51 48-09 P-3 Colombia, Medellín"
"PLATERIA HERVEGA";ventas@plateriahervega.com;www.plateriahervega.com;"(57) (1) 2574051";"Cr15 93-60 L-2-20 Colombia, Bogotá"
FABRIJOYAS;fabrijoyas@hotmail.com;www.fabrijoyas.com;"(57) (2) 5542203";"Cl 9 23-67 Colombia, Cali"
"LA CALEÑITA";info@lacalenita.com;www.lacalenita.com;"(57) (2) 5142102";"Cl 8 A 23 C-49 Colombia, Cali"
"INDUSTRIAS EL GALEON LTDA.";;www.elgaleonltd.com;"(57) (1) 5458978";"Cl 63 A 70-41 Colombia, Bogotá"
"GALENA ORFEBRES";maria@galenagift.com;www.galenagift.com;"(57) (1) 3004428";"Av (Cl) 82 11-50 Int 2 L-1 Colombia, Bogotá"
"CENTRO COMERCIAL MEGAMALL";gerencia@megamall.com.co;www.megamall.com.co;"(57) (7) 6340020";"Cr33 A 29-15 Colombia, Bucaramanga"
"JOYERÍA LONDRES S.A.S.";joyerialondres@une.net.co;www.joyerialondres.co;"(57) (4) 5122186";"Cl 49 49-13 Colombia, Medellín"
"GALERIA MINAS DE COLOMBIA";galeriaminasdecolombia@hotmail.com;www.galeriaminasdecolombia.com;"(57) (1) 2816523";"Dg20 A 0-12 Colombia, Bogotá"
"DAYCUPER JOYAS";daycuper@daycuperjoyas.com;www.daycuperjoyas.com;"(57) (4) 2603843";"Sector Estadio. Colombia, Medellín"
AGAVAL;contactenos@agaval.com;www.agaval.com;"(57) (4) 4444999";"Oficinas Cr43 B 23-117 Colombia, Medellín"
"COMPRAVENTA EL TRÉBOL DE LA SUERTE";ctadiamantes@hotmail.com;;"(57) (6) 3258885";"Cr8 16-06 Esq Colombia, Pereira"
"JOYERIA PLATA MARTILLADA";platamart@une.net.co;www.platamartillada.com;"(57) (4) 2511611";"Cr49 52-56 Colombia, Medellín"
"COMERCIALIZADORA GARBO METALES";ccts91@hotmail.com;www.garbometales.com;"(57) (1) 2849072";"Cr6 12-60 Colombia, Bogotá"
"BETTY ANDERSON - VIDA EN ARMONIA";info.bettyanderson@gmail.com;www.vidaenarmonia.co;"(57) (2) 5141946";"Cr34 # 3 A-14 L 2 Colombia, Cali"
"First Name";"Email Address";Url;Telephone;Address
"ALMACEN Y PLATERIA TIANA S.A.S.";plateriatiana51@yahoo.com;www.plateriatiana.co;"(57) (1) 3458538";"Cr15 51-36 Colombia, Bogotá"
"BETTY ANDERSON - VIDA EN ARMONIA";info.bettyanderson@gmail.com;www.vidaenarmonia.co;"(57) (2) 5141946";"Cr34 # 3 A-14 L 2 Colombia, Cali"
"JOYERÍA Y RELOJERÍA ARTE Y ESTILO";fernandomontoya@joyeriaarteyestilo.com;www.joyeriaarteyestilo.com;"(57) (6) 3351334";"Cr7 18-21 L-112 C.C. Edificio Antonio Correa Colombia, Pereira"
"ALMACÉN Y JOYERÍA RONALD";joyeriaronald@hotmail.com;;"(57) (5) 3410792";"Cl 38 41-07 Colombia, Barranquilla"
"JOYERIAN RONALD";joyeriaronald@hotmail.com;www.joyeriaronald.com;"(57) (5) 3410792";"Cl 38 41-07 Colombia, Barranquilla"
"RELOJERÍA TIC TAC";relojeriatictac@hotmail.com;www.reparacionderelojestictac.com;"(57) (2) 3314587";"C.C. Holguines Trade Center L-146 Colombia, Cali"
RUIZ;relojeriatictac@hotmail.com;www.facebook.com/pages/aaarelojeriatictac-eta/11994054469;"(57) (2) 3314587";"C.C. Holguines Trade Center L-146 Colombia, Cali"
"CENTRO COMERCIAL LA HERRADURA";mercadeo@laherradura.com.co;www.laherradura.com.co;"(57) (2) 2253512";"Cr19 28-76 Of Colombia, Tuluá"
"NOVIAS CON CLASE";lualinares34@hotmail.com;www.noviasconclase.com;"(57) (2) 8902085";"Cl 23 Dn 5 An-75 Colombia, Cali"
"E & E PLATERÍA";efrain.a.g@hotmail.com;;"(57) (4) 5119884";"Cl 46 53-64 L-136 Colombia, Medellín"
"COMPRA VENTA NUEVA COLOMBIA";nuevacolombia@hotmail.com;;"(57) (4) 2305272";"Cl 50 65-11 Colombia, Medellín"
"JOYERÍA BRILHO E.U.";hectorz66@gmail.com;www.joyeriabrilho.com;"(57) (4) 2319237";"Cl 48 53-63 L-128 Colombia, Medellín"
"ORFEBRERIA ROMANA";laimgraficas@hotmail.com;;"(57) (1) 2129261";"Cl 57 17-38 Colombia, Bogotá"
"ETILUJO LTDA.";etilujo@une.net.co;www.etilujo.com;"(57) (4) 2323394";"Cl 49 B 68-90 ESTADIO Colombia, Medellín"
"LA PLATERÍA";laplateriamedellin@hotmail.com;;"(57) (4) 2668171";"Cl 4   S 43 A-195 L-9964 Colombia, Medellín"
CARDONA;jozr63@hotmail.com;;"(57) (4) 3434365";"Cr76 24-64 Colombia, Medellín"
"JOYERÍA R&G";comunicaciones@joyeriayrelojeriaestrella.com.co;;"(57) (4) 5119400";"Cr50 52-22 L-149 Colombia, Medellín"
"PLATERÍA MARTÍNEZ";rocarmartinez2007@hotmail.com;;"(57) (4) 5133772";"Cl 55 47-20 Int 1101 Colombia, Medellín"
"COMPRA VENTA KILATEX";alsave76@hotmail.com;;"(57) (7) 6550298";"Cl 10 5-84 Colombia, Piedecuesta"
"JOYERIA LIEVANO";jlievano@etb.net.co;www.joyerialievano.com;"(57) (1) 6168608";"Cr11 82-01 L-157 C.C. Andino Colombia, Bogotá"
"IMAGEN JR S A S";contratacion.imagenjr@gmail.com;www.imagenjr.com;"(57) (1) 3155845";"Cr57 44 B-22 Colombia, Bogotá"
"COMPRAVENTA PRENDERÍA LA MEJOR ESQUINA";mejoresquina@hotmail.com;;"(57) (4) 5120129";"Cl 49 52-75 Colombia, Medellín"
"JOYERÍA Y RELOJERÍA LA FUENTE DE ORO";joyerialafuentedeoro@hotmail.com;;"(57) (4) 5116687";"Cr51 A 46-33 Colombia, Medellín"
"COMRACOL Y CIA LTDA.";comracol@yahoo.es;;"(57) (1) 2830401";"Cl 12 B 6-82 Of 207 Colombia, Bogotá"
"ALHAJA JOYERÍA RELOJERÍA";alajarelojeria@yahoo.es;www.alhajajoyeria.com;"(57) (1) 8617675";"Av Pradilla 900 Este L-1082 C.C. Centro Chía Colombia, Bogotá"
"ALMACEN CENTRO MUNDIAL DEL RELOJ";centromundialdelreloj@gmail.com;www.centromundialdelreloj.com;"(57) (1) 2150437";"Av15 124-65 L-101 Colombia, Bogotá"
"JOYERÍA CESÁREO";esiefken@hotmail.com;www.joyeriacesareo.com;"(57) (5) 6650290";"Cr1 1 A-10 L-1-14 C.C. Pierino Gallo Colombia, Cartagena"
"SANCANCIO CENTRO COMERCIAL";centrocomercial@sancancio.com;www.sancancio.com;"(57) (6) 8874508";"Cr27 A 66-30 Colombia, Manizales"
"BRAVO GARCÍA Y CÍA. LTDA.";gerencia@bravogarcia.co;www.bravogarcia.co;"(57) (5) 6641960";"Cr8 34-55 L-102 Edif Banco de Occidente Av Carlos Escallón Colombia, Cartagena"
"JOYERIA KRONOS";manantialdejoyas@hotmail.com;;"(57) (4) 5127125";"Cr49 52-175 Colombia, Medellín"
"JOYERÍA DISENOS DANIEL";jaimeabello@hotmail.com;www.disenosdaniel.com;"(57) (8) 5124276";"Av Providencia L-134 C.C. New Point Plaza Colombia, San Andrés"
"JOYERÍA JIREH";joyeria-jireh@hotmail.es;;"(57) (2) 8962793";"Cl 15 8-19 Colombia, Cali"
"JOYAS OCHOA";joyasochoa@hotmail.com;;"(57) (7) 6306001";"Sanandresito Centro P-3 L-C-29 y B-28 Colombia, Bucaramanga"
"RELOJERÍA CALVO";mcm954@gmail.com;;"(57) (1) 6008435";"Av19 122-49 L-22 Colombia, Bogotá"
"CAMPOS JOYERÍA Y RELOJERÍA";joyeria.campos@hotmail.com;;"(57) (7) 6337033";"Cr18 34-43 L-102 C.C. Páez Colombia, Bucaramanga"
"JOYERIA LLUVIA DORADA";lluviadorada117@yahoo.com.co;;"(57) (4) 5117664";"Cl 48 53-39 L-125 Colombia, Medellín"
"JOYERÍA FERNÁN ANGEL";fernanangele@hotmail.com;;"(57) (4) 3116173";"Cl 4   S 43 A-195 B-B L-134 Colombia, Medellín"
"KAMILO'S RELOJERIA";kamilosjoyeria@hotmail.com;www.kamilosrelojeria.com;"(57) (4) 4361442";"Cl 51 73-120 L-1189-1192 Colombia, Medellín"
"YANGUAS JOYEROS S.A.";informacion@yanguasjoyeros.com;;"(57) (2) 3307842";"Unicentro L-412 C Colombia, Cali"
"FANTASÍA SOL Y LUNA";francybotero35@hotmail.com;www.almacensolyluna.com;"(57) (2) 2811970";"Cl 31 27-24 Colombia, Palmira"
"First Name";"Email Address";Url;Telephone;Address
"SPIGO JOYAS";lilila07@hotmail.com;www.spigojoyas.com.co;"(57) (8) 2707508";"C.C. La Estación L-274 Colombia, Ibagué"
"KAMILO'S RELOJERIA";kamilosjoyeria@hotmail.com;www.kamilosrelojeria.com;"(57) (4) 4361442";"Cl 51 73-120 L-1189-1192 Colombia, Medellín"
"LUCY JOYAS";lucyjoyas@hotmail.com;;"(57) (5) 3198537";"Cl 38 41-13 Colombia, Barranquilla"
"ELKA JOYERÍA Y RELOJERÍA";joyeria.campos@hotmail.com;;"(57) (7) 6573547";"C.C. Cabecera IV Et L-424 Colombia, Bucaramanga"
"TALLER DE JOYERIA BRACARLY";Joyasbracarly@gmail.com;;"(57) (4) 2510130";"Cl 52 47-28 Of 407 Colombia, Medellín"
"JOYERÍA DISENOS DANIEL";jaimeabello@hotmail.com;www.disenosdaniel.com;"(57) (8) 5124276";"Av Providencia L-134 C.C. New Point Plaza Colombia, San Andrés"
"JOYERIA JENNIFER";jandr1910@hotmail.com;;"(57) (5) 3410792";"Cr41 38-20 Colombia, Barranquilla"
"COMPRA-VENTA LA SUERTE";ligiasave06@outlokk.com;;"(57) (7) 6460379";"Cl 43 23-134 El Poblado Girón Colombia, Bucaramanga"
"JOYERÍA CARTER Y CENTRO DE SERVICIO D'MARIO";ogliquintero@hotmail.com;;"(57) (6) 3335726";"Cl 18 7-11 Colombia, Pereira"
"EL FORTÍN DE LA FANTASÍA";elfortin@une.net.co;;"(57) (4) 5140591";"Cr53 46-31 Int 406 Colombia, Medellín"
"JOYERIA ESMERALDAS COLOMBIANAS";fermongar@hotmail.com;;"(57) (8) 5123806";"Av20 de Julio-3 -76 Colombia, San Andrés"
"YANGUAS JOYEROS S.A.";informacion@yanguasjoyeros.com;;"(57) (2) 3307842";"Unicentro L-412 C Colombia, Cali"
"JOYAS OCHOA";joyasochoa@hotmail.com;;"(57) (7) 6306001";"Sanandresito Centro P-3 L-C-29 y B-28 Colombia, Bucaramanga"
"D'SHOPPING JOYERÍA";dshoppingjoyeria@gmail.com;;"(57) (4) 2311949";"Cl 48 49-42 Int 701 Colombia, Medellín"
"JOYERÍA DISEÑOS LOGO RELOJERÍA";contactenos@disenoslogo.com;www.disenoslogo.com;"(57) (2) 3247189";"Cr98 16-200 L-108 Colombia, Cali"
"JOYAS MONSERRATE";m7isabel@gmail.com;;"(57) (4) 8810684";"Cl 14 7-75 L 2 A Cali Colombia, Medellín"
"JOYERIA REGALO";carlosq04@hotmail.com;;"(57) (4) 5111842";"Cl 46 51 A-26 Of 348 Colombia, Medellín"
"JOYERIA LLUVIA DORADA";lluviadorada117@yahoo.com.co;;"(57) (4) 5117664";"Cl 48 53-39 L-125 Colombia, Medellín"
"COMPRAVENTA METROACEVEDO";;;"(57) (4) 2369951";"Cr52 108-18 Colombia, Medellín"
"COMPRA VENTAS EL DIAMANTE";ctadiamantes@hotmail.com;www.compraventaseldiamante.com.co;"(57) (6) 3359709";"Cl 14 8-18 Colombia, Pereira"
"CASA COMERCIAL DE LA 121";romerohumberto69@hotmail.com;;"(57) (1) 2131477";"Av15 121-25 Colombia, Bogotá"
"JOYERIA RUIZ";;;"(57) (4) 3310693";"Cr42 38 S-15 L-101 Envigado Colombia, Medellín"
"TALLER EL ORFEBRE JOYERÍA Y RELOJERÍA";tallerorfebre@yahoo.com.co;;"(57) (2) 6610119";"Av5   N 23 DN-27 L-182-A C.C. Pasarella Colombia, Cali"
"ALMACEN COMPRA VENTA CONCORD";concord@hotmail.com;;"(57) (4) 5119178";"Cr52 53-56 Colombia, Medellín"
"JOYÁNGEL S.A.S.";joyangel@une.net.co;www.joyangel.com.co;"(57) (4) 3117318";"Cr43 A 1 A   S-29 Of 309 Colombia, Medellín"
"JOYERIA CASA DE LA ESMERALDA";t.laesmeralda@yahoo.es;;"(57) (5) 6609304";"Centro Edif González Porto L-32-87 Colombia, Cartagena"
"JOYERIA Y PLATERIA BANNER";plateriabanner@yahoo.com;;"(57) (7) 6473270";"Cr35 52-114 Colombia, Bucaramanga"
"CENTRO COMERCIAL PARQUE CALDAS";"mercadeo@parquecaldas.com.co                             ldas.com";www.parquecaldas.com.co;"(57) (6) 8833741";"Cr22 29-29 Colombia, Manizales"
"DE OROS JOYERIAS";albacaenz@hotmail.com;;"(57) (4) 5118263";"Cl 48 49-42 Of 402 Colombia, Medellín"
"JOYERÍA Y RELOJERÍA CHIBCHA LTDA.";;;"(57) (4) 2724979";"Cr49 49-12 Bello Colombia, Medellín"
"COMPRAVENTA EL NORTE";gilbertonaranjovelasquez@hotmail.com;;"(57) (7) 6341970";"Cl 14 22-69 Colombia, Bucaramanga"
"JOYERÍA Y RELOJERÍA VARIEDADES DEL MUNDO";willyortiz8@hotmail.com;;"(57) (4) 2315993";"Cl 46 51 A-26 L-338 Colombia, Medellín"
"CENTRO COMERCIAL ALFAGUARA";administrador@ccalfagura.com;www.ccalfaguara.com;"(57) (2) 5164380";"Cl 2 22-175 Jamundí Colombia, Cali"
"COMPRAVENTA EL TIO";compraventaeltio@hotmail.com;;"(57) (4) 3113069236";"Cr51 46-85 Colombia, Medellín"
CANACUÉ;wilmercanacue@hotmail.com;;"Telefax: (57) (1) 2228192";"Cl 24 A 57-69 Int 5 Of 203 Colombia, Bogotá"
"JOYERÍA JIREH";joyeria-jireh@hotmail.es;;"(57) (2) 8962793";"Cl 15 8-19 Colombia, Cali"
"JOYERÍA Y RELOJERÍA COSMOS S.A.S";crinet13@hotmail.com;;"(57) (4) 5119419";"Cl 53 49-109 L 113 Colombia, Medellín"
"W.S. HERRAMIENTAS S.A.S.";info@wsherramientas.com;www.wsherramientas.com;"(57) (2) 8892610";"Cr7 12-50 L-249 Colombia, Cali"
"ALMACÉN Y JOYERÍA LA CORONA";almacenyjoyerialacorona1@hotmail.com;;"(57) (4) 2760778";"Cl 38   S 41-36 Envigado Colombia, Medellín"
"JOYERIAS FRANCISCO TRUJILLO DISEÑO DE JOYAS";franciscotru328@hotmail.com;;"(57) (2) 8858175";"Cr7 12-55 L-111-A Colombia, Cali"
"First Name";"Email Address";Url;Telephone;Address
"ARTESANIAS EL ZAQUE LTDA.";;www.artesaniaselzaque.com.co;"(57) (1) 3427883";"Cr10 26-71 Int-128 Colombia, Bogotá"
"JOYERIA REGALO";carlosq04@hotmail.com;;"(57) (4) 5111842";"Cl 46 51 A-26 Of 348 Colombia, Medellín"
"JOYERÍA Y RELOJERÍA RAMÍREZ";kalicheramirez@hotmail.com;;"(57) (6) 8844015";"Cr20 18-52 Centro Colombia, Manizales"
"JOYÁNGEL S.A.S.";joyangel@une.net.co;www.joyangel.com.co;"(57) (4) 3117318";"Cr43 A 1 A   S-29 Of 309 Colombia, Medellín"
"COMPRAVENTA EL VENCEDOR";compraventa367@hotmail.com;;"(57) (4) 2781369";"Cr50 127   S-09 Caldas Colombia, Medellín"
"GIOVANNI JOYAS";lucyjoyas@hotmail.com;;"(57) (5) 3200912";"Cl 41 39-03 Colombia, Barranquilla"
"JOYAS MONSERRATE";m7isabel@gmail.com;;"(57) (4) 8810684";"Cl 14 7-75 L 2 A Cali Colombia, Medellín"
"CAMPOS JOYERÍA Y RELOJERÍA";joyeria.campos@hotmail.com;;"(57) (7) 6337033";"Cr18 34-43 L-102 C.C. Páez Colombia, Bucaramanga"
"ALMACÉN CALLURA";omardario75@hotmail.com;;"(57) (4) 2318481";"Cl 46 51 A-26 L-346 Colombia, Medellín"
"VARIEDADES KOREAMERICANA";koreamericana@gmail.com;;"(57) (4) 5719418";"Cl 48 53-39 L-129 Colombia, Medellín"
CANACUÉ;wilmercanacue@hotmail.com;;"Telefax: (57) (1) 2228192";"Cl 24 A 57-69 Int 5 Of 203 Colombia, Bogotá"
"TALLER DE JOYERÍA RICARDO GAVIRIA VIECO";ricardogaviria@hotmail.com;;"(57) (4) 3113163";"Cr25 1 A   S-155 OF 940 Colombia, Medellín"
"SPIGO JOYAS";lilila07@hotmail.com;www.spigojoyas.com.co;"(57) (8) 2707508";"C.C. La Estación L-274 Colombia, Ibagué"
"METALES DEL CARIBE S.A.S.";;;"(57) (5) 6644488";"La Matuna Cl 32 9-27 L-3 Edif Cines Capitol Colombia, Cartagena"
"JOYERÍA NANCY";;;"(57) (5) 6652445";"Av San Martín 6-29 Colombia, Cartagena"
"EL MUNDO DE LAS JOYAS";;;"(57) (1) 2778212";"Cl 9 Bis 19 A-47 L-76 Colombia, Bogotá"
MISHKY;;;"(57) (2) 6659848";"Av9 N 69-06 Colombia, Cali"
"COMPRA DE ORO LEO";;;"(57) (6) 8847737";"Cr20 17-44 Centro Colombia, Manizales"
"MAGA ACCESORIOS";;;"(57) 3166226457";"- Colombia, Bucaramanga"
"PLATERÍA VILLEGAS";;;"(57) (6) 3658265";"Cr14 14-48 Colombia, Santa Rosa de Cabal"
"ZULUAGA URIEL DE JESÚS";;;"(57) (1) 2432155";"Cr10 11-85 L-110 Colombia, Bogotá"
"MECÁNICA DE PRECISIÓN JOGADI";;;"(57) (1) 2652165";"Cr72 L 34-60 S Colombia, Bogotá"
"EMBLEMAS EMPRESARIALES";;;"(57) (1) 2362250";"Cl 95 47-50 Colombia, Bogotá"
"THE BEST ESMERALDS S.A.";;;"Conm.: (57) (1) 3344277";"Av J Manz 5-43 Of 1001 Colombia, Bogotá"
"JOYERIA Y RELOJERIA MAURICIO";;;"Nal: (57) (4) 5208620";"Cl 52 50-05 Colombia, Medellín"
"COMPRAVENTA GARDELIANA";;;"(57) (4) 2511434";"Cl 49 45-28 Colombia, Medellín"
"JOYERIA D'CLASS";;;"(57) (4) 2604097";"Cl 51 73-116 Int 103 Colombia, Medellín"
"JOYERÍA Y COMPRA-VENTA VAN-GOGH";;;"(57) (4) 3311429";"Cl 37 S 41-07 Envigado Colombia, Envigado"
"JOYERIA LA MARQUESA";;;"(57) (4) 2315989";"Cl 46 51 A-26 L-337-2 Colombia, Medellín"
"SOLO JOYAS";;;"(57) (4) 2517302";"Cl 52 47-28 Int 101 Colombia, Medellín"
"FENN JOYERIA Y ACCESORIOS S.A.S";;;"(57) (4) 3113005";"Cr37 8 A -19 Colombia, Medellín"
"EGO JOYERÍA";;;"(57) (4) 3540021";"Cr35 7-24 Int 101 Colombia, Medellín"
"OXFORD DESIGNS";;;"(57) (5) 3561650";"Cr53 78-78 L-20 Colombia, Barranquilla"
"CRÉDITOS BIEN";;;"(57) (4) 5115872";"Cr53 48-21 L-103 Colombia, Medellín"
"INSTRUMENTOS MUSICALES";;;"(57) (5) 6643984";"Matuna C.C. El Cañonazo L-14 Av Venezuela Colombia, Cartagena"
"TALLER Y JOYERÍA WR";;;"(57) (4) 2512140";"Cl 46 51 A-26 Int 313 Colombia, Medellín"
"CENTRO ORIENT LUIS ENRIQUE";;;"(57) (1) 7609621";"Cl 47 B S 24 B-33 L-2-46 Colombia, Bogotá"
"JOYAS CUARZO";;;"(57) 3115585557";"C.C. Megacentro L-118 Colombia, Neiva"
"EMERALD EXPERTS FÁBRICA DE JOYAS";;;"(57) (5) 6658938";"Bgde Cl 5 2-38 Colombia, Cartagena"
"JOYERÍA SUN WATCH STORE";;;"(57) (4) 7853362";"Cl 44 10-91 L-141 Colombia, Montería"
"First Name";"Email Address";Url;Telephone;Address
"JOYERÍA ITALIANA";;;"(57) (76) 5659208";"Cl 5 14-60 L-1 Colombia, Aguachica"
"BAUER & CO. S.A.";;;"(57) (1) 6360012";"Cr15 93-60 L-215 Colombia, Bogotá"
"TALLER DE JOYER";;;"(57) (1) 6067213";"Cl 63 10-61 L-2030 Colombia, Bogotá"
SCUDETTO;;;"(57) 3116443244";"Cr15 7-62 A P-2 Colombia, Buga"
"ALMACÉN COMPRAVENTA BAHÍA";;;"(57) (2) 3396297";"Cl 13 68-14 Colombia, Cali"
"ALMACÉN COMPRAVENTA LA NUEVA";;;"(57) (2) 5583441";"Cl 9 24-33 Colombia, Cali"
"JOYERÍA JORDÁN ORFEBRE";;;"(57) (2) 8841531";"Cr5 10-60 Of 702 Colombia, Cali"
"AZABAYA JOYERÍA CONTEMPORÁNEA";;;"(57) (4) 2300433";"Cr64 C 48-94 Colombia, Medellín"
"COMPRAVENTA FARALLONES";;;"(57) (2) 8841495";"Cr6 13-117 Colombia, Cali"
"CÉSAR DÍAZ JOYEROS";;;"(57) (2) 8858177";"Cr7 12-55 Of 121 Colombia, Cali"
"JOYERÍA Y RELOJERÍA EL SEGURO";;;"(57) (4) 2318504";"Cl 51 51-76 L-201 Colombia, Medellín"
"DENNI'S JOYEROS TALLER";;;"(57) (2) 6610964";"Av4 N 24-46 Colombia, Cali"
"JOYERÍA Y RELOJERÍA EBENEZER";;;"(57) (2) 5132009";"Cl 5 46-83 L-147 Colombia, Cali"
"TALLER DE CERAS MAURICIO RODAS";;;"(57) (2) 8962142";"Cr9 15-33 L M-14 A Colombia, Cali"
"ALMACÉN COMPRAVENTA LA DIOSA";;;"(57) (2) 4238103";"Cr27 95-03 Colombia, Cali"
"JOYERÍA ONIX";;;"(57) (6) 7421090";"Cr25 38-16 Colombia, Calarcá"
"JOYERÍA RAMÍREZ";;;"(57) (2) 2120790";"Cr5 10-71 L-1 Colombia, Cartago"
"TALLER DE JOYERÍA WILSON VILLADA";;;"(57) (2) 8962721";"Cr5 13-68 L-H-10 Colombia, Cali"
"NEGOCIEMOS YA";;;"(57) (5) 6749300";"C.C. El Colmenar L-D Colombia, Cartagena"
"JOYERÍA Y RELOJERÍA HENRY GIRALDO";;;"(57) 3172123543";"Cl 7 12-12 Colombia, Buga"
"JOYERÍA Y PLATERÍA LINA MARÍA";;;"(57) (2) 6699194";"Cr4 4-01 Colombia, Cali"
"HAZLO TÚ";;;"(57) (5) 3691088";"Cl 77 67-37 L-11 Colombia, Barranquilla"
"JOYERÍA SLADYR";;;"(57) (7) 6430710";"Cr35 A 49-55 L-109 C.C. Cabecera IV Etapa Colombia, Bucaramanga"
"RELOJERIA NAZARETH";;;"(57) (7) 6339267";"C.C. Sanandresito La Isla P-3 L-C-7 Colombia, Bucaramanga"
"C+M JOYERÌA Y ACCESORIOS";;;"(57) (4) 3170123";"Cr25 12 S-59 Int 9808 Colombia, Medellín"
"GOIVANNI JOYERÍA";;;"(57) (1) 2815141";"Cl 11 10-08 L 213 c Colombia, Bogotá"
ORIANA;;;"(57) (6) 3252954";"Cl 13 9-37 Colombia, Pereira"
"JOYERÍA DE GENOVEVA ESTRADA";;;"(57) (6) 8871838";"Cr27 A 66-30 L-865 Colombia, Manizales"
TSQSA;;;"(57) (1) 2155946";"Av15 122-45 P-6 Colombia, Bogotá"
"SUPER JOYA VALENTINA";;;"(57) (7) 5710077";"Av6 8-39 L-12-A C.C. San Andresito Colombia, Cúcuta"
"JOYERÍA CLIVING";;;"(57) (8) 7443767";"C.C. Plaza Real L-103 Centro Histórico Colombia, Tunja"
"JOYERÍA ORIENT";;;"(57) (2) 8882043";"Cr5 14-17 Colombia, Cali"
"JOYERÍA Y RELOJERÍA EL TRIÁNGULO DE ORO";;;"(57) (1) 2868563";"Cl 13 12-96 L-104 Colombia, Bogotá"
"JOYERÍA LAPISLAZULI";;;"(57) (2) 2279640";"Cr13 5-67 Colombia, Buga"
"JOYERÍA SCHUMACHER";;;"(57) (1) 2574576";"Cr13 82-49 Of 708 Colombia, Bogotá"
"WILLY JOHN'S";;;"Nal: (57) (4) 4186624";"Cl 45 53-50 Int 1179 Colombia, Medellín"
"COMPRA VENTA LA REINA";;;"(57) (8) 8368673";"Cr4 1-59 Sur Colombia, Pitalito"
"JOYERÍA Y PLATERÍA CELY";;;"(57) (7) 6450271";"Cr24 37-26 Colombia, Bucaramanga"
"COMPRA VENTA EL MONO EULICES";;;"(57) (7) 6301655";"Cl 33 18-36 L-101 Colombia, Bucaramanga"
"SOCIETY JOYEROS";;;"(57) (2) 8892616";"Cr7 12-55 L-210 Colombia, Cali"
"First Name";"Email Address";Url;Telephone;Address
"JOYERÍA ONIX";;;"(57) (8) 2614096";"Cr3 A 13-01 Esq Colombia, Ibagué"
"JOYERÍA GÉMINIS";;;"(57) (7) 6425085";"Cl 34 17-90 Colombia, Bucaramanga"
"JOYERÍA Y RELOJERÍA PLATINUM";;;"(57) (2) 3396567";"C.C. Unicentro L- 223 Colombia, Cali"
"TALLER DE JOYERÍA JORGE";;;"(57) (2) 4059480";"Cr42 B 41-01 Colombia, Cali"
"JIREH JOYEROS";;;"(57) (2) 2719804";"Cr25 30-43 Colombia, Palmira"
"JOYERÍA MAR DE PLATA";;;"(57) (2) 2255060";"Cr25 27-49 Colombia, Tuluá"
"TALLER DE JOYERÍA EL TRÉBOL";;;"(57) (2) 2148851";"Cl 10 5-10 Colombia, Cartago"
"JOYERÍA Y COMPRA VENTA LOS CÁMBULOS";;;"(57) (2) 5130603";"Cl 9 40-35 Colombia, Cali"
"JOYERÍA ROLEX";;;"(57) (7) 5716728";"Av4 10-53 Colombia, Cúcuta"
"JOYERÍA FLORANI";;;"(57) (4) 3717265";"Cr50 51-49 Int 115 Colombia, Medellín"
JOYAESTILO;;;"(57) (4) 3530976";"Cr76 24-54 Colombia, Medellín"
"JOYERÍA EL TESORO";;;"(57) (1) 3601746";"Cl 9 Bis 19 A-10 L-5 Colombia, Bogotá"
"ORO Y ARTE";;;"(57) (7) 6440044";"Cl 64 A 17 A-119 Colombia, Bucaramanga"
"VERA PLATERIA";;;"(57) (7) 6434078";"Cr35 48-104 Colombia, Bucaramanga"
NEFERTITI'S;;;"(57) (1) 3601764";"Cl 9 Bis 19 A-10 L-3 Colombia, Bogotá"
"JOYERÍA FIRENZE";;;"(57) (1) 2114287";"Cl 72 10-34 Int 1 Consult 115 Colombia, Bogotá"
MORELLATO;;;"(57) (1) 6217864";"Cr 11 82-71 L-238 Colombia, Bogotá"
"JOYERÍA FLEING";;;"(57) (1) 2574482";"Cr15 93-60 L-2-16 Colombia, Bogotá"
"PALACIO DE LA ESMERALDA DESDE 1953";;;"(57) (1) 2820129";"Pasaje Hotel Tequendama Int.126 Colombia, Bogotá"
"ARTE WILLIAM®S JOYERÍA Y PERFUMERÍA";;;"(57) (2) 7290725";"C.C. Orient L-115 Colombia, Pasto"
"FANTASIA MAZUL";;;"(57) (4) 5142227";"Cr51 45-75 L-103 Colombia, Medellín"
"VENIZI LTDA.";;;"(57) (4) 2300186";"Cq 1 66 B-154 Int 304 Colombia, Medellín"
"TURMALINA & DURANGO MEDELLÍN S.A.S.";;;"(57) (4) 2667570";"Cr32 2 S-47 Int 125 Colombia, Medellín"
"SALAZAR MERCEDES";;;"(57) (4) 3675282";"Cr32 2 S-47 Int 109 Colombia, Medellín"
"JOYERÍA ENSUEÑO";;;"(57) (4) 5718681";"Cl 53 49-109 L-122 Colombia, Medellín"
"TALLER DE JOYERÍA JOHN & JOHN RIASCOS";;;"(57) (4) 2511735";"Cl 52 47-28 B-9 Of 908 Colombia, Medellín"
"LA LEYENDA DEL DORADO JOYERÍA";;;"(57) (1) 2826929";"Cr6 12-79 L-114 Colombia, Bogotá"
"DORADOS Y PLATEADOS";;;"(57) (1) 6359445";"Cr38 97-76 L-204 Colombia, Bogotá"
"COMPRA VENTA BOLÍVAR";;;"(57) (4) 5118026";"Cr51 44-105 Colombia, Medellín"
"ALMACÉN COMPRA VENTA EL TRIUNFO";;;"(57) (2) 5573206";"Cl 9 23-11 Colombia, Cali"
"JOYERÍA AURELIOS";;;"(57) (1) 3415645";"Av (Cl) 26 10-42 Colombia, Bogotá"
"DINASTÍA JOYEROS";;;"(57) (1) 3703192";"Cl 9 Bis 20-42 Colombia, Bogotá"
"ZULUAGA URIEL DE JESÚS";;;"(57) (1) 2432155";"Cr10 11-85 L-110 Colombia, Bogotá"
MULTI-JOYAS;;;"(57) (1) 2130285";"Av 15 124-44 L-270 Colombia, Bogotá"
"ORO'S FACTORY";;;"(57) (1) 3410123";"Cr13 26-81 L-109 Colombia, Bogotá"
"GALERÍA CANO S.A.";;;"(57) (1) 2139766";"Unicentro L.218 Colombia, Bogotá"
"BRAZIL JOYAS Y ACCESORIOS";;;"(57) (2) 8800728";"Cr19 13-91 L-41 Colombia, Cali"
"JOYERIA MAR D`PLATA";;;"(57) (76) 5653959";"Cl 5 15-18 Colombia, Aguachica"
PANDORA;;;"(57) (1) 6166571";"Cr11 82-01 Colombia, Bogotá"
"FENN JOYERIA Y ACCESORIOS S.A.S";;;"(57) (4) 3113005";"Cr37 8 A -19 Colombia, Medellín"
"First Name";"Email Address";Url;Telephone;Address
"JOYERÍA LA 31";;;"(57) (4) 7811126";"Cl 32 1-17 Colombia, Montería"
"SWATCH ALMACEN";;;"(57) (1) 2130184";"Av15 124-30 L-2-53 Colombia, Bogotá"
"CENTRO COMERCIAL AYACUCHO CARABOBO";;;"(57) (4) 5122619";"Cl 49 # 52-52 Colombia, Medellín"
"JOYERÍA Y PLATERÍA IMPERIUM LTDA.";;;"(57) (4) 3130961";"Cl 6 S 43 A-227 L-1180 Colombia, Medellín"
"GIOVANNI SEMI JOYAS";;;"(57) (6) 7312749";"Cr15 18-22 Of 205 Colombia, Armenia"
"JOYAS EXCLUSIVAS 3000";;;"(57) (4) 2508638";"Cr79 C 45 B-37 Int 402 Colombia, Medellín"
"VARIEDADES CARTIER";;;"(57) (4) 2318703";"Cl 46 51 A-26 Of 351 A Colombia, Medellín"
"EL PALACIO DEL MURANO";;;"(57) (4) 2512520";"Cl 49 52-38 Int 131 Colombia, Medellín"
"CLAUDIA MANOSALVA";;;"(57) (1) 2488858";"Cr6 11-54 Of 507 Colombia, Bogotá"
"DON ESTEBAN JOYEROS";;;"(57) (1) 6121404";"Cr 7 115-60 L-A 140 Colombia, Bogotá"
"JOYAS CUARZO";;;"(57) 3115585557";"C.C. Megacentro L-118 Colombia, Neiva"
"MOLANO ELSA";;;"(57) (1) 6121895";"C.C. Hacienda Santa Bárbara L-110-B Colombia, Bogotá"
"JOYERÍA Y PLATERÍA BUCKINGHAM LTDA.";;;"(57) (1) 3425417";"Cr6 12-68 Colombia, Bogotá"
"JOYERÍA EL CRONÓMETRO";;;"(57) (6) 7447715";"Cr17 20-45 Colombia, Armenia"
"COBA CAICEDO ERNIZA CATALINA";;;"(57) (5) 3519677";"Cr41 40-03 L-3 Colombia, Barranquilla"
"JOYERÍA Y TALLER AZERINA";;;"(57) (4) 5719161";"Cl 46 51 A-26 L-419-B Colombia, Medellín"
"JOYERÍA OROGEMA";;;"(57) (4) 5123844";"Cl 48 53-39 L-132 Colombia, Medellín"
"STONE GROUP S.A. MARÍA CAMILA MESA ACCESORIOS";;;"(57) (4) 2665254";"OFICINAS Cr34 7-59 Colombia, Medellín"
"JEWELRY HAND MADE";;;"(57) (4) 2310155";"Cl 48 53-69 L-525 Colombia, Medellín"
"JOYERIA LA MECA";;;"(57) (4) 2313802";"Cl 46 53-46 L 152 Colombia, Medellín"
"JOYERÍA ARA";;;"(57) (4) 4064289";"Cl 15 15-29 Barbosa Colombia, Medellín"
"DIAMANTE NEGRO";;;"(57) (1) 4527573";"Cl 40 A S 75 A-56 Colombia, Bogotá"
"KORLOFF JOYERÍA";;;"Conm.: (57) (1) 6196999";"Cl 123 7-07 Of. 308 Colombia, Bogotá"
"MY PINK FASHIÓN";;;"(57) (6) 3373070";"B-1 Ap 303 Bosques de Sta Mónica Colombia, Pereira"
"JOYERÍA CARIBE EMERALD MUSEUM & FACTORY";;;"(57) (5) 6600051";"Cl San Pedro Claver 31-18 Colombia, Cartagena"
"JOYERÍA Y RELOJERÍA JUNIOR";;;"(57) (1) 2490230";"Cl 61 13-74 Colombia, Bogotá"
"JOYERÍA Y RELOJERÍA ESTRELLA";;;"(57) (4) 5119507";"Cr50 51 A-17 Colombia, Medellín"
"JOYERIA Y RELOJERIA CARAVANITA";;;"(57) (4) 5116211";"Cr 52 48-34 Colombia, Medellín"
"ALMACÉN COMPRAVENTA BAHÍA";;;"(57) (2) 3396297";"Cl 13 68-14 Colombia, Cali"
"NEGOCIEMOS JOYERÍA Y TALLER";;;"(57) (2) 8856051";"Cl 15 8-103 L-120 Colombia, Cali"
"COMPRAVENTA CHRISTAL";;;"(57) (4) 2576908";"Cr79 92-29 Robledo Miramar Colombia, Medellín"
"JOYERÍA Y RELOJERÍA CAHMIS";;;"(57) (2) 8841503";"Cl 14 4-07 Colombia, Cali"
"JOYERÍA CALIMIO";;;"(57) (2) 8812523";"Cl 14 8-64 L-38 Colombia, Cali"
"COMPRA VENTA JOTAVE";;;"(57) (2) 5574073";"Cl 15 21-30 Colombia, Cali"
"JOYAS TATIANA";;;"(57) (2) 3300223";"Cr100 5-169 Colombia, Cali"
"JOYERÍA Y COMPRAVENTA LA LUNA";;;"(57) (2) 6832172";"Cl 5 46-83 L-103 Colombia, Cali"
"TIME SQUARE";;;"(57) (2) 6592010";"C.C. Chipichape L-610 Colombia, Cali"
"EL DIJE DE ORO";;;"(57) (2) 6544117";"Cl 70 1 N-01 Colombia, Cali"
"TALLER JOYERIA EL ADORNO";;;"(57) (4) 2750855";"Cr50 51-73 Bello Colombia, Medellín"
"PLATERIA DKAMILA";;;"(57) (2) 8832047";"Cl 14 8-64 L-43 Colombia, Cali"
"First Name";"Email Address";Url;Telephone;Address
"GAIA DISEÑOS";;;"(57) (1) 2457302";"Dg40 A 18 A-09 Colombia, Bogotá"
"JOYERÍA MATIZ";;;"(57) (1) 2590979";"Dg138 18 B-12 Colombia, Bogotá"
"JOYERÍA CRISTIANA";;;"(57) (7) 6472695";"C.C. Panamá L-243 Colombia, Bucaramanga"
"JOYERÍA J. GREGORY";;;"(57) (2) 7239141";"Cl 17 24-60 L-25 Colombia, Pasto"
"JOYERIA JADEL";;;"(57) (1) 2175609";"Cl 53B 25-21 L-1-051 Colombia, Bogotá"
"LOS OROS DE VENEZIA COLOMBIA S.A.S";;;"(57) (2) 3707997";"Cr34 3 A-32 Colombia, Cali"
"JOYERÍA SUGAMUXI";;;"(57) (8) 2631500";"C.C. Los Panches L-36 Centro Colombia, Ibagué"
"IVOMMA JOYAS & ACCESORIOS";;;"(57) (7) 6418460";"Av Los Samanes 9-140 L-151 Colombia, Bucaramanga"
"TALLER DE JOYERÍA YNCA";;;"(57) (8) 2618000";"Cr3 16-51 L-1067 Colombia, Ibagué"
"JOYAS EL PENTÁGONO";;;"(57) (7) 6472029";"Cr22 53-50 Nuevo Sotomayor Colombia, Bucaramanga"
"JOLEVAS JOYEROS";;;"(57) (2) 8811542";"Cr7 12-55 L-105 Colombia, Cali"
"JOYERÍA MARINA BORJA";;;"(57) (2) 6808383";"C.C. Centenario L-115 Colombia, Cali"
"JOYERÍA LA MINITA";;;"(57) (7) 5731893";"Cl 9 5-10 Centro Colombia, Cúcuta"
"JOYERÍA ITALIA";;;"(57) (7) 5831905";"Av6 8-39 L-32 C.C. San Andresito Colombia, Cúcuta"
"JOYERÍA FERCHO JOYAS";;;"(57) (7) 5834986";"Cl 6 6-10 L-1378 C.C. Alejandría Colombia, Cúcuta"
"JOYERÍA LA MEJOR";;;"(57) (7) 5832607";"Cl 9 6-20 L-153-A Colombia, Cúcuta"
"DISTRI MAFER";;;"(57) (7) 6303266";"Cr18 33-16 L-332 Centro Colombia, Bucaramanga"
"JOYAS Y ACCESORIOS DE COLOMBIA";;;"(57) (7) 6443115";"C.C. Sanandresito La Isla P-3 L-B-28 Colombia, Bucaramanga"
"JOYAS Y DISEÑO";;;"(57) (1) 2155755";"Cr15 119-11 Colombia, Bogotá"
"DETTAGLIO & CÍA. LTDA.";;;"(57) (1) 6231212";"Cl 95 11 A-84 Of 404 Colombia, Bogotá"
"JOYERIA KATIUSKY";;;"(57) (8) 8362842";"Cr4 6-24 Centro Colombia, Pitalito"
"JOYERÍA MIRANDA";;;"(57) (7) 5832266";"Av8 9-45 Centro Colombia, Cúcuta"
"JOYERIA OLMEDO";;;"(57) (8) 8372620";"Cr7 5-52 L-8 Colombia, La Plata"
"COMPRAVENTA LA PRINCESA";;;"(57) (4) 2390474";"Cl 50 43-58 Colombia, Medellín"
"JOYERÍA Y RELOJERÍA TAYRONA";;;"(57) (7) 6472695";"Cr11 11-09 Colombia, Bucaramanga"
"JOYERÍA MUISCA";;;"(57) (1) 2843872";"Cr7 11-72 L-116 Colombia, Bogotá"
"RELOJERÍA Y JOYERÍA VÉLEZ";;;"(57) (4) 3472546";"Cl 30 A 77-82 Colombia, Medellín"
"EXPORTACIONES PALERMO ACCESORIOS";;;"(57) (4) 3140803";"Cr25 A 1 A S-45 L-3559 Colombia, Medellín"
"EFECTIVOS EXPRESS HOGAR";;;"(57) (4) 2685118";"Cl 14 S 43 A-21 Int 202 Colombia, Medellín"
"JOYERÍA ENSUEÑO";;;"(57) (4) 5718681";"Cl 53 49-109 L-122 Colombia, Medellín"
GIFTS;;;"(57) (4) 2314539";"Cr49 52-107 L-118 Colombia, Medellín"
"TECNI SERVICIOS AURUM";;;"(57) (2) 3150625";"Cr100 11-60 L-189-C Colombia, Cali"
ORIENT;;;"(57) (4) 5131125";"Cl 53 49-109 L-106 Colombia, Medellín"
"TALLER DE JOYERÍA GLORIA";;;"(57) (2) 8897341";"Cl 15 8-50 L-523 Colombia, Cali"
"EMILIO ANTONIO MANTILLA CAMARGO";;;"(57) (2) 8843654";"Cl 20 A 4-87 Colombia, Cali"
"ANDREA CRUZ JOYAS Y ACCESORIOS";;;"(57) (2) 3751675";"Cr32 A 14-24 Colombia, Cali"
"ROJO MANZANA";;;"(57) (4) 3136258";"Cr43 A 7 S-26 Int 4090 Colombia, Medellín"
"COMPRAVENTA LA CAMPIÑA # 1";;;"(57) (4) 4261629";"Cl 64 B 94 B-06 Colombia, Medellín"
"ALMACÉN NACIONAL";;;"(57) (6) 3682010";"Cl 8 A 7-99 Colombia, La Virginia"
"JOYERÍA HISPANA";;;"(57) (1) 2822889";"Cl 13 6-31 Colombia, Bogotá"
"First Name";"Email Address";Url;Telephone;Address
"JOYERÍA CAROL ANDREA";;;"(57) (1) 3600782";"Cl 9 19-17 L-84 Colombia, Bogotá"
"JOYERIA E Y S";;;"(57) (1) 2315531";"Cr25 65-87 Colombia, Bogotá"
"BARRIOS TRUJILLO EDWIN ENRIQUE";;;"(57) (1) 2826681";"Cr7 11-72 L-144-F Colombia, Bogotá"
"AKAMON S.A.";;;"(57) (1) 6355121";"Cl 93 B 11 A-84 L-201 Colombia, Bogotá"
"JOYERÍA Y RELOJERÍA ROLEX CÚCUTA LTDA.";;;"Telefax: (57) (7) 5716728";"Av4 10-53 Colombia, Cúcuta"
"JOYERÍA DHOWS CONGO";;;"(57) (7) 6572470";"Cl 52 35-08 Cabecera del Llano Colombia, Bucaramanga"
"CARHEL JOYERÍA";;;"(57) (6) 7445467";"Cr15 18-18 L-103 Colombia, Armenia"
"CPD DE JOYERÍA";;;"(57) (7) 6943972";"Cr33 A 29-80 Of 1 Colombia, Bucaramanga"
"JOYERÍA Y RELOJERÍA CENTRO ORIENT";;;"(57) (1) 2846115";"Cr6 12-31 Colombia, Bogotá"
"PERLAS CALLE";;;"(57) (1) 2846197";"Cl 12 6-45 L-103 Colombia, Bogotá"
"STERLING JOYEROS";;;"(57) (4) 2656538";"Cr66 B 34 A-76 L-0-41 Colombia, Medellín"
"COMPRA VENTA Y JOYERÍA ESMERALDA";;;"(57) (5) 7288169";"Cl 14 7-09 Mercado Viejo Colombia, Riohacha"
"JOYAS EXCLUSIVAS 3000";;;"(57) (4) 2508638";"Cr79 C 45 B-37 Int 402 Colombia, Medellín"
"DISTRIBUIDORA EL TEMPLO DEL RELOJ";;;"(57) (4) 5111331";"Cr54 46-21 L-116 Colombia, Medellín"
"GAIA JOYERÍA DE DISEÑO";;;"(57) (4) 2765303";"Medellín Colombia, Medellín"
"JOYERÍA EL KILATE";;;"(57) (4) 5129493";"Cl 46 51 A-26 Int 345 Colombia, Medellín"
"OXFORD DESIGNS";;;"(57) (5) 3561650";"Cr53 78-78 L-20 Colombia, Barranquilla"
"DORADOS Y PLATEADOS";;;"(57) (1) 6359445";"Cr38 97-76 L-204 Colombia, Bogotá"
"JOYAS BRALOP";;;"(57) (1) 3410630";"Cl 13 6-53 Of 203 Colombia, Bogotá"
"TALLER Y JOYERÍA WR";;;"(57) (4) 2512140";"Cl 46 51 A-26 Int 313 Colombia, Medellín"
"G.A.G GEMS ESMERALD LTDA. CI.";;;"(57) (1) 3376250";"Av Jmz 5-43 L-333 Colombia, Bogotá"
"JOYERÍA CAREZZA";;;"(57) (1) 2848316";"Cr7 11-72 L-126 Colombia, Bogotá"
"IMPLE JOYEROS";;;"(57) (1) 2845811";"Cl 12 6-45 L-101 Colombia, Bogotá"
"JOYERÍA Y RELOJERÍA HILTON";;;"(57) (1) 3347952";"Cl 15 9-18 Colombia, Bogotá"
"KRONO TIME S.A.S";;;"(57) (1) 3764035";"Cl 82 11 93 l-119 Colombia, Bogotá"
"TALLER DE JOYERÍA GUERRERO";;;"(57) (5) 6618692";"Ternera Urb Villa del Sol Manz M Lt 5 Colombia, Cartagena"
ROSENTHAL;;;"(57) (1) 2820876";"Cr6 11-77 Colombia, Bogotá"
"PLATERÍA & RELOJERÍA""TIENDA CASIO""";;;"(57) (6) 7446455";"Cr15 N 17-38 Colombia, Armenia"
"BIG TIME";;;"(57) (5) 3582445";"Cr54 68-196 Of 607 Colombia, Barranquilla"
"AMARONE S.A.S.";;;"(57) (4) 3175432";"Cl 1 17-251 Colombia, Medellín"
"PLATERIA MURANO";;;"(57) (4) 5127675";"Cl 46 51A-26 L-461 Colombia, Medellín"
"PÍA E HIJOS Y CÍA.GIOVANNI";;;"(57) (4) 2620707";"Cl 31 43 A-172 Colombia, Medellín"
"JEWELRY HAND MADE";;;"(57) (4) 2310155";"Cl 48 53-69 L-525 Colombia, Medellín"
"LDANA JOYEROS";;;"(57) (1) 3427257";"Cr10 26-17 L-108-A Colombia, Bogotá"
"HORA Y PUNTO JOYERÍA";;;"(57) (4) 8332689";"Cr3 8-10 Colombia, Puerto Berrío"
"JOYERÍA ARTE Y DIAMANTE";;;"(57) (1) 8707299";"Cl 13 10-62 Chía Colombia, Chía"
"CASA BULHOM'S";;;"(57) (4) 8288545";"Centro Comercial El Cóndor L-114 Colombia, Apartadó"
"ESTUCHES INEBER";;;"(57) (1) 2647963";"Cl 35 B S 73 B-45 Colombia, Bogotá"
"JOYERÍA TRIÁNGULO DE ORO";;;"(57) (5) 3407318";"Cr43 36-15 L-47-A Colombia, Barranquilla"
"DON KILATE";;;"(57) (1) 2785647";"Cl 17 S 18-15 Ap 4 Colombia, Bogotá"
"First Name";"Email Address";Url;Telephone;Address
"DAVILA®S JOYERÍA Y RLOJERÍA";;;"(57) (5) 7276802";"Cl 7 6-40 centro Colombia, Riohacha"
"PÍA E HIJOS Y CÍA.GIOVANNI";;;"(57) (4) 2620707";"Cl 31 43 A-172 Colombia, Medellín"
ENIGMA;;;"(57) (4) 2657850";"Cr70 31-25 Colombia, Medellín"
"HORA Y PUNTO JOYERÍA";;;"(57) (4) 8332689";"Cr3 8-10 Colombia, Puerto Berrío"
"TALLER DE JOYER";;;"(57) (1) 6067213";"Cl 63 10-61 L-2030 Colombia, Bogotá"
"ARABESKE RELOJERÍA";;;"(57) (2) 8830763";"Cr5 15-02 L-76 Colombia, Cali"
"JOYERÍA Y COMPRAVENTA CITY GOLD CALI";;;"(57) (2) 3797898";"Cl 16 24-57 Colombia, Cali"
"COMPRAVENTA CHRISTAL";;;"(57) (4) 2576908";"Cr79 92-29 Robledo Miramar Colombia, Medellín"
"COMPRA VENTA BRASILIA";;;"(57) (2) 4463110";"Cr5 N 45 A N-28 Colombia, Cali"
"HAZLO TÚ";;;"(57) (5) 3691088";"Cl 77 67-37 L-11 Colombia, Barranquilla"
"JOYERÍA Y RELOJERÍA EL GRAN BRILLANTE";;;"(57) (6) 3244298";"Cr7 17-46 L-10-C-C Pasaje Comercial La-7-A Colombia, Pereira"
"JOYAS & STILOS";;;"(57) (7) 6849768";"Cl 31 26 A-19 L-110 Colombia, Bucaramanga"
"ALQUIMIA JOYERÍA";;;"(57) (7) 6446930";"Cl 64 17 C-06 La Ceiba Colombia, Bucaramanga"
"JOYERÍA GOMAFLO";;;"(57) (7) 6306692";"Cr18 34-08 Colombia, Bucaramanga"
"RELOJERIA REXOR";;;"(57) (7) 6427574";"Cl 33 17-72 L-7 Colombia, Bucaramanga"
"JOYERÍA MANHATAN";;;"(57) (7) 5715103";"Av6 8-39 L-31 C.C. San Andresito Palmeras Colombia, Cúcuta"
"LA TIENDA DE LA PLATERÍA";;;"(57) (4) 5121035";"Cl 46 53-46 L-146 Colombia, Medellín"
"JOYERÍA Y RELOJERÍA PANAMÁ";;;"Nal: (57) (5) 4363595";"C.C. Ocean Mall L-239 Colombia, Santa Marta"
"FILIGRANA DE MOMPOX";;;"(57) (1) 2179961";"cl 53B 25-21 L-2-160 Colombia, Bogotá"
"GOLD & GEM'S";;;"(57) (1) 4395015";"Cr106 15-25 Colombia, Bogotá"
"CLOE JOYAS & ACCESORIOS";;;"(57) (7) 5756094";"Cl 10 Av Santander L-342 Colombia, Cúcuta"
"JC VILLAMIL JOYEROS";;;"(57) (4) 2332069";"Cr45 70-29 P-3 Colombia, Medellín"
"TECNO HERRAJES";;;"(57) (2) 4422635";"Cr6 32-12 Colombia, Cali"
"JOYERÍA DLIS";;;"(57) (8) 8717409";"Cr5 6-44 Trr A L-119 Colombia, Neiva"
"ARLOP JOYERÍA";;;"(57) (1) 6181785";"Cr15 88-22 Colombia, Bogotá"
"JOYERÍAS WILLY JHONS ACCESORIOS";;;"(57) (5) 6748701";"Av Pedro Heredia Pasaje El Colmenar L-18 A-19 A-20 A Colombia, Cartagena"
"JOYERIA SENDA";;;"(57) (1) 3760826";"Cl 82 11 93 l-232 p-3 Colombia, Bogotá"
"TALLER DE JOYERÍA GUILLERMO CRUZ";;;"(57) (1) 2678084";"Cl 21 106 - 41 Colombia, Bogotá"
"ALMACEN HOZPER";;;"(57) (4) 2316809";"Cl 46 51A-26 Of.441 Colombia, Medellín"
"ESMERALD PLAZA";;;"Domic.: (57) (5) 6551591";"C.C. Pierino Gallo Colombia, Cartagena"
"COMPRA VENTA BOLÍVAR";;;"(57) (4) 5118026";"Cr51 44-105 Colombia, Medellín"
"KRONO TIME S.A.S";;;"(57) (1) 3764035";"Cl 82 11 93 l-119 Colombia, Bogotá"
"TOMMY NO. 2";;;"(57) (5) 3446671";"Cr43 Cl 9 y 10 L-284-285 Colombia, Barranquilla"
"JOYAS E INVERSIONES NAZLY";;;"(57) (8) 5927516";"Cl 8 11-51 Colombia, Leticia"
"JOYAS MENCHA";;;"(57) (8) 5924692";"Cl 8 11-35 Puerto Civil Colombia, Leticia"
"PLATERÍA 0.900 LTDA.";;;"(57) (2) 6599050";"Av9 N 14-77 Colombia, Cali"
"COMPRA VENTA BRIONY";;;"(57) (2) 4412904";"Cr15 33 H-05 Colombia, Cali"
"TALLER DE JOYERÍA Y RELOJERÍA ALFREDO";;;"(57) (2) 8801707";"Cl 15 3-30 Colombia, Cali"
"RINCÓN MANUEL";;;"(57) (8) 8711682";"Cr6 8-22 Colombia, Neiva"
"SUPERPLATERIA EL MONO";;;"(57) (7) 6446818";"C.C. Sanandresito La Isla Local:D-12 P-3 Colombia, Bucaramanga"
"First Name";"Email Address";Url;Telephone;Address
"JOYERÍA Y RELOJERÍA ARNEVA";;;"(57) (1) 2130196";"Cr15 124-30 L-2-73 Colombia, Bogotá"
"JOYERÍA JUDITH";;;"(57) (1) 2848451";"Cr7 11-72 L-147 Colombia, Bogotá"
"LÓPEZ JOYERO";;;"(57) (2) 8318700";"C.C. Anarkos Plaza P-2 L-24 Colombia, Popayán"
"EL DORADO JOYAS";;;"(57) (1) 4129291";"Cl 8 C 78C-05 Colombia, Bogotá"
"FOTO ALMACÉN ROLLEI";;;"(57) (2) 7732169";"Cr6 12-133 Colombia, Ipiales"
"COMPRAVENTA Y JOYERIA HUILA";;;"(57) (8) 8710650";"Cl 10 3 87/85 Colombia, Neiva"
"TALLER RENZO ""ARTE Y JOYERIA""";;;"(57) (1) 2860287";"Av (Cl) 13 14-17 Of 201 Colombia, Bogotá"
"JOYERÍA Y RELOJERÍA GEMANIA";;;"(57) (1) 4152586";"Cl 18 100-17 Colombia, Bogotá"
"CLOE JOYAS & ACCESORIOS";;;"(57) (7) 5756094";"Cl 10 Av Santander L-342 Colombia, Cúcuta"
"RELOJERÍA Y JOYERÍA VÉLEZ";;;"(57) (4) 3472546";"Cl 30 A 77-82 Colombia, Medellín"
"ALADINO JOYERIA";;;"(57) (4) 5141897";"Cl 51 49-76 L-101 Colombia, Medellín"
"TRENDY TIENDA JOYERA";;;"(57) (7) 6573914";"Cr34 48-37 Colombia, Bucaramanga"
"PLATERÍA H2O";;;"(57) (4) 5112641";"Cl 46 53-80 L-111 Colombia, Medellín"
"JOYERIA CASIO LA GUACA";;;"(57) (4) 5127875";"cl 46 51 A-26 P-3 L-337B Colombia, Medellín"
"B.R. JOYAS ONIX";;;"(57) (4) 5122826";"Cr 49 48 - 59 Of 404 Colombia, Medellín"
"ACUÑA BONILLA ARMANDO";;;"(57) (4) 2512578";"Cl 52 47-28 Of 913 Colombia, Medellín"
"JOYERÍA DLIS";;;"(57) (8) 8717409";"Cr5 6-44 Trr A L-119 Colombia, Neiva"
"JOYERIA Y RELOJERIA EL DIAMANTE";;;"(57) (8) 8715686";"Cr5 8-06 Colombia, Neiva"
"PLATERÍA VALTÓN";;;"(57) (2) 8856163";"Cl 14 5-18 Colombia, Cali"
"COMPRA VENTA LA PRADERA";;;"(57) (5) 6765506";"Nuevo Bosque Dg30 47-80 Colombia, Cartagena"
"JOYERÍA Y RELOJERÍA EL ZAFIRO";;;"(57) (1) 2397301";"Cl 17 S 17-32 Colombia, Bogotá"
"CENTRO JOYAS";;;"(57) (7) 6522814";"Cl 37 14-74 P-3 L-116 Colombia, Bucaramanga"
"EL RINCÓN DE LA PLATA";;;"(57) (4) 5318651";"Cr49 48-17 L-205 Rionegro Colombia, Medellín"
"METALES DEL CARIBE S.A.S.";;;"(57) (5) 6644488";"La Matuna Cl 32 9-27 L-3 Edif Cines Capitol Colombia, Cartagena"
"JOYERIA ORIENT";;;"(57) (4) 3130535";"Cr43 A 7-S 26 L 9150 Colombia, Medellín"
"RODRÚGUEZ COY HENRY";;;"(57) (5) 6647338";"Cl Ayos L-107 Colombia, Cartagena"
"JOYERÍA CAROL ANDREA";;;"(57) (1) 3600782";"Cl 9 19-17 L-84 Colombia, Bogotá"
"JOYERÍA WAO VALERIE DOMÍNGUEZ";;;"(57) (1) 5300683";"Cl 84 13-17 Colombia, Bogotá"
"LA JOYERÍA";;;"(57) (1) 2985088";"Cr100 32-45 L-6 Colombia, Bogotá"
"JOYERIA ORTÍZ";;;"(57) (1) 3417125";"Cr6 12-06 Colombia, Bogotá"
"JOYERÍA DHOWS CONGO";;;"(57) (7) 6572470";"Cl 52 35-08 Cabecera del Llano Colombia, Bucaramanga"
"ALIANZA JOYERÍA";;;"(57) (1) 2842805";"Cl 12 5-91 Colombia, Bogotá"
"COMPRA VENTA EL IMÁN";;;"(57) (6) 7412631";"Cr18 21-25 L-103 Colombia, Armenia"
"LUXOR JOYERÍA";;;"(57) (6) 8894114";"C.Comercial Fundadores L 226 Colombia, Manizales"
PIEDRALUNA;;;"(57) (2) 3316172";"Cr81 13 A-125 Casa 11 Colombia, Cali"
"JOYERÍA GIRALDO";;;"(57) (4) 7823498";"Cr2 34-61 L-109 C.C. Las Tiendas Centro Colombia, Montería"
"TALLER DE JOYERÍA Y RELOJERÍA JOEL VÁSQUEZ";;;"(57) (1) 2118535";"Cr13 61-47 L-114 Colombia, Bogotá"
"JOYERÍA LA ESMERALDA TALLER Y JOYERÍA";;;"(57) (5) 7283391";"Cr6 5-12 Colombia, Riohacha"
"COMPRAVENTA GARDELIANA";;;"(57) (4) 2511434";"Cl 49 45-28 Colombia, Medellín"
"JOYERÍA MODERNA";;;"(57) (4) 4065492";"Cl 15 17-32 Barbosa Colombia, Medellín"
"First Name";"Email Address";Url;Telephone;Address
"ARTE Y JOYAS";;;"(57) (4) 2722569";"Cl 50 48-56 Colombia, Medellín"
"TALLER DE JOYERÍA ORFEBRE'S";;;"(57) (6) 7414158";"Cr16 17-37 L-204 Colombia, Armenia"
"JOYERIA Y RELOJERIA LA PERLA";;;"(57) (8) 2634002";"Cr3 13-56 Colombia, Ibagué"
"ARCHI JOYERIA";;;"(57) (7) 6427352";"Cr17 31-54 Colombia, Bucaramanga"
"JOYERIA ISMORTZ";;;"(57) (7) 6570302";"Cl 52 37-21 Colombia, Bucaramanga"
"JOYAS LUZ ALEJANDRA'S";;;"(57) (2) 2710292";"Cl 30 25-57 Colombia, Palmira"
"JOYERÍA SUN WATCH STORE";;;"(57) (4) 7853362";"Cl 44 10-91 L-141 Colombia, Montería"
MISSURIS;;;"(57) (1) 2864147";"Cl 13 12-74 L-189 Colombia, Bogotá"
"JOYERÍA EL CRISOL";;;"(57) (7) 6223150";"Cl 8 2-13 Comercio Colombia, Barrancabermeja"
"V. ALEJANDRA JOYERIA";;;"(57) (1) 6256208";"Cl 39 45-63 Colombia, Bogotá"
"JOYERÍA Y RELOJERÍA ARFIL DE ORO";;;"(57) (7) 6428556";"Cl 33 17-10 Colombia, Bucaramanga"
"TALLER DE JOYERÍA ORIFICE";;;"(57) (2) 2732165";"Cl 31 39-42 Colombia, Palmira"
"JOYERÍA SAFIRO";;;"(57) (6) 8808325";"Cl 18 19-24 Colombia, Manizales"
"HOFFMANN PINILLA MAURICIO";;;"(57) (1) 6244466";"Tr54 125 A-48 L-31 Colombia, Bogotá"
"RELOJERÍA Y JOYERÍA VÉLEZ";;;"(57) (4) 3472546";"Cl 30 A 77-82 Colombia, Medellín"
"JOYERÍA Y COMPRA-VENTA VAN-GOGH";;;"(57) (4) 3311429";"Cl 37 S 41-07 Envigado Colombia, Envigado"
"ALMACEN Y JOYERIA MENDOZA";;;"(57) (4) 8417117";"Cl 50 51-18 Colombia, Andes"
"VARIEDADES MONTEALEGRE PLATERÍA";;;"(57) (8) 2634544";"Cl 13 3-23 Centro Colombia, Ibagué"
"LA TIENDA DE LA PLATERÍA";;;"(57) (4) 5121035";"Cl 46 53-46 L-146 Colombia, Medellín"
"DAEMA LA MANSIÓN DEL GOLFI Y LA PLATA";;;"(57) (2) 5165974";"Cl 9 9-11 Colombia, Cali"
"COMPRA VENTA CUARZO";;;"(57) (2) 5588875";"Cl 9 26-76 Colombia, Cali"
"JOYERÍAS WILLY JHONS ACCESORIOS";;;"(57) (5) 6748701";"Av Pedro Heredia Pasaje El Colmenar L-18 A-19 A-20 A Colombia, Cartagena"
"JOYERIA E Y S";;;"(57) (1) 2315531";"Cr25 65-87 Colombia, Bogotá"
"JEWELRY HAND MADE";;;"(57) (4) 2310155";"Cl 48 53-69 L-525 Colombia, Medellín"
"CASA SANKEY";;;"(57) (7) 6445898";"Dg15 Cl 56 C.C. Sanandresito P-3 L-615 Colombia, Bucaramanga"
IPANEMA;;;"(57) (2) 8880168";"Cl 15 5-56 Of 22 Colombia, Cali"
"DANIEL F. JOYERÍA";;;"(57) (7) 6338106";"Cl 37 14-74 P-3 L-C-24 Colombia, Bucaramanga"
"FASHION PIERCING";;;"(57) (7) 6473993";"Cl 49 34-21 L-104 Colombia, Bucaramanga"
"JOYERÍA EDUARDO GÓMEZ & CÍA S.C.A.";;;"(57) (2) 6592241";"C.C. Chipichape L-615 Colombia, Cali"
"ARTE JOYAS DEL HUILA";;;"(57) (8) 8623170";"Cl 39 1 W-63 Colombia, Neiva"
"JOYERÍA Y PLATERÍA ITALIANA";;;"(57) (4) 7820862";"Cr2 34-31 L-1 Colombia, Montería"
"JOYERÍA Y COMPRA VENTA ROLEX";;;"(57) (4) 7820525";"Cl 33 3-20 Colombia, Montería"
"JOYERÍA NIÑO";;;"(57) (2) 8853739";"Cr9 15-33 Of 906-A Colombia, Cali"
"JOYERÍA MARINA BORJA";;;"(57) (2) 6808383";"C.C. Centenario L-115 Colombia, Cali"
"YENY JOYAS";;;"(57) (4) 5136949";"Cr54 46-08 Int 121 Colombia, Medellín"
"JOYERIA Y RELOJERIA EL DIAMANTE";;;"(57) (8) 8715686";"Cr5 8-06 Colombia, Neiva"
"JOYERÍA HISPANA";;;"(57) (1) 2822889";"Cl 13 6-31 Colombia, Bogotá"
"TALLER DE JOYERIA CESAR CAMACHO";;;"(57) (4) 2312011";"Cl 48 49-42 Ofc. 714 Colombia, Medellín"
"JOYERÍA LETIME";;;"(57) (1) 6859689";"Av Cl 145 91-19 L-7-103 Colombia, Bogotá"
"BAUER & CO. S.A.";;;"(57) (1) 6360012";"Cr15 93-60 L-215 Colombia, Bogotá"
"First Name";"Email Address";Url;Telephone;Address
"JOYERÍA Y RELOJERÍA CHOPARD";;;"(57) (4) 2882958";"Cr43 C 67 S-25 Sabaneta Colombia, Sabaneta"
"JOYERIA COVELLI";;;"(57) (7) 6337948";"Cr18 34-43 Of 204 Colombia, Bucaramanga"
"EL RINCÓN DE LA PLATA";;;"(57) (4) 5318651";"Cr49 48-17 L-205 Rionegro Colombia, Medellín"
"LA MEDALLITA";;;"(57) (4) 5118440";"Cl 48 49-72 Colombia, Medellín"
"EL MUNDO DE LAS JOYAS";;;"(57) (1) 2778212";"Cl 9 Bis 19 A-47 L-76 Colombia, Bogotá"
"JOYERÍA PURE GOLD";;;"(57) (1) 2364111";"Cl 86 A 13 A 21 L-108 Colombia, Bogotá"
"TECNOLOGÍA E INSUMOS CÍA. LTDA.";;;"(57) (1) 3423691";"Cl 12 6-19 Colombia, Bogotá"
"VARIEDADES MIGEL";;;"(57) (2) 8812572";"Cr7 12-55 L-103 Colombia, Cali"
"JOYERÍA SAN ANDRÉS";;;"(57) (8) 6623600";"C.C. Centauros L-70 Colombia, Villavicencio"
"JOYERÍA KEVIN'S";;;"(57) (8) 6625396";"C.C. Centauros L-88 Colombia, Villavicencio"
"JOYERIA SHANTAL";;;"(57) (1) 2844643";"Cr7 11-72 L-219 Colombia, Bogotá"
"TALLER DE JOYERÍA LAS TRES G";;;"(57) (4) 2932226";"Cl 48 49-42 Int 319 Colombia, Medellín"
"JOYERÍA Y RELOJERÍA JOSTEEN";;;"(57) (4) 2741180";"Cr48 50-37 Copacabana Colombia, Medellín"
"SKILLUS JOYERÍA";;;"(57) (2) 6544374";"Av3 BBis 60 N-33 Colombia, Cali"
"TALLER DE JOYERÍA COLJOYAS";;;"(57) (4) 5115880";"Cl 48 49-42 Of 512 Colombia, Medellín"
"GOLDEN SILVER";;;"(57) (6) 3261470";"C.C. Sanandresito L-145 al 147 y L-N-20 Colombia, Pereira"
"ORO Y DISEÑO JOYERÍA Y RELOJERÍA";;;"(57) (1) 6248961";"Cr58 137 B-11  L-104 Colombia, Bogotá"
"COMPRA-VENTA Y JOYERÍA FÉNIX";;;"(57) (4) 7910759";"Cr2 35-52 Centro Colombia, Montería"
"L Y L METAL";;;"(57) (4) 5119931";"Cl 46 51 A-26 L-423 Colombia, Medellín"
"G.A.G GEMS ESMERALD LTDA. CI.";;;"(57) (1) 3376250";"Av Jmz 5-43 L-333 Colombia, Bogotá"
"C.I. TRIÁNGULO DE ORO JOYEROS S.A.";;;"(57) (1) 2141133";"Cr7 115-60 L-B-121 Colombia, Bogotá"
"JOYERÍA VELILLA";;;"(57) (5) 3791436";"Cl 36 41-90 L-2-A Colombia, Barranquilla"
"JOYERÍA SURIJOYAS";;;"(57) (5) 3407740";"Cr40 Cl 39 Esq Colombia, Barranquilla"
"OVEN JOYEROS";;;"(57) (1) 6710707";"Cr35 163-38 Colombia, Bogotá"
"JOYERÍA COLONIAL";;;"(57) (4) 8533011";"Cl 10 10-15 Colombia, Santa Fe de Antioquia"
"JOYERÍA LEYDI";;;"(57) (4) 8532550";"Cl 10 8-58 Colombia, Santa Fe de Antioquia"
"JOYERÍA Y RELOJERÍA SANFEL";;;"(57) (4) 8472396";"Rsan Fernando 49-53 Colombia, Amagá"
"JOYERÍA ARTE Y DIAMANTE";;;"(57) (1) 8707299";"Cl 13 10-62 Chía Colombia, Chía"
"ESTUCHES INEBER";;;"(57) (1) 2647963";"Cl 35 B S 73 B-45 Colombia, Bogotá"
"DON KILATE";;;"(57) (1) 2785647";"Cl 17 S 18-15 Ap 4 Colombia, Bogotá"
"JOYERÍA NICE COLOMBIA";;;"(57) (1) 6101080";"Av15 104-30 L-101 Colombia, Bogotá"
"INVERSIONES LIVAM LTDA.";;;"(57) (1) 2432557";"Cr6 12-88 P-8 Colombia, Bogotá"
"ARTE & FUEGO";;;"(57) (1) 2844295";"Cr7 11-72 L-309 Colombia, Bogotá"
"MY PINK FASHIÓN";;;"(57) (6) 3373070";"B-1 Ap 303 Bosques de Sta Mónica Colombia, Pereira"
"JOYERÍA Y RELOJERÍA UNIVERSAL";;;"(57) (1) 2826250";"Cl 13 5-95 Colombia, Bogotá"
"JOYERIA Y RELOJERIA MORA'S";;;"(57) (5) 6642764";"Centro Calle Román 5-43 Colombia, Cartagena"
"JOYERÍA EL DESCUENTO";;;"(57) (4) 2780220";"Cr52 130 S-44 Caldas Colombia, Medellín"
"JOYERIA UNO-A";;;"(57) (4) 5114986";"Cl 48 49042 Of-716 Colombia, Medellín"
"VARIEDADES TULIA";;;"(57) (2) 8855568";"Cl 14 8-64 L-1 Colombia, Cali"
"PAULANDREA JOYERIA";;;"(57) (4) 5857179";"Cl 49 F 87-125 Colombia, Medellín"
"First Name";"Email Address";Url;Telephone;Address
"J.E.D. JOYEROS";;;"(57) (8) 8712480";"C.C Metropolitanos Trr A L-209 Colombia, Neiva"
"EL TIEMPO ES ORO";;;"(57) (1) 2860373";"Cl 13 12-74 L-1-112 Colombia, Bogotá"
"JOYERÍA Y RELOJERÍA CAPRICE";;;"(57) (1) 2849859";"Cl 13 6-65 Colombia, Bogotá"
"JOYERÍA Y RELOJERÍA TAYRONA";;;"(57) (7) 6472695";"Cr11 11-09 Colombia, Bucaramanga"
"ARTE Y JOYAS";;;"(57) (4) 2722569";"Cl 50 48-56 Colombia, Medellín"
"PLATERÍA LA PRIMAVERA";;;"(57) (4) 5116903";"Cr52 45-19 Colombia, Medellín"
"ALMACÉN LA FORTUNA YUMBO";;;"(57) (2) 6692103";"Cr3 8-89 Yumbo Colombia, Yumbo"
"ARTE JOYAS DEL HUILA";;;"(57) (8) 8623170";"Cl 39 1 W-63 Colombia, Neiva"
"PERFUMERÍA CARTIER";;;"(57) (1) 3703367";"Cl 10 20-35 L-61 Colombia, Bogotá"
"JOYERÍA WILLY JOHN'S";;;"(57) (4) 2316337";"Cl 48 53-63 L-105 Colombia, Medellín"
"COMPRA VENTA LA PLAYA";;;"(57) (4) 2932040";"Cr45 49-44 Colombia, Medellín"
"RODRÚGUEZ COY HENRY";;;"(57) (5) 6647338";"Cl Ayos L-107 Colombia, Cartagena"
"JOYERIA GRIEGOS";;;"(57) (1) 2817247";"Cr6 12-97 Colombia, Bogotá"
"ALIANZA JOYERÍA";;;"(57) (1) 2842805";"Cl 12 5-91 Colombia, Bogotá"
"LUXURY TIME";;;"(57) (6) 7378616";"Cl 16 N 14-08 Colombia, Armenia"
"BIBI MARINI";;;"(57) (1) 3764064";"Cl 82 11 93 L-139 Colombia, Bogotá"
"ALMACÉN SAFIRO";;;"(57) (4) 2310889";"Cl 46 51 A- 26 Ap 346-A2 Colombia, Medellín"
PANDORA;;;"(57) (1) 6166571";"Cr11 82-01 Colombia, Bogotá"
"JOYERÍA VÁSQUEZ";;;"(57) (4) 5118261";"Cl 48 49-42 P-2 Of 216 Colombia, Medellín"
"JOYERIA ZAFARELLY";;;"(57) (4) 5719380";"Cr 52 48-45 L-147 Colombia, Medellín"
"SOUTH AMERICAN WATCH COMPANY LTDA.";;;"(57) (1) 6570044";"Cr 7 No 121-20 Of 201 Colombia, Bogotá"
"COMPRA VENTA EL TRÉBOL";;;"(57) (2) 6628164";"Cr8 72 B-72 Colombia, Cali"
"JOYERÍA Y RELOJERÍA SANFEL";;;"(57) (4) 8472396";"Rsan Fernando 49-53 Colombia, Amagá"
"CAROLINA SALAZAR ACCESORIOS";;;"(57) (1) 6370482";"Cl 126 11 B-31 Ap 1004 Colombia, Bogotá"
"MANOSALVA JOYERÍA";;;"(57) (1) 3416462";"Cr6 12-03 Colombia, Bogotá"
"ADRIANA ROA";;;"(57) (1) 3764033";"Cl 82 11 93 L-148 Colombia, Bogotá"
"JOYERÍA Y RELOJERÍA EL DIAMANTE";;;"(57) (8) 5927646";"Cl 8 10-69 Colombia, Leticia"
"ARABESKE RELOJERÍA";;;"(57) (2) 8830763";"Cr5 15-02 L-76 Colombia, Cali"
"JOYAS Y MÁS JOYAS";;;"(57) (2) 4477476";"Cr2 64 A-01 Colombia, Cali"
"JOYEÍA EL ZAFIRO AZUL";;;"(57) (4) 3734311";"Cr50 51-49 L-144 Itagüí Colombia, Itagüí"
"BOUTIQUE LE®SENTIER";;;"(57) (4) 3211060";"Cr25 A 1 A-S-45 L-3035 Colombia, Medellín"
"BOUTIQUE TAG HEVER";;;"(57) (4) 3211060";"Cr25 A 1 A-S-45 L-1461 Colombia, Medellín"
"JOYERÍA NEW CHATEL";;;"(57) (4) 3211060";"Cr43 A 6 SUR-15 L-3129 Colombia, Medellín"
"TALLER DE JOYERÍA Y RELOJERÍA ""CHIQUIS""";;;"(57) (2) 8880759";"Cr9 13 A-24 L-208 Colombia, Cali"
"PLATERÍA Y RELOJERÍA DIAMOND";;;"(57) (2) 2735042";"Cr22 38-41 Colombia, Palmira"
"JOYERÍA RAMÍREZ";;;"(57) (2) 2120790";"Cr5 10-71 L-1 Colombia, Cartago"
"CALVO ARIEL";;;"(57) (2) 2270420";"Cl 7 13-80 Colombia, Buga"
"COMPRAVENTA Y JOYERÍA CENTRO DEL ORO";;;"(57) (5) 6687367";"Cl Vicente García 6-07 Colombia, Cartagena"
"SOLO ESTUCHES PARA JOYERÍA";;;"(57) (2) 8803889";"Cl 15 9-10 Of 501 Colombia, Cali"
"HAZLO TÚ";;;"(57) (5) 3691088";"Cl 77 67-37 L-11 Colombia, Barranquilla"
"First Name";"Email Address";Url;Telephone;Address
"JOYERIA L'OR";;;"(57) (1) 2366584";"Cl 127 15-03 L-207 Colombia, Bogotá"
"TALENTOS JOYEROS";;;"(57) (1) 3419459";"Cl 12 5-83 L-110 Colombia, Bogotá"
"ALMACÉN CASA SILVANA";;;"(57) (8) 5122182";"Av Costa Rica con Colón Esq Colombia, San Andrés"
"MOISÉS BESALEL & CÍA.";;;"(57) (8) 5122182";"Av Costa Rica con Colón Esq Colombia, San Andrés"
"JOYERÍA Y RELOJERÍA LUIGI";;;"(57) (1) 2482721";"Cl 61 13-39 Colombia, Bogotá"
"JUAN KYBURZ Y CIA. LTDA.";;;"(57) (2) 6670937";"Cl 28 N 4-94 Colombia, Cali"
"MÁS REBLUJOS";;;"(57) (2) 5510283";"C.C. Cosmocentro L-219 Colombia, Cali"
"COMPRA VENTA JOTAVE";;;"(57) (2) 5574073";"Cl 15 21-30 Colombia, Cali"
"ANTONIO JOYEROS";;;"(57) (2) 6651736";"La 14 de Calima L-1-131 Colombia, Cali"
"TALLER JOYERIA EL ADORNO";;;"(57) (4) 2750855";"Cr50 51-73 Bello Colombia, Medellín"
"JOYERÍA NIÑO";;;"(57) (2) 8853739";"Cr9 15-33 Of 906-A Colombia, Cali"
"JOYERÍA TAIRONA";;;"(57) (4) 5130121";"Cl 48 53-39 L-130 Colombia, Medellín"
"DANIEL F. JOYERÍA";;;"(57) (7) 6338106";"Cl 37 14-74 P-3 L-C-24 Colombia, Bucaramanga"
"PLATERÍA EL DORADO GIFTS";;;"(57) (5) 4233252";"Cl 23 6-18 Isla 5 Colombia, Santa Marta"
"JOYERÍA HELIO TORRES P.";;;"(57) (7) 6303431";"Cr19 34-58 Colombia, Bucaramanga"
"CASA CITIZEN";;;"(57) (7) 6428582";"Cr18 34-43 L-101 Colombia, Bucaramanga"
"JOYERIA Y RELOJERIA KINGS";;;"(57) (1) 3415937";"Cr6 12-77 Colombia, Bogotá"
"TIME ZONE";;;"(57) (7) 5756173";"Cl 10 Av Santander L-334 Colombia, Cúcuta"
"SILVER PLANET";;;"Conm.: (57) (4) 5120222";"Cl 48 53-62 Colombia, Medellín"
"TURMALINA & DURANGO MEDELLÍN S.A.S.";;;"(57) (4) 2667570";"Cr32 2 S-47 Int 125 Colombia, Medellín"
"FENN JOYERIA Y ACCESORIOS S.A.S";;;"(57) (4) 3113005";"Cr37 8 A -19 Colombia, Medellín"
"ALMACEN VIVISAN";;;"(57) (4) 5111946";"Cl 46 51 A-26 L-346-B Colombia, Medellín"
"AROS DE ORO JOYERIA";;;"(57) (4) 2777396";"cl 52 49-25 Colombia, Medellín"
"JOYAS MERCI";;;"(57) (4) 2517576";"Cl 52 47-28 Of 408 Colombia, Medellín"
"LINA ALVAREZ TALLER DE DISEÑO";;;"(57) (4) 3524767";"Cl 1 A S 43 A-206 Ap 301 Colombia, Medellín"
"COMPRA VENTA LOS ALPES";;;"(57) (4) 2563219";"Cl 29 B 84-15 Colombia, Medellín"
"METALES DE LA 6A.";;;"(57) (1) 2815863";"Cr7 11-72 Of 144-H Colombia, Bogotá"
"AMARONE S.A.S.";;;"(57) (4) 3175432";"Cl 1 17-251 Colombia, Medellín"
"KAIA COLLECTION LTDA.";;;"(57) (1) 2582269";"Cl 127 B 37-17 Colombia, Bogotá"
SISMIKA;;;"(57) (1) 3764184";"Cl 82 11-93 L-119 Colombia, Bogotá"
"ESCUELA DE JOYERÍA ROTHMANN";;;"(57) (1) 6176037";"Cl 128 B Bis 54 C-73 Colombia, Bogotá"
"KEVIN'S JOYEROS";;;"Nal: (57) (1) 6030070";"Cr68 90-88 P-2 Colombia, Bogotá"
"JOYERÍA-PLATERÍA Y RELOJERÍA J.R.";;;"(57) (1) 2762219";"Av Cl 72 70-35 Colombia, Bogotá"
"JOYERÍA LA CONFIANZA";;;"(57) (4) 2750051";"Av50 A 52-28 Bello Colombia, Medellín"
"COMPRA VENTA LA CALEÑA LTDA.";;;"(57) (2) 8854644";"Cl 10 9-92 Colombia, Cali"
"JOYERÍA Y RELOJERÍA PRIMA LUZ";;;"(57) (2) 8843446";"Cl 14 7-75 L-8-A Colombia, Cali"
"SUPERPLATERIA EL MONO";;;"(57) (7) 6446818";"C.C. Sanandresito La Isla Local:D-12 P-3 Colombia, Bucaramanga"
"ZITRICA COSMETICOS";;;"(57) (7) 5723951";"Cl 13 5-80 Centro Colombia, Cúcuta"
"JOYERÍA Y PLATERÍA MARIANA";;;"(57) (1) 2590297";"Cl 140 20-50 L-37 Colombia, Bogotá"
"JOLEVAS JOYEROS";;;"(57) (2) 8811542";"Cr7 12-55 L-105 Colombia, Cali"
"First Name";"Email Address";Url;Telephone;Address
"JOYERÍA BAKKAR";;;"(57) (2) 2710161";"Cr26 30-25 Colombia, Palmira"
"JOYERÍA DANY";;;"(57) (2) 4441568";"Cr17 H 27-25 Colombia, Cali"
"TITANIA DISEÑO DE JOYERÍA";;;"(57) (4) 2351608";"Cl 30 A 65-39 Colombia, Medellín"
"JOYERÍA ROLEX";;;"(57) (7) 5716728";"Av4 10-53 Colombia, Cúcuta"
"ORIENT JOYERIA Y RELOJERIA";;;"(57) (7) 5718770";"Cl 9 5-31 L-13 Edif Agrobancario Colombia, Cúcuta"
"JOYERIA SEIKO";;;"(57) (1) 3421846";"Cr6 11-76 Colombia, Bogotá"
"JOYERÍA MANHATAN";;;"(57) (7) 5715103";"Av6 8-39 L-31 C.C. San Andresito Palmeras Colombia, Cúcuta"
"JOYERÍA VENTURA";;;"(57) (7) 5756038";"Cl 10 Av Santander L-2-21 Colombia, Cúcuta"
"FACETADOS GIOVANNY";;;"(57) (7) 6421254";"Cr18 34-43 L-209 Colombia, Bucaramanga"
"JOYERÍA ORO";;;"(57) (1) 3604158";"Cl 9 19 A-24 L-2 Colombia, Bogotá"
"JOYERÍA EL DORADO";;;"(57) (4) 2868118";"Cl 11 8-25 San Antonio de Prado Colombia, Medellín"
"TWO TOO";;;"(57) (1) 3763590";"Cl 82 11 93 L-237 p-3 Colombia, Bogotá"
"AMITAB JOYERÍA";;;"(57) (5) 6600616";"Cl 35 2-50 L-3 Cj de los Estribos Colombia, Cartagena"
"JOYERÍA FIRENZE";;;"(57) (1) 2114287";"Cl 72 10-34 Int 1 Consult 115 Colombia, Bogotá"
"JOYERIA Y RELOJERIA ONIX";;;"(57) (2) 7238923";"Cl 17 24-26 Colombia, Pasto"
"JOYERIA KATIUSKY";;;"(57) (8) 8362842";"Cr4 6-24 Centro Colombia, Pitalito"
"COMERCIALIZADORA LAMPREA SANCHEZ";;;"(57) (1) 6211865";"Cr11 No. 98-16 Colombia, Bogotá"
"STERLING DE COLOMBIA S.A.";;;"(57) (1) 6233513";"Cr19 B 82-46 P-4 Colombia, Bogotá"
"BRILLOS JOYEROS";;;"(57) (2) 6816221";"C.C.Chipichape L-412 K Colombia, Cali"
"ASJOYERÍA BOGOTÁ";;;"(57) (1) 2847417";"Cl 12 6-12 Of 401 Colombia, Bogotá"
"JOYERÍA CENTRAL COPACABANA";;;"(57) (4) 2743955";"Cl 50 51-57 L-111 Copacabana Colombia, Medellín"
"EL MUNDO DE LA PLATA";;;"(57) (4) 5115055";"Cr51 45-39 L-114-2 Colombia, Medellín"
"PLATA & MURANO";;;"(57) (4) 2324109";"Cr43 A 34-95 L-280 Colombia, Medellín"
"TALLER DE PLATERIA KANEF";;;"(57) (4) 3373381";"Cr6 Este 2-23 San Antonio de Prado Colombia, Medellín"
"YENY JOYAS";;;"(57) (4) 5136949";"Cr54 46-08 Int 121 Colombia, Medellín"
"MURACOL LTDA.";;;"(57) (2) 8880546";"C.C. Mio L-20-22 B Colombia, Cali"
"JOYERIA FIGARO";;;"(57) (2) 8856271";"Cr5 15-11 L-15 Nivel 2 B Colombia, Cali"
"COMPRAVENTA Y JOYERÍA LA 83 C";;;"(57) (2) 3327311";"Cr83 C 38-05 Colombia, Cali"
ORIENT;;;"(57) (4) 5131125";"Cl 53 49-109 L-106 Colombia, Medellín"
"JOYERIA SAMOURAY";;;"(57) (4) 5128995";"Cl50 47-29 Colombia, Medellín"
"NEW DESING PIERCING";;;"(57) (8) 8749900";"C.C. Megacentro L-214 Colombia, Neiva"
"PLATERÍA VALTÓN";;;"(57) (2) 8856163";"Cl 14 5-18 Colombia, Cali"
"JOYERÍA MIRANDA";;;"(57) (7) 5832266";"Av8 9-45 Centro Colombia, Cúcuta"
"JOYERÍA LUIS ALBERTO CANO";;;"(57) (1) 2369919";"Cr11 82-71 L-210 Colombia, Bogotá"
"METALES DEL CARIBE S.A.S.";;;"(57) (5) 6644488";"La Matuna Cl 32 9-27 L-3 Edif Cines Capitol Colombia, Cartagena"
"DETALLES EL TESORO";;;"(57) (2) 2124542";"Cr5 12-102 Colombia, Cartago"
"GEMAS Y JOYAS DE COLOMBIA";;;"(57) (1) 3412595";"Cr 6 11-72 Colombia, Bogotá"
"JOYERIA ZAFARELLY";;;"(57) (4) 5719380";"Cr 52 48-45 L-147 Colombia, Medellín"
"ORO Y DISEÑO JOYERÍA Y RELOJERÍA";;;"(57) (1) 6248961";"Cr58 137 B-11  L-104 Colombia, Bogotá"
"TALLER Y JOYERÍA WR";;;"(57) (4) 2512140";"Cl 46 51 A-26 Int 313 Colombia, Medellín"
"First Name";"Email Address";Url;Telephone;Address
"JOYERÍA Y RELOJERÍA MANOS DE ORO";;;"(57) (1) 2278835";"Av (Cl) 72 101 A-17 Colombia, Bogotá"
"GIOVANNI SEMI JOYAS";;;"(57) (6) 7312749";"Cr15 18-22 Of 205 Colombia, Armenia"
"ARIEL TALLER DE JOYERÍA";;;"(57) 3154786156";"Cr16 17-37 L-214 Colombia, Armenia"
"VARIEDADES OROART";;;"(57) (4) 5115759";"Cl 49 52-48 L-103 Colombia, Medellín"
"JOYERÍA ELIA";;;"(57) (5) 6644250";"Cl 38 8-08 Calle del Santísimo Colombia, Cartagena"
"ELIA JEWELRY";;;"(57) (5) 6644250";"Cl 38 8-08 L-1 Calle del Santísimo San Diego Colombia, Cartagena"
"JOYAS BRALOP";;;"(57) (1) 3410630";"Cl 13 6-53 Of 203 Colombia, Bogotá"
"CENTRO ORIENT LUIS ENRIQUE";;;"(57) (1) 7609621";"Cl 47 B S 24 B-33 L-2-46 Colombia, Bogotá"
"ALMACÉN COMPRAVENTA EL RUBÍ";;;"(57) (2) 4431349";"Cl 33 A 17-03 Colombia, Cali"
"PLATERIA MURANO";;;"(57) (4) 5127675";"Cl 46 51A-26 L-461 Colombia, Medellín"
"ADRIANA ROA DISEÑO E INNOVACIÓN";;;"(57) (5) 6605126";"Cr6 35-18 P-1 Calle del Porvenir Colombia, Cartagena"
"JOYERIA UNO-A";;;"(57) (4) 5114986";"Cl 48 49042 Of-716 Colombia, Medellín"
"JOYERÍA Y COMPRAVENTA CITY GOLD CALI";;;"(57) (2) 3797898";"Cl 16 24-57 Colombia, Cali"
"JOYAS Y MÁS JOYAS";;;"(57) (2) 4477476";"Cr2 64 A-01 Colombia, Cali"
"COMPRA VENTA JOYERÍA LA FORTUNA";;;"(57) (2) 4439383";"Dg22 Tr29-01 Colombia, Cali"
"COMPRAVENTA FARALLONES";;;"(57) (2) 8841495";"Cr6 13-117 Colombia, Cali"
"JOYERÍA LA ESPAÑOLA";;;"(57) (2) 2710903";"Cl 30 26-15 Colombia, Palmira"
"TALLER DE CERAS MAURICIO RODAS";;;"(57) (2) 8962142";"Cr9 15-33 L M-14 A Colombia, Cali"
"ESTUDIO DE JOYERIA";;;"(57) (2) 4413497";"Cl 33 C 23-30 Colombia, Cali"
"CALVO ARIEL";;;"(57) (2) 2270420";"Cl 7 13-80 Colombia, Buga"
"COMPRA DE ORO Y JOYERÍA BETO";;;"(57) (6) 8975159";"Cr20 17-43 Colombia, Manizales"
"GALO JOYEROS";;;"(57) (8) 2742860";"C.C. Multicentro L-204 Colombia, Ibagué"
"C+M JOYERÌA Y ACCESORIOS";;;"(57) (4) 3170123";"Cr25 12 S-59 Int 9808 Colombia, Medellín"
"PLATERÍA DIANA PALOMINO";;;"(57) (6) 3338458";"Cr11 Bis 17-20 C.C. Ciudad Victoria Colombia, Pereira"
"JOYERÍA Y RELOJERÍA REAL";;;"(57) (1) 3419651";"Cr6 12 -19 Colombia, Bogotá"
"DISUIZA S.A.";;;"(57) (1) 2153041";"Av (Cr) 15 122-45 P-6 Colombia, Bogotá"
"AMAYA JOYEROS";;;"(57) (8) 8712156";"C.C. Metropolitano Trr B L-152 Colombia, Neiva"
"XUA ACCESORIOS LTDA.";;;"Telefax: (57) (1) 6019685";"Cl 91 17 - 50 Ap 404 Colombia, Bogotá"
"JOYERÍA Y VARIEDADES POMONA";;;"(57) (2) 2273940";"Cl 7 13-48 Colombia, Buga"
"JP JOYEROS";;;"(57) (8) 2625158";"C.C. Los Panches L-49 E Colombia, Ibagué"
"KARIM MOUNSEF JOYEROS";;;"(57) (2) 8920452";"Av Colombia 2-72 Colombia, Cali"
"ANGELES JOYAS Y ACCESORIOS";;;"(57) 3162510479";"Cr13 18-05 Colombia, Armenia"
"MARAMA JOYERÍA";;;"(57) (2) 2120730";"Cr5 10-69 Colombia, Cartago"
"JOYERÍA MONIQUE";;;"(57) (6) 3358315";"Cr6 17-46 Colombia, Pereira"
"ENALTJOR ESCUELA NAL. DE ALTA JOYERIA";;;"(57) (1) 2816082";"Cl 13 6-53 P-2 Colombia, Bogotá"
"LA HORA VISION";;;"(57) (1) 3764083";"Cl 82 11-93 L-119-Y 153 Colombia, Bogotá"
"JOYERÍA Y RELOJERÍA LUIS. E. OCHOA";;;"(57) (1) 2158973";"Av(Cr) 15 124-17 L-113 Colombia, Bogotá"
"ENCHAPES ESPECIALES";;;"(57) (2) 8816026";"Cr4 14-45 Ap 205 Colombia, Cali"
"JOYERÍA CYL YANGUAS";;;"(57) (2) 6592203";"C.C. Chipichape L-606 Colombia, Cali"
"TALLER MARCO A.";;;"(57) (4) 2514407";"Cl 46 51 A-26 Int 334 B Colombia, Medellín"
"First Name";"Email Address";Url;Telephone;Address
"JOYERÍA ALBERT";;;"(57) (4) 5111295";"Cl 48 48-42 Int 507 Colombia, Medellín"
"LÓPEZ OFIR";;;"(57) (1) 3345595";"Cr6 12-79 L-104 Colombia, Bogotá"
"JOYERÍA J. GREGORY";;;"(57) (2) 7239141";"Cl 17 24-60 L-25 Colombia, Pasto"
"V. ALEJANDRA JOYERIA";;;"(57) (1) 6256208";"Cl 39 45-63 Colombia, Bogotá"
"BUTTER FLY";;;"(57) (1) 2363313";"Cl 81 13-05 L-K117 Colombia, Bogotá"
"COMPRAVENTA DEL COMERCIO";;;"(57) (7) 6708012";"Cl 37 14-47 Centro Colombia, Bucaramanga"
"PIONEER JOYERÍA";;;"(57) (2) 3721772";"Cl 27 43 A-75 Colombia, Cali"
"CW JOYEROS";;;"(57) (7) 6467767";"Cl 48 26-53 El Poblado Girón Colombia, Girón"
"BERSALY JOYEROS";;;"(57) (7) 6473181";"Cr36 49-45 L-322 Colombia, Bucaramanga"
"COMPRAVENTA LA MAXIMA MEDELLÍN";;;"(57) (4) 2857097";"Cr52 1 S-18 Colombia, Medellín"
"JOYERÍA SHARIK";;;"(57) (7) 5818350";"Av Libertadores Canal Bogotá L-125 Colombia, Cúcuta"
"JOYERÍA EL TESORO";;;"(57) (1) 3601746";"Cl 9 Bis 19 A-10 L-5 Colombia, Bogotá"
"JOYERÍA Y RELOJERÍA JAGUAR LTDA.";;;"(57) (6) 8823603";"Cr22 19-17 L-17-A Centro Colombia, Manizales"
"TALLER ARTESANAL ORO Y PLATA";;;"(57) (2) 8235511";"Cr2 1 N-20 Colombia, Popayán"
"CENTRO SEIKO JOYAS Y RELOJES";;;"(57) (1) 2839380";"Cr6 12-41 Colombia, Bogotá"
"COMPRA - VENTA ORO SÓLIDO";;;"(57) (2) 2132001";"Cl 12 7-28 Colombia, Cartago"
NEFERTITI'S;;;"(57) (1) 3601764";"Cl 9 Bis 19 A-10 L-3 Colombia, Bogotá"
"PEDRAZA MELO RÓMULO";;;"(57) (1) 2935119";"Cl 26 S 79 A-38 Ap 101 Colombia, Bogotá"
"FOTO ALMACÉN ROLLEI";;;"(57) (2) 7732169";"Cr6 12-133 Colombia, Ipiales"
"TIME ZONE";;;"(57) (7) 5756173";"Cl 10 Av Santander L-334 Colombia, Cúcuta"
"JOYERIA OLMEDO";;;"(57) (8) 8372620";"Cr7 5-52 L-8 Colombia, La Plata"
"PARQUE ARBOLEDA CENTRO COMERCIAL";;;"(57) (6) 3316060";"Av Circunvalar 5-20 Colombia, Pereira"
"CLEOPATRA JOYAS";;;"(57) (7) 5714508";"Av6 8-39 L-29 C.C. San Andrésito Colombia, Cúcuta"
"BRILLOS JOYEROS";;;"(57) (2) 6816221";"C.C.Chipichape L-412 K Colombia, Cali"
"DISEÑOS Y METAL";;;"(57) (4) 4166970";"Cl 34 A 85 A-49 Int 812 Colombia, Medellín"
"VARIEDADES Y FANTASÍAS CAROL";;;"(57) (4) 2212186";"Calle 46 50-33 Colombia, Medellín"
"KILATES COLOMBIA LTDA.";;;"(57) (4) 3431554";"Cl 12 73-164 Ap 202 Colombia, Medellín"
"COLORADO VÉLEZ JULIA";;;"(57) (4) 4761046";"Cl 107 A 75 A-11 Colombia, Medellín"
"TALLER MARCO A.";;;"(57) (4) 2514407";"Cl 46 51 A-26 Int 334 B Colombia, Medellín"
"DE MI CULTURA JOYERIA ARTESANA";;;"(57) (4) 3327787";"Cl 41 A S 32-46 Int 204 Envigado Colombia, Envigado"
"RELOJERÍA MELISA";;;"(57) (2) 8856134";"Cr5 13-68 L-1126 Colombia, Cali"
"TALLER DE JOYERÍA JOHN & JOHN RIASCOS";;;"(57) (4) 2511735";"Cl 52 47-28 B-9 Of 908 Colombia, Medellín"
"JOYERIA Y RELOJERIA CORNAVIN";;;"(57) (4) 2762573";"Cl 37 S 40 A-33 Colombia, Envigado"
"JOYERÍA DLIS";;;"(57) (8) 8717409";"Cr5 6-44 Trr A L-119 Colombia, Neiva"
"NEW DESING PIERCING";;;"(57) (8) 8749900";"C.C. Megacentro L-214 Colombia, Neiva"
"JOYERÍA EL ZAFIRO";;;"(57) (75) 5686446";"Cl 7 C.C. San Andresito L-2-A Colombia, Pamplona"
"LA CASA DEL RELOJ";;;"(57) (4) 3714287";"Cr 50 51-27 L-9914 Itagüí Colombia, Itagüí"
"EL MUNDO DE LAS JOYAS";;;"(57) (1) 2778212";"Cl 9 Bis 19 A-47 L-76 Colombia, Bogotá"
"JOYERÍA SUS JOYAS";;;"(57) (1) 6816280";"Cr91 145B-29 Colombia, Bogotá"
"COMPRA DE ORO LEO";;;"(57) (6) 8847737";"Cr20 17-44 Centro Colombia, Manizales"
"First Name";"Email Address";Url;Telephone;Address
"JOYERÍA FLEING";;;"(57) (1) 2574482";"Cr15 93-60 L-2-16 Colombia, Bogotá"
"JOYERIA OLMEDO";;;"(57) (8) 8372620";"Cr7 5-52 L-8 Colombia, La Plata"
"COMPRAVENTA LA PRINCESA";;;"(57) (4) 2390474";"Cl 50 43-58 Colombia, Medellín"
"RODRÍGUEZ SANDRA";;;"(57) (1) 3345370";"Cr6 12-79 L-109 Colombia, Bogotá"
"JOYERIA NAPSA";;;"Nal: (57) (4) 3347078";"Cr43 33 B S 58 Int 119 Envigado Colombia, Medellín"
"EFECTIVOS EXPRESS HOGAR";;;"(57) (4) 2685118";"Cl 14 S 43 A-21 Int 202 Colombia, Medellín"
"JOYERÍA JULIANA";;;"(57) (2) 4464200";"Cl 44 B 5 N-32 Colombia, Cali"
"B.R. JOYAS ONIX";;;"(57) (4) 5122826";"Cr 49 48 - 59 Of 404 Colombia, Medellín"
"JOYERÍA Y RELOJERÍA KATER NO. 2 ENVIGADO";;;"(57) (4) 2762584";"Cl 38 S 41-62 Envigado Colombia, Envigado"
"LEÓN GÓMEZ CHARLES";;;"(57) (2) 6809464";"Edif Trr de Cali Of 2102 Cl Colombia, Cali"
"COMERCIALIZADORA INTERNACIONAL JOYAS DE COLOMBI";;;"(57) (4) 2601850";"Cl 44 A 68 A-21 Colombia, Medellín"
"EMILIO ANTONIO MANTILLA CAMARGO";;;"(57) (2) 8843654";"Cl 20 A 4-87 Colombia, Cali"
"SALAZAR R JOYEROS";;;"(57) (4) 4137770";"Cl 41 78-40 Colombia, Medellín"
"NOI JOYERIA";;;"(57) (4) 2686903";"Cl 9 43 B-159 Colombia, Medellín"
"HAUS JOYAS";;;"(57) (1) 4817311";"Cr51 103 B-65 Ap 207 Colombia, Bogotá"
"ALMACÉN NACIONAL";;;"(57) (6) 3682010";"Cl 8 A 7-99 Colombia, La Virginia"
"JOYERÍA ALEJANDRA";;;"(57) (1) 2869301";"Cl 13 12-74 L-1107 Colombia, Bogotá"
"LA JOYERÍA";;;"(57) (1) 2985088";"Cr100 32-45 L-6 Colombia, Bogotá"
"ALMACÉN COMPRA-VENTA Y JOYERÍA SANTANDER";;;"(57) (28) 8294658";"Cl 5 11-01 Colombia, Santander de Quilichao"
"KELET JOYEROS";;;"(57) (1) 2821528";"Cl 13 6-29 Colombia, Bogotá"
"SWATCH ALMACEN";;;"(57) (1) 2130184";"Av15 124-30 L-2-53 Colombia, Bogotá"
"TALLER DE JOYERÍA Y RELOJERÍA JOEL VÁSQUEZ";;;"(57) (1) 2118535";"Cr13 61-47 L-114 Colombia, Bogotá"
"FENN JOYERIA Y ACCESORIOS S.A.S";;;"(57) (4) 3113005";"Cr37 8 A -19 Colombia, Medellín"
JOYARTEC;;;"(57) (4) 2518686";"Cl48 49-42 Ofc.608 Colombia, Medellín"
"JOYERÍA CRISTALES";;;"(57) (5) 3400365";"Cl 38 41-36 Colombia, Barranquilla"
"OXFORD DESIGNS";;;"(57) (5) 3561650";"Cr53 78-78 L-20 Colombia, Barranquilla"
"ARIEL TALLER DE JOYERÍA";;;"(57) 3154786156";"Cr16 17-37 L-214 Colombia, Armenia"
"JOYERÍA ELIA";;;"(57) (5) 6644250";"Cl 38 8-08 Calle del Santísimo Colombia, Cartagena"
"ELIA JEWELRY";;;"(57) (5) 6644250";"Cl 38 8-08 L-1 Calle del Santísimo San Diego Colombia, Cartagena"
"SERVICENTRO CASIO";;;"Nal: (57) (1) 6130531";"Cl 185 45-03 L-1-147 Colombia, Bogotá"
"AS JOYERÍA Y PLATERÍA";;;"(57) (1) 3506067";"Cl 28 13-22 Colombia, Bogotá"
"JOYERÍA Y RELOJERÍA HILTON";;;"(57) (1) 3347952";"Cl 15 9-18 Colombia, Bogotá"
ROSENTHAL;;;"(57) (1) 2820876";"Cr6 11-77 Colombia, Bogotá"
"NÁCAR & ABALONE";;;"(57) (5) 3735329";"Cl 79 51-72 L-8 C.C. Plaza Granada Colombia, Barranquilla"
"JOYERÍA ORIENTE";;;"(57) (4) 2318962";"Cl 48 51 A-16 Colombia, Medellín"
"C.I. FUNDICIÓN ESCOBAR S.A.";;;"(57) (1) 2844280";"Cr7 11-72 L-144-C Colombia, Bogotá"
"TALLER DE JOYERÍA EL JARDÍN";;;"(57) (4) 5118266";"Cl 48 49-42 Ap 702 Colombia, Medellín"
"STONE GROUP S.A. MARÍA CAMILA MESA ACCESORIOS";;;"(57) (4) 2665254";"OFICINAS Cr34 7-59 Colombia, Medellín"
"JEWELRY HAND MADE";;;"(57) (4) 2310155";"Cl 48 53-69 L-525 Colombia, Medellín"
"COMPRA VENTA EL TRÉBOL";;;"(57) (2) 6628164";"Cr8 72 B-72 Colombia, Cali"
"First Name";"Email Address";Url;Telephone;Address
"COMPRA VENTA OASIS";;;"(57) (2) 3363074";"Cl 13 40-27 Colombia, Cali"
"JOYERIA Y RELEJERIA KARINA";;;"(57) (2) 4424336";"Cl 44 12 E-05 Colombia, Cali"
"COMPRAVENTA LA MEJOR DE BUGA";;;"(57) (2) 2279172";"Cr13 9-11 Colombia, Buga"
"JOYERÍA Y RELOJERÍA EL GRAN BRILLANTE";;;"(57) (6) 3244298";"Cr7 17-46 L-10-C-C Pasaje Comercial La-7-A Colombia, Pereira"
"JOYERÍA BRILLANTES";;;"(57) (6) 3342055";"C.C. Victoria L-331 A Colombia, Pereira"
"JOYERÍA EL CRISOL";;;"(57) (7) 6223150";"Cl 8 2-13 Comercio Colombia, Barrancabermeja"
"RODRÍGUEZ M. EDNA LILIANA";;;"(57) (1) 6035504";"Cl 137 47-01 L-110 Colombia, Bogotá"
"BAÑOS DE ORO TALLER Y JOYERÍA";;;"(57) (8) 2639781";"Cr4 12-90 Colombia, Ibagué"
"MULTIJOYAS EXPORTACIONES";;;"(57) (7) 6302252";"Cl 35 18-65 Int 218-B C.C. Rosedal Colombia, Bucaramanga"
"DANIEL F. JOYERÍA";;;"(57) (7) 6338106";"Cl 37 14-74 P-3 L-C-24 Colombia, Bucaramanga"
"ZITRICA COSMETICOS";;;"(57) (7) 5723951";"Cl 13 5-80 Centro Colombia, Cúcuta"
"GOIVANNI JOYERÍA";;;"(57) (1) 2815141";"Cl 11 10-08 L 213 c Colombia, Bogotá"
"JOYERÍA DE FRANCO";;;"(57) (7) 5721893";"Av6 7-85 L-64 C.C. Coosacut Colombia, Cúcuta"
"C.R. JOYEROS PERLAS Y PIEDRAS";;;"(57) (1) 2815014";"Cr7 11-72 Of 113 Colombia, Bogotá"
"AGATA ACCESORIOS";;;"(57) (7) 5718498";"Cl 15 1 E-31 Caobos Colombia, Cúcuta"
"JOYERÍA Y PLATERÍA COLONIAL";;;"(57) (1) 2182013";"Cl 95 10-60 Colombia, Bogotá"
"JOYERÍA GOLDEN GATE";;;"(57) (1) 3415809";"Cr6 12-85 Colombia, Bogotá"
"NOVA RODRÍGUEZ MANUEL VICENTE";;;"(57) (1) 2722143";"Av19 20-16 S Colombia, Bogotá"
"CUEROS Y ARTESANÍAS LTDA.";;;"(57) (1) 4138839";"Aeropuerto El Dorado L-D-9 Zona In-Bond Colombia, Bogotá"
"MESTIZA ACCESORIOS";;;"(57) (2) 6605315";"Cl 26 N 5 A N-18 Colombia, Cali"
"JOYERÍA Y RELOJERÍA EDOX";;;"Domic.: (57) (2) 2371160";"Cl 7 12-50 Colombia, Buga"
"WILLY JOHN'S";;;"Nal: (57) (4) 4186624";"Cl 45 53-50 Int 1179 Colombia, Medellín"
"JOYERÍA CORALIA";;;"(57) (2) 3397332";"Cr98 25-130 P-1 Colombia, Cali"
"JOYERÍA DANY";;;"(57) (2) 4441568";"Cr17 H 27-25 Colombia, Cali"
"JOYERÍA ANGLI'S";;;"(57) (7) 5718277";"Cl 9 6-20 L-1-147 C C Alejandría Colombia, Cúcuta"
"JOYERIA SEIKO";;;"(57) (1) 3421846";"Cr6 11-76 Colombia, Bogotá"
"ESCUELA COLOMBIANA DE FINA Y ALTA JOYERÍA";;;"(57) (1) 3123978";"Cr15 74-43 P-3 Colombia, Bogotá"
"VERA PLATERIA";;;"(57) (7) 6434078";"Cr35 48-104 Colombia, Bucaramanga"
"JOYERÍA CECILIA DUQUE";;;"(57) (6) 8756377";"Cr23 65-11 L-122-C Colombia, Manizales"
"JOYERÍA EL CHIPCHA";;;"(57) (1) 2819987";"Cl 13 6-41 Colombia, Bogotá"
"LUCERO HOFFMAN";;;"(57) (1) 2130750";"Cr 15 124-30 L-2-095 Colombia, Bogotá"
"RAMÍREZ JUAN C.";;;"(57) (1) 2848523";"Cr7 11-72 L-232 Colombia, Bogotá"
"ORTEGA SANGUINO YULIED";;;"Nal: (57) (7) 5834258";"Av6 8-56 L-369 Colombia, Cúcuta"
"MORERA AUGUSTO";;;"(57) (1) 3421651";"Cr6 12-27 Of 305 Colombia, Bogotá"
"TWO TOO";;;"(57) (1) 3763590";"Cl 82 11 93 L-237 p-3 Colombia, Bogotá"
"JOYERÍA MELÉNDEZ";;;"(57) (2) 8243963";"Cr8 3-48 Colombia, Popayán"
"JOYERÍA Y RELOJERÍA AMBERES";;;"(57) (1) 3342267";"Cl 12 A 6-91 Colombia, Bogotá"
"VOLOJ JOYERÍA";;;"(57) (1) 6100719";"Cr10 96-29 Of 601 Colombia, Bogotá"
"CASTING JOYAS BOGOTÁ";;;"(57) (1) 2845460";"Cl 12 5-89 Of 202 Colombia, Bogotá"
"ORIENT JOYEROS";;;"(57) (7) 5832620";"Av4 9-62 Centro Colombia, Cúcuta"
"First Name";"Email Address";Url;Telephone;Address
"ALMACEN VIVISAN";;;"(57) (4) 5111946";"Cl 46 51 A-26 L-346-B Colombia, Medellín"
"JOYERÍA ORIENTE";;;"(57) (4) 2318962";"Cl 48 51 A-16 Colombia, Medellín"
"FILIGRANA MOMPOSINA";;;"(57) (4) 3217960";"Cl 6 S 43 A-227 Int 1155 Colombia, Medellín"
"JOYERÍA MARFIL";;;"(57) (4) 3111617";"C.C. Oviedo L-167 Colombia, Medellín"
"JOYAS COPA";;;"(57) (4) 2740704";"Cl 49 48 -27 Copacabana Colombia, Medellín"
"JEWELRY HAND MADE";;;"(57) (4) 2310155";"Cl 48 53-69 L-525 Colombia, Medellín"
"KAIA COLLECTION LTDA.";;;"(57) (1) 2582269";"Cl 127 B 37-17 Colombia, Bogotá"
"SEVEN GEMS LTDA";;;"(57) (1) 3348325";"Av (Cl) 13 7-25 Of 713 Colombia, Bogotá"
"JOYAS E INVERSIONES NAZLY";;;"(57) (8) 5927516";"Cl 8 11-51 Colombia, Leticia"
"JOYAS MENCHA";;;"(57) (8) 5924692";"Cl 8 11-35 Puerto Civil Colombia, Leticia"
"JUAN KYBURZ Y CIA. LTDA.";;;"(57) (2) 6670937";"Cl 28 N 4-94 Colombia, Cali"
"ARABESKE RELOJERÍA";;;"(57) (2) 8830763";"Cr5 15-02 L-76 Colombia, Cali"
"CRISTIAN JOYEROS";;;"(57) (2) 6544438";"Cr 1 La 14 de Calima Colombia, Cali"
"JOYERÍA Y RELOJERÍA LA ROCA";;;"(57) (2) 4395061";"Cl 68 4 N-05 Colombia, Cali"
"JOYERIA Y RELOJERIA CARAVANITA";;;"(57) (4) 5116211";"Cr 52 48-34 Colombia, Medellín"
"ALMACÉN COMPRAVENTA BAHÍA";;;"(57) (2) 3396297";"Cl 13 68-14 Colombia, Cali"
"JOYERÍA EL DESCUENTO";;;"(57) (4) 2780220";"Cr52 130 S-44 Caldas Colombia, Medellín"
"JOYERIA LUCIA";;;"(57) (4) 5116690";"Cl 46 51 A-26 L-403 Colombia, Medellín"
"COMPRAVENTA CHRISTAL";;;"(57) (4) 2576908";"Cr79 92-29 Robledo Miramar Colombia, Medellín"
"JOYAS Y MÁS JOYAS";;;"(57) (2) 4477476";"Cr2 64 A-01 Colombia, Cali"
"JOYERÍA Y RELOJERÍA MARYBIA";;;"(57) (4) 3726032";"Cl 52 50-62 Itagüí Colombia, Itagüí"
"EL DORADO JOYEROS";;;"(57) (2) 8821706";"Cr4 13-62 Colombia, Cali"
"COMPRA VENTA JOTAVE";;;"(57) (2) 5574073";"Cl 15 21-30 Colombia, Cali"
"JOYERÍA MUZO & CÍA. LTDA.";;;"(57) (2) 2743412";"Cr27 29-62 Colombia, Palmira"
"DENNI'S JOYEROS TALLER";;;"(57) (2) 6610964";"Av4 N 24-46 Colombia, Cali"
"JOYAS EMERALD CENTER COMPRA VENTA";;;"(57) (2) 3308162";"C.C. Trade Center L-138 Colombia, Cali"
"ATRACCIONES TIFANNY";;;"(57) (2) 8837429";"Cr5 15-09 B-3 B L-47 Colombia, Cali"
"JOYERÍA Y RELOJERÍA EBENEZER";;;"(57) (2) 5132009";"Cl 5 46-83 L-147 Colombia, Cali"
"JOYERÍA EL GRAN AS";;;"(57) (2) 2102044";"Cl 12 5-19 Colombia, Cartago"
"JOYERÍA Y PLATERÍA PARÍS";;;"(57) (2) 2733631";"Cl 30 26-18 Colombia, Palmira"
"JOYERÍA Y RELOJERÍA NEW YORK";;;"(57) 3166383467";"Cr13 8-08 Colombia, Buga"
"ORO Y METALES";;;"(57) (4) 5114511";"Cl 46 51 A-26 Of 450 Colombia, Medellín"
"JOYERIA COVELLI";;;"(57) (7) 6337948";"Cr18 34-43 Of 204 Colombia, Bucaramanga"
"JOYERÍA TAIRONA";;;"(57) (4) 5130121";"Cl 48 53-39 L-130 Colombia, Medellín"
"ZITRICA COSMETICOS";;;"(57) (7) 5723951";"Cl 13 5-80 Centro Colombia, Cúcuta"
"JOYERÍA LAURA";;;"(57) (7) 6555623";"Cl 9 5-53 Piedecuesta Colombia, Piedecuesta"
"JOYERÍA Y PLATERÍA MARIANA";;;"(57) (1) 2590297";"Cl 140 20-50 L-37 Colombia, Bogotá"
"JOYERÍA SWAROVSKI";;;"(57) (4) 3211010";"Cr25 A 1 A Sur-45 L-1249 Colombia, Medellín"
"JOYAS EL PENTÁGONO";;;"(57) (7) 6472029";"Cr22 53-50 Nuevo Sotomayor Colombia, Bucaramanga"
LAURENTTI;;;"(57) (7) 6430735";"C.C. Cabecera Et IV P-2 L-208 Cabecera del Llano Colombia, Bucaramanga"
"First Name";"Email Address";Url;Telephone;Address
"JOYERÍA LATINA";;;"(57) (1) 2981450";"Cr100 23-35 L-107 Colombia, Bogotá"
"COMERCIALIZADORA INTERNACIONAL JADEL E.U.";;;"(57) (1) 6272289";"Tr26 146-05 Of 304 Colombia, Bogotá"
SISMIKA;;;"(57) (1) 3764184";"Cl 82 11-93 L-119 Colombia, Bogotá"
"SIABATO CAMPOS HÉCTOR";;;"(57) (1) 2154119";"Av (Cr) 15 104-72 P-1 L-2 Colombia, Bogotá"
"JOYERÍA NICE COLOMBIA";;;"(57) (1) 6101080";"Av15 104-30 L-101 Colombia, Bogotá"
"PLATERÍA HÉCTOR A. PEÑA E. HIJOS LTDA.";;;"(57) (1) 6377942";"Cl 121 11 D-29 Colombia, Bogotá"
"LA TIENDA DEL PERFUME";;;"(57) (4) 7811126";"Cl 32 1-17 Colombia, Montería"
"PLATERÍA Y JOYERÍA J.R";;;"(57) (2) 6613670";"Av5 N 16-87 Colombia, Cali"
"FERNÁNDEZ DOMÍNGUEZ JORGE L.";;;"(57) (2) 8959711";"Cr6 12-18 Of 320 Colombia, Cali"
"NEGOCIEMOS JOYERÍA Y TALLER";;;"(57) (2) 8856051";"Cl 15 8-103 L-120 Colombia, Cali"
"VARIEDADES TULIA";;;"(57) (2) 8855568";"Cl 14 8-64 L-1 Colombia, Cali"
"JOYERÍA Y RELOJERÍA ROJAS";;;"(57) (2) 8895245";"Cl 11 7-37 Colombia, Cali"
"COMPRAVENTA FARALLONES";;;"(57) (2) 8841495";"Cr6 13-117 Colombia, Cali"
"JOYAS MARCELA";;;"(57) (2) 8803246";"Cr4 13-57 L-61 Colombia, Cali"
"ALMACÉN COMPRAVENTA Y JOYERIA ROOSVELT";;;"(57) (2) 5567273";"Av Roosevelt 26-80 Colombia, Cali"
"TALLER DE JOYAS LEOS";;;"(57) (4) 5130825";"Cl 48 48-14 Of 305 Colombia, Medellín"
"BERALI JOYAS";;;"(57) (7) 6418434";"C.C. Acrópolis L-1-73 Colombia, Bucaramanga"
"WL DISEÑO DE JOYAS";;;"(57) (6) 3214796";"Cl 15 13-110 L-130 C.C. Pereira Plaza Colombia, Pereira"
"CALVO ARIEL";;;"(57) (2) 2270420";"Cl 7 13-80 Colombia, Buga"
"VÉLEZ JOYEROS";;;"(57) (2) 2244607";"Cr26 28-39 Colombia, Tuluá"
"JOYERÍA Y RELOJERÍA EL GRAN BRILLANTE";;;"(57) (6) 3244298";"Cr7 17-46 L-10-C-C Pasaje Comercial La-7-A Colombia, Pereira"
"FRATELLI JOYEROS S.A.";;;"(57) (6) 3243687";"Cl 15 13-110 L-172 Colombia, Pereira"
"TALLER DE JOYERÍA ARTE Y ESTILO";;;"(57) (6) 3351334";"Cr7 18-21 L-112 Colombia, Pereira"
"JOYERÍA GABER";;;"(57) (6) 3345693";"Cl 19 6-48 P-1 Colombia, Pereira"
"ALMACÉN MIL DETALLES";;;"(57) (2) 2122248";"Cr5 10-56 Colombia, Cartago"
"GOIVANNI JOYERÍA";;;"(57) (1) 2815141";"Cl 11 10-08 L 213 c Colombia, Bogotá"
"JOYERÍA SAN JORGE";;;"(57) (1) 2825879";"Cr6 12-27 P-1 Colombia, Bogotá"
"INFANTE PEDRO";;;"(57) (1) 3344985";"Cr6 12-79 L-101 Colombia, Bogotá"
"JOYERÍA Y RELOJERÍA FUENTES";;;"(57) (75) 5696951";"Cr13 9-19 Edif Almacentro Calle del Dulce Nombre Colombia, Ocaña"
"GAIA DISEÑOS";;;"(57) (1) 2457302";"Dg40 A 18 A-09 Colombia, Bogotá"
"JOYERÍA J Y C";;;"(57) (8) 8715518";"Cl 6 5-33 L-160 Colombia, Neiva"
"DÍAZ MARTÍNEZ ARBELÁEZ Y CÍA. LTDA.";;;"(57) (1) 2263707";"Cr67 94 A-78 Edif 16 Ap 604 Colombia, Bogotá"
"JOYERÍA LAPISLAZULI";;;"(57) (2) 2279640";"Cr13 5-67 Colombia, Buga"
"MAGALLY SUAZA";;;"(57) 3002667084";"BUACARAMANGA Colombia, Bucaramanga"
"BERSALY JOYEROS";;;"(57) (7) 6473181";"Cr36 49-45 L-322 Colombia, Bucaramanga"
"JOLEVAS JOYEROS";;;"(57) (2) 8811542";"Cr7 12-55 L-105 Colombia, Cali"
"JOYERÍA Y COMPRA VENTA LOS CÁMBULOS";;;"(57) (2) 5130603";"Cl 9 40-35 Colombia, Cali"
TECNIJOYAS;;;"(57) (7) 5723941";"Cl 11 4-51 C.C. Internacional Lecs L-109 Colombia, Cúcuta"
"JOYERÍA LOS REYES";;;"(57) (7) 5713485";"Cl 9 6-54 L-229 C.C. Alejandría Colombia, Cúcuta"
JOYAESTILO;;;"(57) (4) 3530976";"Cr76 24-54 Colombia, Medellín"
"First Name";"Email Address";Url;Telephone;Address
"EL MUNDO DE LA PLATERÍA";;;"(57) (6) 7442656";"Cl 17 15-22 L-19 Colombia, Armenia"
"JOYERIA LA MARQUESA";;;"(57) (4) 2315989";"Cl 46 51 A-26 L-337-2 Colombia, Medellín"
"EGO JOYERÍA";;;"(57) (4) 3540021";"Cr35 7-24 Int 101 Colombia, Medellín"
"TALLER DE JOYERÍA WALTER COLORADO";;;"(57) (6) 7444133";"Cr16 17-37 L-205 Colombia, Armenia"
"JOYERÍA Y TALLER AZERINA";;;"(57) (4) 5719161";"Cl 46 51 A-26 L-419-B Colombia, Medellín"
"TIEMPO PRECISO";;;"(57) (4) 5123757";"Cl 49 52-49 l-210 Colombia, Medellín"
"COSITAS & CO. CHECHERITOS";;;"(57) (1) 3157467";"Cl 44 59-52 Colombia, Bogotá"
"TALLER DE JOYERÍA HADA";;;"(57) (4) 8470305";"Cr51 49-40 Colombia, Amagá"
"KEVIN'S JOYEROS";;;"Nal: (57) (1) 6030070";"Cr68 90-88 P-2 Colombia, Bogotá"
"MARTÍNEZ NUMAEL";;;"(57) (1) 2188247";"Cr15 79-73 Colombia, Bogotá"
"BAUER & CO. S.A.";;;"(57) (1) 6360012";"Cr15 93-60 L-215 Colombia, Bogotá"
"JOYERÍA LA LEJANDRA";;;"(57) (1) 2774608";"Cl 9 Bis 19 A-65 L-61 Colombia, Bogotá"
"JOYERÍA IVÁN";;;"(57) (2) 8854475";"Cl 14 8-49 L-543 Colombia, Cali"
"JOYERÍA CALIMIO";;;"(57) (2) 8812523";"Cl 14 8-64 L-38 Colombia, Cali"
"TALLER DE JOYERIA FER FRAN";;;"(57) (4) 2382443";"Cr 76 29-28 Colombia, Medellín"
"JOYERÍA Y RELOJERÍA EL SEGURO";;;"(57) (4) 2318504";"Cl 51 51-76 L-201 Colombia, Medellín"
"TALLER Y JOYERÍA DANNA ALEJANDRA";;;"(57) (2) 3263426";"Cr49 A 13-35 P-2 Colombia, Cali"
"MARIAK JOYERIA";;;"(57) (4) 5143374";"Cr 49 52-116 L-123 Colombia, Medellín"
"JOYERÍA Y RELOJERÍA ORTIZ";;;"(57) (7) 6524524";"Cr17 41-52 Colombia, Bucaramanga"
VALERIE;;;"(57) (6) 7494915";"Cr14 18 N-95 L-13 Colombia, Armenia"
"JOYAS CARLOS HUMBERTO";;;"(57) (2) 2250532";"C.C. La Herradura L G-16 Colombia, Tuluá"
"JOYERÍA PIRÁMIDE";;;"(57) (6) 3243721";"Cl 17 5-80 Colombia, Pereira"
"JOYERÍA AMBAR AKSD";;;"(57) (6) 3243415";"Cr6 18-30 Colombia, Pereira"
"TALLER DE JOYERÍA ARTE Y ESTILO";;;"(57) (6) 3351334";"Cr7 18-21 L-112 Colombia, Pereira"
"PLATERIA ZIMEL";;;"(57) (7) 6941184";"Cr33 A 101-06 Bellavista Casas Colombia, Bucaramanga"
"SARO'S JOYERÍA";;;"(57) (7) 6397055";"C.C. Cañaveral L-167 Colombia, Bucaramanga"
"MI JOYERÍA";;;"(57) (7) 6422967";"Cl 33 18-36 L-142 Colombia, Bucaramanga"
"GALO JOYEROS";;;"(57) (8) 2742860";"C.C. Multicentro L-204 Colombia, Ibagué"
"GAIA DISEÑOS";;;"(57) (1) 2457302";"Dg40 A 18 A-09 Colombia, Bogotá"
"JOYERÍA CAPITOLIO";;;"(57) (1) 3429325";"Cr6 12-91 Colombia, Bogotá"
"JOYEROS DE OCCIDENTE";;;"(57) (2) 6849992";"Carrefour La 70 L-13B Colombia, Cali"
"JOYERÍA SCHUMACHER";;;"(57) (1) 2574576";"Cr13 82-49 Of 708 Colombia, Bogotá"
"DIAMOND HILL GALERÍA DE JOYAS";;;"(57) (2) 3247296";"Cr98 16-200 B-7 L-85 Colombia, Cali"
"SAGO JOYAS";;;"(57) (8) 2741965";"C.C. Multicentro L-246 Colombia, Ibagué"
"TORRES JOYEROS";;;"(57) (2) 3352728";"Cr41 A 11-23 P-1 Colombia, Cali"
"JOYERÌA Y COMPRAVENTA LA TURQUEZA";;;"(57) (6) 3348529";"Cl 18 8-34 L-15 C.C. El Paso Colombia, Pereira"
"JOYAS Y DISEÑO";;;"(57) (1) 2155755";"Cr15 119-11 Colombia, Bogotá"
"PLATERIA CHECHO";;;"(57) (2) 8844302";"Cr9 13-113 Colombia, Cali"
"ORIENT COLOMBIA S.A.";;;"(57) (1) 3404266";"Cl 38 13-37 Piso 11 Colombia, Bogotá"
"CRISTALES Y ACRÍLICOS J.G.";;;"(57) (1) 2849932";"Cr7 11-72 L-329 Colombia, Bogotá"
"First Name";"Email Address";Url;Telephone;Address
SISMIKA;;;"(57) (1) 3764184";"Cl 82 11-93 L-119 Colombia, Bogotá"
"HORA Y PUNTO JOYERÍA";;;"(57) (4) 8332689";"Cr3 8-10 Colombia, Puerto Berrío"
"ENCHAPES EN ORO UNIVERSAL";;;"(57) (1) 2866089";"Cl 16 8-95 L-889 Colombia, Bogotá"
"ESTUCHES INEBER";;;"(57) (1) 2647963";"Cl 35 B S 73 B-45 Colombia, Bogotá"
"JOYERÍA REAL";;;"(57) (4) 8414406";"Av50 50-22 Andes Colombia, Andes"
"TALLER DE JOYERÍA ALEJANDRO ARTURO ECHAVARRÍA";;;"(57) (4) 2317104";"Cl 48 49-42 Of 418 Colombia, Medellín"
"TALLER DE JOYER";;;"(57) (1) 6067213";"Cl 63 10-61 L-2030 Colombia, Bogotá"
"JOYERIA HISPANA";;;"(57) (1) 6121380";"Cr7 115-60 L-A139 Colombia, Bogotá"
"JOYERÍA RELOJERÍA TALLER J.R.";;;"(57) (1) 3464365";"Cr16 50-06 Colombia, Bogotá"
"KORLOFF JOYERÍA";;;"Conm.: (57) (1) 6196999";"Cl 123 7-07 Of. 308 Colombia, Bogotá"
"JOYERÍA Y RELOJERÍA LA ROCA";;;"(57) (2) 4395061";"Cl 68 4 N-05 Colombia, Cali"
"JOYERÍA JORDÁN ORFEBRE";;;"(57) (2) 8841531";"Cr5 10-60 Of 702 Colombia, Cali"
"JOYERÍA CITRINO";;;"(57) (4) 2319434";"Cl 46 51 A-26 L-345-B Colombia, Medellín"
"ALMACÉN Y COMPRAVENTA LA CAROLINA";;;"(57) (2) 6661277";"Av3 N 49 N-27 Colombia, Cali"
"TALLER JOYERÍA Y RELOJERÍA PRIAMO";;;"(57) (2) 5511989";"C.C.Cosmocentro Colombia, Cali"
"COMPRA VENTA LA CALEÑA LTDA.";;;"(57) (2) 8854644";"Cl 10 9-92 Colombia, Cali"
"JOYERÍA RELOJERÍA Y PERFUMERÍA GEMAS";;;"(57) (2) 2373535";"Cr12 5-17 Colombia, Buga"
"JOYERÍA Y RELOJERÍA EL TOPACIO";;;"(57) (2) 2280081";"Cl 7 12-74 Colombia, Buga"
"TALLER DE CERAS MAURICIO RODAS";;;"(57) (2) 8962142";"Cr9 15-33 L M-14 A Colombia, Cali"
"BERALI JOYAS";;;"(57) (7) 6418434";"C.C. Acrópolis L-1-73 Colombia, Bucaramanga"
"ESTUDIO DE JOYERIA";;;"(57) (2) 4413497";"Cl 33 C 23-30 Colombia, Cali"
"JOYERÍA ONIX";;;"(57) (6) 7421090";"Cr25 38-16 Colombia, Calarcá"
"JOYERÍA Y RELOJERÍA NEW YORK";;;"(57) 3166383467";"Cr13 8-08 Colombia, Buga"
"MACABEO JOYAS Y ACCESORIOS";;;"(57) (7) 6478502";"Cr35 46-51 Cabecera del Llano Colombia, Bucaramanga"
"ANDRÉ LAURENT JOYERÍA";;;"(57) (7) 6436269";"Cr37 52-43 Of 501 Colombia, Bucaramanga"
"SUPERPLATERIA EL MONO";;;"(57) (7) 6446818";"C.C. Sanandresito La Isla Local:D-12 P-3 Colombia, Bucaramanga"
"JOYERÍA SLADYR";;;"(57) (7) 6430710";"Cr35 A 49-55 L-109 C.C. Cabecera IV Etapa Colombia, Bucaramanga"
"MI JOYERÍA";;;"(57) (7) 6422967";"Cl 33 18-36 L-142 Colombia, Bucaramanga"
"JOYERÍA Y RELOJERÍA REAL";;;"(57) (1) 3419651";"Cr6 12 -19 Colombia, Bogotá"
"EL TITAC DE STELLA";;;"(57) (1) 2836204";"Cl 16 8-73 L-255 Colombia, Bogotá"
"JOYERÍA Y RELOJERÍA FUENTES";;;"(57) (75) 5696951";"Cr13 9-19 Edif Almacentro Calle del Dulce Nombre Colombia, Ocaña"
"GAIA DISEÑOS";;;"(57) (1) 2457302";"Dg40 A 18 A-09 Colombia, Bogotá"
"RELOJ D' ARENA";;;"(57) (2) 6651820";"Cr1 N 70-00 L-208 Colombia, Cali"
"JOYERÍA PRÍNCIPE";;;"(57) (7) 5718564";"Av4 10-35 Centro Colombia, Cúcuta"
"ENCHAPES GRANO DE ORO";;;"(57) (6) 3340057";"Cr7 17-46 L-9 C.C. L-7 Colombia, Pereira"
"JOYERÍA Y RELOJERÍA EL ZAFIRO";;;"(57) (1) 2397301";"Cl 17 S 17-32 Colombia, Bogotá"
"JOYERÍA JHON FREDY";;;"(57) (7) 6569386";"C.C Sanbazar L-86 Colombia, Bucaramanga"
"JOYERIA ISMORTZ";;;"(57) (7) 6570302";"Cl 52 37-21 Colombia, Bucaramanga"
"CREACIONES Y DETALLES KATY";;;"(57) (2) 8856138";"Cl 14 5-20 L-1055 Colombia, Cali"
"JOYERIA SEIKO";;;"(57) (1) 3421846";"Cr6 11-76 Colombia, Bogotá"
"First Name";"Email Address";Url;Telephone;Address
"MARIAK JOYERIA";;;"(57) (4) 5143374";"Cr 49 52-116 L-123 Colombia, Medellín"
"ZIRCÓN DE OCCIDENTE";;;"(57) (6) 3244925";"Cr6 17-53 L-14 Colombia, Pereira"
"JOYERÍA ORIENT";;;"(57) (2) 8882043";"Cr5 14-17 Colombia, Cali"
"JOYERÍA D'MARIO";;;"(57) (4) 2610508";"Cl 33 42 B-06 L-1602 Colombia, Medellín"
"JOYERÍA ONIX";;;"(57) (8) 2614096";"Cr3 A 13-01 Esq Colombia, Ibagué"
"LÓPEZ JOYERO";;;"(57) (2) 8318700";"C.C. Anarkos Plaza P-2 L-24 Colombia, Popayán"
"REPRESENTACIONES MARINA BORJA S.A.S";;;"(57) (2) 8812368";"Cr7 12-59 L-107 Colombia, Cali"
"PLATERÍA LA PRIMAVERA";;;"(57) (4) 5116903";"Cr52 45-19 Colombia, Medellín"
"JOYERÍA MONSERRATE";;;"(57) (2) 8808037";"Cl 14 7-75 L-9 Colombia, Cali"
"BAUL DE LOS DETALLES";;;"(57) (8) 4349011";"Cr3 Bis 21 A-14 D L-218 Colombia, Florencia"
"MASHIA DISEÑO JOYAS Y MUEBLES";;;"(57) (1) 4913405";"Cr100 B 76-29 Colombia, Bogotá"
"ORO'S FACTORY";;;"(57) (1) 3410123";"Cr13 26-81 L-109 Colombia, Bogotá"
"JOYERÍA LA ESMERALDA TALLER Y JOYERÍA";;;"(57) (5) 7283391";"Cr6 5-12 Colombia, Riohacha"
"TALLER DE JOYERÍA COLJOYAS";;;"(57) (4) 5115880";"Cl 48 49-42 Of 512 Colombia, Medellín"
"TALLER Y JOYERÍA MARIO JOYA";;;"(57) (4) 4060205";"Cl 15 11-79 Barbosa Colombia, Medellín"
"COBA CAICEDO ERNIZA CATALINA";;;"(57) (5) 3519677";"Cr41 40-03 L-3 Colombia, Barranquilla"
"JOYERÍA Y RELOJERÍA CAHMIS";;;"(57) (2) 8841503";"Cl 14 4-07 Colombia, Cali"
"COMPRAVENTA OROS";;;"(57) (4) 2882297";"Cr45 72 S-46 Sabaneta Colombia, Sabaneta"
"JOYERÍA Y COMPRA VENTA CENTER";;;"(57) (2) 3313687";"Cr100 11-60 L-178 Colombia, Cali"
"JOYEÍA EL ZAFIRO AZUL";;;"(57) (4) 3734311";"Cr50 51-49 L-144 Itagüí Colombia, Itagüí"
"COMPRAVENTA LA MEJOR DE BUGA";;;"(57) (2) 2279172";"Cr13 9-11 Colombia, Buga"
"ZITRICA COSMETICOS";;;"(57) (7) 5723951";"Cl 13 5-80 Centro Colombia, Cúcuta"
"JOYERÍA J Y C";;;"(57) (8) 8715518";"Cl 6 5-33 L-160 Colombia, Neiva"
"DIAMOND RINGS JOYERÍA Y RELOJERÍA";;;"(57) (1) 2177994";"Cl 53 B 25-21 L-1-164-Y 2-84 Colombia, Bogotá"
"ALMACÉN JOYERÍA GARCÍA";;;"(57) (2) 8853546";"Cr9 15-23 Of 101-B Colombia, Cali"
"SOCIETY JOYEROS";;;"(57) (2) 8892616";"Cr7 12-55 L-210 Colombia, Cali"
"RAMÍREZ JUAN C.";;;"(57) (1) 2848523";"Cr7 11-72 L-232 Colombia, Bogotá"
"JOYERÍA KEOP'S";;;"(57) (6) 8848611";"Cr22 29-29 P-3 L-P-18 Colombia, Manizales"
"JOYERÍA EL CRISOL";;;"(57) (7) 5717503";"Av7 9-90 Centro Colombia, Cúcuta"
"JOYERÍA JULIANA";;;"(57) (2) 4464200";"Cl 44 B 5 N-32 Colombia, Cali"
"JOYERÍA NANCY";;;"(57) (5) 6652445";"Av San Martín 6-29 Colombia, Cartagena"
"EMERALD SHOP CASE";;;"(57) (5) 6643946";"Centro Cl 35 4-10 L-104 Centro Comercial Bolívar Calle de Ayos Colombia, Cartagena"
"MANCIPE MONTAÑEZ MÓNICA";;;"(57) (1) 2433650";"Cr7 13-84 Colombia, Bogotá"
"JOYERIA WAO VALERIE DOMINGUEZ";;;"(57) (5) 5838526";"Diagonal 10 6N-15 C.C. Guatapury Lc. 108 Colombia, Valledupar"
"COMPRAVENTA PELAÉZ JOYEROS";;;"(57) (2) 3130755";"Ce 83 B 16-13 L-4 Colombia, Cali"
"NEGOCIEMOS JOYERÍA Y TALLER";;;"(57) (2) 8856051";"Cl 15 8-103 L-120 Colombia, Cali"
"FRATELLI JOYEROS S.A.";;;"(57) (6) 3243687";"Cl 15 13-110 L-172 Colombia, Pereira"
"NOVEDADES ORO GOLDFILLED";;;"(57) (7) 6522763";"Cr15 34-59 L-109 Centro Colombia, Bucaramanga"
"PLATERÍA Y RELOJERÍA LA GRAN OMEGA";;;"(57) (2) 2725016";"Cl 30 26-23 Colombia, Palmira"
TECNIJOYAS;;;"(57) (7) 5723941";"Cl 11 4-51 C.C. Internacional Lecs L-109 Colombia, Cúcuta"
"First Name";"Email Address";Url;Telephone;Address
"ROJAS JAIME";;;"(57) (1) 2558869";"Cl 74 15-80 Int 2 Of 218 Colombia, Bogotá"
"COMPRA VENTA CARTIER LTDA.";;;"(57) (2) 5542355";"Cl 9 28-62 Colombia, Cali"
"JOYERÍA AMPARITO";;;"(57) (1) 2847863";"Cl 12 5-87 Colombia, Bogotá"
"COMPRA VENTA Y JOYERÍA KESAN";;;"(57) (7) 5846868";"Av6 7-04 Nuevo Escobal Colombia, Cúcuta"
"JOYERÍA Y RELOJERÍA BOSTON GOLD";;;"(57) (8) 7448088";"Cr11 20-39 Colombia, Tunja"
"JOYERÍA FLEING";;;"(57) (1) 2574482";"Cr15 93-60 L-2-16 Colombia, Bogotá"
"ASJOYERÍA BOGOTÁ";;;"(57) (1) 2847417";"Cl 12 6-12 Of 401 Colombia, Bogotá"
"RELOJERÍA Y JOYERÍA VÉLEZ";;;"(57) (4) 3472546";"Cl 30 A 77-82 Colombia, Medellín"
"EXPORTACIONES PALERMO ACCESORIOS";;;"(57) (4) 3140803";"Cr25 A 1 A S-45 L-3559 Colombia, Medellín"
"REPRESENTACIONES MARINA BORJA S.A.S";;;"(57) (2) 8812368";"Cr7 12-59 L-107 Colombia, Cali"
"B.R. JOYAS ONIX";;;"(57) (4) 5122826";"Cr 49 48 - 59 Of 404 Colombia, Medellín"
"TEMPUS SHOP";;;"(57) (4) 5120135";"Cl 49 52-47 L-102 Colombia, Medellín"
"JOYERÍA LEUCA";;;"(57) (8) 8369913";"Cr4 6-18 Colombia, Pitalito"
"DIORO JOYERÍA";;;"(57) (5) 3451811";"Cl 72 52-56 Colombia, Barranquilla"
"JOYERÍA EL COFRE";;;"(57) (1) 3421207";"Cr6 11-97 Colombia, Bogotá"
"VARIEDADES DARY'S";;;"(57) (4) 2511607";"Cl 46 51 A-26 L-349 Colombia, Medellín"
"EL MUNDO DE LAS JOYAS";;;"(57) (1) 2778212";"Cl 9 Bis 19 A-47 L-76 Colombia, Bogotá"
"JOYERÍA EL ZAFIRO";;;"(57) (75) 5686446";"Cl 7 C.C. San Andresito L-2-A Colombia, Pamplona"
"COMPRAVENTA EL ZAFIRO AZUL";;;"(57) (5) 2823610";"Cr20 19-55 Calle La Ford Colombia, Sincelejo"
"ESMERALD LEGEND";;;"(57) (1) 5709085";"Cr106 15-25 Bdg 4 Int 63-C Colombia, Bogotá"
"MECÁNICA DE PRECISIÓN JOGADI";;;"(57) (1) 2652165";"Cr72 L 34-60 S Colombia, Bogotá"
"PERFUMERIA Y JOYERIA ORIGINAL";;;"(57) (1) 3143314824";"Cr72 J 36-80 S Colombia, Bogotá"
"ALMACÉN COMPRAVENTA EL RUBÍ";;;"(57) (2) 4431349";"Cl 33 A 17-03 Colombia, Cali"
"JOYAS & JOYAS";;;"(57) (1) 2178339";"Av (Cr) 24 67-28 L-148 Colombia, Bogotá"
"JOYERIA CÉNTRICA";;;"(57) (8) 8713006";"Cr5 7-48 Colombia, Neiva"
"THE BEST EMERALD JEWELRY FACTORY";;;"(57) (8) 5126246";"Av20 de Julio 3 A-8 Colombia, San Andrés"
"INVERSIONES TORREJANO";;;"(57) (8) 5128250";"Av Las Américas Edif La Cascada Colombia, San Andrés"
"GOLD & GEMS FREE ZONE Y CÍA. LTDA.";;;"(57) (1) 3346669";"Cr5 A 14-80 L-117 Colombia, Bogotá"
"JUAN KYBURZ Y CIA. LTDA.";;;"(57) (2) 6670937";"Cl 28 N 4-94 Colombia, Cali"
"ARABESKE RELOJERÍA";;;"(57) (2) 8830763";"Cr5 15-02 L-76 Colombia, Cali"
"JOYERIA LUCIA";;;"(57) (4) 5116690";"Cl 46 51 A-26 L-403 Colombia, Medellín"
"PAULANDREA JOYERIA";;;"(57) (4) 5857179";"Cl 49 F 87-125 Colombia, Medellín"
"DIONE JOYERIA ARTESANAL";;;"(57) (4) 5142916";"Cr 49 53-20 L-70 Colombia, Medellín"
"VARIEDADES MONTEALEGRE PLATERÍA";;;"(57) (8) 2634544";"Cl 13 3-23 Centro Colombia, Ibagué"
"JOYERÍA ONIX";;;"(57) (6) 7421090";"Cr25 38-16 Colombia, Calarcá"
"WL DISEÑO DE JOYAS";;;"(57) (6) 3214796";"Cl 15 13-110 L-130 C.C. Pereira Plaza Colombia, Pereira"
"ASOCIACIÓN ORFEBRES UNIDOS DE COLOMBIA ORUS";;;"(57) (7) 6323278";"Cl 36 25-09 Colombia, Bucaramanga"
"JOYAS & STILOS";;;"(57) (7) 6849768";"Cl 31 26 A-19 L-110 Colombia, Bucaramanga"
"MI JOYERÍA";;;"(57) (7) 6422967";"Cl 33 18-36 L-142 Colombia, Bucaramanga"
"JOYERÍA ALBERT";;;"(57) (4) 5111295";"Cl 48 48-42 Int 507 Colombia, Medellín"
"First Name";"Email Address";Url;Telephone;Address
"JOYAS MERCI";;;"(57) (4) 2517576";"Cl 52 47-28 Of 408 Colombia, Medellín"
"ALMACÉN Y COMPRAVENTA LA CAROLINA";;;"(57) (2) 6661277";"Av3 N 49 N-27 Colombia, Cali"
"COMPRAVENTA FARALLONES";;;"(57) (2) 8841495";"Cr6 13-117 Colombia, Cali"
"RELOJES Y RELOJES";;;"(57) (4) 2312235";"CL 46 53-46 OF 150 Colombia, Medellín"
"JOYERÍA Y RELOJERÍA EL SEGURO";;;"(57) (4) 2318504";"Cl 51 51-76 L-201 Colombia, Medellín"
"TALLER DE JOYAS LEOS";;;"(57) (4) 5130825";"Cl 48 48-14 Of 305 Colombia, Medellín"
"JOYERÍA Y RELOJERÍA DON ROJAS";;;"(57) (7) 6227872";"Plaza de Mercado Central L-116 Colombia, Barrancabermeja"
"JOYERÍA Y RELOJERÍA NEW YORK";;;"(57) 3166383467";"Cr13 8-08 Colombia, Buga"
"COMPRAVENTA LA MEJOR DE BUGA";;;"(57) (2) 2279172";"Cr13 9-11 Colombia, Buga"
"JOYERÍA AMBAR AKSD";;;"(57) (6) 3243415";"Cr6 18-30 Colombia, Pereira"
"TALLER DE JOYERÍA ARTE Y ESTILO";;;"(57) (6) 3351334";"Cr7 18-21 L-112 Colombia, Pereira"
"ORO Y METALES";;;"(57) (4) 5114511";"Cl 46 51 A-26 Of 450 Colombia, Medellín"
"PLATERIA ZIMEL";;;"(57) (7) 6941184";"Cr33 A 101-06 Bellavista Casas Colombia, Bucaramanga"
"ANDRÉ LAURENT JOYERÍA";;;"(57) (7) 6436269";"Cr37 52-43 Of 501 Colombia, Bucaramanga"
"JOYERÍA SELECTA";;;"(57) (7) 6520782";"Cr17 33-51 L-220 C.C. Plaza Centro Colombia, Bucaramanga"
"COMPRAVENTA LA GRAN PROSPERIDAD";;;"(57) (7) 6582764";"Cl 30 5 E-17 P-1 Colombia, Bucaramanga"
"COMPRAVENTA LA GRAN PIEDECUESTA";;;"(57) (7) 6542777";"Cl 10 6-08 Parque Principal Colombia, Piedecuesta"
"AGATA ACCESORIOS";;;"(57) (7) 5718498";"Cl 15 1 E-31 Caobos Colombia, Cúcuta"
"JOYERÍA PAKA'S";;;"(57) (2) 7234817";"Cl 17 25-65 Centro Colombia, Pasto"
"JOYERÍA GOLDEN GATE";;;"(57) (1) 3415809";"Cr6 12-85 Colombia, Bogotá"
"LA GRAN AMÉRICA";;;"(57) (1) 2844739";"Cr6 12-60 Colombia, Bogotá"
"JOYERÍA CRISTIANA";;;"(57) (7) 6472695";"C.C. Panamá L-243 Colombia, Bucaramanga"
"V. ALEJANDRA JOYERIA";;;"(57) (1) 6256208";"Cl 39 45-63 Colombia, Bogotá"
"DIAMOND HILL GALERÍA DE JOYAS";;;"(57) (2) 3247296";"Cr98 16-200 B-7 L-85 Colombia, Cali"
"JOYERÍA Y RELOJERÍA EDOX";;;"Domic.: (57) (2) 2371160";"Cl 7 12-50 Colombia, Buga"
"JOYERÍA JHON FREDY";;;"(57) (7) 6569386";"C.C Sanbazar L-86 Colombia, Bucaramanga"
"PEÑA METALES";;;"(57) (7) 6330011";"Cr18 34-43 L-305 C.C. Páez Colombia, Bucaramanga"
"COMPRA VENTA EL MONO EULICES";;;"(57) (7) 6301655";"Cl 33 18-36 L-101 Colombia, Bucaramanga"
"JOYERÍA Y RELOJERÍA PLATINUM";;;"(57) (2) 3396567";"C.C. Unicentro L- 223 Colombia, Cali"
"JOYERÍA EDUARDO GÓMEZ";;;"(57) (4) 3111617";"Cr43 A 6 S-15 L-167 Colombia, Medellín"
"LA GUACA DE CASIA";;;"(57) (2) 8895335";"Cr9 13-91 Of 186 Colombia, Cali"
"JOYERÍA BAKKAR";;;"(57) (2) 2710161";"Cr26 30-25 Colombia, Palmira"
"PLATERÍA Y RELOJERÍA LA GRAN OMEGA";;;"(57) (2) 2725016";"Cl 30 26-23 Colombia, Palmira"
"PLATA Y JOYAS";;;"(57) (2) 8811102";"Cr4 13-57 L-65 Colombia, Cali"
"CREACIONES Y DETALLES KATY";;;"(57) (2) 8856138";"Cl 14 5-20 L-1055 Colombia, Cali"
TECNIJOYAS;;;"(57) (7) 5723941";"Cl 11 4-51 C.C. Internacional Lecs L-109 Colombia, Cúcuta"
"MARCÉ JOYAS Y ACCESORIOS";;;"(57) (7) 5716153";"Av1 E 16 A-15 Caobos Colombia, Cúcuta"
"JOYERÍA LOS REYES";;;"(57) (7) 5713485";"Cl 9 6-54 L-229 C.C. Alejandría Colombia, Cúcuta"
"BERNAL GLADYS";;;"(57) (1) 2563668";"Cr15 86 A-16 Colombia, Bogotá"
"JOYERÍA Y RELOJERÍA JAGUAR LTDA.";;;"(57) (6) 8823603";"Cr22 19-17 L-17-A Centro Colombia, Manizales"
"First Name";"Email Address";Url;Telephone;Address
"PEÑA METALES";;;"(57) (7) 6330011";"Cr18 34-43 L-305 C.C. Páez Colombia, Bucaramanga"
"SILMART JOYEROS";;;"(57) (1) 3601839";"Cl 9 Bis 19 A-10 L-7 Colombia, Bogotá"
"ASJOYERÍA BOGOTÁ";;;"(57) (1) 2847417";"Cl 12 6-12 Of 401 Colombia, Bogotá"
SOLMONTE;;;"(57) (1) 2849718";"Cr7 11-72 L-321 Colombia, Bogotá"
VALERIE;;;"(57) (6) 7494915";"Cr14 18 N-95 L-13 Colombia, Armenia"
"ZITRICA COSMETICOS";;;"(57) (7) 5723951";"Cl 13 5-80 Centro Colombia, Cúcuta"
"JOYEROS DE OCCIDENTE";;;"(57) (2) 6849992";"Carrefour La 70 L-13B Colombia, Cali"
"FOTO ALMACÉN ROLLEI";;;"(57) (2) 7732169";"Cr6 12-133 Colombia, Ipiales"
"ENCHAPES ESPECIALES";;;"(57) (2) 8816026";"Cr4 14-45 Ap 205 Colombia, Cali"
"IMPLE JOYEROS";;;"(57) (1) 2845811";"Cl 12 6-45 L-101 Colombia, Bogotá"
"TIENDA TULASI";;;"(57) (5) 3516007";"Cl 48 43-104 P-1 Colombia, Barranquilla"
"JOYERÍA LATINA";;;"(57) (1) 2981450";"Cr100 23-35 L-107 Colombia, Bogotá"
"JOYERÍA Y RELOJERÍA EL SEGURO";;;"(57) (4) 2318504";"Cl 51 51-76 L-201 Colombia, Medellín"
"JOYERÍA DE FRANCO";;;"(57) (7) 5721893";"Av6 7-85 L-64 C.C. Coosacut Colombia, Cúcuta"
"VALENCIA JOYAS";;;"(57) (1) 6122229";"Cr7 115-60 L-122 Colombia, Bogotá"
"OROPLAST JOYAS";;;"(57) (4) 3612178";"Cr 65 A 13-157 L-17 Colombia, Medellín"
"JOYERÍA LA BÚRBUJA DE ORO";;;"(57) (6) 3358408";"Cc La 17 8-47 L-18 Colombia, Pereira"
"ALMACÉN NACIONAL";;;"(57) (6) 3682010";"Cl 8 A 7-99 Colombia, La Virginia"
"JOYERÌA Y COMPRAVENTA ITALIANA";;;"(57) (6) 3333363";"Cl 20 5-13 Colombia, Pereira"
"JOYERÍA Y PLATERÍA EL MOTIVO";;;"(57) (1) 3416284";"Cr6 12-11 Colombia, Bogotá"
"COMPRA VENTA NUEVO MILENIO DEL VALLE";;;"(57) (2) 4392591";"Cr5 N 64 N-70 Colombia, Cali"
"JOYERIA PIEDADA ESTRADA";;;"(57) (6) 8872525";"Cr27 A 66-30 L-862 Colombia, Manizales"
"TALLER DE JOYERÍA JEWERLY";;;"(57) (7) 5715889";"Av3 7-62 Centro Colombia, Cúcuta"
"DETALLES JOYERÍA";;;"(57) (5) 2810160";"Cl 21 20-42 Centro Colombia, Sincelejo"
"JOYERÍA CASA DEL RELOJ";;;"(57) (5) 3417271";"Cl 33 40-86 Colombia, Barranquilla"
"ENCHAPES EN ORO UNIVERSAL";;;"(57) (1) 2866089";"Cl 16 8-95 L-889 Colombia, Bogotá"
"JOYERÍA SAMY";;;"(57) (7) 6436158";"Cr35 51-36 Colombia, Bucaramanga"
"COMPRA VENTA EL KILATE";;;"(57) (6) 7442997";"Cr18 21-51 Colombia, Armenia"
"FERNÁNDEZ DOMÍNGUEZ JORGE L.";;;"(57) (2) 8959711";"Cr6 12-18 Of 320 Colombia, Cali"
"COMPRA DE ORO Y JOYERÍA BETO";;;"(57) (6) 8975159";"Cr20 17-43 Colombia, Manizales"
"JOYERÍA JORGE A. LIEVANO";;;"(57) (1) 3764065";"Cl 82 11-75 L-125 Colombia, Bogotá"
"PIONEER JOYERÍA";;;"(57) (2) 3721772";"Cl 27 43 A-75 Colombia, Cali"
"JOYERÍA BAKKAR";;;"(57) (2) 2710161";"Cr26 30-25 Colombia, Palmira"
"EGO JOYERÍA";;;"(57) (4) 3540021";"Cr35 7-24 Int 101 Colombia, Medellín"
"JOYERÍA PRÍNCIPE";;;"(57) (7) 5718564";"Av4 10-35 Centro Colombia, Cúcuta"
"JOYERÍA BIJOU";;;"(57) (4) 2659384";"Cr66 B 34 A-76 L-8 Colombia, Medellín"
"ARTESORO DESING";;;"(57) 3173316558";"Cl 13 78-144 L-158 Colombia, Cali"
"PERTSCH MEDINA FREDDY";;;"(57) (1) 2113021";"Cl 69 9-78 Colombia, Bogotá"
"G.A.G GEMS ESMERALD LTDA. CI.";;;"(57) (1) 3376250";"Av Jmz 5-43 L-333 Colombia, Bogotá"
"JOYERÍA Y RELOJERÍA LEMOS";;;"(57) (4) 2319627";"Cr52 48-30 Colombia, Medellín"
"First Name";"Email Address";Url;Telephone;Address
"INVERSIONES LIVAM LTDA.";;;"(57) (1) 2432557";"Cr6 12-88 P-8 Colombia, Bogotá"
"TALLER DE CERAS MAURICIO RODAS";;;"(57) (2) 8962142";"Cr9 15-33 L M-14 A Colombia, Cali"
"JOYAS C.H.C S.A.S";;;"(57) (2) 5521758";"Cl 8 H 50-75 Of 301 D Colombia, Cali"
"CALVO ARIEL";;;"(57) (2) 2270420";"Cl 7 13-80 Colombia, Buga"
"JOYERÍA BRILLANTES";;;"(57) (6) 3342055";"C.C. Victoria L-331 A Colombia, Pereira"
"JOYERÍA ORO Y PLATA";;;"(57) (7) 6703627";"Cr16 33-44 L-C-4 Colombia, Bucaramanga"
"JOYERÌA EL GRAN KILATE";;;"(57) (6) 3355835";"Cr6 18-19 Colombia, Pereira"
"ALMACÉN MIL DETALLES";;;"(57) (2) 2122248";"Cr5 10-56 Colombia, Cartago"
"V. ALEJANDRA JOYERIA";;;"(57) (1) 6256208";"Cl 39 45-63 Colombia, Bogotá"
"LA TIARA TALLER DE JOYERIA";;;"(57) (6) 3339086";"Cl 18 8-27 Colombia, Pereira"
"ORIENT COLOMBIA S.A.";;;"(57) (1) 3404266";"Cl 38 13-37 Piso 11 Colombia, Bogotá"
"SILVER PLANET E.U.";;;"(57) (4) 5122288";"Cl 48 53-62 Of 806 Colombia, Medellín"
"COMPRA VENTA LA PRADERA";;;"(57) (5) 6765506";"Nuevo Bosque Dg30 47-80 Colombia, Cartagena"
"PLAZA BOCAGRANDE CENTRO COMERCIAL";;;"(57) (5) 6436509";"Bgde Cr1 12-118 Av Malecón Colombia, Cartagena"
"EGO JOYERÍA";;;"(57) (4) 3540021";"Cr35 7-24 Int 101 Colombia, Medellín"
JOYARTEC;;;"(57) (4) 2518686";"Cl48 49-42 Ofc.608 Colombia, Medellín"
"JOYERÍA ELIA";;;"(57) (5) 6644250";"Cl 38 8-08 Calle del Santísimo Colombia, Cartagena"
"JOYERIA LA 19";;;"(57) (4) 8870883";"Cr19 20-90 Colombia, Yarumal"
"TALLER DE JOYERÍA EL JARDÍN";;;"(57) (4) 5118266";"Cl 48 49-42 Ap 702 Colombia, Medellín"
"JOYERIA GRUBER JOYEROS";;;"(57) (1) 3764072";"Cl 82 11-93 L-133 Colombia, Bogotá"
"JOYERÍA COLONIAL";;;"(57) (4) 8533011";"Cl 10 10-15 Colombia, Santa Fe de Antioquia"
"JOYERÍA LEYDI";;;"(57) (4) 8532550";"Cl 10 8-58 Colombia, Santa Fe de Antioquia"
"JOYERÍA FASE 1";;;"(57) (1) 3604152";"Cl 9 Bis 19 A-10 L-109 Colombia, Bogotá"
"ALMACÉN Y COMPRAVENTA TÍO RICO";;;"(57) (2) 8316604";"Cr17 8-06 Esq Brr Esmeralda Colombia, Popayán"
"JOYERIA Y COMPRAVENTA ORIENT";;;"(57) (4) 8537815";"Cr20 20-14 Colombia, Yarumal"
"COMPRAVENTA PELAÉZ JOYEROS";;;"(57) (2) 3130755";"Ce 83 B 16-13 L-4 Colombia, Cali"
"PLATERÍA Y JOYERÍA J.R";;;"(57) (2) 6613670";"Av5 N 16-87 Colombia, Cali"
"COMPRA VENTA BRIONY";;;"(57) (2) 4412904";"Cr15 33 H-05 Colombia, Cali"
"JOYERÍA Y PLATERÍA ALEMANA";;;"(57) (4) 2328711";"Cr43 A 34-95 L-275 Colombia, Medellín"
"DANIEL F. JOYERÍA";;;"(57) (7) 6338106";"Cl 37 14-74 P-3 L-C-24 Colombia, Bucaramanga"
"JOYERÍA CLIVING";;;"(57) (8) 7443767";"C.C. Plaza Real L-103 Centro Histórico Colombia, Tunja"
"CUEROS Y ARTESANÍAS LTDA.";;;"(57) (1) 4138839";"Aeropuerto El Dorado L-D-9 Zona In-Bond Colombia, Bogotá"
"MESTIZA ACCESORIOS";;;"(57) (2) 6605315";"Cl 26 N 5 A N-18 Colombia, Cali"
"JOYERÍA Y RELOJERÍA LA MARQUEZA";;;"(57) (7) 5717587";"Cl 10 7-08 Centro Colombia, Cúcuta"
"PORTO ABZZURRO";;;"(57) (7) 6430625";"Cr36 49-45 L-228 Colombia, Bucaramanga"
"ECLECTA JOYAS Y ACCESORIOS";;;"(57) (6) 3250819";"C.C. Pereira Plaza Nivel 2 L-6R Colombia, Pereira"
"ALMACÉN EL REGALO";;;"(57) (8) 2564352";"Cr12 4-87 Centro Colombia, Líbano"
"ALEX JOYEROS";;;"(57) (5) 4210369";"Cl 14 4-42 Colombia, Santa Marta"
"JOYERÍA NATHALIA";;;"(57) (1) 4156358";"Cl 20 C 100 58 Colombia, Bogotá"
"COMPRAVENTA LA EFECTIVA";;;"(57) (4) 5116469";"Cr50 48-04 Colombia, Medellín"
"First Name";"Email Address";Url;Telephone;Address
"COMPRA - VENTA ORO SÓLIDO";;;"(57) (2) 2132001";"Cl 12 7-28 Colombia, Cartago"
"JOYERÍA S'CADA";;;"(57) (2) 2368169";"Cl 7 11-42 Colombia, Buga"
"JOYERÍA PURE GOLD";;;"(57) (1) 2364111";"Cl 86 A 13 A 21 L-108 Colombia, Bogotá"
"JOYERÍA Y RELOJERÍA BIG-BEN";;;"(57) (1) 3347965";"Cl 12 6-12 Colombia, Bogotá"
"IPANEMA PLATERÍA LTDA.";;;"(57) (4) 2313134";"Cl 48 53-63 L-129 No. 2 Colombia, Medellín"
"G.A.G GEMS ESMERALD LTDA. CI.";;;"(57) (1) 3376250";"Av Jmz 5-43 L-333 Colombia, Bogotá"
"JOYERÍA RELOJERÍA Y PERFUMERÍA GEMAS";;;"(57) (2) 2373535";"Cr12 5-17 Colombia, Buga"
"JOYERÍA CAREZZA";;;"(57) (1) 2848316";"Cr7 11-72 L-126 Colombia, Bogotá"
"JOYERÍA Y RELOJERÍA REAL";;;"(57) (1) 3419651";"Cr6 12 -19 Colombia, Bogotá"
"JOYERIA Y RELOJERIA KINGS";;;"(57) (1) 3415937";"Cr6 12-77 Colombia, Bogotá"
"MULTISERVICIOS JARA";;;"(57) (4) 2811338";"Cl 75 A 50-91 Itagüí Colombia, Itagüí"
VALERIE;;;"(57) (6) 7494915";"Cr14 18 N-95 L-13 Colombia, Armenia"
"JOYERÍA SILVER";;;"(57) (1) 3345618";"Cr6 12-79 L-103 Colombia, Bogotá"
"GALO JOYEROS";;;"(57) (8) 2742860";"C.C. Multicentro L-204 Colombia, Ibagué"
"JOYERÍA Y PLATERÍA MARIANA";;;"(57) (1) 2590297";"Cl 140 20-50 L-37 Colombia, Bogotá"
"PLATERÍA LAZZO";;;"(57) (7) 5728137";"Av6 Cl 8 C.C. Alejandría L-14-106 Colombia, Cúcuta"
"CASTING JOYAS BOGOTÁ";;;"(57) (1) 2845460";"Cl 12 5-89 Of 202 Colombia, Bogotá"
"COMPRAVENTA Y JOYERÍA CENTRO DEL ORO";;;"(57) (5) 6687367";"Cl Vicente García 6-07 Colombia, Cartagena"
"JOYERÍA Y RELOJERÍA CHOPARD";;;"(57) (4) 2882958";"Cr43 C 67 S-25 Sabaneta Colombia, Sabaneta"
"JOYERIA MARGRED";;;"(57) (4) 5136453";"Cl 49 52-52 L-141 Colombia, Medellín"
"JOYERÍA MARFIL";;;"(57) (4) 3111617";"C.C. Oviedo L-167 Colombia, Medellín"
"ESTUCHES INEBER";;;"(57) (1) 2647963";"Cl 35 B S 73 B-45 Colombia, Bogotá"
"XUA ACCESORIOS LTDA.";;;"Telefax: (57) (1) 6019685";"Cl 91 17 - 50 Ap 404 Colombia, Bogotá"
"JOYERÍA CRISTIANA";;;"(57) (7) 6472695";"C.C. Panamá L-243 Colombia, Bucaramanga"
"SILVER PLANET E.U.";;;"(57) (4) 5122288";"Cl 48 53-62 Of 806 Colombia, Medellín"
"AMAYA JOYEROS";;;"(57) (8) 8712156";"C.C. Metropolitano Trr B L-152 Colombia, Neiva"
"ENALTJOR ESCUELA NAL. DE ALTA JOYERIA";;;"(57) (1) 2816082";"Cl 13 6-53 P-2 Colombia, Bogotá"
MORELLATO;;;"(57) (1) 6217864";"Cr 11 82-71 L-238 Colombia, Bogotá"
"TALLER JOYERIA Y RELOJERIA MAURO`S";;;"(57) (4) 2704547";"Cr41 37 S- 18 Envigado Colombia, Envigado"
"JOYERIA GRIEGOS";;;"(57) (1) 2817247";"Cr6 12-97 Colombia, Bogotá"
"CPD DE JOYERÍA";;;"(57) (7) 6943972";"Cr33 A 29-80 Of 1 Colombia, Bucaramanga"
"COMPRAVENTA CHRISTAL";;;"(57) (4) 2576908";"Cr79 92-29 Robledo Miramar Colombia, Medellín"
"JOYERÍA MATIZ";;;"(57) (1) 2590979";"Dg138 18 B-12 Colombia, Bogotá"
"CRISTALES Y ACRÍLICOS J.G.";;;"(57) (1) 2849932";"Cr7 11-72 L-329 Colombia, Bogotá"
"COMPRA-VENTA Y JOYERÍA FÉNIX";;;"(57) (4) 7910759";"Cr2 35-52 Centro Colombia, Montería"
"JOYERÍA Y PLATERÍA PARÍS";;;"(57) (2) 2733631";"Cl 30 26-18 Colombia, Palmira"
"JOYERÍA SINGAPUR";;;"(57) (1) 2770493";"Cl 9 Bis 19 A-10 L-1 Colombia, Bogotá"
"JOYERÍA Y RELOJERÍA FABIÁN";;;"(57) (1) 5225880";"Av 15 124-17 TB L 105 Colombia, Bogotá"
"COMPRA-VENTA Y JOYERÍA PLATINO";;;"(57) (4) 7910873";"Cl 34 3-60 Centro Colombia, Montería"
"CLOE JOYAS & ACCESORIOS";;;"(57) (7) 5756094";"Cl 10 Av Santander L-342 Colombia, Cúcuta"
"First Name";"Email Address";Url;Telephone;Address
"JOYAS L'AMOUR";;;"(57) (2) 5511298";"Cosmocentro L-1-33 Colombia, Cali"
"PLATERÍA LA CADENITA";;;"(57) (2) 8801526";"Cr9 13-83 Colombia, Cali"
"JOYERÍA RELOJERÍA Y PERFUMERÍA GEMAS";;;"(57) (2) 2373535";"Cr12 5-17 Colombia, Buga"
"VARIEDADES MONTEALEGRE PLATERÍA";;;"(57) (8) 2634544";"Cl 13 3-23 Centro Colombia, Ibagué"
"JOYAS C.H.C S.A.S";;;"(57) (2) 5521758";"Cl 8 H 50-75 Of 301 D Colombia, Cali"
"JOYAS CARLOS HUMBERTO";;;"(57) (2) 2250532";"C.C. La Herradura L G-16 Colombia, Tuluá"
"JOYERÍA Y RELOJERÍA HENRY GIRALDO";;;"(57) 3172123543";"Cl 7 12-12 Colombia, Buga"
"RELOJERÌA ROYAL TIME";;;"(57) (6) 3332471";"Cr8 16-54 L-220 C.C. Los Paisas Colombia, Pereira"
"TALLER DE JOYERÍA ARTE Y ESTILO";;;"(57) (6) 3351334";"Cr7 18-21 L-112 Colombia, Pereira"
"ROJAS TRUJILLO JUAN CARLOS";;;"(57) (6) 3357010";"Cl 18 8-27 Colombia, Pereira"
"EXPORCOMET C.I. S.A.";;;"(57) (8) 2633224";"Cr3 15-41 L-205 Colombia, Ibagué"
"JOYERÍA ORO Y PLATA";;;"(57) (7) 6703627";"Cr16 33-44 L-C-4 Colombia, Bucaramanga"
"CERRAJERIA Y RELOJERIA CALIX";;;"(57) (7) 6310362";"Plaza Satélite del Sur L-2180 Colombia, Bucaramanga"
"ARCHI JOYERIA";;;"(57) (7) 6427352";"Cr17 31-54 Colombia, Bucaramanga"
"PLATERÍA DIANA PALOMINO";;;"(57) (6) 3338458";"Cr11 Bis 17-20 C.C. Ciudad Victoria Colombia, Pereira"
"JOYERÍA BOGOTÁ";;;"(57) (1) 2812529";"Cr10 9-08 Colombia, Bogotá"
"JOYERÍA CLARENCE";;;"(57) (8) 7447962";"Cr11 20-44 L-102 Colombia, Tunja"
"JOYERÍA Y RELOJERÍA REAL";;;"(57) (1) 3419651";"Cr6 12 -19 Colombia, Bogotá"
"DISUIZA S.A.";;;"(57) (1) 2153041";"Av (Cr) 15 122-45 P-6 Colombia, Bogotá"
"LA CASA DEL RELOJ";;;"(57) (6) 3340781";"Cl 21 8-15 Colombia, Pereira"
"AMAYA JOYEROS";;;"(57) (8) 8712156";"C.C. Metropolitano Trr B L-152 Colombia, Neiva"
"LA GRAN AMÉRICA";;;"(57) (1) 2844739";"Cr6 12-60 Colombia, Bogotá"
"JOYERÍA Y RELOJERÍA HERMITA";;;"(57) (2) 7738431";"Cr5 20-05 Colombia, Ipiales"
"TALLER DE JOYERÍA YNCA";;;"(57) (8) 2618000";"Cr3 16-51 L-1067 Colombia, Ibagué"
"JOYERÍA GOMAFLO";;;"(57) (7) 6306692";"Cr18 34-08 Colombia, Bucaramanga"
"TALLER DE JOYERÍA JOMAR";;;"(57) (8) 2622956";"C.C. San Andrexito L-10-17 Colombia, Ibagué"
"NOVEDADES ORO GOLDFILLED";;;"(57) (7) 6522763";"Cr15 34-59 L-109 Centro Colombia, Bucaramanga"
"JOYERIA EL DOLAR";;;"(57) (2) 5530038";"Cr11 12-48 Jamundí Colombia, Jamundí"
"SOCIETY JOYEROS";;;"(57) (2) 8892616";"Cr7 12-55 L-210 Colombia, Cali"
"JOYERÍA Y COMPRA VENTA LOS CÁMBULOS";;;"(57) (2) 5130603";"Cl 9 40-35 Colombia, Cali"
"JOYERÍA ROLEX";;;"(57) (7) 5716728";"Av4 10-53 Colombia, Cúcuta"
"DE ORO JOYERIA";;;"(57) (1) 2365160";"Cr11 82-71 L-123 Colombia, Bogotá"
"JOYAS Y ACCESORIOS DE COLOMBIA";;;"(57) (7) 6443115";"C.C. Sanandresito La Isla P-3 L-B-28 Colombia, Bucaramanga"
"JOYERÍA Y RELOJERÍA SUIZA";;;"(57) (8) 2631838";"Cr3 16-99 Centro Colombia, Ibagué"
"BERNAL GLADYS";;;"(57) (1) 2563668";"Cr15 86 A-16 Colombia, Bogotá"
"R.G.C. JOYEROS Y CÍA. LTDA.";;;"(57) (7) 6458359";"Cl 41 32-59 P-3 Colombia, Bucaramanga"
".LMACÉN Y JOYERIA CALINAS";;;"(57) (8) 6626372";"Cl 37 A 30-31 Centro Colombia, Villavicencio"
"MORERA AUGUSTO";;;"(57) (1) 3421651";"Cr6 12-27 Of 305 Colombia, Bogotá"
"ECLECTA JOYAS Y ACCESORIOS";;;"(57) (6) 3250819";"C.C. Pereira Plaza Nivel 2 L-6R Colombia, Pereira"
"COMPRA VENTA CARTIER LTDA.";;;"(57) (2) 5542355";"Cl 9 28-62 Colombia, Cali"
"First Name";"Email Address";Url;Telephone;Address
"JOYERÍA Y OFERTAS DE ORO LA 14";;;"(57) (6) 3210989";"Cl 17 19-230 Colombia, Pereira"
"JOYERÍA HELIO TORRES P.";;;"(57) (7) 6303431";"Cr19 34-58 Colombia, Bucaramanga"
"JOYERÍA MAR DE PLATA";;;"(57) (2) 2255060";"Cr25 27-49 Colombia, Tuluá"
"MARTHA ZAPATA ACCESORIES";;;"(57) (7) 5725927";"Av6 9-34 L-033 C.C. Plaza de los Andes Colombia, Cúcuta"
JOYAESTILO;;;"(57) (4) 3530976";"Cr76 24-54 Colombia, Medellín"
"ENALTJOR ESCUELA NAL. DE ALTA JOYERIA";;;"(57) (1) 2816082";"Cl 13 6-53 P-2 Colombia, Bogotá"
"JOYERÍA SAMY";;;"(57) (7) 6436158";"Cr35 51-36 Colombia, Bucaramanga"
"ATAPUMA SONIA";;;"(57) (1) 2350021";"Cr13 55-28 Int 1 Colombia, Bogotá"
"JOYERÍA JUDITH";;;"(57) (1) 2848451";"Cr7 11-72 L-147 Colombia, Bogotá"
"OBANDO PERAFAN VICTOR";;;"(57) (1) 2435903";"Cr6 12-34 Of 403 Colombia, Bogotá"
"EL DORADO JOYAS";;;"(57) (1) 4129291";"Cl 8 C 78C-05 Colombia, Bogotá"
"GARCÍA JAIME DARÍO";;;"(57) (1) 2812784";"Cr6 12-24 Colombia, Bogotá"
"COMPRAVENTA Y JOYERIA HUILA";;;"(57) (8) 8710650";"Cl 10 3 87/85 Colombia, Neiva"
"BLADYS JOYERÍA";;;"(57) (2) 7732818";"Cr7 10-05 Colombia, Ipiales"
"RODRÍGUEZ SANDRA";;;"(57) (1) 3345370";"Cr6 12-79 L-109 Colombia, Bogotá"
"PLATERÍA CELESTE";;;"(57) (4) 5124931";"Cl 46 53-72 L-142 Colombia, Medellín"
"ALMACÉN COMPRA VENTA JUAN DEL CORRAL";;;"(57) (4) 5130751";"Cr51 D 55-45 Colombia, Medellín"
"ARTE Y JOYAS";;;"(57) (4) 2722569";"Cl 50 48-56 Colombia, Medellín"
"JOYERIA CASIO LA GUACA";;;"(57) (4) 5127875";"cl 46 51 A-26 P-3 L-337B Colombia, Medellín"
"JOYERÍA Y RELOJERÍA GALAXY";;;"(57) (2) 8841837";"Cr5 8-48 Colombia, Cali"
"TALLER DE JOYERÍA CARTIER";;;"(57) (4) 3720876";"Cl 52 50-47 Itagüí Colombia, Itagüí"
"NOI JOYERIA";;;"(57) (4) 2686903";"Cl 9 43 B-159 Colombia, Medellín"
"NEW DESING PIERCING";;;"(57) (8) 8749900";"C.C. Megacentro L-214 Colombia, Neiva"
"COMPRA VENTA LA PLAYA";;;"(57) (4) 2932040";"Cr45 49-44 Colombia, Medellín"
"JOYERÍA LA ESTRELLA";;;"(57) (1) 7281616";"Dg49 A S 51-08 L-A-4 Colombia, Bogotá"
"TECNOLOGÍA E INSUMOS CÍA. LTDA.";;;"(57) (1) 3423691";"Cl 12 6-19 Colombia, Bogotá"
"JOYERÍA CAROL ANDREA";;;"(57) (1) 3600782";"Cl 9 19-17 L-84 Colombia, Bogotá"
"DETALLES EL TESORO";;;"(57) (2) 2124542";"Cr5 12-102 Colombia, Cartago"
"JOYERÍA GOLD";;;"(57) (1) 2122613";"Cl 61 13-42 Int 109 Colombia, Bogotá"
"COMPRA VENTA LA 21";;;"(57) (2) 2289863";"Cl 21 9 A-02 Colombia, Buga"
"GAIA JOYERÍA DE DISEÑO";;;"(57) (4) 2765303";"Medellín Colombia, Medellín"
"GOLDEN SILVER";;;"(57) (6) 3261470";"C.C. Sanandresito L-145 al 147 y L-N-20 Colombia, Pereira"
"JOYAS EN ORO Y PLATA";;;"(57) (1) 2819677";"Cr6 11-93 Colombia, Bogotá"
"MOLANO ELSA";;;"(57) (1) 6121895";"C.C. Hacienda Santa Bárbara L-110-B Colombia, Bogotá"
ROSENTHAL;;;"(57) (1) 2820876";"Cr6 11-77 Colombia, Bogotá"
"JOYERÍA CASA DEL RELOJ";;;"(57) (5) 3417271";"Cl 33 40-86 Colombia, Barranquilla"
"DAVILA®S JOYERÍA Y RLOJERÍA";;;"(57) (5) 7276802";"Cl 7 6-40 centro Colombia, Riohacha"
"JOYERIA Y RELOJERIA SAN CRISTOBAL";;;"(57) (4) 4273351";"Cl 63 128-179 Colombia, Medellín"
"COMPRA VENTA EL TRÉBOL";;;"(57) (2) 6628164";"Cr8 72 B-72 Colombia, Cali"
"VARIEDADES FUTURA ROCHE";;;"Nal: (57) (1) 2252292";"Cr 69 N 64 H-84 Colombia, Bogotá"
"First Name";"Email Address";Url;Telephone;Address
"JOYERIA SHANTAL";;;"(57) (1) 2844643";"Cr7 11-72 L-219 Colombia, Bogotá"
"LUXOR JOYERÍA";;;"(57) (6) 8894114";"C.Comercial Fundadores L 226 Colombia, Manizales"
"JOYERÍA Y RELOJERÍA RUBY";;;"(57) (1) 6895532";"Cr117 137 A-22 Colombia, Bogotá"
"TALLER DE JOYERÍA LAS TRES G";;;"(57) (4) 2932226";"Cl 48 49-42 Int 319 Colombia, Medellín"
"JOYERÍA BRASIL";;;"(57) (2) 8800728";"Cr9 13-111 L-41 Colombia, Cali"
PANDORA;;;"(57) (1) 6166571";"Cr11 82-01 Colombia, Bogotá"
"TALLER DE JOYERÍA COLJOYAS";;;"(57) (4) 5115880";"Cl 48 49-42 Of 512 Colombia, Medellín"
"ALEJANDRA MEJÍA JOYAS Y ACCESORIOS";;;"(57) (4) 4488852";"Cr74 53-55 L-5363 Colombia, Medellín"
"JOYAS EXCLUSIVAS 3000";;;"(57) (4) 2508638";"Cr79 C 45 B-37 Int 402 Colombia, Medellín"
"TALLER JOYERIA MARÍA DE LOS ANGELES";;;"(57) (4) 4063887";"Cr13 15-39 Ap 401 Barbosa Colombia, Medellín"
"GOLDEN SILVER";;;"(57) (6) 3261470";"C.C. Sanandresito L-145 al 147 y L-N-20 Colombia, Pereira"
"COMPRA-VENTA Y JOYERÍA PLATINO";;;"(57) (4) 7910873";"Cl 34 3-60 Centro Colombia, Montería"
"COMPRA VENTA LA PRADERA";;;"(57) (5) 6765506";"Nuevo Bosque Dg30 47-80 Colombia, Cartagena"
"PLATA DULCE";;;"(57) (4) 3135721";"Cl 6 S 43 A-227 Int 1360 Colombia, Medellín"
"JOYERÍA Y PLATERÍA ALEJANDRÍA";;;"(57) (8) 8716993";"C.C. Los Comuneros L-2127 Nivel B Colombia, Neiva"
"LUCY JEWELRY";;;"(57) (5) 6644255";"Calle Sto Domingo 3-19 Edif Cuesta Colombia, Cartagena"
"MOLANO ELSA";;;"(57) (1) 6121895";"C.C. Hacienda Santa Bárbara L-110-B Colombia, Bogotá"
"JOYERÍA MAZ";;;"(57) (1) 2122864";"Cl 72 10-34 L-108 Colombia, Bogotá"
"TALLER DE JOYERÍA JB";;;"(57) (1) 4157346";"Cr102 20B-15 Colombia, Bogotá"
"GIOIELLI JOYEROS";;;"(57) (1) 2178174";"Cl 53B 25-21 L-2-026 Colombia, Bogotá"
"PLATERÍA & RELOJERÍA""TIENDA CASIO""";;;"(57) (6) 7446455";"Cr15 N 17-38 Colombia, Armenia"
"DAVILA®S JOYERÍA Y RLOJERÍA";;;"(57) (5) 7276802";"Cl 7 6-40 centro Colombia, Riohacha"
"PLATERÍA GARANTIZADA";;;"(57) (4) 5124099";"Cl 53 49-109 Int 118 Colombia, Medellín"
"JOYERIA AMIGOS";;;"(57) (4) 2314779";"Cl 46 51 A-26 L-345 Colombia, Medellín"
"C.I. FUNDICIÓN ESCOBAR S.A.";;;"(57) (1) 2844280";"Cr7 11-72 L-144-C Colombia, Bogotá"
"TALLER DE JOYERÍA EDGAR SALAZAR";;;"(57) (4) 4711612";"Cl 99 73-19 Caribe Colombia, Medellín"
"JOYERIA Y RELOJERÍA GLOFER";;;"(57) (1) 7226865";"Av (Cl) 30 0-17 E Soacha Colombia, Bogotá"
"CAROLINA SALAZAR ACCESORIOS";;;"(57) (1) 6370482";"Cl 126 11 B-31 Ap 1004 Colombia, Bogotá"
"JOYERÍA Y RELOJERÍA POPULAR";;;"(57) (5) 3416634";"Cr43 36-15 L-2 Colombia, Barranquilla"
"DAVID JOYEROS";;;"(57) (2) 8960179";"Cl 15 8-87 Of 201 Colombia, Cali"
"JOYERIA HISPANA";;;"(57) (1) 6121380";"Cr7 115-60 L-A139 Colombia, Bogotá"
"JOYERÍA LA LEJANDRA";;;"(57) (1) 2774608";"Cl 9 Bis 19 A-65 L-61 Colombia, Bogotá"
"ALMACÉN Y JOYERÍA EL CACIQUE";;;"(57) (8) 6622730";"Cl 38 30 A-12 Centro Colombia, Villavicencio"
"JOYERÍA CARIBE EMERALD MUSEUM & FACTORY";;;"(57) (5) 6600051";"Cl San Pedro Claver 31-18 Colombia, Cartagena"
"TALLER DE JOYERÍA EL PINO";;;"(57) (2) 8813247";"Cl 14 7-75 L-6 P-2 Colombia, Cali"
"JOYERÍA TODO EN PIEDRAS";;;"(57) (2) 8881412";"Av3 N 8-24 Of 106 Colombia, Cali"
CENTRAJOYAS;;;"(57) (5) 3722176";"Cr41 38-22 Colombia, Barranquilla"
"AROS DE ORO JOYERIA";;;"(57) (4) 2777396";"cl 52 49-25 Colombia, Medellín"
"JOYERÍA Y RELOJERÍA MARANATHA";;;"(57) (2) 8895669";"Cr8 11-65 Colombia, Cali"
"COMPRAVENTA OROS";;;"(57) (4) 2882297";"Cr45 72 S-46 Sabaneta Colombia, Sabaneta"
"First Name";"Email Address";Url;Telephone;Address
"JOYERÍAS WILLY JHONS ACCESORIOS";;;"(57) (5) 6748701";"Av Pedro Heredia Pasaje El Colmenar L-18 A-19 A-20 A Colombia, Cartagena"
"ALMAS JOYEROS";;;"(57) (1) 2431256";"Cl 12 6-15 Colombia, Bogotá"
"LA JOYERÍA";;;"(57) (1) 2985088";"Cr100 32-45 L-6 Colombia, Bogotá"
"PERLAS CALLE";;;"(57) (1) 2846197";"Cl 12 6-45 L-103 Colombia, Bogotá"
"JOYERÍA VÁSQUEZ";;;"(57) (4) 5118261";"Cl 48 49-42 P-2 Of 216 Colombia, Medellín"
"SERVICENTRO CASIO";;;"Nal: (57) (1) 6130531";"Cl 185 45-03 L-1-147 Colombia, Bogotá"
"INSTRUMENTOS MUSICALES";;;"(57) (5) 6643984";"Matuna C.C. El Cañonazo L-14 Av Venezuela Colombia, Cartagena"
"JOYERÍA Y PLATERÍA BUCKINGHAM LTDA.";;;"(57) (1) 3425417";"Cr6 12-68 Colombia, Bogotá"
"COMERCIALIZADORA INTERNACIONAL JADEL E.U.";;;"(57) (1) 6272289";"Tr26 146-05 Of 304 Colombia, Bogotá"
"JOYERÍA COLOMBIAN EMERALD HOUSE";;;"(57) (8) 5125904";"Av Los Libertadores 3 A-49 diagonal al Palacio de Justicia Colombia, San Andrés"
"HORA Y PUNTO JOYERÍA";;;"(57) (4) 8332689";"Cr3 8-10 Colombia, Puerto Berrío"
"SIABATO CAMPOS HÉCTOR";;;"(57) (1) 2154119";"Av (Cr) 15 104-72 P-1 L-2 Colombia, Bogotá"
"JOYERÍA Y RELOJERÍA EL CIRCÓN";;;"(57) (2) 2365525";"Cl 8 13-02 Colombia, Buga"
"KORLOFF JOYERÍA";;;"Conm.: (57) (1) 6196999";"Cl 123 7-07 Of. 308 Colombia, Bogotá"
"TOY STORY";;;"(57) (2) 8801592";"Cr9 15-23 Of 6 B- Colombia, Cali"
"CRISTIAN JOYEROS";;;"(57) (2) 6544438";"Cr 1 La 14 de Calima Colombia, Cali"
"CARTIER JOYERÍA";;;"(57) (2) 8837528";"Cr5 15-11 L-46 Nivel 2 B Colombia, Cali"
"JOYERÍA Y RELOJERÍA ORIENT";;;"(57) (2) 2281130";"Cl 8 13-08 Colombia, Buga"
"TALLER Y JOYERÍA DANNA ALEJANDRA";;;"(57) (2) 3263426";"Cr49 A 13-35 P-2 Colombia, Cali"
"JOYERÍA CRONOJOYAS";;;"(57) (4) 2652557";"Cr66 B 34 A-76 L-45 Colombia, Medellín"
"JOYERÍA EL GRAN AS";;;"(57) (2) 2102044";"Cl 12 5-19 Colombia, Cartago"
"CASA SANKEY";;;"(57) (7) 6445898";"Dg15 Cl 56 C.C. Sanandresito P-3 L-615 Colombia, Bucaramanga"
"ASOCIACIÓN ORFEBRES UNIDOS DE COLOMBIA ORUS";;;"(57) (7) 6323278";"Cl 36 25-09 Colombia, Bucaramanga"
"SURTI JOYAS";;;"(57) (2) 8841982";"Cl 15 3-64 L-77 Colombia, Cali"
"JOYERÍA JORGE A. LIEVANO";;;"(57) (1) 3764065";"Cl 82 11-75 L-125 Colombia, Bogotá"
"CERRAJERIA Y RELOJERIA CALIX";;;"(57) (7) 6310362";"Plaza Satélite del Sur L-2180 Colombia, Bucaramanga"
"AGATA ACCESORIOS";;;"(57) (7) 5718498";"Cl 15 1 E-31 Caobos Colombia, Cúcuta"
"JOYERÍA CRISTIANA";;;"(57) (7) 6472695";"C.C. Panamá L-243 Colombia, Bucaramanga"
"JOYERÍA Y RELOJERÍA HERMITA";;;"(57) (2) 7738431";"Cr5 20-05 Colombia, Ipiales"
"JOYERÍA SCHUMACHER";;;"(57) (1) 2574576";"Cr13 82-49 Of 708 Colombia, Bogotá"
"SANEL PLATERÍA";;;"(57) (1) 3158625";"Av Eldorado 62-46 L-207 Colombia, Bogotá"
"TALLER Y JOYERÍA EL DIAMANTE";;;"(57) (8) 2630248";"Cr4 11-110 Colombia, Ibagué"
"COMPRA VENTA EL MONO EULICES";;;"(57) (7) 6301655";"Cl 33 18-36 L-101 Colombia, Bucaramanga"
"JOYERÍA Y RELOJERÍA LA MARQUEZA";;;"(57) (7) 5717587";"Cl 10 7-08 Centro Colombia, Cúcuta"
"PORTO ABZZURRO";;;"(57) (7) 6430625";"Cr36 49-45 L-228 Colombia, Bucaramanga"
"ORO Y ARTE";;;"(57) (7) 6440044";"Cl 64 A 17 A-119 Colombia, Bucaramanga"
"JOYERÍA Y RELOJERÍA BIG-BEN";;;"(57) (1) 3347965";"Cl 12 6-12 Colombia, Bogotá"
"JOYERÍA ESTRADA";;;"(57) (6) 8871774";"C.C. Sancancio L-725 Colombia, Manizales"
"COMPRA VENTA CARTIER LTDA.";;;"(57) (2) 5542355";"Cl 9 28-62 Colombia, Cali"
"VARIEDADES ''MELISSA''";;;"(57) (2) 8244805";"Cr7 6-69 Colombia, Popayán"
"First Name";"Email Address";Url;Telephone;Address
"EL SOL DE PLATA";;;"(57) (1) 3604217";"Cl 9 Bis 19 A-10 L-18 Colombia, Bogotá"
"JOYERÍA Y RELOJERÍA LUIS. E. OCHOA";;;"(57) (1) 2158973";"Av(Cr) 15 124-17 L-113 Colombia, Bogotá"
"JOYERÍA Y RELOJERÍA KALAY";;;"(57) (1) 2555588";"Cl 60 9-78 L-118 Colombia, Bogotá"
"JOYERÍA EL MUNDO DEL GRANETE";;;"(57) (7) 5722865";"Cl 9 6-20 L-157 C.C. Alejandría Colombia, Cúcuta"
"LAMINACIÓN ORO Y PLATA";;;"(57) (1) 2865583";"Cr6 12 -27 Of 301 Colombia, Bogotá"
"PALACIO DE LA ESMERALDA DESDE 1953";;;"(57) (1) 2820129";"Pasaje Hotel Tequendama Int.126 Colombia, Bogotá"
"JOYERIA OLMEDO";;;"(57) (8) 8372620";"Cr7 5-52 L-8 Colombia, La Plata"
"RODRÍGUEZ SANDRA";;;"(57) (1) 3345370";"Cr6 12-79 L-109 Colombia, Bogotá"
"JOYERÍA EDISON";;;"(57) (1) 2782778";"Cl 19 S 18-64 P-1 Colombia, Bogotá"
"COMPRAVENTA LA ISLA";;;"Nal: (57) (7) 5720073";"Av 6 8-94 Centro Colombia, Cúcuta"
"EFECTIVOS EXPRESS HOGAR";;;"(57) (4) 2685118";"Cl 14 S 43 A-21 Int 202 Colombia, Medellín"
"JOYERÍA Y RELOJERÍA CHOPARD";;;"(57) (4) 2882958";"Cr43 C 67 S-25 Sabaneta Colombia, Sabaneta"
