"First Name";"Email Address";Url;Telephone;Address
"FARMACIA PASTEUR";pasteur@une.net.co;www.pasteurfarmacia.com;"Domic.: (57) (4) 4441400";"Oficinas: Cl 49 57-35 Colombia, Medellín"
MULTIDROGAS;micliente@evedisa.com.co;www.evedisa.com.co;"(57) (6) 3248444";"Cl 22 9-63 Colombia, Pereira"
"EVE DISTRIBUCIONES S.A.S.";micliente@evedisa.com.co;www.evedisa.com.co;"(57) (6) 3248444";"Cl 22 9-63 Colombia, Pereira"
FARMACLUB;represander@represander.com;www.farmaclub.com.co;"(57) (7) 6452233";"Parque Industrial y Comercial Provincia de Soto-01 Et Cr 33-W 71-61 Bodegas 39-40 Colombia, Bucaramanga"
"DROGUERIAS LA BOTICA";juanfsuarez@unidrogas.com;www.unidrogas.com;"(57) (5) 3690175";"Cr38 71-68 L-1 Colombia, Barranquilla"
"DROGUERIA INGLESA";lidermercadeobquilla@unidrogas.net.co;www.unidrogas.com;"(57) (5) 3693705";"Cr47 70-10 Colombia, Barranquilla"
"BOTICA DE LA PIEL";administracion@boticadelapiel.com.co;www.boticadelapiel.com.co;"(57) (6) 3170101";"Cr6 16-22 L-101 Colombia, Pereira"
"DEPOSITO DE MEDICAMENTOS HOSPITALARIOS";aishavirpud@hotmail.com;www.drogueriahospitalariasantaclara.com;"(57) (1) 4771702";"Cr17 17-81 Sur Colombia, Bogotá"
"LA REBAJA DROGUERÍAS";Cliente_fiel@larebajadrogueria.co;www.domicilioslarebaja.com;"(57) (1) 7560555";"Bogotá Colombia, Bogotá"
"DROGUERÍA EL ESTERO";contacto@drogaselestero.com;www.drogaselestero.com;"(57) (8) 6658858";"Cr12 15-14 El Estero Colombia, Villavicencio"
"DROGUERÍA PATRIA JY";;www.drogueriapatriajy.com;"(57) (8) 6610553";"Cr30 36-94 Centro Colombia, Villavicencio"
SUPERTEX;servicliente@supertex.com.co;www.supertex.com.co;"(57) (4) 2621120";"Cr45 32-47 Colombia, Medellín"
"DROGUERIAS ALEMANA";edwinnunez@unidrogas.com.co;www.drogueriasalemanas.com;"(57) (7) 3111122";"1 R 9 No. 12-7 Novalit Colombia, Bucaramanga"
"DROGUERIA LA BOTICA";edwinnunez@unidrogas.com.co;www.unidrogas.com;"(57) (7) 3111122";"1 R 9 No. 12-7 Novalit Colombia, Bucaramanga"
"FORMA CANCEROLOGIA";distrifamilop@hotmail.com;www.drogueriaformacancerologia.com;"(57) (1) 2330897";"Cl 1 8 C-44 Colombia, Bogotá"
"DROGUERIAS FARMAVIDA";contacto@drogassys.com;www.drogassys.com;"(57) (5) 4214222";"Cl 10 A 7-11 L-3-y 4 Colombia, Santa Marta"
"DROGAS S & S";contacto@drogassys.com;www.drogassys.com;"(57) (5) 3600351";"Cl 76 41 D-35 Colombia, Barranquilla"
"DROGUERÍA INTERDROGAS";contacto@drogassys.com;www.drogueriasinterdrogas.com;"(57) (5) 3600351";"Cl 76 41 D-35 Colombia, Barranquilla"
"DROGUERÍA UNIVERSAL";contacto@drogassys.com;www.drogueriauniversal.com;"(57) (5) 3600351";"Cl 76 41 D-35 Colombia, Barranquilla"
"AUVIMER SALUD INTEGRAL EN SU CASA S.A.S.";;www.auvimer.com;"(57) (7) 6323400";"Cr35 34-36 Colombia, Bucaramanga"
"ETICOS SERRANO GÓMEZ LTDA.";2;www.droguerialaeconomia.com;"(57) (5) 3605274";"Vía 40 71-124 Colombia, Barranquilla"
"DEMPOS S.A. - MEDICAMENTOS POS S.A.";medicamentospos@dempos.com.co;www.dempos.com.co;"(57) (4) 3790002";"Cr46 48 C   S-40 Int 136 Envigado Colombia, Medellín"
"DROGUERIA INGLESA";drogueriainglesa@hotmail.com;www.drogueriainglesa.com;"(57) (7) 5724009";"Av0 Calle 9 Esq Colombia, Cúcuta"
"DROGUERIA GUASIMALES";martinalonsojaimes@drogueriasguasimales.com;www.drogueriasguasimales.com;"(57) (7) 5754000";"Av6 9-01 Centro Colombia, Cúcuta"
"COMERLAT PHARMACEUTICAL S.A.S";dfinanciero@comerlatsas.com;www.comerlatsas.com;"(57) (2) 5580636";"Cl 2 Oe 24 F 36. Colombia, Cali"
"ALLERS GROUP";allers@allers.com.co;www.allers.com.co;"(57) (2) 6856850";"Cr67 1 B-35 Colombia, Cali"
SALUTI;servicioalcliente@saluti.com.;www.medishop.com.co;"(57) (2) 4856850";"Cr39 5 B-30 Colombia, Cali"
"EVE DISTRIBUCIONES S.A.S.";tania.duque@evedisa.com.co;www.evedisa.com.co;"(57) (6) 3253121";"Cl 22 9-63 Colombia, Pereira"
COHOSAN;gerencia@cohosan.org;www.cohosan.com;"(57) (7) 6917110";"San Jorge C.E. y Logistico Km 7 Anillo Vial Girón-Floridablanca Colombia, Bucaramanga"
"FARMA STORE LAS AMÉRICAS";;www.lasamericas.com.co;"(57) (4) 3421010";"Dg. 75 B 2 A-80/140 Colombia, Medellín"
"FARMACIA HOMEOPATICA DEL DR. PINZON";contacto@farmaciadrpinzon.com;www.farmaciadrpinzon.com;"(57) (1) 2148480";"Cl 125 20-70 Consult 405 Colombia, Bogotá"
"HYGEA IPS S.A.S.";hygeaips@gmail.com;www.hygeaips.co;"(57) (8) 2765922";"Cl 40 4 C-42 Macarena Parte Alta Colombia, Ibagué"
"DISTRIBUCIONES FARMACÉUTICAS HERSON S.A.S";distriherson@une.net.co;www.herson.com.co;"(57) (4) 4483424";"Cr73 30-36 Colombia, Medellín"
"MUNDIENLACE EN CONTACTO SAS";julia.montes@mundienlace.com;www.farmaciamundienlace.com;"(57) (1) 7028802";"C.C ISERRA 100 L-233 Colombia, Bogotá"
"LABORATORIOS ROBBIN S.A.S.";ventas@labrobbin.com;www.labrobbin.com;"(57) (5) 3708370";"Cr41 58-35 Colombia, Barranquilla"
"MIX SUPPLIER S.A.";contacto.medellin@mixsupplier.com;www.mixsupplier.com;"(57) (4) 3023433";"Cl 49   S 43 A-30 Envigado Colombia, Medellín"
"LABORATORIO LAPROFF";contactenos@laproff.com;www.laproff.com;"(57) (4) 2881080";"Cr43 A 61   S-84 Sabaneta Colombia, Medellín"
"MEDICALDRUGS S.A.S";medicaldrugs@une.net.co;;"(57) (7) 6913125";"Cr36 43-20 L 2 Colombia, Bucaramanga"
"DROGAS SÚPER EXITO";drogassuperexito@yahoo.ar;drogassuperexito.com;"(57) (4) 2306551";"Cr66 48 C-17 Colombia, Medellín"
"DROGUERÍA LA ESPECIALIZADA";marlopez78@hotmail.com;www.droguerialaespecializada.com;"(57) (7) 6851844";"Cr31 50-31 Colombia, Bucaramanga"
"First Name";"Email Address";Url;Telephone;Address
"DROGUERÍA LA ESPECIALIZADA";marlopez78@hotmail.com;www.droguerialaespecializada.com;"(57) (7) 6851844";"Cr31 50-31 Colombia, Bucaramanga"
"DROGUERIA LA ESPAÑOLA";espanola.malaga@hotmail.com;;"(57) (76) 6395959";"Cl 12 7-02 Colombia, Málaga"
"DROGUERÍAS ALIADAS DE ANTIOQUIA S.A.S.";gerencia@grogueriasaliadas.com;www.drogueriasaliadas.com;"(57) (4) 6043636";"Cl 51 52-16 Bello Colombia, Medellín"
"DROGAS SÚPER EXITO";drogassuperexito@yahoo.ar;drogassuperexito.com;"(57) (4) 2306551";"Cr66 48 C-17 Colombia, Medellín"
"DROGUERÍA & TIENDA NATURISTA INTERDROGAS";gerencia@interdrogas.com;www.interdrogas.com;"(57) (2) 5249991";"Cl 8 6-80 Esq. Colombia, Cali"
"MEDICALDRUGS S.A.S";medicaldrugs@une.net.co;;"(57) (7) 6913125";"Cr36 43-20 L 2 Colombia, Bucaramanga"
"FARMAPRECIOS DROGUERIAS";farmapreciosdroguerias@gmail.com;www.farmapreciosdroguerias.com;"(57) (1) 4543722";"Cl 42 G 86 D-05 Sur Colombia, Bogotá"
QUIMED;info@quimed.com.co;www.quimed.com.co;"(57) (5) 3850007";"Cr43 74-155 Colombia, Barranquilla"
"KHEMIK S.A.S.";gerencia@cibioflora.com;www.khemik.com;"(57) (4) 4484991";"Cr50 # 79 SUR-101 Bdg 58 Colombia, Medellín"
"DROGUERÍA PASTEUR";hecmarg954@hotmail.com;www.drogueriaspasteur.com;"(57) (2) 7303938";"Cl 18 # 30-74 Parque Infantil Colombia, Pasto"
"DROGUERIA DISNEY";armando.barreto@hotmail.com;www.drogueriadisney.com;"(57) (1) 2362432";"Cr11 92-22 Colombia, Bogotá"
"HIELO SECO JIRETH";berodi2003@hotmail.com;www.hielosecojireth.com;"(57) (1) 2954938";"Cl 52 A 85 G-24 Colombia, Bogotá"
"LABORATORIOS INCOBRA";servicioalcliente@incobra.com;www.incobra.com;"(57) (5) 3791010";"Cl 46 46-157 Colombia, Barranquilla"
FARMACENTER;drogueriafarmacenter@hotmail.com;;"(57) (2) 6613904";"Av Estación 5 A N-8 Colombia, Cali"
"DROGUERÍA FARMACENTER";drogueriafarmacenter@hotmail.com;www.copidrogas.com.co;"(57) (2) 2251717";"Cr23 Cl 22 Esq Colombia, Tuluá"
"DROGUERÍA F. RUEDA";jhonf.maldonado@hotmail.com;;"(57) (7) 6543889";"Cl 5 No. 5-66 Brr. la Tachuela Piedecuesta Colombia, Piedecuesta"
"LABORATORIOS ETYC LTDA.";contacto@etyc.co;www.etyc.co;"(57) (1) 2575466";"Cr49 B 91-40 Colombia, Bogotá"
"ALCOST PHARMACEUTICAL S.A.S.";gerenciageneral@alcost.com.co;www.alcost.com.co;"Nal: (57) (4) 4440411";"Cr65 32 D-35 Colombia, Medellín"
"DISTRIBUIDORA Y PROMOTORA GENERAL S.A.";admon@panagrosa.com;www.panagro.com.co;"(57) (4) 2604700";"Cr69 46 B-28 Colombia, Medellín"
SUMIDROGAS;sumidrogas@une.net.co;sumidrogas.com;"Conm.: (57) (4) 2310002";"Cr50 57-21 P-10 Colombia, Medellín"
"DROGUERÍAS ALIANZA DE OCCIDENTE S.A.";info@dao.com.co;www.dao.com.co;"(57) (2) 8312131";"Cr6 10   N-135 Frente al Hospital San José Colombia, Popayán"
"DROGUERIA Y PERFUMERIA PARA TODOS";drogueriaparatodos@hotmail.com;;"(57) (7) 5717115";"Cl 13 1-99 La Playa Colombia, Cúcuta"
"DROGUERÍA FARMA BELLO";j.farmabello@hotmail.com;;"(57) (4) 4833393";"C.C. La Gran Esq L-231 Colombia, Medellín"
"DROGAS JAKOME";nancy.bucaramanga@hotmail.com;;"(57) (7) 6571472";"Cr33 52-149 Colombia, Bucaramanga"
"DROGUERÍA EFESA EXPRESS";empresarioactual@gmail.com;www.drogueriasefesa.com;"(57) (8) 2672828";"Et. 1 Manz 3 Casa 28 Ciudadela Comfenalco Colombia, Ibagué"
"DROGUERÍA BUCAFARMA 33";ponch_17is@hotmail.com;www.drogueriabucafarma33.com;"(57) (7) 6475310";"Cr33 47-79 Colombia, Bucaramanga"
"DROGUERIA JOSUE";josue8854@hotmail.com;www.drogueriajosue.com;"(57) (7) 5801798";"Av0 29-80 La Cordialidad Colombia, Cúcuta"
"DROGUERÍA AMERICANA EXPRESS XXI";federicoentrena@hotmail.com;www.drogueriaamericanaexpress.com;"(57) (7) 5722188";"Av2 E 12 A-37 Caobos Colombia, Cúcuta"
"MEDIHOSPITALARIOS S.A.S";medihospitalariossas@hotmail.com;;"(57) (6) 8867290";"Cl 76 A 21-96 Colombia, Manizales"
"UNIDROGAS S.A.";johapato25@hotmail.com;;"(57) (4) 4222488";"Cr80 48-23 Colombia, Medellín"
"DROGUERÍA MAXIFARMA";jaula7@gmail.com;;"(57) (4) 8332929";"Cl 11 Cr5 Esq Colombia, Puerto Berrío"
"DROGUERIA MANRIQUE";;;"(57) (4) 2121060";"Cr45 68-46 Colombia, Medellín"
"DROGAS LA 56";drogasla56@hotmail.com;;"(57) (2) 4395567";"Cr2 55-41 Colombia, Cali"
"DISTRIBUIDORA RAFAEL REYES BENAVIDES S.A.S";distribuidorarrb@gmail.com;;"(57) (5) 6633364";"Ternera Manz 32 Lt 96 L-101 Colombia, Cartagena"
"DROGUERIA URMÉDICAS";;;"(57) (7) 7274791";"Cl 10 A 16-50 Colombia, Socorro"
"DROGUERÍA OLAYA-FARMACENTER";ruben.grajales47@gmail.com;;"(57) (6) 8826093";"Cr23 14-65 Colombia, Manizales"
DROGASEXITO;exito1.2@hotmail.com;www.facebook.com/drogasexito;"(57) (2) 2243301";"Cr23 Cl 17 Esq Colombia, Tuluá"
"DROGUERÍA FARMA ANGELES";drofarmaangeles@hotmail.com;;"(57) (7) 5896562";"Av4 17-46 La Cabrera Colombia, Cúcuta"
"DROGUERÍA EL PRADO";drogueriaelprado@hotmail.com;;"(57) (4) 2779678";"Cr52 A 82-29 Itagüí Colombia, Medellín"
"GENHOSPI S.A.S.";miguel10nandez@hotmail.com;www.genhospi.com.co;"(57) (2) 7316719";"Cr33 15-36 Colombia, Pasto"
"First Name";"Email Address";Url;Telephone;Address
"DROGUERIA SANTA VIDA";drogueriasantavida@hotmail.co;;"(57) (4) 2883690";"Cr43 B 68 A S-31 Sabaneta Colombia, Sabaneta"
"ABC BOTIQUINES, CAMILLAS Y EXTINTORES DE COLOMBIA - FABRICANTES (BOTICOL)";abcboticol14@hotmail.com;www.botiquinesycamillascolombia.com;"(57) (1) 2518947";"Av (Cl) 80 71-45 Colombia, Bogotá"
"DROGUERIA 20 DE JULIO";maoror_1970@hotmail.com;;"(57) (5) 6769117";"Nuevo Bosque Et 4 Manz 7 Lt 18 Colombia, Cartagena"
"CIGARRERÍA POPULAR";cigarreriapopular713@hotmail.com;;"(57) (6) 3348129";"Cr7 13-48 Parque La Libertad Colombia, Pereira"
"SKIN CARE";lorena.romerog1@gmail.com;;"(57) (2) 3964367";"Av9   N 13-24 Colombia, Cali"
"DROGAS EUROPFARMA";lisandro108@hotmail.com;;"(57) (6) 3385938";"Información Colombia, Pereira"
"DROGUERÍA SERVIDESCUENTOS";drogasservidescuentos@une.net.co;;"(57) (4) 4165455";"Cl 33 78-109 Colombia, Medellín"
"LABORATORIOS E INDUSTRIAS ALIMENTICIAS NAKUCH LTDA";carnakuch@hotmail.com;;"(57) (1) 405143";"Tr43 C BIS 37 D-17 S Colombia, Bogotá"
"DROGUERÍA OLAYA-FARMACENTER";ruben.grajales47@gmail.com;;"(57) (6) 8826093";"Cr23 14-65 Colombia, Manizales"
"DROGUERÍA ESPECÍFICA S.A";drogueria_especifica@hotmail.com;www.drogueriaespecifica.com;"(57) (4) 4128900";"Cl 35 80 B-29 Colombia, Medellín"
"DROGUERÍA SALUD Y VIDA DEL CARIBE";.;;"(57) (5) 6626059";"Amberes Cr44 A 30 A-38 Av Pedro de Heredia Colombia, Cartagena"
"H&F SUMINISTROS DE COLOMBIA S.A.S";hyfdecolombia@hotmail.com;;"(57) (5) 3437425";"Cr30 20-33 Colombia, Barranquilla"
"DROGUERIA LA NUEVA";d.nueva@hotmail.com;;"(57) (6) 3274400";"Cl 72 23 B-85 Cuba Colombia, Pereira"
"DROGUERÍA EL DEPÓSITO";;;"(57) (7) 6913009";"Cl 36 13-27 Colombia, Bucaramanga"
"DROGUERÍA PARÍS";droparis@yahoo.es;;"(57) (8) 8712404";"Cl 8 3-72 Colombia, Neiva"
"DROGUERÍA FÁTIMA";drogeriafatima1@edatel.net.co;;"(57) (4) 8280257";"Cr100 98-32 Colombia, Apartadó"
"INVERSIONES ONCOMEDHJ S.A.S.";;;"(57) (5) 3105716";"Cr42 F 75-75 L-19 Colombia, Barranquilla"
"DROGUERIA GANGADESCUENTOS";gangadescuentos@hotmail.com;;"(57) (4) 4445718";"Cr79 37-25 Colombia, Medellín"
"DROGUERÍA SURTIDROGAS";juannomis@hotmail.com;;"(57) (2) 2133300";"Cr5 14-03 Esq Colombia, Cartago"
"DROGUERIA LA VILLA DEL PARQUE";guerrerojorge35@outlook.com;;"(57) (4) 2544486";"Cr39 65 BB-69 Colombia, Medellín"
"DROGUERÍA ANDINA";aristoreyes@hotmail.com;drogueriaandina;"(57) (2) 2252907";"Cl 27 21-22 Colombia, Tuluá"
"DROGUERIA URMÉDICAS";;;"(57) (7) 7274791";"Cl 10 A 16-50 Colombia, Socorro"
"DROGUERIA EL REFUGIO";marwandu@hotmail.com;;"(57) (7) 6551437";"Cl 3 AN 3 B-22 El Refugio Colombia, Piedecuesta"
"J&J DRUG STORE";jeshuajared1007@hotmail.com;;"(57) (8) 5130354";"Vía San Luis frente Hospt Colombia, San Andrés"
DISTRIDROGAS;c_villaquiran@hotmail.com;;"(57) (2) 8317852";"Cl 4 7-67 Colombia, Popayán"
"DROGAS LA 56";drogasla56@hotmail.com;;"(57) (2) 4395567";"Cr2 55-41 Colombia, Cali"
"DROGUERIA LA 67";drogueriala67@gmail.com;;"(57) (4) 2730078";"Cr67 112-03 Colombia, Medellín"
"PACHO DROGAS";pachodrogas@une.net.co;www.pachodrogas.com;"(57) (6) 3202020";"Av30 de Agosto-49 -36 Colombia, Pereira"
"DROGUERIA ESPAÑOLA";;;"(57) (7) 5715606";"Av5 12-82 Centro Colombia, Cúcuta"
"FARMACIA BLANCA";;;"(57) (4) 5127311";"Cl 53 46-18 Colombia, Medellín"
"UNIDROGAS S.A.";johapato25@hotmail.com;;"(57) (4) 4222488";"Cr80 48-23 Colombia, Medellín"
"DROGUERIA MANRIQUE";;;"(57) (4) 2121060";"Cr45 68-46 Colombia, Medellín"
"DISTRIMED LTDA.";"distrimedltda1@hotmail.com              distribuidorasanarsas02@hotmai";;"(57) (5) 4313566";"Cl 23 13-05 Los Alcázares Colombia, Santa Marta"
"SUS MEDICAMENTOS S.A.S.";susmedicamentossa@hotmail.com;;"(57) (4) 3474848";"Cr82 18 AA-04 Colombia, Medellín"
DROGASEXITO;exito1.2@hotmail.com;www.facebook.com/drogasexito;"(57) (2) 2243301";"Cr23 Cl 17 Esq Colombia, Tuluá"
"DISTRIMED DEL ORIENTE";;;"(57) (7) 5770499";"Av9 AE 9 AN-11 Colombia, Cúcuta"
"DROGAS ECONÓMICAS";luisjaimec@hotmail.com;;"(57) (2) 8855530";"Cr10 Cl 12 Esq Colombia, Cali"
"DROGAS SUPER ÉXITO";drogassuperexito01@hotmail.com;;"(57) (2) 2293010";"Cl 14 Cr14 Esq Colombia, La Unión"
"DROGUERIA ALBANIA NO. 2";drogalbn2@hotmail.com;;"(57) (4) 2310002";"Cr50 57-21 Colombia, Medellín"
"DROGUERIA BELLO";caribegomez@hotmail.com;;"(57) (4) 2754361";"Av50 A 52-80 Bello Colombia, Bello"
"First Name";"Email Address";Url;Telephone;Address
"FARMACIA KAIROS";clajidu@hotmail.com;;"(57) (7) 5710943";"C.C. Alejandria L-14-175 A Colombia, Cúcuta"
"PACHO DROGAS";pachodrogas@une.net.co;www.pachodrogas.com;"(57) (6) 3202020";"Av30 de Agosto-49 -36 Colombia, Pereira"
"PRODUCTOS DROGAM S.A.S.";dgamoneda@drogam.com;drogam.com;"(57) (2) 5545143";"Cr21 13 B-33 Colombia, Cali"
"FARMACIA BLANCA";;;"(57) (4) 5127311";"Cl 53 46-18 Colombia, Medellín"
"DISTRIBUIDORA RAFAEL REYES BENAVIDES S.A.S";distribuidorarrb@gmail.com;;"(57) (5) 6633364";"Ternera Manz 32 Lt 96 L-101 Colombia, Cartagena"
"DROGAS EUROPFARMA";lisandro108@hotmail.com;;"(57) (6) 3385938";"Información Colombia, Pereira"
"DROGUERÍA SERVIDESCUENTOS";drogasservidescuentos@une.net.co;;"(57) (4) 4165455";"Cl 33 78-109 Colombia, Medellín"
"DROGUERÍA SALUD Y VIDA DEL CARIBE";.;;"(57) (5) 6626059";"Amberes Cr44 A 30 A-38 Av Pedro de Heredia Colombia, Cartagena"
"DROGAS SUPER ÉXITO";drogassuperexito01@hotmail.com;;"(57) (2) 2293010";"Cl 14 Cr14 Esq Colombia, La Unión"
"DROGUERIA MANRIQUE";;;"(57) (4) 2121060";"Cr45 68-46 Colombia, Medellín"
"DROGUERIA PALSALUD";drogueriapalsalud@hotmail.com;;"(57) (2) 2855826";"Cr28 34-64 Colombia, Palmira"
"DROGUERIA LA VILLA DEL PARQUE";guerrerojorge35@outlook.com;;"(57) (4) 2544486";"Cr39 65 BB-69 Colombia, Medellín"
"EL DESCUENTO ARMENIA";samuelmunoz.09@gmail.com;;"Telefax: (57) (6) 7465446";"Cl 13 15-52 Colombia, Armenia"
"ABC BOTIQUINES, CAMILLAS Y EXTINTORES DE COLOMBIA - FABRICANTES (BOTICOL)";abcboticol14@hotmail.com;www.botiquinesycamillascolombia.com;"(57) (1) 2518947";"Av (Cl) 80 71-45 Colombia, Bogotá"
"ALQUILERES BAUTISTA";festejosbautista@hotmail.com;www.festejosbautista.com;"(57) (7) 6574684";"Cr25 65-108 Victoria Colombia, Bucaramanga"
"DROGUERÍA FARMA ANGELES";drofarmaangeles@hotmail.com;;"(57) (7) 5896562";"Av4 17-46 La Cabrera Colombia, Cúcuta"
"DROGAS LA 56";drogasla56@hotmail.com;;"(57) (2) 4395567";"Cr2 55-41 Colombia, Cali"
"DROGUERÍA ORIENTE";yurynarvaez950@hotmail.com;;"(57) (4) 5610249";"Cr48 51-15 Rionegro Colombia, Medellín"
"DROGUERÍA SAN CARLOS";r_robertr2002@yahoo.com;;"(57) (1) 2790398";"Dg51   S 18 B-69 Colombia, Bogotá"
"DROGUERIA GANGADESCUENTOS";gangadescuentos@hotmail.com;;"(57) (4) 4445718";"Cr79 37-25 Colombia, Medellín"
"DROGUERÍA PARÍS";droparis@yahoo.es;;"(57) (8) 8712404";"Cl 8 3-72 Colombia, Neiva"
"DROGUERIA ESPAÑOLA";;;"(57) (7) 5715606";"Av5 12-82 Centro Colombia, Cúcuta"
"SALUD INTEGRAL MEDELLIN S.A.S.";saludintegralmedellin@gmail.com;;"(57) (4) 2548867";"Cl 57 39 A-58 Colombia, Medellín"
"DROGUERÍA ANDINA";aristoreyes@hotmail.com;drogueriaandina;"(57) (2) 2252907";"Cl 27 21-22 Colombia, Tuluá"
"DROGAS MIL";drogasmil@hotmail.com;;"(57) (2) 6611444";"Cl 34 11 C-46 Colombia, Cali"
"SUMEVALLE S.A.S.";sumervalle.atv@hotmail.com;xxxxxx;"(57) (2) 4871162";"Cr85 B 37-57 Colombia, Cali"
"CENTRO DE INVESTIGACIÓN CLÍNICA CIC";info@centrocic.com;www.centrocic.com;"(57) (4) 3110202";"Cr43 A 7-50 A Of 304 Colombia, Medellín"
"IPS FARMA TIENDAS SANATY";;;"(57) (7) 6561342";"Cl 5 6-27 Hoyo Chiquito Colombia, Piedecuesta"
"DROGUERÍA SANTA ISABEL";dsi-gsolarte@hotmail.com;;"(57) (2) 7212194";"Cl 19 19-01 Esq Colombia, Pasto"
"DROSERVIMOS DROGUERIAS";droservimos@hotmail.com;;"(57) (6) 7492299";"Cl 50 36-37 Colombia, Armenia"
"DROGUERÍA RUTH";d_ruth2007@yahoo.com;;"(57) (8) 5127612";"Av Las Américas 5 86 Bajos Hotel Hernando Henry Colombia, San Andrés"
"DROGAS MAS X MENOS";ventas@dicilabsas.com;;"(57) (7) 6555528";"Cr6 14-90 Colombia, Piedecuesta"
"CIGARRERÍA POPULAR";cigarreriapopular713@hotmail.com;;"(57) (6) 3348129";"Cr7 13-48 Parque La Libertad Colombia, Pereira"
"CFIM DROGUERÍA HIPER AHORRO";gerentecomercialcfimsas@gmail.com;;"(57) (8) 8721069";"Cr6 15-58 Colombia, Neiva"
"DISTRIMED LTDA.";"distrimedltda1@hotmail.com              distribuidorasanarsas02@hotmai";;"(57) (5) 4313566";"Cl 23 13-05 Los Alcázares Colombia, Santa Marta"
"DROGUERIA NACIONAL";droguerianacional1@hotmail.com;;"(57) (5) 6562916";"Paseo Bolívar Cr17 32-195 Colombia, Cartagena"
"DROGUERIA FARMA -CANCEROLOGIA";ferchobravo-94@hotmail.com;;"(57) (1) 2338321";"Cl 1 8 C-44 Colombia, Bogotá"
"ANUCURE COLOMBIA";emily200225@hotmail.com;;"(57) (5) 3529204";"Cl 85 49 C-37 Colombia, Barranquilla"
"DISTRIBUIDORA MEDICAMENTOS DE LA COSTA";;;"(57) (5) 3494467";"Cr45 48-64 Ap 101 El Rosario Colombia, Barranquilla"
"CLINICA DE GASTROENTEROLOGÚA Y ENDOSCOPIA LTDA.";;;"Telefax: (57) (1) 2871793";"Cr23 45 C-31 Colombia, Bogotá"
"First Name";"Email Address";Url;Telephone;Address
"D Y P DISTRIBUCIONES MÕDICAS LTDA.";;;"Telefax: (57) (1) 8108025";"Tr57 108-58 Colombia, Bogotá"
"SPAI-SONS PHARMACEUTICAL INTERNATIONAL COSMETICS";;;"(57) (1) 4279090";"Av Ciudad de Cali 51-86 Colombia, Bogotá"
"CENTRO CIENTÍFICO INTERNACIONAL DE MEDICINA BIOLÓGICA SALUD DAR";;;"Conm.: (57) (2) 8855550";"Av3 N 8-24 Of 120 Colombia, Cali"
"ADRIANA GONZÃLEZ Y CÚA. LTDA.";;;"Telefax: (57) (1) 2154069";"Av Country 124-67 Of 509 Colombia, Bogotá"
"CENTRO MÕDICO CHICµ 99";;;"(57) (1) 6109043";"Cr14 98-95 Of 202 Colombia, Bogotá"
"A G CONSULTORÚAS S.A.S.";;;"Telefax: (57) (1) 6435759";"Cr53 A 127-30 Of 1119 Colombia, Bogotá"
"CENTRO CIENTÍFICO INTERNACIONAL DE MEDICINA BIOLÓGGICA LTDA";;;"Conm.: (57) (1) 2871777";"Av (Cr) 24 45 A-33 Colombia, Bogotá"
"MEDICINA NUCLEAR DEL OCCIDENTE LTDA.";;;"Telefax: (57) (1) 2909992";"Av De Las AmÕricas 71 C -029 Colombia, Bogotá"
"GPINZµN S.A.S.";;;"Telefax: (57) (1) 2875709";"Cr23 47-51 P-4 Colombia, Bogotá"
"BOEHRINGER INGELHEIM S.A.";;;"(57) (1) 3199100";"Cr11 84-09 P-5 Colombia, Bogotá"
"DIEGO JARAMILLO DOMÚNGUEZ";;;"(57) (2) 2729272";"Cr 31 31-23 Colombia, Palmira"
"CLÍNICA UNIVERSIDAD COOPERATIVA";;;"(57) (8) 6614300";"Cl 36 35-62 Colombia, Villavicencio"
"VÉASE: MÉDICOS GUÍA MÉDICA";;;"(57) (8) 1000000";"Av68 75 A-50 Bogotá Colombia, Puerto Asís"
"CLINICA DE GASTROENTEROLOGÚA Y ENDOSCOPIA LTDA.";;;"Telefax: (57) (1) 2871793";"Cr23 45 C-31 Colombia, Bogotá"
"ORTONAL LTDA.";;;"Telefax: (57) (1) 5741341";"Cl 23 N 66-46 Int 4 Consult 1019 Colombia, Bogotá"
"DROGUERÍA FARMYSANAR";;;"(57) (6) 7584040";"Cr15 13-43 Colombia, Circasia"
"SOCIEDAD DE CONSULTORÚA Y PRESTACIµN DE SERVICIOS ANDAR S.A.";;;"(57) (1) 6600800";"Cl 73 A 76-45 Colombia, Bogotá"
"DISDROTOL DEPÓSITO DE DROGAS";;;"(57) (8) 2643612";"Cl 31 4 B-56 La Francia Colombia, Ibagué"
"BOTERO ECHEVERRI JUAN CAMILO";;;"(57) (4) 5129667";"Cl 51 45-93 Colombia, Medellín"
AEQUILIBRIUM;;;"(57) (4) 3668026";"Cr48 19 A-40 Int 1719 Colombia, Medellín"
"SALUD ACTIVA COLOMBIA S.A.S.";;;"(57) (2) 5556134";"Cl 5 D 38 A-35 Trr 2 Of 906 Colombia, Cali"
"ORTO HEALTH";;;"(57) (2) 6837148";"Cl 6 44-27 Colombia, Cali"
"SALUD & SEGURIDAD ASESORES Y CONSULTORES S.A.S.";;;"Telefax: (57) (1) 4875412";"Cl 22 F 86-87 Int 4 Colombia, Bogotá"
"SERVIMÉDICOS LTDA.";;;"(57) (8) 6484351";"Cl 9 6-08 Fundadores Colombia, San Martín"
"ONP COLOMBIA S.A.S.";;;"Telefax: (57) (1) 6110339";"Cr16 80-11 Of 701 Colombia, Bogotá"
"REHABILITAMOS LTDA.";;;"Telefax: (57) (1) 6169363";"Av Santa BÃrbara 102-53 Consult 114 Colombia, Bogotá"
"PRODUCTOS ROCHE S.A.";;;"(57) (1) 4178860";"Cr44 20-21 Colombia, Bogotá"
"CENTRO DE MEDICINA PREVENTIVA";;;"(57) (7) 6453341";"Cr33 32-11 Colombia, Bucaramanga"
"IPS CENTRO DE REHABILITACIµN SUBA S.A.S.";;;"Telefax: (57) (1) 4672901";"Cl 140 C 94 D-38 Colombia, Bogotá"
EMPROMED;;;"(57) (2) 7315797";"Cr33 15-28 San Ignacio Colombia, Pasto"
"CENTRO INTERNACIONAL DE CIRUGÍA PLÁSTICA S.A.S.";;;"(57) (1) 6128135";"Cl 116 16-45 Colombia, Bogotá"
"VÉASE: MÉDICOS GUÍA MÉDICA";;;"(57) (4) 6045167";"Cr48 10-45 L 813 Colombia, Medellín"
"UNESDI S.A.S.";;;"Telefax: (57) (1) 6968856";"Cr4 E 18-94 Colombia, Bogotá"
"SORECOL LTDA.";;;"(57) (1) 6911617";"Cl 97 10-28 Of 402 Colombia, Bogotá"
"ORTISALUD IPS LTDA.";;;"Telefax: (57) (1) 4515917";"Cl 38 S 86 C-76 P-3 Colombia, Bogotá"
"DIAGNµSTICO PRENATAL LTDA.";;;"Telefax: (57) (1) 6156398";"Cl 127 20-78 Casa 420 Colombia, Bogotá"
"SERVICIO AÕREO MEDICALIZADO Y FUNDAMENTAL S.A.S.";;;"Telefax: (57) (1) 7456859";"Av (Cl) 26 103-10 Int 27 Colombia, Bogotá"
"CLÍNICA INFANTIL COLSUBSIDIO";;;"(57) (1) 2544200";"Cl 67 10-67 Colombia, Bogotá"
"SALUD ACTUAL IPS LTDA.";;;"Telefax: (57) (1) 6176152";"Cr70 B-125 A-57 L-1 Colombia, Bogotá"
"DROGUERÍA SAN ANDRÉS";;;"(57) (8) 5131717";"Av Rock Hole Cl 19 5-13 Colombia, San Andrés"
"First Name";"Email Address";Url;Telephone;Address
"DROGUERIA LA CELESTE";;;"(57) (5) 3629251";"Cl 47 14 D-40 P-2 Colombia, Barranquilla"
"SALUD ACTUAL IPS LTDA.";;;"Telefax: (57) (1) 6176152";"Cr70 B-125 A-57 L-1 Colombia, Bogotá"
"MEDICINA Y TERAPIAS ALTERNATIVAS MANANTIAL DE VIDA";;;"(57) (8) 2645535";"Cr5 25-72 Ap 202 Hipódromo Colombia, Ibagué"
"ORTONAL LTDA.";;;"Telefax: (57) (1) 5741341";"Cl 23 N 66-46 Int 4 Consult 1019 Colombia, Bogotá"
"CENTRO VISUAL ESPECIALIZADO VISIµN 20 20 S.A.S.";;;"Telefax: (57) (1) 2744926";"Cl 134 7-83 Trr 4 Of 402 Colombia, Bogotá"
"MEDICINA NUCLEAR DEL OCCIDENTE LTDA.";;;"Telefax: (57) (1) 2909992";"Av De Las AmÕricas 71 C -029 Colombia, Bogotá"
"DIANA SOLANGE ATEHORTUA C";;;"(57) (4) 2352439";"Cr48 19 A-40 Int 1424 Colombia, Medellín"
"D Y P DISTRIBUCIONES MÕDICAS LTDA.";;;"Telefax: (57) (1) 8108025";"Tr57 108-58 Colombia, Bogotá"
"PRODUCTOS NATURALES DEL TRAPECIO AMAZÓNICO PRONADTRA";;;"(57) (8) 5924796";"Cl 8 9-87 C.C. Shopping Center L-17 Colombia, Leticia"
"VÉASE: MÉDICOS GUÍA MÉDICA";;;"(57) (8) 1000000";"Av68 75 A-50 Bogotá Colombia, Puerto Asís"
"DROGUERIA SUPERIOR";;;"(57) (5) 6610665";"B. de Lezo Et 2 Manz Q Lt 7 Colombia, Cartagena"
"SPAI-SONS PHARMACEUTICAL INTERNATIONAL COSMETICS";;;"(57) (1) 4279090";"Av Ciudad de Cali 51-86 Colombia, Bogotá"
"CENTRO CIENTÍFICO INTERNACIONAL DE MEDICINA BIOLÓGGICA LTDA";;;"Conm.: (57) (1) 2871777";"Av (Cr) 24 45 A-33 Colombia, Bogotá"
"NUTRITION PHARMA DE COLOMBIA";;;"(57) (5) 3693132";"Cl 72 41-59 P-2 Colombia, Barranquilla"
"SORECOL LTDA.";;;"(57) (1) 6911617";"Cl 97 10-28 Of 402 Colombia, Bogotá"
"FARMACÍA-DROGUERÍA SANTO ANGEL";;;"(57) (4) 5888858";"Cr46 64-64 Colombia, Medellín"
"SALUD FISICA INTEGRAL LTDA.";;;"Telefax: (57) (1) 8636749";"Cr7 13-99 Colombia, Bogotá"
"ORTISALUD IPS LTDA.";;;"Telefax: (57) (1) 4515917";"Cl 38 S 86 C-76 P-3 Colombia, Bogotá"
"ADRIANA GONZÃLEZ Y CÚA. LTDA.";;;"Telefax: (57) (1) 2154069";"Av Country 124-67 Of 509 Colombia, Bogotá"
"MEDIMEX S.A.";;;"(57) (1) 2877380";"Cl 35 6-64 P-3 Colombia, Bogotá"
"LABORATORIOS ECAR S.A.";;;"(57) (4) 4483227";"Cr44 27-50 Colombia, Medellín"
"SERVICIO AÕREO MEDICALIZADO Y FUNDAMENTAL S.A.S.";;;"Telefax: (57) (1) 7456859";"Av (Cl) 26 103-10 Int 27 Colombia, Bogotá"
"A G CONSULTORÚAS S.A.S.";;;"Telefax: (57) (1) 6435759";"Cr53 A 127-30 Of 1119 Colombia, Bogotá"
"DERMASANITAS HORIZONTE S.A.S.";;;"Telefax: (57) (1) 5940460";"Cr21 127-03 Colombia, Bogotá"
"SOCIEDAD DE CONSULTORÚA Y PRESTACIµN DE SERVICIOS ANDAR S.A.";;;"(57) (1) 6600800";"Cl 73 A 76-45 Colombia, Bogotá"
"GRUPO UNIMIX S.A.S.";;;"(57) (2) 4858010";"Cl 12 A 24-54 Colombia, Cali"
"ORTO HEALTH";;;"(57) (2) 6837148";"Cl 6 44-27 Colombia, Cali"
"IPS CENTRO DE REHABILITACIµN SUBA S.A.S.";;;"Telefax: (57) (1) 4672901";"Cl 140 C 94 D-38 Colombia, Bogotá"
"FABIO RAMÍREZ M. Y CÍA.";;;"(57) (4) 4144743";"Cr78 A 34 A-85 Int 701 Colombia, Medellín"
"INSTITUTO COLOMBIANO DE CIRUGIA PLÃSTICA Y ESTÕTICA LTDA.";;;"Telefax: (57) (1) 2151504";"Cr9 116-20 Of 301 Colombia, Bogotá"
"DROGAS LA GARANTÍA";;;"(57) (6) 3353631";"Cl 21 6-73 Colombia, Pereira"
"BOEHRINGER INGELHEIM S.A.";;;"(57) (1) 3199100";"Cr11 84-09 P-5 Colombia, Bogotá"
"DIEGO JARAMILLO DOMÚNGUEZ";;;"(57) (2) 2729272";"Cr 31 31-23 Colombia, Palmira"
"CENTRO DE MEDICINA PREVENTIVA";;;"(57) (7) 6453341";"Cr33 32-11 Colombia, Bucaramanga"
"REHABILITAMOS LTDA.";;;"Telefax: (57) (1) 6169363";"Av Santa BÃrbara 102-53 Consult 114 Colombia, Bogotá"
"MEDIALCOST LTDA.";;;"(57) (5) 3736909";"Cr50 No. 80-18 L-3 Colombia, Barranquilla"
