"First Name";"Email Address";Url;Telephone;Address
"CLÍNICA VETERINARIA DOVER";soporte@dover.com.co;www.dover.com.co;"(57) (1) 6192000";"Cl 126 A 7-98 Colombia, Bogotá"
"VET CLINICA VETERINARIA";vetclinicaveterinaria@outlook.com;;"(57) (4) 2657999";"Cl 34 A 66 A-37 Colombia, Medellín"
"EMERGENCIAS VETERINARIAS INMEDIATAS S.A.S.";gerencia@evi.com.co;www.evi.com.co;"(57) (4) 4483234";"Cr42 16 A SUR-41 Colombia, Medellín"
SUPERMASCOTAS;servicioalcliente@supermascotas.com.co;www.supermascotas.com.co;"(57) (2) 3325757";"Cl 18 106 A-16 Colombia, Cali"
"CENTRO DE VETERINARIA RAZAS";razasveterinarias@yahoo.com;www.razasveterinaria.com;"(57) (2) 5247888";"Cl 5 17-50 Colombia, Cali"
"CLINICA VETERINARIA SALUD ANIMAL";salud_animal@yahoo.com;www.clinicaveterinariasaludanimal.co;"(57) (1) 7517416";"Tr85 64 I-14 Colombia, Bogotá"
"HOSPITAL ANIMAL DEL VALLE";info@hospitalanimaldelvalle.com;www.hospitalanimaldelvalle.com;"(57) (2) 5532152";"Cr42 3-24 Colombia, Cali"
"GUAU HOUSE - LAYMO";info@cerramientosmodulareslaymo.com;www.guauhouse.com;"(57) (4) 2381046";"Cl 29 74-34 Colombia, Medellín"
"CLINICA BALCÁZAR";clinicabalcazar@gmail.com;www.doctorabalcazarclinicaveterinaria.com;"(57) (2) 8249914";"Cr9 63   N-131 Brr. Bellavista Colombia, Popayán"
TEKOA;mercadeo@puntofertil.com;www.tekoa.com.co;"(57) (1) 6482082";"Autop Norte 145 A-44 Colombia, Bogotá"
"PUNTO FERTIL";mercadeo@puntofertil.com;www.puntofertil.com;"(57) (1) 6482082";"Autop Norte 145 A-44 Colombia, Bogotá"
"ANIMAL CENTER EPS";animalcenter.eps@hotmail.com;www.animalcentercali.com;"(57) (2) 3367051";"Cl 18 B# 28-74 Colombia, Cali"
"MI CORRAL";jvarela@micorral.com;www.micorral.com;"(57) (5) 3607950";"Cr53 68-150 Colombia, Barranquilla"
EJEVET;ejeveterinario@hotmail.com;www.ejevet.com;"(57) (6) 3161611";"Av Circunvalar 3-27 Colombia, Pereira"
"HOSPITAL VETERINARIO SAN BLASS ARMENIA";luisgavet@yahoo.com;www.sanblass.com;"(57) (6) 3450099";"Cl 14 23-147 Colombia, Pereira"
"CLÍNICA VETERINARIA POBLADO";info@clinicaveterinariapoblado.com;www.clinicaveterinariapoblado.com;"(57) (4) 4446287";"Cl 10 A 40-52 Colombia, Medellín"
"CLÍNICA VETERINARIA MIS MASCOTAS";contacto@mismascotas.com.co;www.mismascotas.com.co;"(57) (5) 3780035";"Cr46 87-27 Colombia, Barranquilla"
"BIOSTAR PHARMACEUTICAL S.A.";info@biostarsa.com;www.biostarsa.com;"(57) (1) 3118992119";"Autop Medellín KM 2 , 5. Parque Industrial Portos Sabana 80 Bdg 42 Colombia, Bogotá"
"ANIMALES CON COLAS";animalesconcolas@yahoo.com;www.hospitalanimalesconcolas.com;"(57) (6) 7463277";"Cr22 8-45 Colombia, Armenia"
"CORPORACIÓN UNIVERSITARIA LASALLISTA";dir.mercadeo@lasallista.edu.co;www.lasallista.edu.co;"(57) (4) 3201999";"Cr51 118   S-57 Caldas Colombia, Medellín"
"DEGANADO S.A.";deganado@hotmail.com;www.deganadosa.com;"(57) (2) 6680723";"Av Estación 3 Bis N-5 Colombia, Cali"
"FUNERARÍA PARA MASCOTAS FUNERAVET";funeravet@yahoo.com;www.funeravet.com.co;"(57) (1) 3111077";"Cl 70 A 53-41 Brr. San Fernando Colombia, Bogotá"
"ARKA CLÍNICA VETERINARIA";arkaclinicaveterinaria@hotmail.com;www.arkaveterinaria.com;"(57) (2) 3303485";"Cr80 15-89 Colombia, Cali"
"LABORATORIO DE PATOLOGÍA SERPAT";serviciodepatologia@hotmail.com;www.serviciodepatologiaserpat.com;"(57) (1) 2558923";"Cr15 68-46 Colombia, Bogotá"
"CLÍNICA VETERINARIA SANAVET";catavaca@hotmail.com;www.sanavet.co;"(57) (4) 4448607";"Cr76 32 D-22 Cerca a la Bomba de Los Almendros Colombia, Medellín"
"NATURALIA TIENDA VETERINARIA Y CLÍNICA";;www.naturaliaveterinaria.com;"(57) (8) 6601272";"Cl 15 36-38 L 2 Nuevo Ricaute Colombia, Villavicencio"
"TIENDA AGROVETERINARIA DEL CAMPO";;www.delcampoagroveterinaria.com;"(57) (8) 6668219";"Vía Catama Cl 35 A 17-52 Este Colombia, Villavicencio"
"ZOOMANÍA CLÍNICA VETERINARIA S.A.S.";zoomania.veterinaria@hotmail.com;www.zoomania.co;"(57) (4) 4449668";"Cl 35 A   S 47-67 Envigado Colombia, Medellín"
"CLÍNICA VETERINARIA SANTA ISABEL";veterinaria.santaisabel@gmail.com;www.veterinaria-santaisabel.com;"(57) (1) 2777960";"Cl 2 27 B-26 Colombia, Bogotá"
"LA ZONA ANIMAL CLÍNICA VETERINARIA";lazonaanimal@gmail.com;www.lazonaanimal.com;"(57) (6) 3363332";"Av30 Agosto 35-75 Colombia, Pereira"
"HOSPITAL VETERINARIO SAN FRANCISCO";iivan.corredor@gmail.com;www.hospitalveterinariosf.com;"(57) 3125789974";"Cr92 162-10 Colombia, Bogotá"
"HOSPITAL VETERINARIO DEL ORIENTE";hospital.vete@hotmail.com;www.hospitalveterinariodeoriente.com;"(57) (4) 5420365";"Glorieta Don Diego 100 Metros Vía a Llanogrande Colombia, Medellín"
"ABANIMAL CLINICA VETERINARIA";dadanaor@yahoo.com.mx;www.abanimalimagenesdiagnosticas.com;"(57) (1) 4144930";"Cr69 17-24 S Colombia, Bogotá"
"ANIMAL HEALTH";animalhealthmanizales@outlook.com;www.clinicaveterinariaanimalhealth.com;"(57) (6) 3210593";"Cl 21 21-33 Colombia, Pereira"
"CLÍNICA VETERINARIA PEQUEÑOS ANIMALES";luzlidias@hotmail.com;www.clinicaveterinariapequenosanimales.com;"(57) (7) 6302776";"Cl 20 19-40 Colombia, Bucaramanga"
"AGROPUNTO LA FINCA";agropuntolafinca@msm.com;www.agropuntolafinca.com.co;"(57) (8) 6702998";"Cl 26 40-39 Brr. 7 de Agosto Colombia, Villavicencio"
"CATDOG CORPORATION SAS";catdogcorporation@gmail.com;www.catdogcorporationsas.com;"(57) (1) 6480948";"Cl 150 18 A-37 Colombia, Bogotá"
"FUNDACIÓN PROTECTORA DEL MEDIO AMBIENTE Y DE LOS ANIMALES";stellaospinac@hotmail.com;www.fundacionprotectora.com;"(57) (6) 3326356";"Cr17 44-49 San Fernando Dosq Colombia, Pereira"
"MEDICO FELINO";laldana@uniandes.edu.co;www.medicofelino.com;"(57) (1) 6135813";"Cll. 128 B BIS # 59-38 Colombia, Bogotá"
"CLINICA VETERINARIA DR. CAMILO PINZON G.";camilopinzonmv@hotmail.com;;"(57) (1) 2550347";"Cr24 63-28 Colombia, Bogotá"
"First Name";"Email Address";Url;Telephone;Address
"CLINICA VETERINARIA DR. CAMILO PINZON G.";camilopinzonmv@hotmail.com;;"(57) (1) 2550347";"Cr24 63-28 Colombia, Bogotá"
"FUNDACIÓN PROTECTORA DEL MEDIO AMBIENTE Y DE LOS ANIMALES";stellaospinac@hotmail.com;www.fundacionprotectora.com;"(57) (6) 3326356";"Cr17 44-49 San Fernando Dosq Colombia, Pereira"
"CLÍNICA VETERINARIA MASCOVET";mascovet09@gmail.com;www.veterinariamascovet.com;"(57) (7) 5751204";"Av1 Este 3-08 La Ceiba Colombia, Cúcuta"
"CLÍNICA VETERINARIA EL COUNTRY";vecountry@hotmail.com;www.veterinariaelcountry.com;"(57) (5) 3559057";"Cr60 79-120 Colombia, Barranquilla"
MASCOVET;mascovet09@gmail.com;www.veterinariamascovet.com;"(57) (7) 5751204";"Av1 Este 3-08 La Ceiba Colombia, Cúcuta"
COGANCEVALLE;cogancevalle1@yahoo.es;www.cogancevalle.com;"(57) (2) 2243132";"Cr23 29-28 Colombia, Tuluá"
"A.CLINICA VETERINARIA SAN FRANCISCO DE ASIS";clinivetsanfa@hotmail.com;www.clinicaveterinariasanfrancisco.com.co;"(57) (5) 4357388";"Manz P Casa 302 Urb Boulevar de la 19 Colombia, Santa Marta"
CAN-AMI;ventas@can-ami.com;www.can-ami.com;"(57) (1) 7142099";"Cr17 59 A-68 S Colombia, Bogotá"
"CENTRO DE SERVICIOS VETRINARIOS CEBÚ Y CIMARRON";agrocimarron@hotmail.commarialeonorgm@hotmai;agropecuariaelcimarron.com;"(57) (8) 6625069";"Cl 31 34-04 El Maizaro Colombia, Villavicencio"
"CASTELL MEDICINA VETERINARIA";castellveterinaria@hotmail.com;;"(57) (1) 4820306";"Cr21 # 53 D-52 Colombia, Bogotá"
"FAUNA SERVICIOS VETERINARIOS";faunaservet@hotmail.com;www.faunaservet.com;"(57) (1) 6154569";"Cl 134 9-98 Int 4 Colombia, Bogotá"
"BONANZA 2.000 AGROPECUARIA LTDA.";bonanza-2000cmv@hotmail.com;www.bonanza2000agropecuaria.com;"(57) (7) 5751902";"Av0 6-52 Colombia, Cúcuta"
"CENTRO VETERINARIO MOTAS EPS";cvmotas@hotmail.com;www.centroveterinariomotaseps.com;"(57) (2) 3267522";"Cl 18 B# 28-88 Sta Elena Colombia, Cali"
"CONSULTORIO VETERINARIO";ximena0919@gmail.com;www.consultorioveterinariodelsur.com;"(57) (1) 5622514";"Cr27 14-01 S Colombia, Bogotá"
ENVIMASCOTAS;envimascotaseh@hotmail.com;www.envimascotas.com;"(57) (4) 2761564";"Cl 33 B Sur 43 A-15 Colombia, Envigado"
"ALMACÉN VETERINARIO EL FEDERADO";elfederado@hotmail.com;www.elfederado.com;"(57) (7) 6303197";"Av Quebrada Seca 20-63 Colombia, Bucaramanga"
"LA HUELLA CENTRO VETERINARIO";j.garces@centroveterinariolah;www.centroveterinariolahuella.com;"(57) (2) 2719433";"Cl 21 3-20 Colombia, Palmira"
"CENTRAL PECUARIA";centralpecuaria@hotmail.com;www.centralpecuaria.com;"(57) (8) 2641160";"Cl 28 4 C-16 Colombia, Ibagué"
"VETERINARIA SANTA LUCIA";clinicaveterinariastalucia@hotmail.com;;"(57) (4) 4461413";"Cl 48 92 A-07 Colombia, Medellín"
"CLÍNICA VETERINARIA SANTA LUCÍA";clinicaveterinariastalucia@hotmail.com;;"(57) (4) 4461413";"Cl 48 92 A-07 Colombia, Medellín"
"REVEEX DE COLOMBIA";admin@oscarboleda.com;www.oscarboleda.com;"(57) (4) 3174546";"Cr25 12 Sur-59 Of 9812 Colombia, Medellín"
"CLÍNICA AGRO VETERINARÍA SABUESOS";fumigaxneiva@hotmail.com;www.sabuesoshuila.com;"(57) (8) 8717264";"Cl 3 B 14-76 Colombia, Neiva"
"COLEGIO COLOMBIANO DE ADIESTRAMIENTO CANINO";yamile2719@hotmail.com;www.colegiocolombianocanino.com;"(57) 3105637054";"Cr1 6 D-45 Colombia, Bogotá"
"EMERVET S.A.S. EMERGENCIAS VETERINARIAS";emervetcali@gmail.com;www.emervetcali.com;"(57) (2) 3335123";"Cr56 11-17 Colombia, Cali"
SERVICANES;servicanes@hotmail.com;;"(57) (2) 2320899";"Cr27 23-41 Colombia, Tuluá"
"CENTRO VETERINARIO SERVICANES";servicanes@hotmail.com;www.servicanes.com;"(57) (2) 2320899";"Cr27 23-41 Colombia, Tuluá"
"MLS LABORATORIO CLÍNICO VETERINARIO S.A.S.";info@mlslabvet.com;mlslabvet.com;"(57) (5) 6435956";"Campestre Sector Villa Lorena Cl 15 Manz B-38 Colombia, Cartagena"
"CLINICA VETERINARIA BERKANA";clinicaveterinariaberkana@gmail.com;www.clinicaveterinariaberkana.com;"(57) (1) 08840306";"Cr12 12-38 ChÚa Colombia, Bogotá"
"BEATI-PETRI MASCOTAS LIMPIAS";beatripetri@gmail.com;;"(57) 3143087382";"Av Americas 72 B 81 Colombia, Bogotá"
"VETERINARIA LAS AMERICAS";vetamericas@yahoo.com;www.veterinarialasamericas.com;"(57) (1) 2627529";"Av. Américas 70 B-63 Colombia, Bogotá"
"CLÍNICA VETERINARIA VISIÓN VET";info@visionvet.com.co;www.visionvet.com.co;"(57) (1) 4797122";"Cl 150 22-36 Colombia, Bogotá"
"AR HOSPITAL VETERINARIO VILLA DE LAS PALMAS";clinicaveterinariaar@gmail.com;;"(57) (2) 2867537";"Cl 27 33-36 Colombia, Palmira"
"CLÍNICA VETERINARIA VIDA ANIMAL DEL CARIBE";oscarbota@hotmail.com;www.vidaanimaldelcaribe.com;"(57) (5) 3782564";"Cr46 84-173 Colombia, Barranquilla"
"ZOOVET HOSPITAL VETERINARIO";zoovetsa@yahoo.es;www.hospitalveterinariozoovet.com;"(57) 3117723159";"Cr23 11 A-39 Colombia, Armenia"
"CLÍNICA VETERINARIA MI MASCOTA FELIZ";mvzmimascotafeliz@hotmail.com;www.mimascotafelizvillavicencio.com;"Conm.: (57) (8) 3112150413";"Cl 24 Este 13 A-81 Colombia, Villavicencio"
"CLÍNICA VETERINARIA ZAMUDIO SUR S.A.S.";milenazamudio@hotmail.com;www.clinicaveterinariazamudio.com;"(57) (2) 3326070";"Av2 Bis   N 28   N-35 San Vicente Colombia, Cali"
"MASCOTAS & CIA";mascotascia@hotmail.com;;"(57) (7) 6456916";"Cr32 38-06 Colombia, Bucaramanga"
"PELUQUERÍA CANINA SAMI";peluqueriacaninasami@hotmail.com;www.peluqueriacaninasami.com;"(57) (6) 3262404";"Cr7 32-16 Colombia, Pereira"
"CLINICA VETERINARIA MASCOTAS Y MASCOTAS S.A.S";hugovet2005@yahoo.es;www.veterinariamascotasymascotas.com;"(57) (7) 6391553";"Cr25 30-30 L-1 Cañaveral Colombia, Bucaramanga"
"CLINICA VETERINARIAS TERRANOVA";cvterranova@gmail.com;;"(57) (4) 2547667";"Cl 56 39-04 Colombia, Medellín"
"First Name";"Email Address";Url;Telephone;Address
"PELUQUERÍA CANINA SAMI";peluqueriacaninasami@hotmail.com;www.peluqueriacaninasami.com;"(57) (6) 3262404";"Cr7 32-16 Colombia, Pereira"
"SABUESOS CENTRO VETERINARIO Y ODONTOLOGICO";veterinarianserna@yahoo.com;;"(57) (2) 7316470";"Cl 18 31-58 Parque Infantil Colombia, Pasto"
"VILLA ANIMAL CLÍNICA VETERINARIA";villa-animal@hotmail.com;;"(57) (6) 3376826";"Manz 26 Casa 9 Corales Colombia, Pereira"
"CANINOS Y FELINOS TIENDA DE FELINOS";eljuancaa@gmail.com;;"(57) (4) 3332135";"Cl 40 B   S 27 B-94 Envigado Colombia, Medellín"
"CLÍNICA VETERINARIA SAN LUCAS";veterinariasanlucas@hotmail.com;;"(57) (4) 3171285";"Cr25 B 20   S-32 Int 101 Colombia, Medellín"
"CLINICA VETERINARIA MASCOTAS Y MASCOTAS S.A.S";hugovet2005@yahoo.es;www.veterinariamascotasymascotas.com;"(57) (7) 6391553";"Cr25 30-30 L-1 Cañaveral Colombia, Bucaramanga"
"CLINICA VETERINARIAS TERRANOVA";cvterranova@gmail.com;;"(57) (4) 2547667";"Cl 56 39-04 Colombia, Medellín"
"TIENDA DE MASCOTAS ZOOLÍN";tiendazoolin@une.net.co;;"(57) (4) 3314293";"Dg32 35 A S-19 Envigado Colombia, Envigado"
"ZONA ANIMAL ALMACEN VETERINARIO";mao_1121@hotmail.com;mao_1121@hotmail.com;"(57) (7) 3112247644";"Cl 48 21-12 Br Colombia Colombia, Barrancabermeja"
"CENTRO VETERINARIO CAN & CATS";can-cats@hotmail.com;;"(57) (4) 4440754";"Cr84 37 B-64 Colombia, Medellín"
"CLÍNICA VETERINARIA DEL TOLIMA";clinicaveterinariadeltolima1@hotmail.com;;"(57) (8) 2645638";"Cr6 30-21 Colombia, Ibagué"
"MASCOTAS & CIA";mascotascia@hotmail.com;;"(57) (7) 6456916";"Cr32 38-06 Colombia, Bucaramanga"
"ALMACÉN AGROPECUARIO EL ESTABLO";elestablo_bucaramanga@yahoo.com;;"(57) (7) 6303764";"Av Quebrada Seca 15-37 Colombia, Bucaramanga"
"ARISTOGATOS CRIADERO";aristogatoscriadero@gmail.com;www.criaderoaristogatos.com;"(57) (4) 2662500";"Cl 10 30-30 L-310 Colombia, Medellín"
"CARDIOLOGÍA VETERINARIA COLOMBIA";cardiologiaveterinariacolombia@hotmail.com;www.cardiologiaveterinariacolombia.com;"(57) (1) 2151533";"Cr50 119-11 Colombia, Bogotá"
"TIENDA DE LA MASCOTA";tiendadelamascota@hotmail.com;www.tiendadelamascotamanizales.com;"(57) (6) 8902838";"Cr24 B 45-36 Colombia, Manizales"
"ESPACANES S.A.S.";zate1@hotmail.com;www.espacanes.com.co;"(57) (6) 3447000";"Av. de las Américas No. 50-3 L-30 Paseo de la Castellana Colombia, Pereira"
"BIOTECNOLOGÍA Y GENÉTICA S.A.";biotecgen@gmail.com;www.biotecgen.com.co;"(57) (1) 2145409";"Cl 119 49-26 Colombia, Bogotá"
"IKI PETS";info@nordexgroup.net;www.ikipets.com;"(57) (4) 4445704";"Cl 36   S 45-12 Envigado Colombia, Medellín"
"EUROVET VETERINARY HOSPITAL";eurovetcolombia@gmail.com;;"(57) (4) 2661990";"Cr33 8 A-19 Poblado Colombia, Medellín"
"CLINICA VETERINARIA MASCOTAS EN CASA";vetmascotasencasa@hotmail.com;;"(57) (7) 6432999";"Cr33 52-31 Colombia, Bucaramanga"
"LA TIENDA DE MIS MASCOTAS";latiendademismascotas@hotmail.com;;"(57) (4) 3412503";"Cl 20 74-38 Colombia, Medellín"
"CANINOS Y FELINOS POBLADO";gerencia@caninosyfelinospoblado.com;www.caninosyfelinospoblado.com;"(57) (4) 2664620";"Cr43 B 12-157 Colombia, Medellín"
"ANIMAL CARE CLÍNICA VETERINARIA";cvanimalcare@gmail.com;www.animalcare.com.co;"(57) (4) 4442706";"Cl 33 83 A-07 Colombia, Medellín"
"BICAMPEON VETERINARIA";jhonsonchampion@hotmail.com;;"(57) (7) 5872095";"Av2 Cl 14-1 -151 Brr. Aeropuerto Colombia, Cúcuta"
"ALMACÉN VETERINARIO ESPECIALES";ancans8970@yahoo.es;;"(57) (6) 3337190";"Cr8 9-70 Colombia, Pereira"
"CLÍNICA VETERINARIA SABIMASCOTAS";sabimascotas@hotmail.com;www.sabimascotas.com;"(57) (7) 5752531";"Cl 1   N 9 E-60 Esq.Parque de Quinta Oriental Colombia, Cúcuta"
"CARLOS SERNA MED. VET.";veterinario@carloserna.com;www.carloserna.com;"(57) (5) 3591205";"Cl 93 43-59 Colombia, Barranquilla"
"VETERINARIA EL BECERRO";veterinariaelbecerro@hotmail.com;;"(57) (5) 4215663";"Cl 10 10-33 Mercado Colombia, Santa Marta"
"VETERINARIA VIDA ANIMAL";vidaanimalvet@gmail.com;www.veterinariavidanimal.com;"(57) (1) 4383605";"Dg84 A 82 A-83 Colombia, Bogotá"
"CLINICA VETERINARIA ZOOVET";zoo-vet@hotmail.com;www.clinicaveterinariazoovet.com;"(57) (4) 5807707";"Cr89 44-09 Colombia, Medellín"
"A DOMICILIO CENTRO VETERINARIO";jotalo@yahoo.com;www.adomiciliocentroveterinario.com.co;"(57) (1) 7144554";"Cr25 41-31 S Colombia, Bogotá"
"ANIMAL DOCTOR CLÍNICA VETERINARIA";kptoarbelaezb@hotmail.com;www.animaldoctor.com.co;"(57) (2) 8204165";"Cl 8   N 10-08 Colombia, Popayán"
"CENTRO VETERINARIO MASCOTAS Y AMIGOS";mascotasyamigos@yahoo.es;www.mascotasyamigos.com;"(57) (4) 3431886";"Cr76 9 A-32 Colombia, Medellín"
"AA ACCESORIOS Y PRENDAS DESECHABLES";aaaccesoriosyprendasdesechables@hotmail.com;www.aaaccesoriosyprendasdesechables.com;"Telefax: (57) (1) 2361748";"Cl 85 A 21-63 Colombia, Bogotá"
"VETERINARIA GRECIA";kisabos123@yahoo.com;www.veterinariagrecia.com;"(57) (1) 2144663";"Cl 119 11-59 Colombia, Bogotá"
"CLÍNICA VETERINARIA KANÓPOLIS";kanopolis@hotmail.com;www.kanopolisveterinaria.com;"(57) (5) 3558786";"Cr75 A 89-20 Villa Carolina Colombia, Barranquilla"
"VET & PET CLÍNICA VETERINARIA E.U.";doctor@vetpet.co;www.vetpet.com.co;"(57) (5) 3528549";"Cr46 94-43 Colombia, Barranquilla"
"VETERINARIA PROSAL-VET";drtorres@prosalvet.com;www.veterinariaprosalvet.com;"(57) (5) 6562872";"Crespo Cl 70 8-35 Colombia, Cartagena"
"VETERINARIA ZOORICATOS";zooricatos@hotmail.com;www.zooricatos.com;"(57) (6) 3376986";"Manz 44 Casa 23 Corales Colombia, Pereira"
"First Name";"Email Address";Url;Telephone;Address
"VET & PET CLÍNICA VETERINARIA E.U.";doctor@vetpet.co;www.vetpet.com.co;"(57) (5) 3528549";"Cr46 94-43 Colombia, Barranquilla"
"HUELLITAS PELUQUERÍA CANINA";proteccionfelina@hotmail.com;www.huellitaspereira.com;"(57) (6) 3353215";"Cl 16 12-40 Dg Hotel Movich Colombia, Pereira"
"VETERINARIA EL CORRAL";elcorralveterinaria@gmail.com;www.elcorralveterinaria.com;"(57) (7) 6344815";"Cl 45 22-33 Colombia, Bucaramanga"
"VETERINARIA ZOORICATOS";zooricatos@hotmail.com;www.zooricatos.com;"(57) (6) 3376986";"Manz 44 Casa 23 Corales Colombia, Pereira"
"VETERINARIA HUELLITAS MANZANARES";lytta92@hotmail.com;www.veterinariahuellitasmanzanares.com;"(57) (8) 8705675";"Cr31 Sur 18 C-04 Manzanares Colombia, Neiva"
"CLÍNICA VETERINARIA KANÓPOLIS";kanopolis@hotmail.com;www.kanopolisveterinaria.com;"(57) (5) 3558786";"Cr75 A 89-20 Villa Carolina Colombia, Barranquilla"
"CENTRO VETERINARIO FAUNA";fauna_veterinaria@yahoo.com;www.centroveterinariofauna.com;"(57) (7) 6335124";"Cl 45 16-21 Colombia, Bucaramanga"
"PELOS Y GATOS";pelosygatos@gmail.com;www.veterinariapelosygatos.com;"(57) (6) 3368090";"Av30 de Agosto-37 -74 P-2 Colombia, Pereira"
AGROFAUNA;luisvepa@gmail.com;;"(57) (6) 3114651";"Cl 14 22-112 L-3 Edif La Bohemia Colombia, Pereira"
"CLÍNICA VETERINARIA UCI-VET'S S.A.S.";alexa17serna@gmail.com;;"(57) (6) 3170504";"Cl 11 24-182 Colombia, Pereira"
"ANIMAL CLÍNICA VETERINARIA NORMANDIA";info@veterinarianormandia.com;www.veterinarianormandia.com;"(57) (1) 2954268";"Av Boyacá 50-3 Colombia, Bogotá"
"ADIESTRAMIENTO CANINO REC.";rayner.epalza@hotmail.com;;"(57) 3006455263";"Información Colombia, Barranquilla"
"VETERINARIA DOCTOR PACHO";;;"(57) (4) 4485958";"Cl 47 48-52 Bello Colombia, Medellín"
"MASCOTAS SUPER PUPPY";mascotassuprepuppy@hotmail.com;;"(57) (7) 6893877";"Cl 1 A 4-21 Palermo II Colombia, Piedecuesta"
"AGROGANADERO DEL CARIBE S.A.S.";oontabilidad@agroganaderodelcaribe.com.co;www.agroganaderodelcaribe.com.co;"(57) (5) 3782134";"Cr46 75-94 Colombia, Barranquilla"
"DACHI CLINICA VETERINARIA";;;"(57) (2) 8352893";"Cl 1   N 12-23 Colombia, Popayán"
SAFARI;safariclinicavet@hotmail.com;www.safariclinicaveterinaria.amawebs.com;"(57) (4) 4531187";"Dg57 34-05 Bello Colombia, Medellín"
"ANALIZAR VETERINARIO";analizarveterinario@hotmail.com;;"(57) (7) 5778438";"Cl 3 7 E-70 P-2 Quinta Oriental Colombia, Cúcuta"
"VETERINARIA CALDAS";veterinariacaldas@gmail.com;;"(57) (6) 8815881";"Cr23 65-39 P 2 Colombia, Manizales"
"ANIMALIA PET STORE";animaliapetstore@hotmail.com;;"(57) (1) 8037698";"Cr3 B 61-36 Colombia, Bogotá"
"TIERRA DE MASCOTAS PARQUE CEMENTERIO";info@tierramascotas.com;www.tierramascotas.com;"(57) (2) 3241935";"Km 7 Vía Río Claro Potrerito Jamundí Colombia, Cali"
"BIOVET LABORATORIO CLINICO VETERINARIO";infor@laboratoriobiovet.com;www.laboratoriobiovet.com;"(57) (7) 6913068";"Av Quebradaseca 32 A-75 Colombia, Bucaramanga"
"CENTRO VETERINARIO VILLACOLOMBIA";jairoalbertoruizrengifo@yahoo.com.co;;"(57) (2) 4488332";"Cl 52 12-36 Colombia, Cali"
"CENTRO VETERINARIO MANDALAY";vet_mandalay@yahoo.com;;"(57) (1) 2734781";"Cr78 4-06 Colombia, Bogotá"
"CENTRO DE EMERGENCIAS VETERINARIAS WALVET";waleont@yahoo.com;;"(57) (1) 2514009";"Cl 85 91-27 Colombia, Bogotá"
"AL INSTANTE 24 HORAS ERNESTO CASTRO C";veterinarioernesto@gmail.com;;"(57) (1) 4606110";"Cr70 49-47 Colombia, Bogotá"
"ALMACEN Y CASA VETERINARIA PARAISO";veterinariaparaiso@hotmail.com;;"(57) (5) 3793020";"Cl 38 38-25 Colombia, Barranquilla"
"MIRRINGA CAT SHOP";contacto@gatosmirringa.com;www.gatosmirringa.com;"(57) (4) 4442335";"Cl 28 81-23 Colombia, Medellín"
MANIMALES;manimalesvet@gmail.com;facebook.com/manimalesvet;"(57) 3012004225";"Cr21 62 A-52 Colombia, Manizales"
"ANI CENTER I.P.S.ANIMAL";hadrve1@hotmail.com;saniepsa.com;"(57) (7) 5744270";"Av 6 E 7 A-21 Colombia, Cúcuta"
"LUCKY PET STORE";lucky.petstore5@gmail.com;;"(57) (7) 6714630";"Cr38 34-71 El Prado Colombia, Bucaramanga"
"PELUQUERIA CANNES";diani0276@hotmail.com;;"(57) (2) 3265038";"Cl 27 37-04 Colombia, Cali"
"CLÍNICA VETERINARIA Y OFTALMOLÓGICA EL BOSQUE";cvelbosque@gmail.com;www.clinicaveterinariaelbosquecali.com;"(57) (2) 6812759";"Av5   N 40   N-26 Colombia, Cali"
"CENTRO VETERINARIO HIRCANES";ramireztamayo@gmail.com;;"(57) (2) 3152625";"Cl 14 68-26 Colombia, Cali"
"CENTRO VETERINARIO SURCOLOMBIANO";centroveterinariosurcolombiano@hotmail.com;;"(57) (8) 8627035";"Cr9 20-52 Colombia, Neiva"
"CENTRO MEDICO POLICLÍNICA VETERINARIA";juantorres123@hotmail.com;;"(57) (7) 6343351";"Cl 41 33-14 Colombia, Bucaramanga"
"CENTRO VETERINARIO ANIMAL SWEET";izasierra33@hotmail.com;;"(57) (4) 4615357";"Cl 24 A 50 A-17 Bello Colombia, Medellín"
"CENTRO VETERINARIO CAPRI";centrovetcapri@hotmail.com;;"(57) (2) 3774821";"Cl 11 A 73-06 Colombia, Cali"
"CONSULTORIO VETERINARIO AVENIDA BOLIVARIANA";fernapin@hotmail.com;;"(57) (4) 2352727";"Cr64 42-12 P-12 Colombia, Medellín"
"CENTRO MEDICO VETERINARIO DOGUILLO";oscarhumbertozuluaga@gmail.com;;"(57) (4) 2378308";"Cl 104 72-69 Colombia, Medellín"
"First Name";"Email Address";Url;Telephone;Address
A.ANIMALES;dmc0704@hotmail.com;;"(57) (2) 5535918";"Cr45 11-73 Colombia, Cali"
"CENTRO VETERINARIO ROBLEDO";veterinariarobledo@hotmail.com;;"(57) (4) 4221063";"Cl 68 87-38 Colombia, Medellín"
"LOS GALGOS";losgalgosco@yahoo.com;;"(57) (6) 8835489";"Cr19 18-22 Colombia, Manizales"
"BIOMET LABORATORIO";info@biometlab.com;;"(57) (2) 5573712";"Cr56 7-54 Camino Real Colombia, Cali"
"CENTRO VETERINARIO CAPRI";centrovetcapri@hotmail.com;;"(57) (2) 3774821";"Cl 11 A 73-06 Colombia, Cali"
"AGROPECUARIA SANTA LUCÍA";agropecuariastalucia@gmail.com;;"(57) (4) 2644164";"Cr87 47 DD-63 Colombia, Medellín"
"PERROS Y GATOS CENTRO VETERINARIO";perrosygatoscentroveterinario@gmail.com;;"(57) (6) 3446574";"Guaduales de Milán L-2 Trr H Una Cuadra Arriba del C.C Unico Colombia, Pereira"
"MASCOTAS SUPER PUPPY";mascotassuprepuppy@hotmail.com;;"(57) (7) 6893877";"Cl 1 A 4-21 Palermo II Colombia, Piedecuesta"
"SAN RAFAEL MASCOTAS";;www.sanrafaelmascotas.com;"(57) (5) 4204694";"Cr7 116-94 L-112 C.C. Zazue Plaza Colombia, Santa Marta"
"ALMACEN VETERINARIO PUNTO CANINO";ldmascotas.ptocanino@yahoo.co.com;;"(57) (2) 6627206";"Cl 70 7 Cbis-39 Colombia, Cali"
"CENTRO VETERINARIO PENICHE";k.rlostorres@hotmail.com;;"(57) (2) 4097653";"Cl 10 64 A-31 Colombia, Cali"
"MISIÓN MÉDICA ANIMAL";;;"(57) (7) 6027396";"Cl 67 30-23 La Floresta Colombia, Barrancabermeja"
"ATENCION VETERINARIA Y PELUQUERIA EL DORADO";;;"(57) (4) 2708808";"Cl 41 A   S 42-08 Envigado Colombia, Medellín"
"CENTRO DE EMERGENCIAS VETERINARIAS WALVET";waleont@yahoo.com;;"(57) (1) 2514009";"Cl 85 91-27 Colombia, Bogotá"
"AL INSTANTE 24 HORAS ERNESTO CASTRO C";veterinarioernesto@gmail.com;;"(57) (1) 4606110";"Cr70 49-47 Colombia, Bogotá"
MASCOTIKS;mascotiks@outlook.com;www.mascotiks.com;"(57) (6) 8894256";"C.C. Fundadores L-9706 Nivel-2 Colombia, Manizales"
"EL PALACIO DE LAS MASCOTAS";;;"(57) (4) 3371954";"Cl 11 10-20 Ap 101 San Antonio de Prado Colombia, Medellín"
"DOCTOR PET";doctorpetmedellin@gmail.com;;"(57) (4) 3661961";"Cr41 53-21 Colombia, Medellín"
"CLINICA VETERINARIA EL UNIVERSO CANINO";heloz821@hotmail.com;www.eluniversocanino.com.co;"(57) (4) 3539327";"Cl 17 70-27 Colombia, Medellín"
"CENTRO VETERINARIO DOCTOR CAN";veterinariadoctorcan@hotmail.com;;"(57) (2) 4868945";"Cr2 65-12 P-1 Colombia, Cali"
"UNIDAD VVETERINARIA DEL CARIBE";luisalpega@yahoo.es;;"(57) (5) 4206679";"Cl 22 19 B-24 Colombia, Santa Marta"
"CENTRO VETERINARIO EL RINCÓN DE LAS CUATRO PATAS";rudameji@hotmail.com;;"(57) (2) 3793130";"Cl 70 25-51 Colombia, Cali"
"A DOMICILIO VETERINARIOS";clinicaveterinariastalucia@hotmail.com;;"(57) (4) 4461413";"Cl 48 92 A-07 Colombia, Medellín"
"MASCOPLANET TIENDA DE MACOTAS";;;"(57) (5) 4215258";"Cr. 7 10 19 Colombia, Santa Marta"
"VETERINARIA VETER PETS - DR. MILTON SIERRA";servetintegrales@hotmail.com;;"(57) (6) 3201200";"Cl 69 25-46 Cuba Colombia, Pereira"
"VETERINARIA GALGOS";veterinaria.galgos@gmail.com;www.veterinariagalgos.com;"(57) (7) 6458461";"Cl 41 33-24 Colombia, Bucaramanga"
"M Y M S.A.S.";mymsas@hotmail.com;;"(57) (7) 5750341";"Cl 6 0 A-32 Brr. Lleras Restrepo Colombia, Cúcuta"
"ANIMAL HEALTH CLINICA VETERINARIA";animalhealthcv@gmail.com;www.clinicaveterinariaanimalhealth.com;"(57) (6) 3210578";"Cl 21 21-33 Providencia Colombia, Pereira"
"ADIESTRAMIENTO CANINO ABRAHAM";"chililinergrande@hotmail.com            wilcucu2011@hotmail.com";www.facebook.com/wilmar.cuartas.3;"(57) (2) 3241696";"Cl 2 C Oe 82 A-04 Colombia, Cali"
"ANIMALIA PET STORE";animaliapetstore@hotmail.com;;"(57) (1) 8037698";"Cr3 B 61-36 Colombia, Bogotá"
"BONANZA CLINICA VETERINARIA";eurrutia@etb.net.co;www.clinicaveterinariabonanza.com;"(57) (1) 4304830";"Av (Cl) 80 69 Q-75 Colombia, Bogotá"
"SERVICIOS VETERINARIOS INTEGRALES";jennymarin_1@hotmail.com;;"(57) (6) 3301311";"Cl 18 18-52 Sta Mónica Dosq Colombia, Pereira"
"CARLOS ALBERTO RUIZ ZEA GUITARRISTA";caruze1@hotmail.com;;"(57) (1) 2950219";"Cl 55 80-22 Int 3 Ap 206 Barr. Sta Cecilia Colombia, Bogotá"
"VITAL PETS CENTRO VETERINARIOS.";jmolina@vitalpets.com.co;www.vitalpets.com.co;"(57) (5) 3572659";"Cl 80 42-156 Colombia, Barranquilla"
"CENTRO VETERINARIO MANDALAY";vet_mandalay@yahoo.com;;"(57) (1) 2734781";"Cr78 4-06 Colombia, Bogotá"
"MONTERRICO VETERINARIA Y SPA";monterricoveterinaria@gmail.com;;"(57) (4) 3107076571";"Cl 40 14-103 Brizalia Colombia, Montería"
"ANIMAL HEALTH";healthanimal@gmail.com;;"(57) (2) 2248482";"Cr28 13 A-08 Colombia, Tuluá"
"AGROGANADERO DEL CARIBE S.A.S.";oontabilidad@agroganaderodelcaribe.com.co;www.agroganaderodelcaribe.com.co;"(57) (5) 3782134";"Cr46 75-94 Colombia, Barranquilla"
KIMBA-ZOOSALUD;stuberquia@gmail.com;;"(57) (5) 3788525";"Cl 79 60-49 Colombia, Barranquilla"
"ANIMAL SHOPPING";a1900henao@hotmail.com;;"(57) (6) 3422236";"Cr16 18-126 Av Simón Bolívar Dosq Colombia, Pereira"
"First Name";"Email Address";Url;Telephone;Address
"MARAY MEDICINA VETERINARIA";macena@maraymedvet.com;www.maray.com.co;"(57) (2) 4854066";"Cl 5 C 40-27 Colombia, Cali"
"PERALTA C. LUISA FERNANDA";clipea2008@hotmail.com;;"(57) (4) 5318116";"Cr55 A 26 A-04 Colombia, Rionegro"
ZOOMARCANES;zoomarcanescia@hotmail.com;;"(57) (2) 3975676";"Av6   N 28   N-75 Colombia, Cali"
"UNIDAD VETERINARIA SANTA MARÍA DEL MAR";unidadveterinariasantamariadelmar@hotmail.com;alaverde1977.wis.com/vetsantamariadelmar;"(57) (5) 3039071";"Cr27 8-26 L 2 Country Club Villas Colombia, Barranquilla"
"MASCOSTAS 24 HORAS CLINICA VETERINARIA";;www.mascotas24horas.com.co;"(57) (5) 6606344";"Manga Cl 29 18B-03 Colombia, Cartagena"
"C.UNIMED VETERINARIA";unimedveterinaria24h@hotmail.com;;"(57) (5) 3580386";"Cr43 80-168 Colombia, Barranquilla"
"CENTRO MEDICO POLICLÍNICA VETERINARIA";juantorres123@hotmail.com;;"(57) (7) 6343351";"Cl 41 33-14 Colombia, Bucaramanga"
"CLINICA VETERINARIA GANADERA DEL NORTE";veterinariagnaderadelnorte@hotmail.com;;"(57) (7) 5717205";"Cl 8 2-63 Centro Colombia, Cúcuta"
"MASCOPLANET TIENDA DE MACOTAS";;;"(57) (5) 4215258";"Cr. 7 10 19 Colombia, Santa Marta"
"CLÍNICA VETERINARIA PET CARE LTDA.";victormanuelquint@hotmail.com;www.clinicaveterinariapetcare.com;"(57) (7) 6808307";"Cr30 18-37 San Alonso Colombia, Bucaramanga"
"VETERINARIA ANIMALES FELICES";edgarduransilva@gmail.com;;"(57) (7) 6406039";"Cl 10 11 N-29 Kennedy Colombia, Bucaramanga"
"CLINICA VETERINARIA AQUAVET";"aquavetclinicaveterinaria@hotmail.com   juanpablovillegasmv@yahoo.com";;"(57) (4) 2272052";"Cr29 46 -10 Colombia, Medellín"
"CLINICA VETERINARIA PATOTAS";clinicapatotas@hotmail.com;;"(57) (1) 2113228";"Cr17 51-35 Colombia, Bogotá"
MANIMALES;manimalesvet@gmail.com;facebook.com/manimalesvet;"(57) 3012004225";"Cr21 62 A-52 Colombia, Manizales"
MEGANIMALES;milena_carillo@hotmail.com;;"(57) (5) 4233373";"Diag. 33 No. 9-380 Villa Ely-Frente al Parque Los Trupillos-Mamatoco Colombia, Santa Marta"
"CENTRO VETERINARIO MASCOTA SANA";cvmascotasana@yahoo.com.mx;;"(57) (2) 5140909";"Dg23 10 B-49 Colombia, Cali"
"BIOMET LABORATORIO";info@biometlab.com;;"(57) (2) 5573712";"Cr56 7-54 Camino Real Colombia, Cali"
"CARLOS ALBERTO RUIZ ZEA GUITARRISTA";caruze1@hotmail.com;;"(57) (1) 2950219";"Cl 55 80-22 Int 3 Ap 206 Barr. Sta Cecilia Colombia, Bogotá"
"VETERINARIA MUNDO CANINO";guillermo125@live.com;;"(57) (7) 5751698";"Av Gran Colombia 5 E-30 Popular Colombia, Cúcuta"
"BIOVET LABORATORIO CLINICO VETERINARIO";infor@laboratoriobiovet.com;www.laboratoriobiovet.com;"(57) (7) 6913068";"Av Quebradaseca 32 A-75 Colombia, Bucaramanga"
"LA CLÍNICA DEL GATO";info@laclinicadelgato.com;;"(57) (4) 4442287";"Cr43 B 32 B   S-32 Colombia, Medellín"
"CENTRO VETERINARIO ANIMAL SWEET";izasierra33@hotmail.com;;"(57) (4) 4615357";"Cl 24 A 50 A-17 Bello Colombia, Medellín"
"ANIMAL CARE DOG WALKERS";info@animalcaredogwalkers.com;www.animalcaredogwalkers.com;"(57) (5) 3787053";"Cr60 79-120 Colombia, Barranquilla"
"HOSPITAL VETERINARIO MIS ANIMALES";urgveterinaria@hotmail.com;veterinariamisanimales.com;"(57) (6) 7341146";"Cl 18 23-05 San José Colombia, Armenia"
"UNIDAD VVETERINARIA DEL CARIBE";luisalpega@yahoo.es;;"(57) (5) 4206679";"Cl 22 19 B-24 Colombia, Santa Marta"
"ANIMAL CARE";veterinarianimal@hotmail.com;;"(57) (5) 1000000";"Cl 61 36-22 Colombia, Barranquilla"
"AGROGANADERO DEL CARIBE S.A.S.";oontabilidad@agroganaderodelcaribe.com.co;www.agroganaderodelcaribe.com.co;"(57) (5) 3782134";"Cr46 75-94 Colombia, Barranquilla"
"DOCTOR PET";doctorpetmedellin@gmail.com;;"(57) (4) 3661961";"Cr41 53-21 Colombia, Medellín"
"LOS AMIGOS DE ASIS GUARDERÍA CANINA";losamigosdeasis@gmail.com;www.guarderiasmascotasmedellin.com;"(57) (4) 5382068";"Sta Elena Vda El Plan Sector El Chispero Colombia, Medellín"
"CENTRO DE MASCOTAS";cdemascotas@gmail.com;;"(57) (4) 4131739";"Cl 35 80 B-14 Colombia, Medellín"
"VETERINARIA PIEDECUESTA";hectorevo25@gmail.com;;"(57) (7) 6563300";"Cr6 10-45 Centro Colombia, Piedecuesta"
"VITAL PETS CENTRO VETERINARIOS.";jmolina@vitalpets.com.co;www.vitalpets.com.co;"(57) (5) 3572659";"Cl 80 42-156 Colombia, Barranquilla"
"CLÍNICA VETERINARIA SALUD-DOG";catryna45@gmail.com;;"(57) (4) 3456330";"Cr70 19-113 Colombia, Medellín"
"PETCETERA S.A.S";petceterasas2014@gmail.com;www.petceterashop.com;"(57) (1) 6310002";"Cr57 B 67 C-29 Colombia, Bogotá"
"AGRO MIS MASCOTAS";agromismascotas@hotmail.com;;"(57) (4) 2176809";"Cl 50 A 39-52 Colombia, Medellín"
"ADIESTRAMIENTO CANINO ABRAHAM";"chililinergrande@hotmail.com            wilcucu2011@hotmail.com";www.facebook.com/wilmar.cuartas.3;"(57) (2) 3241696";"Cl 2 C Oe 82 A-04 Colombia, Cali"
"MONTERRICO VETERINARIA Y SPA";monterricoveterinaria@gmail.com;;"(57) (4) 3107076571";"Cl 40 14-103 Brizalia Colombia, Montería"
"AGROPECUARIA SANTA LUCÍA";agropecuariastalucia@gmail.com;;"(57) (4) 2644164";"Cr87 47 DD-63 Colombia, Medellín"
"CLINICA VETERINARIA EL UNIVERSO CANINO";heloz821@hotmail.com;www.eluniversocanino.com.co;"(57) (4) 3539327";"Cl 17 70-27 Colombia, Medellín"
"VETERINARIA MUNDO ANIMAL";wilochoc1@hotmail.com;;"(57) (7) 6020120";"Cr19 48-58 Brr. Colombia Colombia, Barrancabermeja"
"First Name";"Email Address";Url;Telephone;Address
"VETERINARIA GALGOS";veterinaria.galgos@gmail.com;www.veterinariagalgos.com;"(57) (7) 6458461";"Cl 41 33-24 Colombia, Bucaramanga"
"MONTERRICO VETERINARIA Y SPA";monterricoveterinaria@gmail.com;;"(57) (4) 3107076571";"Cl 40 14-103 Brizalia Colombia, Montería"
"CLINICA VETERINARIA 24 HORAS PET COMPANY";clinicavets@gmail.com;www.clinicaveterinaria.vets.com;"(57) (1) 2530363";"Cr63 98 B-64 Colombia, Bogotá"
"A DOMICILIO VETERINARIOS";clinicaveterinariastalucia@hotmail.com;;"(57) (4) 4461413";"Cl 48 92 A-07 Colombia, Medellín"
"ALMACEN SERVIAGRO";serviagro10@hotmail.com;;"(57) (2) 2128825";"Cl 12 3-88 Colombia, Cartago"
"MARAY MEDICINA VETERINARIA";macena@maraymedvet.com;www.maray.com.co;"(57) (2) 4854066";"Cl 5 C 40-27 Colombia, Cali"
"VETERINARIA PERROS LINDOS DEL CONSULADO";manuelcova@hotmail.com;;"(57) (5) 6813418";"Los Angeles Cl 30 57-309 Av del Consulado Colombia, Cartagena"
"BIOVET LABORATORIO CLINICO VETERINARIO";infor@laboratoriobiovet.com;www.laboratoriobiovet.com;"(57) (7) 6913068";"Av Quebradaseca 32 A-75 Colombia, Bucaramanga"
"CENTRO VETERINARIO ANIMAL SWEET";izasierra33@hotmail.com;;"(57) (4) 4615357";"Cl 24 A 50 A-17 Bello Colombia, Medellín"
"CENTRO VETERINARIO MOTAS ITAGÜÍ";aarcilamotas@gmail.com;;"(57) (4) 2811570";"Cl 66 44 B-04 Itagüí Colombia, Itagüí"
"CLÍNICA VETERINARIA SALUD-DOG";catryna45@gmail.com;;"(57) (4) 3456330";"Cr70 19-113 Colombia, Medellín"
"ANI CENTER I.P.S.ANIMAL";hadrve1@hotmail.com;saniepsa.com;"(57) (7) 5744270";"Av 6 E 7 A-21 Colombia, Cúcuta"
"DOCTOR PET";doctorpetmedellin@gmail.com;;"(57) (4) 3661961";"Cr41 53-21 Colombia, Medellín"
"ALMACÉN CULTURA PECUARIA";almacenculturapecuaria@yahoo.com;;"(57) (4) 8332203";"Cl 52 2-29 Colombia, Puerto Berrío"
"CENTRO COMERCIAL ALFAGUARA";administrador@ccalfagura.com;www.ccalfaguara.com;"(57) (2) 5164380";"Cl 2 22-175 Jamundí Colombia, Cali"
"CENTRO VETERINARIO SCOOBY DOO";veterinariascoobydoo@hotmail.com;;"(57) (2) 2727945";"Cr28 35-57 Colombia, Palmira"
"CLÍNICA VETERINARIA PET CARE LTDA.";victormanuelquint@hotmail.com;www.clinicaveterinariapetcare.com;"(57) (7) 6808307";"Cr30 18-37 San Alonso Colombia, Bucaramanga"
MEGANIMALES;milena_carillo@hotmail.com;;"(57) (5) 4233373";"Diag. 33 No. 9-380 Villa Ely-Frente al Parque Los Trupillos-Mamatoco Colombia, Santa Marta"
"CENTRO VETERINARIO MASCOTA SANA";cvmascotasana@yahoo.com.mx;;"(57) (2) 5140909";"Dg23 10 B-49 Colombia, Cali"
"VETERINARIA DEL SUR";jaimesanmartin26@hotmail.com;;"(57) (7) 6310385";"Plaza Satélite Del Sur L-1009-1010 Colombia, Bucaramanga"
"PELUQUERÍA CANINA MARÍA ISABEL";mariaisabelo594@hotmail.com;;"(57) (4) 2364787";"Cr49 B 92-69 Colombia, Medellín"
"LA HOLANDA MASCOTAS";holandamascotaseu@gmail.com;www.laholandamascotas.com;"(57) (2) 3964378";"Cl 23 C   N 3 Bis   N-26 Colombia, Cali"
"VITAL PETS CENTRO VETERINARIOS.";jmolina@vitalpets.com.co;www.vitalpets.com.co;"(57) (5) 3572659";"Cl 80 42-156 Colombia, Barranquilla"
"ATENCION VETERINARIA Y PELUQUERIA EL DORADO";;;"(57) (4) 2708808";"Cl 41 A   S 42-08 Envigado Colombia, Medellín"
"CENTRO VETERINARIO CASD";santicorreaestrada@hotmail.com;;"(57) (4) 4777980";"Cl 99 73-13 Colombia, Medellín"
KIMBA-ZOOSALUD;stuberquia@gmail.com;;"(57) (5) 3788525";"Cl 79 60-49 Colombia, Barranquilla"
"PELUQUERIA CANINA PERROS LINDOS";perroslindosbelen@hotmail.com;;"(57) (4) 2356087";"Cl 30 A 71-43 Colombia, Medellín"
"VETERINARIA PIEDECUESTA";hectorevo25@gmail.com;;"(57) (7) 6563300";"Cr6 10-45 Centro Colombia, Piedecuesta"
MEDIFAUNA;jhmedifauna@gmail.com;www.medifauna.com;"(57) (8) 2641068";"Cl 31 A 5-41 Colombia, Ibagué"
SAFARI;safariclinicavet@hotmail.com;www.safariclinicaveterinaria.amawebs.com;"(57) (4) 4531187";"Dg57 34-05 Bello Colombia, Medellín"
"VETERINARIA CAN HOUSE";leosan117@hotmail.com;;"(57) (7) 5776009";"Av9 E 6 B N-87 Ceiba II Colombia, Cúcuta"
"CANES LABVET";caneslabvet@gmail.com;;"(57) (4) 7817844";"Cl 42 7-46 Los Laureles Colombia, Montería"
"VETERINARIA MUNDO CANINO";guillermo125@live.com;;"(57) (7) 5751698";"Av Gran Colombia 5 E-30 Popular Colombia, Cúcuta"
"GEMAVET VETERINARIA";gean820@hotmail.com;;"(57) (7) 6108070";"Cl 52 31-34 El Cerro Colombia, Barrancabermeja"
"ANIMAL HEALTH";healthanimal@gmail.com;;"(57) (2) 2248482";"Cr28 13 A-08 Colombia, Tuluá"
"LUCKY PET STORE";lucky.petstore5@gmail.com;;"(57) (7) 6714630";"Cr38 34-71 El Prado Colombia, Bucaramanga"
"CLÍNICA VETERINARIA SAN BERNARDO";mariadelmarmartinez2008@hotmail.com;;"(57) (2) 8926090";"Av4 Oe 6-159 Colombia, Cali"
"CENTRO MEDICO POLICLÍNICA VETERINARIA";juantorres123@hotmail.com;;"(57) (7) 6343351";"Cl 41 33-14 Colombia, Bucaramanga"
"CLINICA VETERINARIA GANADERA DEL NORTE";veterinariagnaderadelnorte@hotmail.com;;"(57) (7) 5717205";"Cl 8 2-63 Centro Colombia, Cúcuta"
"PERALTA C. LUISA FERNANDA";clipea2008@hotmail.com;;"(57) (4) 5318116";"Cr55 A 26 A-04 Colombia, Rionegro"
"First Name";"Email Address";Url;Telephone;Address
"MARAY MEDICINA VETERINARIA";macena@maraymedvet.com;www.maray.com.co;"(57) (2) 4854066";"Cl 5 C 40-27 Colombia, Cali"
"VETERINARIA ANIMALES FELICES";edgarduransilva@gmail.com;;"(57) (7) 6406039";"Cl 10 11 N-29 Kennedy Colombia, Bucaramanga"
"BONANZA CLINICA VETERINARIA";eurrutia@etb.net.co;www.clinicaveterinariabonanza.com;"(57) (1) 4304830";"Av (Cl) 80 69 Q-75 Colombia, Bogotá"
"EL JARDIN DE LAS MASCOTAS";jacob138@gmail.com;;"(57) (7) 5755377";"Av Gran Colombia 5 E-68 Colombia, Cúcuta"
"CACHORROS & CACHORRITOS";cachorrosycachorritos@gmail.com;;"Telefax: (57) (1) 6104103";"Cr49 99-29 Colombia, Bogotá"
"TIENDA DE MASCOTAS MAYORKA";;;"(57) (7) 6963283";"Cl 67 18-21 La Victoria Colombia, Bucaramanga"
"VETERINARIA VIDA DE PERROS";;;"(57) (7) 5897169";"Av6 C 6-06 Esq Prados del Este Colombia, Cúcuta"
"HORUS MEDICINA VETERINARIA";;;"(57) (1) 5106599";"Cr62 2 C-99 Colombia, Bogotá"
"VETERINARIA AGROPRODUCTO";;;"(57) (76) 5658409";"Cl 4 15-89 Colombia, Aguachica"
"VETERINARIA GANA CAMPO";;;"(57) (8) 6580803";"Cl 19 13-02 Colombia, Granada"
"PUNTO AGROPECUARIO";;;"(57) (8) 6489066";"Cr6 10-35 Colombia, San Martín"
"PLATA ALVAREZ JAIME";;;"(57) (1) 5337288";"Cr21 A 83-12 Colombia, Bogotá"
"CONSULTORIO VETERINARIO DANNA";;;"(57) (8) 6500131";"Cl 19 12-64 Colombia, Granada"
"CENTRO VETERINARIO ESPECIES";;;"(57) (4) 2742252";"Cr51 50-91 Copacabana Colombia, Medellín"
"AB DOG HOUSE";;;"(57) (5) 3597663";"Cr45 82-200 Colombia, Barranquilla"
"PAREDES JAIME";;;"(57) (1) 2587891";"Cl 127 B Bis 50 A-20 Colombia, Bogotá"
NUTRICER;;;"(57) (4) 7814167";"Cr1 32-42 Centro Colombia, Montería"
"AVICOLA LA TERCERA";;;"(57) (8) 8362007";"Cr3 8-48 Colombia, Pitalito"
"CLÍNICA VETERINARIA CACHORROS Y GATICOS";;;"(57) (8) 8755827";"Cl 22 7-25 Colombia, Neiva"
"INVASA AGROPECUARIA";;;"(57) (5) 3683920";"Cl64 50 - 03 Colombia, Barranquilla"
"VETERINARIA K-NINOS";;;"(57) (5) 6536652";"Simón Bolívar Urb 11 de Noviembre Manz 5 Lt 9 Colombia, Cartagena"
"KAYRON'S CLINICA VETERINARIA";;;"(57) (7) 7243718";"Cr7 22-54 Colombia, San Gil"
"CLÍNICA VETERINARIA EL BOSQUE";;;"(57) (8) 8717345";"Cr14 A 6 B-27 Altico Colombia, Neiva"
"AGROVETERINARÍA VILLANUEVA";;;"(57) (4) 2915977";"Cr48 59-08 Colombia, Medellín"
"AGROVETERIANRÍA SAN JOAQUÍN";;;"(57) (8) 8720596";"Cl 6 1 H-25 L-1 Colombia, Neiva"
"CENTRO VETERINARIO ANIMAL";;;"(57) (8) 8672553";"Cr33 A 14 B-11 Orquidea Colombia, Neiva"
"ESCUELA NACIONAL DE ADIESTRAMIENTO CANINO";;;"(57) (5) 3558390";"Cl 81 70-45 Colombia, Barranquilla"
"COMERCIALIZADORA DE MAÍZ EL TRÉBOL";;;"(57) (8) 6709501";"Cl 37 A 25-54 Colombia, Villavicencio"
"CLINICA VETERINARIA MONCHIS CLUB";;;"(57) (8) 8700266";"Cr18 5 C-24 Colombia, Neiva"
"ZOOMANIA PET SHOP";;;"(57) (8) 8704928";"Cr26 18 E-03 Timanco II Colombia, Neiva"
"CONSULTORIO VETERINARIO PORTAL DEL NORTE";;;"(57) (1) 7031552";"Cr49 B 171 A-64 Colombia, Bogotá"
"CONSULTORIO VETERINARIO DIEGO ATUESTA";;;"(57) (1) 6815419";"Cr90 145-46 Colombia, Bogotá"
"CÁRDENAS PILAR";;;"(57) (1) 6712456";"Cr21 169-62 L-131 Colombia, Bogotá"
"ADELA PINZÓN PATIÑO";;;"(57) (1) 2022845";"Cl 1 52-45 Colombia, Bogotá"
"PAREJA CELIS LUCÍA VICTORIA";;;"(57) (1) 6133013";"Cr71 C 97 A-06 Colombia, Bogotá"
LABVECA;;;"(57) (5) 3556759";"Cr60 79-138 Colombia, Barranquilla"
"JOHNS CENTRO MÉDICO VETERINARIO";;;"(57) (4) 4119415";"Cq 73 A 34 A-60 Colombia, Medellín"
"CLÍNICA VETERINARIA MASCOSALUD I.P.S.A. LTDA.";;;"(57) (5) 4315929";"Cl 29 7 B-38 Bavaria Colombia, Santa Marta"
"MASCOTIENDA LOS PECES DE PABLO";;;"(57) (5) 6513054";"Brr. 5 de Noviembre Cl 30 B 58 A-07 Colombia, Cartagena"
"CLINICA VETERINARIA UNIVET S.A.S.";;;"Telefax: (57) (1) 5206612";"Cl 134 19 - 66 P-1 Colombia, Bogotá"
"First Name";"Email Address";Url;Telephone;Address
"PATTY'S CATS GATOS DE PURA RAZA CALI";;;"(57) (2) 5134412";"Cr57 3-87 Colombia, Cali"
"CLINICA VETERINARIA LA CASONA";;;"Nal: (57) (7) 5818155";"Av Libertadore canal Bogota 19A-31 Tasajero Colombia, Cúcuta"
"ANIMALS CENTRO VETERINARIO";;;"(57) (2) 3347163";"Cl 27 30-40 Colombia, Cali"
"VETECNICOS LTDA";;;"(57) (7) 6454055";"Cl 24 24-57 Colombia, Bucaramanga"
"MUNDO MASCOTA";;;"(57) (7) 6943860";"Cr34 33-06 Esq Colombia, Bucaramanga"
CANIMEDIC;;;"(57) (8) 2732521";"Cr11 4-59 Belén Colombia, Ibagué"
"SAFARI'S CENTRO MÉDICO VETERINARIO";;;"(57) (2) 6600956";"Cl 34 N 2 Bis N-21 Colombia, Cali"
"CUATRO PATAS ACCESORIOS & SPA";;;"(57) (6) 8874464";"Cl 67 25-55 Colombia, Manizales"
"SERVICAN E.P.S. MASCOTAS";;;"(57) (2) 3253875";"Cl 27 40-34 Colombia, Cali"
"SARASSA JOSÉ LUIS";;;"(57) (2) 6645623";"Cl 49 N 8 B-71 Colombia, Cali"
"CENTRO VETERINARIO EL LABRADOR";;;"Nal: (57) (7) 540015849451";"Av 8 4N-27 San Martín Colombia, Cúcuta"
"MUNDO ANIMAL EXTREMO";;;"(57) (7) 5941823";"Av1 20 A N-26 Colombia, Cúcuta"
"YORKY'S AND FRIENDS";;;"(57) (4) 4485551";"Tr Superior 1 A S-155 L-137 Colombia, Medellín"
"PET PLANET";;;"(57) 3174677790";"Cl 21 6-97 Colombia, Neiva"
"CLÍNICA VETERINARIA MIRANDA";;;"(57) (1) 2144237";"Dg108 A 8 A-13 Colombia, Bogotá"
"CLÍNICA VETERINARIA ZOOLAND";;;"(57) (2) 5151085";"Cl 2 22-175 L-37 Colombia, Jamundí"
"ALBERTO MARIO RAMOS LÓPEZ";;;"(57) 3003526466";"Cl 81 58-42 Colombia, Barranquilla"
"MOTTA QUINTERO JAVIER EDUARDO";;;"(57) (8) 8754861";"Cr2 7-11 Colombia, Neiva"
"PELUQUERÍA CANINA Y TIENDA VETERINARIA SUPER CAN";;;"(57) (2) 4027176";"Cr39 A 33-16 Colombia, Cali"
"CENTRO VETERINARIO ZOOVET";;;"(57) (5) 3492606";"Cl 64 50-17 Colombia, Barranquilla"
"SIVET AGROPECUARIA & NÁUTICA";;;"(57) (4) 8280607";"Cr101 95-19 Colombia, Apartadó"
"CLÍNICA VETERINARÍA MASCOLANDIA DEL CARIBE";;;"Domic.: (57) (5) 3266109";"Cl 19 3 B-21 Simón Bolívar Colombia, Barranquilla"
"CLINICA VETERINARIA ANIMAL'S PLANET";;;"(57) (1) 3753389";"Cr 39A No 2-07 Colombia, Bogotá"
"AGROVETERINARIA DEL SINÚ";;;"(57) (2) 3365645";"Cr39 10 A-125 P-1 Colombia, Cali"
"CENTRO VETERINARIO ZOO";;;"(57) (4) 2912797";"Cr48 63 A-50 Colombia, Medellín"
"ECOGRAFÍA VETERINARIA";;;"(57) (2) 5140949";"Cr28 8-51 Colombia, Cali"
"CLINICA VETERINARIA SANTA HELENA";;;"(57) (7) 6325786";"Cl 40 27-04 Colombia, Bucaramanga"
"HOSPITAL VETERINARIO POPULAR";;;"(57) (7) 6714839";"Bul Bolívar 20-23 Colombia, Bucaramanga"
"CLINICA VETERINARIA SOTOMAYOR";;;"(57) (7) 6431537";"Cr27 52-74 Colombia, Bucaramanga"
"AGROVETERINARIA K'NES";;;"(57) (8) 8709331";"Cl 8 19-29 Colombia, Neiva"
"AGROPECUARIA HATO GANADERO";;;"(57) (7) 5781481";"Av7 A 0 B N-10 Colombia, Cúcuta"
"DISTRIBUIDORA Y VETERINARIA LEBRIFINCA";;;"(57) (7) 6566580";"Cr8 8-17 Lebrija Colombia, Bucaramanga"
"ALMACEN LA CEBA";;;"(57) (7) 6304905";"Cr16 29 A-30 Colombia, Bucaramanga"
"VETERINARIA CANAPOLIS";;;"(57) (7) 6390279";"Cr12 23-19 Rosales Colombia, Bucaramanga"
"CENTRO MEDICO K-NIVET";;;"(57) (2) 3332177";"Cl 16 83-01 Colombia, Cali"
"VETERINARIA SUPER CANES";;;"(57) (7) 5779625";"Av Guaimaral 3 N-14 Govika Colombia, Cúcuta"
"CASA VETERINARIA ANIMAL PLANET";;;"(57) (2) 5531977";"Cl 7 Oe 52-80 Colombia, Cali"
"GATOS, GATOS Y PERROS";;;"(57) (1) 6094122";"Av (Cr)9 106-46 P-1 Colombia, Bogotá"
"VETERINARIA CENTROSUR";;;"(57) (1) 7606469";"Cr9 50 A-15 S Colombia, Bogotá"
"PETMOUR S.A.";;;"(57) (2) 6657469";"Cr31 6-45 Colombia, Cali"
"First Name";"Email Address";Url;Telephone;Address
"CENTRO MEDICO K-NIVET";;;"(57) (2) 3332177";"Cl 16 83-01 Colombia, Cali"
"CLINICA VETERINARIA SAN RAFAEL";;;"(57) (75) 5680109";"Cl 5 8-39 Sto Domingo Colombia, Pamplona"
"MUNDO ANIMAL EXTREMO";;;"(57) (7) 5941823";"Av1 20 A N-26 Colombia, Cúcuta"
"YORKY'S AND FRIENDS";;;"(57) (4) 4485551";"Tr Superior 1 A S-155 L-137 Colombia, Medellín"
"CAMPOMARKET COLOMBIA";;;"(57) (1) 4642251";"Cr46 135-07 Of 504 Colombia, Bogotá"
"CLINICA VETERINARIA MUNDO ANIMAL";;;"(57) (2) 3733031";"Cl 18 B 28-90 Colombia, Cali"
"CLÍNICA VETERINARIA EL REFUGIO S.A.S.";;;"Telefax: (57) (1) 7576322";"Cr58 128 B-51 Colombia, Bogotá"
"ESPECIES PET SHOP";;;"(57) (2) 7311050";"Cr30 18-79 Colombia, Pasto"
"MIS CACHORRITOS CAOBOS S.A.S.";;;"(57) (7) 5727398";"Cl 17 1 E-108 Caobos Colombia, Cúcuta"
"CONSULTORIO MÉDICO VETERINARIO LA PRIMAVERA";;;"(57) 5808877";"Av10 32-61 Los Patios Colombia, Cúcuta"
"DROGUERÍA VETERINARIA SERVIMASCOTAS";;;"(57) (7) 5761426";"Cl 19 11-02 La Libertad Colombia, Cúcuta"
"VETERINARIO AGROVILLA";;;"(57) (7) 5707414";"Cr8 0-41 Bellavista Villa del Rosario Colombia, Cúcuta"
"VETERINARIA CANITO";;;"(57) (7) 5787816";"Manz R-1 Lt 24 Et I Atalaya Colombia, Cúcuta"
"VETERINARIA SUPER CACHORRO";;;"(57) (7) 5753628";"Av Gran Colombia 5 E-36 Colsag Colombia, Cúcuta"
"SALÓN CANINO BURBUJAS";;;"(57) (4) 4934899";"Cr89 A 36-15 Int 201 Colombia, Medellín"
"ZAMBIA PET RESORT";;;"(57) (4) 3217337";"Cr 25 6 A 90 Colombia, Medellín"
"CLÍNICA VETERINARIA SANIPETS";;;"(57) (4) 2883799";"Cl 68 S 43 A-15 Sabaneta Colombia, Sabaneta"
"SPIFF LTDA";;;"(57) (2) 5136974";"Cr60 A 2 A-118 Colombia, Cali"
"POLICLÍNICA VETERINARIA DEL POBLADO - POLIVET";;;"(57) (4) 4483837";"Cl 11 B 31 A-140 Colombia, Medellín"
"AKI CRIADERO CHIRRIKITICOS";;;"(57) (2) 5515888";"Cr41 9-60 P-2 Colombia, Cali"
"CLÍNICA VETERINARIA SERVIMASCOTAS";;;"(57) (2) 6822123";"Av6 N 45-92 Colombia, Cali"
"SPA Y PELUQUERÍA ROCKOSAS";;;"(57) (2) 3252235";"Cr29 A 30 A-95 Colombia, Cali"
"CENTRO VETERINARIO BEYCER";;;"(57) (5) 2822195";"Cl 19 25 A-65 Brr. 7 de Agosto Colombia, Sincelejo"
"CLÍNICA M&C VETERINARIA";;;"(57) (1) 2232133";"Cr70 74 C-35 P-1 Colombia, Bogotá"
"PLANETA ANIMAL";;;"(57) (8) 6640897";"Cl 44 46-43 Brr. 12 de Octubre Colombia, Villavicencio"
"OSORIO CIFUENTES GLORIA FERNANDA";;;"(57) (8) 4606893";"Cl 21 S 10 B-39 Gaviotas Colombia, Villavicencio"
"PLATA ALVAREZ JAIME";;;"(57) (1) 5337288";"Cr21 A 83-12 Colombia, Bogotá"
"CLÍNICA VETERINARIA DEL NORTE";;;"(57) (1) 2537931";"Cra 58 125 B-81 Colombia, Bogotá"
"CLÍNICA VETERINARIA EL PRADO";;;"(57) (5) 3680288";"Cl 74 55-70 Colombia, Barranquilla"
MEDIVET'Z;;;"(57) (5) 3731746";"Cr59 C 79-246 Colombia, Barranquilla"
"AKITA SPA";;;"(57) (4) 3420057";"Cl 12 70-08 L 101 y 102 Colombia, Medellín"
CESVET;;;"(57) (4) 2750303";"Cl 27 A 50 A-47 Bello Colombia, Bello"
"AMORES PERROS";;;"(57) (5) 6479875";"Cl 26 18 B-47 Av Jiménez Colombia, Cartagena"
"VETERINARIA CASA GANADERA";;;"(57) (7) 8855662";"Cr17 23-04 Esq Córdoba Colombia, Arauca"
"TRANSPORTE Y SERVICIO VETERINARIO T.S.V";;;"(57) (4) 5770981";"Cr42 B 45 A S-28 Colombia, Medellín"
"MASCOTAS Y ALGO MÁS";;;"(57) (4) 7867721";"Tr5 14-16 Colombia, Montería"
"AGROVELCA S.A.";;;"(57) (8) 8602323";"Av19 S 6 12/20 Colombia, Neiva"
"VETERINARIA K-NINOS";;;"(57) (5) 6536652";"Simón Bolívar Urb 11 de Noviembre Manz 5 Lt 9 Colombia, Cartagena"
"CLÍNICA VETERINARIA QUINTA VELEZ";;;"(57) (7) 5837671";"Cl 11 A 1 Este-09 Los Caobos Colombia, Cúcuta"
"FERMATEC LTDA.";;;"(57) (1) 2504678";"Cl 67G 66A 24 Colombia, Bogotá"
"First Name";"Email Address";Url;Telephone;Address
"CAT DOG PELUQUERÍA";;;"(57) (4) 3022562";"Dg32 35 D S-13 Envigado Colombia, Envigado"
CANYCAS;;;"(57) (2) 5561143";"Cl 8 34-45 Colombia, Cali"
"CONSULTORIO VETERINARIO MASCOTAS Y AMIGOS";;;"(57) (2) 4456382";"Cr23 41-56 Colombia, Cali"
"MI MASCOTA";;;"(57) 3112150413";"Cl 15 10-57 Colombia, Villavicencio"
"CLÍNICA VETERINARIA DEL NORTE";;;"(57) (1) 2537931";"Cra 58 125 B-81 Colombia, Bogotá"
"TIENDA DE MASCOTAS";;;"(57) (4) 3523555";"Cr41 10-63 Colombia, Medellín"
"MUNDO ECO VETERINARIO";;;"(57) (2) 6800354";"Cr1 C 61 B-67 Colombia, Cali"
"VETERINARIA & PELUQUERÍA CANINA RUFFO";;;"(57) (1) 4500437";"Cl 38 C S 87 F-19 Colombia, Bogotá"
"CAN CENTRADOS";;;"(57) (1) 2252802";"Cl 79 64-53 Colombia, Bogotá"
CANSENTIDOS;;;"(57) (1) 2252802";"Cl 79 64-53 Colombia, Bogotá"
"ZOO SALUD CLÍNICA VETERINARIA E.P.S.";;;"(57) (28) 8441222";"Cr 7 A 2-13 Colombia, Santander de Quilichao"
"ATARA ORTIZ MARIO MAURICIO";;;"(57) (8) 8662176";"Cr1 50-30 Colombia, Neiva"
"ALMACÉN AVICOLA Y GANADERO";;;"(57) (8) 8720282";"Cl 10 1 H-10 Los Mártires Colombia, Neiva"
"ESTÉTICA CANINA SCUBY";;;"(57) (5) 3624038";"Cl 45C2 10 D-12 Colombia, Barranquilla"
"CLÍNICA RAZA";;;"(57) (1) 7427132";"Cl 8 S 38 A-03 Colombia, Bogotá"
"CABAÑAS CENTRO VETERINARIO";;;"(57) (4) 2728014";"Cr55 27-09 Bello Colombia, Bello"
"GAVILAN CALDERÓN JOHANA CAROLINA";;;"(57) (1) 7044417";"Cr 35 25-40 Colombia, Bogotá"
"TIENDA DE MASCOTAS BOSTON";;;"(57) (1) 6889439";"Cl 143 128-02 Int 13 L-101 Colombia, Bogotá"
"CARVAL DE COLOMBIA";;;"(57) (1) 6060404";"Cl 63 19 A-35 Colombia, Bogotá"
"LABORATORIOS MV LTDA.";;;"(57) (1) 2507836";"Cr62 67 B-58 Colombia, Bogotá"
"CLINICA VETERINARIA VIDA ANIMAL";;;"(57) (6) 8854706";"Cl 48 Bis 28 C-27 Colombia, Manizales"
"PET STOP ESTACIÓN DE LA MASCOTA";;;"(57) (2) 3155609";"C.C. La 14 Pasoancho L-1-17 Colombia, Cali"
"CENTRO VETERINARIO ANIMALITOS";;;"(57) (2) 5575783";"Cr26 Oe 3-51 Colombia, Cali"
"CRIADERO MUNDOCANNES";;;"(57) (2) 4455983";"Dg28 B 27 A-27 Colombia, Cali"
"ALMACÉN Y CLÍNICA VETERINARIA EL MUNDO DE LAS MASCOTAS";;;"(57) (7) 6100643";"Cr36 C 52 A-04 Sector El Uno Colombia, Barrancabermeja"
"DUNKAN BARNERÍA CANINA";;;"Nal: (57) (4) 2715041";"Cl 39 S 44 A-08 Colombia, Medellín"
"ANIMAL'S HOME URGENCIAS";;;"Nal: (57) (1) 3424429";"Cl 53 73-03 Colombia, Bogotá"
NUTRICAMPO;;;"(57) (1) 8333191";"Cl 17 9-96 Colombia, Girardot"
"CLÍNICA VETERINARIA ZOO CENTER";;;"(57) (1) 8350572";"Cl 18 9-11 Colombia, Girardot"
"VETERINARIA SERVIMASCOTA";;;"(57) (7) 5835551";"Cl 18 6-95 La Cabrera Colombia, Cúcuta"
"EL RANCHO URGENCIAS VETERINARIAS";;;"(57) (7) 5750524";"Cl 6 0 A-04 Lleras Colombia, Cúcuta"
MOTAS;;;"(57) (8) 2682670";"Av El Jordán Et 3 Manz 32 Casa 7 Colombia, Ibagué"
"POMPOM, STYLO BELLEZA PARA TU MASCOTA";;;"(57) (7) 6815043";"Bucaramanga Colombia, Bucaramanga"
"SAN BONIFACIO PET HOUSE";;;"(57) (8) 2762971";"Cl 40 15-11 Sorrento Colombia, Ibagué"
MULTIESPECIES;;;"(57) (7) 6556639";"Cr6 12-40 Piedecuesta Colombia, Piedecuesta"
"PELUQUERIA CANICA COPITO";;;"(57) 3182484218";"Cr12 15-15 Colombia, San Gil"
"CONSULTORIO VETERINARIO PLUTO'S";;;"(57) (5) 3777700";"Cr38 100-61 Colombia, Barranquilla"
"CLÍNICA VETERINARIA UNIVET";;;"(57) (1) 2132382";"Dg127 A 7-39 Colombia, Bogotá"
"ANIMAL DEPOT LTDA.";;;"(57) (1) 2531557";"Av Suba 119-87 L-601 Colombia, Bogotá"
"CANIVET CLÍNICA VETERINARIA";;;"(57) (1) 2501387";"Cr57 67 C-11 Colombia, Bogotá"
"First Name";"Email Address";Url;Telephone;Address
"DISTRIBUCIONES SOLO MASCOTAS";;;"(57) (2) 5581258";"Cl 10 23 A-05 Colombia, Cali"
"SERVICIOS VETERINARIOS";;;"(57) (6) 8803229";"Cr20 12-07 Colombia, Manizales"
"HUELLAS PELUQUERÍA CANINA";;;"(57) (2) 8380988";"Cl 7 20-03 Colombia, Popayán"
"CENTRO MÉDICO VETERINARIO SUPERCAN";;;"(57) (2) 7208097";"Cr26 21 B-38 Colombia, Pasto"
"SPAIN KENNEL";;;"(57) (1) 3153146";"Av (Cl)53 54-27 Colombia, Bogotá"
"CENTRO MÉDICO VETERINARIO LOS ANGELES";;;"(57) (8) 8755077";"Cr7 43-59 Colombia, Neiva"
"AGROPECUARIA BRANGUS";;;"(57) (8) 8718877";"Cr7 4-09 Colombia, Neiva"
"ANIMAL HOME";;;"(57) 3105566131";"Cr9 6-13 Las Avenidas Colombia, Florencia"
"FUNDACIÓN BIENESTAR ANIMAL";;;"(57) (4) 2600308";"Cl 66 74 BB-53 Ap 201 Colombia, Medellín"
"CLÍNICA VETERINARIA SALVATIERRA";;;"(57) (4) 3457128";"Cl 24 75-52 Colombia, Medellín"
"AGROTIENDA VETERINARIA";;;"(57) (2) 4337183";"Cr4 N 76-12 Colombia, Cali"
"MOTTA QUINTERO JAVIER EDUARDO";;;"(57) (8) 8754861";"Cr2 7-11 Colombia, Neiva"
CLINIMASCOTAS;;;"(57) (2) 3307236";"Cl 10 53-111 Colombia, Cali"
"VETERINARIA VIDA DE PERROS";;;"(57) (7) 5897169";"Av6 C 6-06 Esq Prados del Este Colombia, Cúcuta"
"AGROMUNDO M&M";;;"(57) (68) 8577183";"Cr2 11-03 Colombia, La Dorada"
"PET HOUSE LIBERTADORES";;;"Telefax: (57) (7) 5772497";"Av Libertadores 3-32 L- 102 Colombia, Cúcuta"
CESVET;;;"(57) (4) 2750303";"Cl 27 A 50 A-47 Bello Colombia, Bello"
"VETERINARIA AGROINSUMOS LA FORTUNA";;;"(57) (7) 7240812";"Cl 14 10-20 Centro Colombia, San Gil"
"GASPAR SÁNCHEZ LUIS ALBEIRO";;;"(57) (8) 8718577";"Cr6 11-44 Colombia, Neiva"
"VETERINARIA A.L.F.";;;"(57) (1) 2045739";"Cr52 C 34-15 S Colombia, Bogotá"
"HOSPITAL VETERINARIO DE CHÍA";;;"(57) (1) 8637161";"Cr11 14-22 Colombia, Bogotá"
"DIMEVET S.A.";;;"(57) (1) 8767207";"Autop Medellín Km 1 5 Bdg-9 Cota Colombia, Cota"
"ANIMAL'S CENTER";;;"(57) (1) 2233205";"Av Boyacá 64 C-79 Colombia, Bogotá"
"VETERINARIA PET SHOP GUARNIZO";;;"(57) (8) 4229116";"Cl 10 26-51 El Carmen Colombia, Puerto Asís"
"CENTRO VETERINARIO ZOO";;;"(57) (4) 2912797";"Cr48 63 A-50 Colombia, Medellín"
"AGROVENTAS LTDA.";;;"(57) (2) 6803416";"Cl 45 A 2 B-22 Colombia, Cali"
"BARBAS & BIGOTES CENTRO VETERINARIO";;;"(57) (2) 5131404";"Cl 5 59-67 Colombia, Cali"
"CLÍNICA VETERINARIA DOKI®S";;;"Nal: (57) (7) 5791957";"Mz 2 LA-1 Brisas del Norte Colombia, Cúcuta"
"TIENDA VETERINARIA MUNDOMASCOTAS";;;"(57) (2) 3270340";"Cr44 A 45-89 Colombia, Cali"
"AGROMASCOT S.A.S";;;"(57) (2) 4390828";"Cr1 B 58 A-16 Colombia, Cali"
"CLÍNICA VETERINARIA MALDONADO'S";;;"(57) (7) 5872556";"Av2 6-34 Colombia, Cúcuta"
"CENTRO MÉDICO VETERINARIO PARAISO ANIMAL";;;"(57) (7) 6553227";"Dg8 0 J N-43 Colombia, Piedecuesta"
"CLÍNICA VETERINARIOS ESPECIALIZADOS";;;"(57) (8) 2647605";"Cl 27 6 A-21 Colombia, Ibagué"
"ALMACÉN VETERINARIO LA DESPENSA DEL GANADERO DEL HUILA";;;"(57) (8) 8332873";"Cr10 1-10 Colombia, Garzón"
"MASCOTAS CENTRO DE ESPECIALISTAS";;;"(57) (6) 8815833";"Cr22 A 66-44 Colombia, Manizales"
"DANNA CONSULTORIO VETERINARIO";;;"(57) (8) 2653232";"Cr4 C Bis 28-33 Hipodromo Colombia, Ibagué"
"CLINICA VETERINARIA BELEN";;;"(57) (4) 4440824";"Cl 30 A 74-04 Colombia, Medellín"
"K'NINOS VETERINARIA";;;"(57) (7) 6361045";"Cr25 105-19 Provenza Colombia, Bucaramanga"
"MASCOTA TIENDA DE ANIMALES";;;"(57) (8) 2666022";"Av Ferrocarril 38-00 Colombia, Ibagué"
"SALA DE BELLEZA CANINA SCOOBY";;;"(57) (8) 2747115";"Et 2 Manz 25 Casa 6 Jordán Colombia, Ibagué"
"First Name";"Email Address";Url;Telephone;Address
"VETERINARIA PET SHOP GUARNIZO";;;"(57) (8) 4229116";"Cl 10 26-51 El Carmen Colombia, Puerto Asís"
"MUNDO ANIMAL";;;"(57) (8) 6675341";"Cl 7 41-54 Et 5 ESPERANZA Colombia, Villavicencio"
"VETERINARIA MEVEAS";;;"(57) (8) 6828390";"Cl 35 20-136 Vía a Catama Colombia, Villavicencio"
"CLÍNICA VETERINARIA DOBERMAN";;;"(57) 3164227964";"Cl 8 16-33 Colombia, Cali"
"CENTRO MÉDICO VETERINARIO BURITICÁ";;;"(57) (2) 4470381";"Cr5 N 64-96 Colombia, Cali"
"ECOGRAFÍA VETERINARIA";;;"(57) (2) 5140949";"Cr28 8-51 Colombia, Cali"
"AMIGO FIEL ZONA ORIENTE";;;"(57) (2) 4202570";"Cl 92 25-41 Colombia, Cali"
"VETERINARIA Y PELUQUERÍA PERRO AMOR";;;"(57) (2) 3254497";"Cl 14 46 B-09 Colombia, Cali"
"CENTRO VETERINARIO MR. DOG";;;"(57) (2) 5568002";"Cr30 A 7-62 Colombia, Cali"
"AGRALBA S.A.";;;"Conm.: (57) (4) 3616622";"Cl 8 S 50 E-30 Colombia, Medellín"
"CLÍNICA VETERINARIA CANFEL";;;"(57) 5515234";"Contiguo al Cementerio Colombia, Guarne"
"CLÍNICA VETERINARIA DOKI®S";;;"Nal: (57) (7) 5791957";"Mz 2 LA-1 Brisas del Norte Colombia, Cúcuta"
"DISTRIBUIDORA LA GRANJA";;;"(57) (72) 7482410";"Cr8 10-69 Colombia, Barbosa"
"CLÍNICA VETERINARIA FELICAN";;;"(57) (2) 2257782";"Cr27 36-19 Colombia, Tuluá"
"MÁS MASCOTAS";;;"(57) (8) 2734739";"Cr10 Cl 10 Esq. Colombia, Ibagué"
"POODLE PELUQUERIA CANINA";;;"(57) 3166096443";"Cr26 40-26 L-202 C.C. Poblado Plaza Colombia, Bucaramanga"
"CLINICA VETERINARIA CACHORROS Y CACHORRITOS";;;"(57) (7) 6451774";"Cl 14 23-65 Colombia, Bucaramanga"
"MUNDO ANIMAL VETERINARIA";;;"(57) (7) 6428840";"Cl 45 4A-44 Colombia, Bucaramanga"
"CRIADERO Y GUARDERÍA CAMPESTRE";;;"(57) (2) 7303195";"Dg16 D 2 E-79 Miraflores Colombia, Pasto"
"VETERINARIA EL MUNDO DEL CAMPO";;;"(57) 3212044609";"Cl 6 1 H-25 L-3 Colombia, Neiva"
"VETERINARIA SERVIMASCOTA";;;"(57) (7) 5835551";"Cl 18 6-95 La Cabrera Colombia, Cúcuta"
CLINIDOG;;;"(57) (1) 2715188";"Tr59 106-40 Colombia, Bogotá"
"VETERINARIA REINO ANIMAL";;;"(57) (8) 8718087";"Cr1 H 6-14 Colombia, Neiva"
"PELUQUERÍA CANINA VETERINARIA";;;"(57) (1) 2710951";"Tr43 96-33 Colombia, Bogotá"
"PELUQUERÍA CANINA EL ARCA DE NOÉ";;;"(57) (7) 5744992";"Cl 6 N 12 E-36 Colombia, Cúcuta"
"PATTY'S CATS GATOS DE PURA RAZA CALI";;;"(57) (2) 5134412";"Cr57 3-87 Colombia, Cali"
MOTAS;;;"(57) (8) 2682670";"Av El Jordán Et 3 Manz 32 Casa 7 Colombia, Ibagué"
"MORENO ORJUELA SANDRA MILENA";;;"(57) (8) 2651577";"Cr4 Estadio 34-21 Colombia, Ibagué"
"ANIMALANDIA CENTRO MÉDICO VETERINARIO";;;"(57) (1) 8313386";"Cr7 A 32-29 La Magdalena Colombia, Girardot"
"CANNI CATS";;;"(57) (2) 4864998";"Av 3 Gn 37-60 Colombia, Cali"
"MASCOTA TIENDA DE ANIMALES";;;"(57) (8) 2666022";"Av Ferrocarril 38-00 Colombia, Ibagué"
"HAPPY DOGS";;;"(57) (8) 2704553";"Cr4 Estadio 30-71 Colombia, Ibagué"
"SOLUVET VETERINARIA";;;"(57) (5) 3528459";"Cl 88 75-32 Villa Carolina Colombia, Barranquilla"
"CENTRO MÉDICO VETERINARIO DR. RODRIGO LUGO";;;"(57) 3136135702";"Cr18 9-64 Colombia, Florida"
"AGROVETERINARIO EL GALLO";;;"(57) (2) 5904510";"Cr10 13-19 Colombia, Cali"
"CRIADERO CANINO LA MONTALVEÑA";;;"(57) 3214669657";"Vereda Santa Teresa Colombia, Ibagué"
"CASAS PARA PERROS Y MASCOTAS HUMBERTO ERAZO";;;"(57) (2) 3290052";"Cr41 H 41-55 Colombia, Cali"
"YORKY'S AND FRIENDS";;;"(57) (4) 4485551";"Tr Superior 1 A S-155 L-137 Colombia, Medellín"
"CLINICA VETERINARIA REINO ANIMAL";;;"(57) (7) 6364193";"Cl 105 26-27 Provenza Colombia, Bucaramanga"
"QUINTERO ALVARO IVÁN";;;"(57) (7) 5750903";"Av Libertadores 10-70 Colombia, Cúcuta"
"First Name";"Email Address";Url;Telephone;Address
"CENTRO VETERINARIO MEDICAL PET'S";;;"(57) (2) 3262597";"Cr44 14 A-10 Colombia, Cali"
"UNIDAD DE URGENCIAS VETERINARIAS E.P.S";;;"(57) (2) 4422632";"Cr15 31-18 Colombia, Cali"
"CLÍNICA ANIMAL CENTER S.O.S. S.A.S.";;;"(57) (6) 3366655";"Av 30 de Agosto 43-50 Colombia, Pereira"
"VELASCO DELGADO KAROL PATRICIA";;;"(57) (2) 8309327";"Cr6 0 N-08 Colombia, Popayán"
"CLÍNICA VETERINARIA DOKI®S";;;"Nal: (57) (7) 5791957";"Mz 2 LA-1 Brisas del Norte Colombia, Cúcuta"
"VETERINARIA CAÑAVERAL";;;"(57) (7) 6481032";"Cl 38 6-09 Lagos II Colombia, Bucaramanga"
"BULEVAR DE LAS MASCOTAS TIENDA VETERINARÍA";;;"(57) (8) 2744706";"Et 8 Manz 62 Casa 1 Jordán Colombia, Ibagué"
"AGROPECUARIA Y VETERINARIA REINO ANIMAL";;;"(57) (7) 6113971";"Cr20 53-68 Torcoroma Colombia, Barrancabermeja"
"LA MAGIA DE LAS MASCOTAS";;;"(57) (8) 2613317";"Cr5 17-75 L-1 Colombia, Ibagué"
"ORIÓN EMPRESA PRESTADORA DE SERVICIOS VETERINARIOS";;;"(57) (1) 2958502";"Cl 24 B 81 C 05 Colombia, Bogotá"
"CENTRO VETERINARIO PROANIMALES";;;"(57) (6) 8826350";"Cr25 Cl 34 Esq Linares Colombia, Manizales"
"CENTRO VETERINARIO MASCOTAS";;;"(57) (2) 4405660";"Cl 73 3 A N-50 Colombia, Cali"
"VETERINARIA MEDICAL CENTER";;;"(57) (6) 8832909";"Cl 23 18-44 Centro Colombia, Manizales"
"LAVERDE HÉCTOR JULIAN";;;"(57) (1) 2260773";"Cl 118 60-30 L-1 Colombia, Bogotá"
"VETERINARIA PIOLIN";;;"(57) (7) 6321829";"Cr33 34-39 Colombia, Bucaramanga"
"PELUQUERÍA CANINA EL ARCA DE NOÉ";;;"(57) (7) 5744992";"Cl 6 N 12 E-36 Colombia, Cúcuta"
"ANIMALS CENTRO VETERINARIO";;;"(57) (2) 3347163";"Cl 27 30-40 Colombia, Cali"
"CENTRO DE MANTENIMIENTO CANINO TASH GUAU";;;"(57) (8) 2731242";"Cr8 11-09 Centenario Colombia, Ibagué"
"ANIMAL LIVE - CENTRO VETERINARIO";;;"(57) (7) 6380922";"Cl 29 10-20 Lagos I Floridablanca Colombia, Floridablanca"
"VETERINARIA MI AMIGO FIEL";;;"(57) (5) 3340552";"Cl 40 7 H-15 Colombia, Barranquilla"
"CASA AGROPECUARIA CASAGRO LTDA";;;"(57) (7) 6306443";"Av Quebrada Seca 15-53 Colombia, Bucaramanga"
"BAMBI CLINICA VETERINARIA";;;"(57) (7) 6341265";"Cl 41 37-49 Colombia, Bucaramanga"
"CEMENTERIO PARA MASCOTAS SAN LUIS";;;"Nal: (57) (8) 2650878";"Barrio Tierra Firme Sector el Salado Colombia, Ibagué"
"VETERINARIA CANAPOLIS";;;"(57) (7) 6390279";"Cr12 23-19 Rosales Colombia, Bucaramanga"
"SOLUVET VETERINARIA";;;"(57) (5) 3528459";"Cl 88 75-32 Villa Carolina Colombia, Barranquilla"
"CENTRO CLÍNICO VETERINARIO YUMBO";;;"(57) (2) 6691023";"Cl 9 3-36 Yumbo Colombia, Yumbo"
"AGROVETERIANRIA MULTICAMPO";;;"(57) (2) 5141520";"Cl 7 31-05 Esq. Colombia, Cali"
"CANIVET CLÍNICA VETERINARIA";;;"(57) (1) 2501387";"Cr57 67 C-11 Colombia, Bogotá"
"DROGUERÍA VETERINARIA EL BECERRITO";;;"(57) (5) 4221916";"Cl 6 13-69 Gaira Colombia, Santa Marta"
"CONSULTORIO VETERINARIO PATICAS";;;"(57) (1) 4069935";"Av (Cr) 68 19-04 Sur Colombia, Bogotá"
"DOMICILIO VETERINARIO DR. JULIO C. HERNANDEZ";;;"(57) 6909649";"Cr22 18-18 Colombia, Bucaramanga"
"CLÍNICA VETERINARIA OCAÑA";;;"(57) (75) 5691344";"Cl 12 9-69 El Carretero Colombia, Ocaña"
"VETERINARIA EL HATO";;;"(57) (8) 8712562";"Cl 7 1 H-70 Colombia, Neiva"
"TIENDA DE MASCOTAS AGROSANTI";;;"(57) (4) 3778121";"Cl 77 50-30 Itagüí Colombia, Medellín"
"CENTRO DE VETERINARIA SERVIMASCOTAS";;;"(57) (2) 2724889";"Cl 47 35-14 Colombia, Palmira"
"SPA®TU MASCOTA";;;"(57) (4) 2174783";"Cr33 48-05 Colombia, Medellín"
"TIERRA ANIMAL CENTRO VETERINARIO";;;"(57) (4) 4484058";"Tr45 D 84-47 Colombia, Medellín"
"GABRICA S.A.";;;"(57) (1) 6684444";"Cl 164 15-29 Colombia, Bogotá"
"K-NINA PET SHOP";;;"(57) (2) 8363085";"Cl 10 N 10 N-47 Sta Clara Colombia, Popayán"
"TIENDA DE MASCOTAS";;;"(57) (4) 3523555";"Cr41 10-63 Colombia, Medellín"
"First Name";"Email Address";Url;Telephone;Address
"EL PARADERO";;;"(57) (8) 6627271";"Cl 35 27-96 San Isidro Colombia, Villavicencio"
"PET HOUSE LIBERTADORES";;;"Telefax: (57) (7) 5772497";"Av Libertadores 3-32 L- 102 Colombia, Cúcuta"
"VETERINARIA PELUQUERÍA CANINA";;;"(57) (1) 4112535";"Cr75 8 A-55 Colombia, Bogotá"
"CLÍNICA VETERINARIA DE ANTIOQUIA";;;"(57) (4) 2509214";"Cr80 36-43 Colombia, Medellín"
"CENTRO VETERINARIO GLORIA ARANGO";;;"(57) (4) 2759434";"Cl 37 58 C-23 Bello Colombia, Bello"
"CENTRO VETERINARIO MAJU";;;"(57) (2) 8207375";"Cr10 A 11 A-04 Colombia, Popayán"
"YAIVET PET SHOP";;;"(57) (8) 2704341";"Cr4 49-20 Hda Piedra Pintada Colombia, Ibagué"
"VETERINARIA MANSION PETS";;;"(57) (5) 3113146";"Cl 82 45-20 Colombia, Barranquilla"
"MASCOLAB CLÍNICA VETERINARIA";;;"Nal: (57) (5) 6515473";"Cartagena Colombia, Cartagena"
HUELLAS;;;"(57) (2) 5900499";"Cl 13 9-27 Colombia, Cali"
"PRODIAGRO E.U.";;;"(57) (8) 8720655";"Cl 7 1-17 Colombia, Neiva"
"CONTEGRAL GIRALDO GRAJALES";;;"(57) (4) 2818170";"Cl 53 51-13 Ap 202 Itagüí Colombia, Itagüí"
"AGROVELCA S.A.";;;"(57) (8) 8602323";"Av19 S 6 12/20 Colombia, Neiva"
"CLÍNICA VETERINARIA SAN ROQUE";;;"(57) (8) 8752333";"Cl 13 7 A-34 Colombia, Neiva"
"SERVIGAN ANTIOQUIA S.A.S";;;"(57) (4) 2389639";"Cl 92 A 65-18 Int 201 Colombia, Medellín"
"CANINOS FELINOS";;;"(57) (5) 6754715";"Zaragocilla Calle de la Cruz 28-14 Colombia, Cartagena"
"ESTÉTICA CANINA SCUBY";;;"(57) (5) 3624038";"Cl 45C2 10 D-12 Colombia, Barranquilla"
"CENTRO VETERINARIO ZOOVET";;;"(57) (5) 3492606";"Cl 64 50-17 Colombia, Barranquilla"
"CENTRO VETERINARIO DROOPY";;;"(57) (4) 4213952";"Cl 77 BB 83-49 Colombia, Medellín"
"SERVICIOS CANINOS";;;"(57) (5) 5746132";"Cr19 D 13 B-53 Colombia, Valledupar"
"GAVILAN CALDERÓN JOHANA CAROLINA";;;"(57) (1) 7044417";"Cr 35 25-40 Colombia, Bogotá"
"VETERINARIA LA FE";;;"(57) (4) 8463564";"Cl López 49-52 Colombia, Santa Bárbara"
"EL CLUB DE LAS MASCOTAS";;;"(57) (1) 7042576";"Av.Cl 3 26 A-16 Colombia, Bogotá"
"A. AMOS Y MASCOTAS FELICES";;;"(57) (2) 8242790";"Cl 8 2-14 Brr. Santa Inés Colombia, Popayán"
"CENTRO VETERINARIO LA 45";;;"(57) (5) 3645738";"Cl 45 19-143 P-1 L-5 San José Colombia, Barranquilla"
"CLÍNICA VETERINARIA SABUESOS";;;"(57) (5) 3567746";"Cr46 80-48 Colombia, Barranquilla"
"SOLUCIONES GANADERAS DE LA COSTA";;;"(57) 3168695585";"Cr17 C2 24-49 Casa 41 Colombia, Santa Marta"
"ANIMAL HOME VETERINARIA";;;"(57) (8) 8624202";"Cl 8 29-31 Las Brisas Colombia, Neiva"
"LA FERIA CAMPESTRE";;;"(57) (8) 6342215";"Cl 10 18-18 Colombia, Yopal"
"EL MUNDO DE LA MASCOTA CLÍNICA VETERINARIA";;;"(57) (8) 6641824";"Cr34 45-33 Colombia, Villavicencio"
"QUINO CLINICA VETERINARIA";;;"(57) (1) 2740538";"Av (Cr) 15 140 A-23 Colombia, Bogotá"
"CENTRO VETERINARIO ZOO";;;"(57) (4) 2912797";"Cr48 63 A-50 Colombia, Medellín"
"CENTRO VETERINARIO MR. CAN";;;"(57) (2) 4462594";"Cr5 44-34 Colombia, Cali"
"SNOOPY VET PET SHOP";;;"(57) (5) 3181151";"Cr47 87-10 Colombia, Barranquilla"
"PELUQUERÍA CANINA SAN ROQUE";;;"(57) (2) 4408560";"Cl 70 A 1A4-50 B-279 Ap 101 Colombia, Cali"
"DOCTOR VET";;;"(57) 3102280391";"Cl 35 A 17-70 Colombia, Villavicencio"
"PET STOP ESTACIÓN DE LA MASCOTA";;;"(57) (2) 3155609";"C.C. La 14 Pasoancho L-1-17 Colombia, Cali"
"CANES VETERINARIA";;;"(57) (2) 4390060";"Cr1 JBis 61-71 Colombia, Cali"
"CRIADERO MUNDOCANNES";;;"(57) (2) 4455983";"Dg28 B 27 A-27 Colombia, Cali"
"CANSALUD VETERINARIA";;;"(57) (8) 2665162";"Av37 10-96 Esquina B/Gaitan Colombia, Ibagué"
"First Name";"Email Address";Url;Telephone;Address
"CENTRO VETERINARIO LOS AGUSTINOS";;;"(57) (6) 8834593";"Cr19 17-49 Los Agustinos Colombia, Manizales"
"PET PLANET";;;"(57) 3174677790";"Cl 21 6-97 Colombia, Neiva"
"ANIMAL DEPOT LTDA.";;;"(57) (1) 2531557";"Av Suba 119-87 L-601 Colombia, Bogotá"
"ACADEMIA DE ENTRENAMIENTO CANINO";;;"(57) (1) 4503866";"Cr78 42 G-60 S Colombia, Bogotá"
"ZOOVIDA LTDA.";;;"(57) (1) 6349224";"Cl 103 14-76 Colombia, Bogotá"
"CENTRO VETERINARIO EL ANIMALARIO";;;"(57) (8) 8603757";"Cl 16 S 20-24 Timanco Colombia, Neiva"
"AGROPECUARIA BRANGUS";;;"(57) (8) 8718877";"Cr7 4-09 Colombia, Neiva"
"SAMMY MASCOTAS";;;"(57) (2) 4408233";"Cl 72 8 N-02 Colombia, Cali"
"DEPÓSITO NORTE S.A.";;;"Fax: (57) (2) 8231497";"Cl 1   N 5-55 Brr. Bolívar Colombia, Cali"
"VETERINARIA SALUDOG";;;"(57) (1) 3755012";"Av (Cl) 3 39-16 Colombia, Bogotá"
"VETERINARIA CANITO";;;"(57) (7) 5787816";"Manz R-1 Lt 24 Et I Atalaya Colombia, Cúcuta"
"CLÍNICA VETERINARIA SALVATIERRA";;;"(57) (4) 3457128";"Cl 24 75-52 Colombia, Medellín"
"GABRICA S.A.";;;"(57) (1) 6684444";"Cl 164 15-29 Colombia, Bogotá"
"PETMOUR S.A.";;;"(57) (2) 6657469";"Cr31 6-45 Colombia, Cali"
"CACHORROS & MÁS";;;"(57) (2) 5584465";"Cl 7 24-06 Colombia, Cali"
"ANIMALANDIA TIENDA VETERINARIA";;;"(57) (2) 3962630";"Cr70 3 A-32 Colombia, Cali"
"SÓLO MASCOTAS Y MÁS";;;"(57) (5) 6622636";"Boston Cl 31 A 48-25 Av Pedro de Heredia Colombia, Cartagena"
"ALMACEN VETERINARIO MUNDO ANIMAL";;;"(57) (5) 3705789";"Cl38 38-46 Colombia, Barranquilla"
"NATURALIA CLINICENTRO VETERINARIO";;;"(57) (2) 3956838";"Cl 13 65-28 Colombia, Cali"
"CENTRO MÉDICO VETERINARIO NUTRIMASCOTAS";;;"(57) (7) 5714453";"Av3 A 19-10 Puente Barco Colombia, Cúcuta"
"CENTRO DE DIAGNOSTICO VETERINARIO";;;"(57) (8) 2662460";"Cr3 44-34 Piedra Pintada Colombia, Ibagué"
"HERNÁNDEZ PACHECO JUAN C.";;;"(57) (5) 6642023";"Centro Cr11 31-73 Av Luis Carlos López Int. Almacén Mi Corral Colombia, Cartagena"
"CLÍNICA VETERINARIA DEL NORTE";;;"(57) (8) 8742323";"Cr1 33-08 Cándido Colombia, Neiva"
"CLÍNICA VETERINARIA SANTA RITA";;;"(57) (8) 8621740";"Cl 18 5-48 Quirinal Colombia, Neiva"
"ALMACÉN AVICOLA Y GANADERO";;;"(57) (8) 8720282";"Cl 10 1 H-10 Los Mártires Colombia, Neiva"
"CENTRO VETERINARIO ZOOVET";;;"(57) (5) 3492606";"Cl 64 50-17 Colombia, Barranquilla"
"CABAÑAS CENTRO VETERINARIO";;;"(57) (4) 2728014";"Cr55 27-09 Bello Colombia, Bello"
"VETERINARIA YAK";;;"(57) (1) 8280303";"C.C. Los Pinos L-18 Colombia, Bogotá"
"DIMEVET S.A.";;;"(57) (1) 8767207";"Autop Medellín Km 1 5 Bdg-9 Cota Colombia, Cota"
"VETERINARIA LA FE";;;"(57) (4) 8463564";"Cl López 49-52 Colombia, Santa Bárbara"
"AGRO MASCOTAS";;;"(57) (1) 2673845";"Av (Cl) 24 96 K-21 Colombia, Bogotá"
"CÁRDENAS PILAR";;;"(57) (1) 6712456";"Cr21 169-62 L-131 Colombia, Bogotá"
"SALUD ANIMAL";;;"(57) (76) 5655545";"Cl 6 19-08 Colombia, Aguachica"
"CENTRO CLÍNICO EL GOLF";;;"(57) (5) 3554895";"Cl 84 64-10 Colombia, Barranquilla"
"MEDIVET'Z PUPPY";;;"(57) (5) 3731905";"Cr63 79-138 Colombia, Barranquilla"
"CLÍNICA VETERINARIA ZOOMÉDICA";;;"(57) (8) 7402191";"Tr11 23-54 Colombia, Tunja"
"CLINICA VETERINARIA ANIMAL'S PLANET";;;"(57) (1) 3753389";"Cr 39A No 2-07 Colombia, Bogotá"
"PELUQUERÍA CANINA PULGOS GROOMER Y/O MILTON TURIZO TURIZO";;;"(57) (5) 1000000";"Cl 17 4-05 El Rodadero Colombia, Santa Marta"
"VETERINARIA LA VACA Y EL TORO";;;"(57) (8) 6623072";"Cl 37 28 52/56 Colombia, Villavicencio"
"ALMACEN AGROPECUARIO EL POLLO GIGANTE";;;"(57) (2) 4444868";"Cl 33 A Tr31-81 Colombia, Cali"
"First Name";"Email Address";Url;Telephone;Address
DISCONTEGRAL;;;"(57) (8) 2646474";"Cr4 BBis 28-02 Colombia, Ibagué"
"ALMACÉN VETERINARIO CUELLAR";;;"(57) (1) 8887712";"Cl 19 5-17 Colombia, Girardot"
"LAVERDE HÉCTOR JULIAN";;;"(57) (1) 2260773";"Cl 118 60-30 L-1 Colombia, Bogotá"
"MOTORAGRO DEL LLANO";;;"(57) (8) 6610127";"Cl 36 29-13 San Isidro Colombia, Villavicencio"
"ANIMAL MARKET";;;"(57) (2) 4455963";"Cr27 44-38 Colombia, Cali"
"PROTECCION SALUD ANIMAL";;;"(57) (7) 6716694";"Cl 18 19-69 San Francisco Colombia, Bucaramanga"
"VETERINARIA ANIMAL'S";;;"(57) (8) 2681567";"Cr4 75-67 Ciudad Blanca Colombia, Ibagué"
"SOLUVET VETERINARIA";;;"(57) (5) 3528459";"Cl 88 75-32 Villa Carolina Colombia, Barranquilla"
"PELUQUERIA CANICA COPITO";;;"(57) 3182484218";"Cr12 15-15 Colombia, San Gil"
"VETERINARIA Y PELUQUERÍA PLUTO";;;"(57) (7) 5744610";"Av Gran Colombia 5 E-58 Colombia, Cúcuta"
"TIENDA DE MASCOTAS CLÍNICA VETERINARIA OLAYA";;;"(57) (6) 8820347";"Cr24 17-33 Colombia, Manizales"
"CLINICA VETERINARIA DR. CAYETANO ACOSTA";;;"(57) (5) 4301108";"Manz 100 Casa 3 Ciudadela 29 de Julio Colombia, Santa Marta"
"ZOOVIDA LTDA.";;;"(57) (1) 6349224";"Cl 103 14-76 Colombia, Bogotá"
"MASCOTAS Y MAS";;;"(57) (7) 6562233";"Cl 7 14-30 Colombia, Piedecuesta"
"CLÍNICA VETERINARIA COCKER";;;"(57) (8) 4347705";"Cr11 A 11 C-96 Colombia, Florencia"
"DISTRIAGRO FLORENCIA LTDA.";;;"(57) (8) 4352716";"Cr11 16-60 Colombia, Florencia"
"SAMMY MASCOTAS";;;"(57) (2) 4408233";"Cl 72 8 N-02 Colombia, Cali"
"TIENDA DE MASCOTAS EL CANICHE";;;"(57) 3164912690";"Cl 8 11-50 Esq Entrada Loma de Bolívar Colombia, Cúcuta"
"CLÍNICA VETERINARIA OCAÑA";;;"(57) (75) 5691344";"Cl 12 9-69 El Carretero Colombia, Ocaña"
"PETMOUR S.A.";;;"(57) (2) 6657469";"Cr31 6-45 Colombia, Cali"
"CONSULTORIO VETERINARIO MOTICAS";;;"(57) (5) 6697162";"Escallón V. Cr53 30 F-32 Calle 7 de Agosto Colombia, Cartagena"
"VETERINARÍA MIMOSOS";;;"(57) (1) 2760140";"Cr77 A 64 C-12 Colombia, Bogotá"
"TIENDA VETERINARIA ANIMAL'S PLAZA";;;"(57) 3133700814";"Cr2 7-61 Colombia, Neiva"
AGROBELLO;;;"(57) (4) 2754435";"Cl 53 47-03 Bello Colombia, Bello"
"CRIADERO Y TIENDAS DE MASCOTAS BIGOTES";;;"(57) (4) 3431659";"Cl 19 71-94 Colombia, Medellín"
"PERRITOS IN";;;"(57) (1) 8707202";"Cr1 A 5 A-29 Int 10 Chía Colombia, Chía"
"TIENDA VETERINARIA COLMIHUELLAS";;;"(57) (2) 4411632";"Cr15 34-50 Colombia, Cali"
"CRIADERO CANINO MASCOTAS";;;"(57) (5) 3703016";"Cr41 39-32 Centro Colombia, Barranquilla"
"ANIMAL'S LTDA";;;"Nal: (57) (1) 5941918";"Cl 73 20-65 Colombia, Bogotá"
"CLÍNICA VETERINARÍA MASCOLANDIA DEL CARIBE";;;"Domic.: (57) (5) 3266109";"Cl 19 3 B-21 Simón Bolívar Colombia, Barranquilla"
"CLÍNICA VETERINARIA ANIMALITOS";;;"(57) (8) 2617936";"Cl 17 4-63 Colombia, Ibagué"
"VETERINARIA MEVEAS";;;"(57) (8) 6828390";"Cl 35 20-136 Vía a Catama Colombia, Villavicencio"
"AGROVENTAS LTDA.";;;"(57) (2) 6803416";"Cl 45 A 2 B-22 Colombia, Cali"
"CENTRO VETERINARIO MR. CAN";;;"(57) (2) 4462594";"Cr5 44-34 Colombia, Cali"
"AGROVETERINARIOS BIVEMED";;;"(57) (7) 6996447";"Km 2 Instalaciones de Mercagan Of 207 Vía Girón Colombia, Girón"
MASCOTICAS;;;"(57) (7) 6525387";"Cr31 33-67 Colombia, Bucaramanga"
"VETERINARIA PIOLIN";;;"(57) (7) 6321829";"Cr33 34-39 Colombia, Bucaramanga"
"PERROS FELICES";;;"(57) (4) 4218490";"Cr 83 65-78 Colombia, Medellín"
"ALMACÉN 100% AGROPECUARIO";;;"Nal: (57) (6) 8806076";"Cr18 22-23 Colombia, Manizales"
"CLINICA VETERINARIA BELEN";;;"(57) (4) 4440824";"Cl 30 A 74-04 Colombia, Medellín"
"First Name";"Email Address";Url;Telephone;Address
"VETERINARIA EL CAMPO";;;"(57) (8) 8717060";"Cl 4 6-25 Colombia, Neiva"
"ANDIBULLS CRIADERO";;;"(57) (2) 3735804";"Cr21 A 16-21 Colombia, Cali"
"CENTRO VETERINARIO SANTA MARÍA";;;"(57) (4) 3732387";"Cl 80 52-25 Itagüí Colombia, Itagüí"
"CLÍNICA VETERINARIA MANRIQUE LTDA.";;;"(57) (5) 6642737";"Get Cr10 31-61 Calle Tripita y Media Colombia, Cartagena"
"PUNTO AGROPECUARIO";;;"(57) (8) 6489066";"Cr6 10-35 Colombia, San Martín"
"VETERINARIA PELUQUERÍA CANINA";;;"(57) (1) 4112535";"Cr75 8 A-55 Colombia, Bogotá"
"AGROGRANJERO S.A.S";;;"(57) (4) 3173536";"Cr43 A 17 S-383 Colombia, Medellín"
"PET HOSPITAL";;;"(57) (1) 3153611";"Av (Cl) 53 53-21 Colombia, Bogotá"
"VETERINARIA RAMÍREZ";;;"(57) (4) 4123530";"Cr82 46-32 Colombia, Medellín"
"CONSULTORIO VETERINARIO DÁLMATA";;;"(57) (5) 7286121";"Cr10 14-11 Colombia, Riohacha"
"CENTRO VETERINARIO MASCOCENTRO TIENDA";;;"Nal: (57) (4) 4442077";"Cl 15 A 83-17 Colombia, Medellín"
"CLINICA VETERINARIA SANTA MARTA";;;"(57) (5) 4209207";"Cr13 C 27 A-14 Colombia, Santa Marta"
MULTI-MASCOTA;;;"(57) (8) 2607567";"Cr5 61-70 Frente A Multicentro Colombia, Ibagué"
"VETERINARIA COMO PERROS Y GATOS";;;"(57) (1) 8315936";"Av 30 7B-61 Colombia, Girardot"
PELUKAN;;;"(57) (7) 6811088";"Cr23 29-24 Girón Colombia, Girón"
HUELLAS;;;"(57) (2) 5900499";"Cl 13 9-27 Colombia, Cali"
"AGROPECUARIA EMBRIOGAN";;;"(57) (8) 8723691";"Cr1 H 8-59 L-2 Colombia, Neiva"
"CLÍNICA VETERINARIA EL BOSQUE";;;"(57) (7) 5745244";"Cl 2 N 2 E-82 Capillana Colombia, Cúcuta"
"GASPAR SÁNCHEZ LUIS ALBEIRO";;;"(57) (8) 8718577";"Cr6 11-44 Colombia, Neiva"
"BOSQUES DEL SILENCIO";;;"(57) (1) 6260801";"Cl 145 A 12-20 Of 305 Colombia, Bogotá"
"ATENCIÓN CLÍNICA VETERINARIA LA 38";;;"(57) (5) 3600793";"Cr38 74-232 Colombia, Barranquilla"
DISVECO;;;"(57) (5) 3690961";"Cl 64 50-47 L-03 Colombia, Barranquilla"
"AGROFLORIDA S.A.";;;"(57) (7) 6826428";"Cl 7 10-32 Floridablanca Colombia, Floridablanca"
"VITAL CLÍNICA VETERINARIA DE ESPECIALISTAS";;;"(57) (4) 4441299";"Cr43 A 10   S-45 La Aguacatala Colombia, Medellín"
"VETERINARIA YAK";;;"(57) (1) 8280303";"C.C. Los Pinos L-18 Colombia, Bogotá"
"ESTABLO GUANENTINO";;;"(57) 3133333085";"Cr11 16-49 Colombia, San Gil"
"DIMEVET S.A.";;;"(57) (1) 8767207";"Autop Medellín Km 1 5 Bdg-9 Cota Colombia, Cota"
"AGRO-GAN DEL PATÍA";;;"(57) (28) 8261155";"Cr7 6-25 Colombia, El Bordo"
"CENTRO VETERINARIO EL ESTABLO";;;"Nal: (57) (6) 7331692";"Cl 5 N 18 A-77 Colombia, Armenia"
"SALUD ANIMAL";;;"(57) (76) 5655545";"Cl 6 19-08 Colombia, Aguachica"
"CENTRO CLÍNICO EL GOLF";;;"(57) (5) 3554895";"Cl 84 64-10 Colombia, Barranquilla"
"DOG STYLE S.A.S.";;;"(57) (1) 6240537";"Vda Bojaca Lt San Antonio Colombia, Bogotá"
"REBAJAS DEL CAMPO";;;"(57) (5) 5800878";"Cr16 20 B-163 Colombia, Valledupar"
"AMIGO FIEL MASCOTIENDA";;;"(57) (6) 3385492";"Manz 20 Casa 33 Samaria I Colombia, Pereira"
"CENTRO SOLLA";;;"(57) (8) 6714242";"Cl 35 27-66 Colombia, Villavicencio"
"CLÍNICA HUELLAS";;;"(57) (1) 6134335";"Av (Cl) 134 57-41 Colombia, Bogotá"
"ALMACEN VETERINARIO BOSQUE CANINO";;;"(57) (2) 3703205";"Cr2 57-113 Colombia, Cali"
"URGENCY PETS";;;"Telefax: (57) (7) 5942399";"Cl 16 2 - 68 Colombia, Cúcuta"
"CLINICA VETENARIA LLANOGRANDE";;;"(57) (4) 5372147";"Km 53 Via RIonegro Llanogrande Sector Tres Puertas Colombia, Rionegro"
"ALMACÉN VETERINARIO SANTA ELENA";;;"(57) (2) 3356100";"Cl 18 B 28-82 Colombia, Cali"
"First Name";"Email Address";Url;Telephone;Address
"VETERINARIA SALON CANINO";;;"(57) (4) 2382146";"Cl 19 A 80-93 Colombia, Medellín"
"PELUQUERÍA CANINA Y TIENDA VETERINARIA SUPER CAN";;;"(57) (2) 4027176";"Cr39 A 33-16 Colombia, Cali"
"VETERINARIA DEL CENTRO";;;"(57) (2) 8241067";"Cl 3 9-49 Colombia, Popayán"
"AGROVETERINARIA AGROVET";;;"(57) (8) 8747408";"Cl 24 1 GBis 41 Colombia, Neiva"
IMVETCOL;;;"(57) (1) 2040347";"Cl 40 A S 50-73 Colombia, Bogotá"
"PLATA ALVAREZ JAIME";;;"(57) (1) 5337288";"Cr21 A 83-12 Colombia, Bogotá"
"CANHIPPO CENTRO MÉDICO VETERINARIO";;;"(57) (8) 6716318";"Cl 41 A 25-32 La Grama Colombia, Villavicencio"
"MI PORTAL VETERINARIO";;;"(57) (5) 7285388";"Cl 12 10-44 Colombia, Riohacha"
"DALMA PET'S";;;"(57) (6) 3127098";"Manz 10 Casa 123 Naranjito Colombia, Pereira"
"VETERINARIA MASCOTAS Y MAS";;;"(57) (7) 6562233";"Cl 7 14-30 Piedecuesta Colombia, Piedecuesta"
"ALMACEN Y CONSULTORIO AGROPECUARIO PRODUCAMPO";;;"(57) (7) 6031878";"Cl 30 42-33 El Cerro Colombia, Barrancabermeja"
"VETERINARIA AGROINSUMOS LA FORTUNA";;;"(57) (7) 7240812";"Cl 14 10-20 Centro Colombia, San Gil"
"INVASA AGROPECUARIA";;;"(57) (5) 3683920";"Cl64 50 - 03 Colombia, Barranquilla"
"MASKOTICAS PETSHOP";;;"(57) (4) 4229290";"Cl 55 79-14 Int 107 Colombia, Medellín"
"MASCOTAS Y MÁS";;;"(57) (1) 6300366";"Cl 76 51-14 Colombia, Bogotá"
"VETERINARIA A.L.F.";;;"(57) (1) 2045739";"Cr52 C 34-15 S Colombia, Bogotá"
"SPA Y PELUQUERÍA SOLO MASCOTAS";;;"(57) (5) 3797140";"Cl 52 54-28 L-1 Colombia, Barranquilla"
"TIENDA LA DESPENSA DE VILLAVICENCIO";;;"(57) (8) 6815397";"Cl 39 7-85 Colombia, Villavicencio"
"ESTABLO GUANENTINO";;;"(57) 3133333085";"Cr11 16-49 Colombia, San Gil"
"CONSULTORIO VETERINARIO PORTAL DEL NORTE";;;"(57) (1) 7031552";"Cr49 B 171 A-64 Colombia, Bogotá"
"DIMEVET S.A.";;;"(57) (1) 8767207";"Autop Medellín Km 1 5 Bdg-9 Cota Colombia, Cota"
"AGRO-GAN DEL PATÍA";;;"(57) (28) 8261155";"Cr7 6-25 Colombia, El Bordo"
"COLEGIO CANINO THE ROLLING DOGS";;;"(57) 3176797360";"Cl 11 55-176 Detrás Col. Yumaná Colombia, Neiva"
"CLÍNICA VETERINARIA SABUESOS";;;"(57) (5) 3567746";"Cr46 80-48 Colombia, Barranquilla"
"POLICLÍNICA VETERINARIA";;;"(57) (5) 5705609";"Cl 11 19 C-66 El Amparo Colombia, Valledupar"
"VETERINARIA SU HACIENDA EN AGUACHICA";;;"(57) (76) 5653910";"Cl 5 21-52 Colombia, Aguachica"
"TIENDA DE MASCOTAS LOS ROBLES";;;"(57) 3630473";"Cr23 B 74-03 Los Robles Soledad Colombia, Soledad"
"ANIMAL HOME VETERINARIA";;;"(57) (8) 8624202";"Cl 8 29-31 Las Brisas Colombia, Neiva"
"ANIMAL'S CENTER";;;"(57) (1) 2233205";"Av Boyacá 64 C-79 Colombia, Bogotá"
"DACHI CLÍNICA VETERINARIA";;;"(57) (2) 8352893";"Cll 1N 12-23 Brr. El Cadilla Colombia, Popayán"
"CLINICA VETERINARIA ANIMAL'S PLANET";;;"(57) (1) 3753389";"Cr 39A No 2-07 Colombia, Bogotá"
"VETERINARIA PET SHOP GUARNIZO";;;"(57) (8) 4229116";"Cl 10 26-51 El Carmen Colombia, Puerto Asís"
"CLÍNICA HUELLAS";;;"(57) (1) 6134335";"Av (Cl) 134 57-41 Colombia, Bogotá"
"AGROVETERINARIA DEL SINÚ";;;"(57) (2) 3365645";"Cr39 10 A-125 P-1 Colombia, Cali"
"URGENCY PETS";;;"Telefax: (57) (7) 5942399";"Cl 16 2 - 68 Colombia, Cúcuta"
"CENTRO VETERINARIO ZOO";;;"(57) (4) 2912797";"Cr48 63 A-50 Colombia, Medellín"
"MASCOTAS SANAS";;;"(57) (6) 3381296";"Manz 29 L-2 Villa del Prado Colombia, Pereira"
"CENTRO VETERINARIO DEL NORTE";;;"(57) (2) 6649886";"Cl 44 N 2 E N-173 Colombia, Cali"
"CENTRO VETERIANARIO BA'CANES";;;"(57) (2) 5543728";"Cl 10 24-11 Colombia, Cali"
"PET STOP ESTACIÓN DE LA MASCOTA";;;"(57) (2) 3155609";"C.C. La 14 Pasoancho L-1-17 Colombia, Cali"
"First Name";"Email Address";Url;Telephone;Address
"First Name";"Email Address";Url;Telephone;Address
"First Name";"Email Address";Url;Telephone;Address
"First Name";"Email Address";Url;Telephone;Address
"First Name";"Email Address";Url;Telephone;Address
"First Name";"Email Address";Url;Telephone;Address
"CLÍNICA VETERINARIA HAPPY ANIMAL PETS";;;"(57) (1) 2920624";"Cr73 B 8-26 Colombia, Bogotá"
"AGROPECUARIA SURTIAGRO DE COLOMBIA";;;"(57) (8) 6627516";"Cl 35 27-106 Colombia, Villavicencio"
"VETERINARIA PELUQUERÍA CANINA";;;"(57) (1) 4112535";"Cr75 8 A-55 Colombia, Bogotá"
"VETERINARIA PARAISO ANIMAL";;;"(57) (7) 5834118";"Cl 7 Av2 San Luis Colombia, Cúcuta"
"PLATA ALVAREZ JAIME";;;"(57) (1) 5337288";"Cr21 A 83-12 Colombia, Bogotá"
"MUNDO CANINO";;;"(57) 3183974887";"Cl 6 Cr63 B-Esq. Av.Simón Bolivar Colombia, Buenaventura"
"ZOO SALUD CLÍNICA VETERINARIA E.P.S.";;;"(57) (28) 8441222";"Cr 7 A 2-13 Colombia, Santander de Quilichao"
"MEDICAN CENTRO VETERINARIO";;;"(57) (2) 8245588";"Cl 70 BN 6-31 Brr. La Paz Fte. al Parque Colombia, Popayán"
"HOSPITAL VETERINARIO ANIMAL'S HEALTH CENTER";;;"(57) (1) 2572650";"Cr30 86 A-39 Colombia, Bogotá"
"VETERINERIA EL PLAYON";;;"(57) (4) 2734157";"Cl 123 51 A-15 Colombia, Medellín"
"CENTRO VETERINARIO MAJU";;;"(57) (2) 8207375";"Cr10 A 11 A-04 Colombia, Popayán"
"VETERINARIA CATS & DOGS";;;"(57) 3015702176";"Manz 30 Casa 11 Villa Míriam Colombia, Valledupar"
"CLÍNICA VETERINARIA CRESPO";;;"(57) (5) 6662463";"Cl 70 3-88 Colombia, Cartagena"
"CIFUENTES CAROLINA";;;"(57) (1) 2505269";"Av (Cl) 68 46-76 Colombia, Bogotá"
"VETERINARIA JUANES";;;"(57) (7) 6200680";"Cl 72 27-39 La Libertad Colombia, Barrancabermeja"
"CLÍNICA VETERINARIA VILLAS DE GRANADA";;;"(57) (1) 2293870";"Cl 77 A 112 A-11 Colombia, Bogotá"
"CLÍNICA VETERINARIA EL BOSQUE";;;"(57) (8) 8717345";"Cr14 A 6 B-27 Altico Colombia, Neiva"
"AGROVETERIANRÍA SAN JOAQUÍN";;;"(57) (8) 8720596";"Cl 6 1 H-25 L-1 Colombia, Neiva"
"CLÍNICA VETERINARIA MASCOTAS";;;"(57) (8) 8746833";"Av La Toma 12-37 Colombia, Neiva"
"ESTÉTICA CANINA SCUBY";;;"(57) (5) 3624038";"Cl 45C2 10 D-12 Colombia, Barranquilla"
"COMERCIALIZADORA DE MAÍZ EL TRÉBOL";;;"(57) (8) 6709501";"Cl 37 A 25-54 Colombia, Villavicencio"
"INVERSIONES RAZA LTDA.";;;"(57) (1) 7427132";"Cl 8 S 38 A - 03 Colombia, Bogotá"
"VETERINARIA INGEZA";;;"(57) (1) 8656280";"Cl 3 7-99 Colombia, Bogotá"
"LA VETERINARIA";;;"(57) 3012284396";"Tr9 62 N-83 Colombia, Popayán"
"HOSPITAL VETERINARIO ZOOVIVIR";;;"(57) (1) 6179096";"Av (Cl) 127 71 B-22 Colombia, Bogotá"
"CÁRDENAS PILAR";;;"(57) (1) 6712456";"Cr21 169-62 L-131 Colombia, Bogotá"
"SPA CANINA";;;"(57) (8) 8770829";"Cl 8 34-25 Colombia, Neiva"
"DOG STYLE S.A.S.";;;"(57) (1) 6240537";"Vda Bojaca Lt San Antonio Colombia, Bogotá"
"CLÍNICA VETERINARÍA SAN MARTÍN";;;"(57) (2) 2873611";"Cr32 31-74 Colombia, Palmira"
"SAN ROCKO CENTRO VETERINARIO";;;"(57) 3108756184";"Cl 60 1-21 B/ Floresta Colombia, Ibagué"
"CENTRAL URGENCIAS VETERINARIAS";;;"Nal: (57) (8) 2663737";"Av Ferrocarril 30-121 Colombia, Ibagué"
"ECOGRAFÍA VETERINARIA";;;"(57) (2) 5140949";"Cr28 8-51 Colombia, Cali"
"VETERINARIA DR KAN";;;"(57) (6) 8760931";"Cl 45 D 9-38 Colombia, Manizales"
"TODO MASCOTAS";;;"(57) (2) 4430456";"Cr 13 34-83 Colombia, Cali"
"MI VETERINARIA";;;"(57) (2) 7225781";"Cl 13 25-29 Colombia, Pasto"
"CASA GANADERA CAÑAVERAL";;;"(57) (7) 6387111";"C.C. Cañaveral L-163 Colombia, Bucaramanga"
"HOSPITAL VETERINARIO POPULAR";;;"(57) (7) 6714839";"Bul Bolívar 20-23 Colombia, Bucaramanga"
ANIMASCOTAS;;;"(57) 3203689037";"Cl 25 20-117 Amaral Colombia, Villavicencio"
"EL RANCHO VETERINARIA";;;"(57) (7) 7273499";"Cr16 12-26 San Victorino Colombia, Socorro"
"CAN & KAT CENTRO VETERINARIO";;;"(57) (6) 7323415";"Cl 10 N 18-42 Colombia, Armenia"
"First Name";"Email Address";Url;Telephone;Address
"MR DOG TIENDA DE MASCOTAS";;;"(57) 3143953379";"Cl 67 5-85 L-4 Et 3 Jordán Colombia, Ibagué"
"MASCOTAS DE ORIENTE";;;"(57) (4) 5682206";"Cl 18 19-43 La Ceja Colombia, Medellín"
"PLATA ALVAREZ JAIME";;;"(57) (1) 5337288";"Cr21 A 83-12 Colombia, Bogotá"
"HOSPITAL VETERINARIO POPULAR";;;"(57) (7) 6714839";"Bul Bolívar 20-23 Colombia, Bucaramanga"
"CENTRO MÉDICO VETERINARIO PLANETA ANIMAL";;;"(57) (8) 6347119";"Cl 24 22 A-10 Colombia, Yopal"
"VETERINARIA EL CHAPARRAL";;;"(57) (7) 7274835";"Cr16 12-77 Colombia, Socorro"
"CENTRO VETERINARIO ANIMALANDIA";;;"(57) (2) 2711514";"Cl 33 25-12 Colombia, Palmira"
"VETERINARIA VILLA DE SAN CARLOS";;;"(57) (7) 6551941";"Cr6 7-98 Piedecuesta Colombia, Piedecuesta"
"VETERINARIA & PELUQUERÍA CANINA RUFFO";;;"(57) (1) 4500437";"Cl 38 C S 87 F-19 Colombia, Bogotá"
"VETERINARIA RAMÍREZ";;;"(57) (4) 4123530";"Cr82 46-32 Colombia, Medellín"
"ESTÉTICA CANINA SCUBY";;;"(57) (5) 3624038";"Cl 45C2 10 D-12 Colombia, Barranquilla"
"CLÍNICA VETERINARÍA SOCIEDAD ANIMAL";;;"(57) (1) 3116427";"Av.Cr.60 67A-26 Colombia, Bogotá"
"QUINO CLINICA VETERINARIA";;;"(57) (1) 2740538";"Av (Cr) 15 140 A-23 Colombia, Bogotá"
"CENTRAL URGENCIAS VETERINARIAS";;;"Nal: (57) (8) 2663737";"Av Ferrocarril 30-121 Colombia, Ibagué"
"PATRICIA RAMÍREZ / CONSULTORIO VETERINARIO CHICOMASCOTAS";;;"(57) (2) 6837874";"Cr85 43-52 Colombia, Cali"
"CRIADERO CANINO VILLA LUCÍA";;;"(57) (8) 2710148";"Cr5 A 77 A-36 Colombia, Ibagué"
"CLÍNICA VETERINARÍA SAGEN";;;"(57) (1) 2154419";"Cr 13 119-70 Colombia, Bogotá"
"CLÍNICA VETERINARIA^PLANETA";;;"(57) (4) 6715329";"Cl 30 2-13 Brr Cristo Rey Colombia, Quibdó"
CLINIDOG;;;"(57) (1) 2715188";"Tr59 106-40 Colombia, Bogotá"
"CENTRO VETERINARIO K'ANINOS Y FELINOS";;;"(57) (6) 8848008";"Cl 8 6-24 Chipre Colombia, Manizales"
"ENTRENAMIENTO CANINO PROFESIONAL CARLOS MÉNDEZ";;;"(57) 3155863508";"Cr9 A 54 N-33 Ap 2 Colombia, Popayán"
"CENTRO VETERINARIO SABUESOS";;;"(57) (6) 8759617";"Cl 67 10-58 Colombia, Manizales"
"GUA DOG STORER";;;"(57) (1) 4919810";"Cr113 78 B-18 Colombia, Bogotá"
"CENTRO VETERINARIO LA HUELLA";;;"(57) (2) 2719433";"Cl 21 3-20 Colombia, Palmira"
"CRIADERO Y TIENDAS DE MASCOTAS BIGOTES";;;"(57) (4) 3431659";"Cl 19 71-94 Colombia, Medellín"
"CENTRO CLÍNICO EL GOLF";;;"(57) (5) 3554895";"Cl 84 64-10 Colombia, Barranquilla"
"ANIMAL HEALT CONSULTORIO VETERINARIO";;;"(57) (8) 6634142";"Et VIII B-7 Ap 101 La Esperanza Colombia, Villavicencio"
"CENTRO VETERINARIA EL NOGAL";;;"(57) (8) 8350851";"Cr4 14-20 Sucre Colombia, Pitalito"
"CAN & KAT CENTRO VETERINARIO";;;"(57) (6) 7323415";"Cl 10 N 18-42 Colombia, Armenia"
"CENTRO VETERINARIO PROANIMALES";;;"(57) (6) 8826350";"Cr25 Cl 34 Esq Linares Colombia, Manizales"
"MI CACHORRO";;;"(57) (2) 7210861";"Cl 22 15-134 Colombia, Pasto"
"MUNDO VIVO";;;"(57) (7) 6913548";"Almacen Exito La Rosita L-262 Colombia, Bucaramanga"
"VETERINARÍA CASA AGRO";;;"(57) 3132625747";"Cl 6 1 H-69 Colombia, Neiva"
"MORENO ORJUELA SANDRA MILENA";;;"(57) (8) 2651577";"Cr4 Estadio 34-21 Colombia, Ibagué"
"CEMENTERIO PARA MASCOTAS SAN LUIS";;;"Nal: (57) (8) 2650878";"Barrio Tierra Firme Sector el Salado Colombia, Ibagué"
"ASMEVET-HOSPITAL MÉDICO VETERINARIO";;;"(57) (8) 7400407";"Cl 12 8 A-32 Aquimin Colombia, Tunja"
"AGROPECUARIA TORO SUR LTDA.";;;"(57) (2) 5585054";"Cl 7 25-69 Colombia, Cali"
"EL BODEGÓN AGROPECUARIO";;;"(57) (68) 8575029";"Cr1 15-15 Colombia, La Dorada"
"EQUIVAX S.A.S";;;"(57) (8) 8641158";"Cl 8 1 G-61 Colombia, Neiva"
"TIENDA DE MASCOTAS BOSTON";;;"(57) (1) 6889439";"Cl 143 128-02 Int 13 L-101 Colombia, Bogotá"
"First Name";"Email Address";Url;Telephone;Address
"ALMACÉN VETERINARIO LA DESPENSA DEL GANADERO DEL HUILA";;;"(57) (8) 8332873";"Cr10 1-10 Colombia, Garzón"
"ALMACÉN 100% AGROPECUARIO";;;"Nal: (57) (6) 8806076";"Cr18 22-23 Colombia, Manizales"
"SERVET 24H";;;"(57) (2) 3130875";"Cr81 B 43-35 Colombia, Cali"
"MARTÍNEZ Y MOSKALENKO CLÍNICA VETERINARIA";;;"(57) (2) 3962323";"Cr44 6 A-54 Colombia, Cali"
"ANIMALS CENTRO VETERINARIO";;;"(57) (2) 3347163";"Cl 27 30-40 Colombia, Cali"
"A TODA HORA DOMICILIOS VETERINARIA";;;"(57) (1) 2745243";"Cr21 147-50 Int-2 Ap-101 Colombia, Bogotá"
"ANNIMAL®S CLÍNICA VETERINARIA";;;"(57) (1) 8314221";"Cl 18 16-26 Colombia, Girardot"
CANIMEDIC;;;"(57) (8) 2732521";"Cr11 4-59 Belén Colombia, Ibagué"
"FINCA LOS CRISTALES LTDA.";;;"(57) (1) 4542171";"Cr128 A 11 A-30 Colombia, Bogotá"
"VETERINARIA Y PET SHOP UNIVERSO ANIMAL";;;"(57) (7) 6550800";"Cr15 2N-62 Loc 2 la Rioja Colombia, Piedecuesta"
"CENTRO VETERINARIO ANIMALANDIA";;;"(57) (2) 2711514";"Cl 33 25-12 Colombia, Palmira"
"CENTRO MEDICO K-NIVET";;;"(57) (2) 3332177";"Cl 16 83-01 Colombia, Cali"
"CASA VETERINARIA ANIMAL PLANET";;;"(57) (2) 5531977";"Cl 7 Oe 52-80 Colombia, Cali"
"CLÍNICA VETERINARIA TEQUENDAMA";;;"(57) 6566180";"Canapote Cr14 61-08 Colombia, Cartagena"
"GANADOS Y PRADERAS";;;"(57) (8) 6622148";"Cl 35 27-101 San Isidro Colombia, Villavicencio"
"CLÍNICA VETERINARIA MIRANDA";;;"(57) (1) 2144237";"Dg108 A 8 A-13 Colombia, Bogotá"
"VETERINARIA MONTEA";;;"(57) (8) 8710671";"Cr6 4-30 Colombia, Neiva"
"CENTRO MÉDICO VETERINARIO LOS ANGELES";;;"(57) (8) 8755077";"Cr7 43-59 Colombia, Neiva"
"CLÍNICA VETERINARIA HA";;;"(57) (75) 5626327";"Cl 11 21-100 El Playón Colombia, Ocaña"
"VETERINARIO AGROVILLA";;;"(57) (7) 5707414";"Cr8 0-41 Bellavista Villa del Rosario Colombia, Cúcuta"
"CENTRO VETERINARIO CORAZÓN DE JESÚS";;;"(57) (2) 7330333";"Manz 18 Casa 13 Corazón de Jesús Colombia, Pasto"
"ALMACÉN VETERINARIO EL GANADERO DEL HUILA";;;"(57) (8) 8360963";"Cl 4 5-50 Colombia, Pitalito"
"CENTRO VETERINARIO BOMBONÁ";;;"(57) (4) 2391578";"Cl 47 38-63 Ap 101 Colombia, Medellín"
"TIENDA DE MASCOTAS AGROSANTI";;;"(57) (4) 3778121";"Cl 77 50-30 Itagüí Colombia, Medellín"
"URGENCIAS VETERINARIAS A DOMICILIO";;;"(57) 3155140143";"Cl 35 4-45 Colombia, Cali"
"AGROTIENDA VETERINARIA";;;"(57) (2) 4337183";"Cr4 N 76-12 Colombia, Cali"
"CENTRO VETERINARIO DON CAN";;;"(57) (1) 2320383";"Cr19 37-59 Colombia, Bogotá"
"KATTOS CENTRO ESPECIALIZADO PARA GATOS";;;"(57) (1) 4781684";"Cl 134 9 A-30 Colombia, Bogotá"
"TIENDA DE MASCOTAS";;;"(57) (4) 3523555";"Cr41 10-63 Colombia, Medellín"
"CENTRO MEDICO VETERINARIO CLINIVET";;;"Nal: (57) (7) 5947262";"Cl 18A 11-37 La Libertad Colombia, Cúcuta"
"VETERINARIA VIDA DE PERROS";;;"(57) (7) 5897169";"Av6 C 6-06 Esq Prados del Este Colombia, Cúcuta"
"POLLO RICO";;;"(57) (8) 8338319";"Cr10 A 2-48 Las Mercedes Colombia, Garzón"
"VETERINARIA AGROTIENDA LA GRANJA";;;"(57) (8) 8708407";"Cr21 2-78 Colombia, Neiva"
"BRAVO MAURICIO";;;"(57) (7) 6312225";"Cl 86 25-128 Diamante II Colombia, Bucaramanga"
"RECOGEDOR PORTATIL";;;"(57) (1) 5496070";"Tr96 A 76 B-20 Casa 3-B Colombia, Bogotá"
"EL BODEGÓN AGROPECUARIO";;;"(57) (68) 8575029";"Cr1 15-15 Colombia, La Dorada"
"CLÍNICA VETERINARIA DE ANTIOQUIA";;;"(57) (4) 2509214";"Cr80 36-43 Colombia, Medellín"
"TODO LO QUE SU MASCOTA NECESITA";;;"(57) 3142899235";"Cl 19 2-15 L-2 Av. Tamaca - Rodadero Colombia, Santa Marta"
"AKITA SPA";;;"(57) (4) 3420057";"Cl 12 70-08 L 101 y 102 Colombia, Medellín"
"VETERINARIA SIMÓN BOLÍVAR";;;"(57) (5) 3265787";"Cl 19 6 B-31 P-1 Simón Bolívar Colombia, Barranquilla"
"First Name";"Email Address";Url;Telephone;Address
"ALMACEN VETERINARIO PEQUEÑOS Y GRANDES ANIMALES";;;"(57) (7) 6116605";"Cl 61 29-67 Paso Nivel Colombia, Barrancabermeja"
"CLÍNICA VETERINARIA DR. BETANCOURTH";;;"(57) (2) 2401282";"Av Simón Bolívar 47-85 Dg A La 14 Colombia, Buenaventura"
"CLÍNICA VETERINARIA MEDICAL VET";;;"(57) (7) 5893465";"Cl 15a 1E-93 Caobos Colombia, Cúcuta"
"AGROVETERINARIA LOS ANIMALES";;;"(57) (7) 6562253";"Cr6 10-59 Piedecuesta Colombia, Piedecuesta"
"VETERINARIA LOS ANDES";;;"(57) (7) 6498128";"Cl 35 17-67 L-12 Floridablanca Colombia, Floridablanca"
"CENTRO VETERINARIO CLINIKAN";;;"(57) (2) 7238744";"Cl 18 A 2-17 Colombia, Pasto"
"AGROAVICOLA LA JAULA";;;"(57) (8) 8362761";"Cr3 8-48 Colombia, Pitalito"
"LABORATORIO CLÍNICO VETERINARIO LACLIVET";;;"(57) (2) 2857494";"Cl 35 24-31 Colombia, Palmira"
"CLÍNICA VETERINARIA ""SU MASCOTA""";;;"(57) (2) 2248959";"Cr27 34-59 Colombia, Tuluá"
MOTAS;;;"(57) (8) 2682670";"Av El Jordán Et 3 Manz 32 Casa 7 Colombia, Ibagué"
"CENTROAGRO SOLUCIONES AGROPECUARIAS";;;"(57) (7) 6717775";"Cr16 15-36 Colombia, Bucaramanga"
"VETERINARIA CANAPOLIS";;;"(57) (7) 6390279";"Cr12 23-19 Rosales Colombia, Bucaramanga"
"TIENDA VETERINARIA DONCAN";;;"(57) (2) 4231808";"Dg26 M Tr93-03 Colombia, Cali"
"CLINICA VETERINARIA REINO ANIMAL";;;"(57) (7) 6364193";"Cl 105 26-27 Provenza Colombia, Bucaramanga"
"SPAIN KENNEL";;;"(57) (1) 3153146";"Av (Cl)53 54-27 Colombia, Bogotá"
"CLÍNICA VETERINARIA PAMPLONA";;;"(57) (75) 5683377";"Cr 7 2-37 Colombia, Pamplona"
"MASCOTAS FELICES";;;"(57) (7) 5802298";"Av9 B 15-42 C.C. Tierra Linda Colombia, Cúcuta"
"ANIMAL HELP LTDA.";;;"(57) (4) 3792971";"Cl 83 A S 59-01 La Estrella Colombia, Medellín"
"MI CORRAL MASCOTAS";;;"(57) (4) 7918520";"Cl 33 1-33 Colombia, Montería"
"BELLEZA CANINA";;;"(57) (1) 4006866";"Cl 75 105 C-09 Colombia, Bogotá"
"AVICOLA DEL CESAR DISTRIBUIDORA PURINA";;;"(57) (76) 5650268";"Cl 5 16-68 Colombia, Aguachica"
"AGROVETERINARIA AGROVET";;;"(57) (8) 8747408";"Cl 24 1 GBis 41 Colombia, Neiva"
"CENTRO VETERINARIO DANDY";;;"(57) (5) 6448870";"Bosque Dg21 40-75 Carrt Principal Colombia, Cartagena"
"VETERINARIA Y PELUQUERIA CANINA CARLOS SANABRIA";;;"(57) (5) 3528898";"Cr42 B1 84-14 Colombia, Barranquilla"
"ESTÉTICA CANINA CARLOS SANABRIA";;;"(57) (5) 3528898";"Cr42B1 84-14 Colombia, Barranquilla"
"CIFUENTES CAROLINA";;;"(57) (1) 2505269";"Av (Cl) 68 46-76 Colombia, Bogotá"
"CONSULTORIO VETERINARIO CACHORRITOS";;;"(57) (5) 6581275";"Torices Cr16 46-55 Ap 401 Edif Castillo de Loira Colombia, Cartagena"
"CLÍNICA VETERINARIA EL OASIS DE SU MASCOTA";;;"(57) (5) 6618382";"Dg31 82-12 Urb La Flora Casa 5 Colombia, Cartagena"
AVESCOR;;;"(57) (4) 7816685";"Cl 62 A 7-111 Colombia, Montería"
"CLÍNICA VETERINARIA QUINTA VELEZ";;;"(57) (7) 5837671";"Cl 11 A 1 Este-09 Los Caobos Colombia, Cúcuta"
"CLINI LABORATORIO DRA. DIANA REYES PADILLA";;;"(57) (5) 6447277";"Av Crisanto Luque Sector Paraguay Colombia, Cartagena"
"ATENCIÓN CLÍNICA VETERINARIA LA 38";;;"(57) (5) 3600793";"Cr38 74-232 Colombia, Barranquilla"
"ESTABLO GUANENTINO";;;"(57) 3133333085";"Cr11 16-49 Colombia, San Gil"
"JOHNS CENTRO MÉDICO VETERINARIO";;;"(57) (4) 4119415";"Cq 73 A 34 A-60 Colombia, Medellín"
"RINCÓN VETERINARIO";;;"(57) (2) 3369858";"Cr44 12 B-22 Colombia, Cali"
"ALMACÉN VETERINARÍA Y AGRICOLA GANAGRO";;;"(57) (2) 8858423";"Cr10 8-39 Colombia, Cali"
"ANIMAL PLANET";;;"(57) (2) 4040291";"Cr26M3 123-01 Colombia, Cali"
"FELICAN-ESTÉTICA FELINA Y CANINA";;;"(57) (2) 4495357";"Cl 70 1A10-10 Colombia, Cali"
"CRIADERO CANINO JARABULL";;;"(57) (2) 5161358";"Callejón de Polos Villa Tatiana Jamundí Colombia, Jamundí"
"TIENDA VETERINARIA MAX QUE BIEN";;;"(57) (2) 4267851";"Cr29 A 42 A-76 Colombia, Cali"
"First Name";"Email Address";Url;Telephone;Address
"BIOVET CLÍNICA VETERINARIA";;;"(57) (1) 4030987";"Cl 26 S 73 D -61 Colombia, Bogotá"
AVETERSALUD;;;"(57) (2) 5249796";"Cr23 A 71-81 Colombia, Cali"
"CENTRO VETERINARIO HAPPY PETS";;;"(57) 3108748190";"Av Ambala 33-45 Colombia, Ibagué"
ZOOSALUD;;;"(57) (4) 8326486";"Cl 538-21 Colombia, Puerto Berrío"
"CLINI-SPA VIDA ANIMAL";;;"(57) (2) 6656716";"Av6 N 45 N-92 Colombia, Cali"
"VETERINARIA SATELITE";;;"(57) (7) 6317082";"Dg105 30 B-17 Frente A La Plaza Satélite Colombia, Bucaramanga"
"AGROVETERINARIA CANIGAN";;;"(57) (7) 6557087";"Cl 11 6-16 Colombia, Piedecuesta"
"ALMACEN VETERINARIO LA GRANJA";;;"(57) (7) 6222276";"Cl 49 4 Esq Colombia, Barrancabermeja"
"MUNDO ANIMAL";;;"(57) (4) 3718481";"Cr48 49-33 Itagüí Colombia, Itagüí"
"AGROTAWICHE CENTRO VETERINARIO";;;"(57) (4) 2348416";"Cr80 50-106 Colombia, Medellín"
"MUNDO MASCOTAS";;;"(57) (2) 4401656";"Cl 73 1 -1-81 Colombia, Cali"
"CLINICA VETERINARIA BELEN";;;"(57) (4) 4440824";"Cl 30 A 74-04 Colombia, Medellín"
"CASA AGROPECUARIA CASAGRO LTDA";;;"(57) (7) 6306443";"Av Quebrada Seca 15-53 Colombia, Bucaramanga"
"CENTROAGRO SOLUCIONES AGROPECUARIAS";;;"(57) (7) 6717775";"Cr16 15-36 Colombia, Bucaramanga"
"AGROCEVA MASCOTAS";;;"(57) (2) 5570626";"Cr27 8-57 Colombia, Cali"
"AMOR ANIMAL";;;"(57) (2) 3279386";"Cr43 A 55-105 Colombia, Cali"
"PET & PET";;;"(57) (2) 6807050";"Cl 38 N 6 N-35 L-8-123 Colombia, Cali"
"CONSULTORIO VETERINARIO PLUTO'S";;;"(57) (5) 3777700";"Cr38 100-61 Colombia, Barranquilla"
"HOSPITAL DE ANIMALES";;;"(57) (7) 6343246";"Cl 9A 24 - 79 P - 1 Comuneros Colombia, Bucaramanga"
"CENTRO MÉDICO VETERINARIO CAN & FEL";;;"(57) (7) 5940812";"Cl 15 N 8 Este-48 Guaimaral Colombia, Cúcuta"
"VETERINARIA LA SALLE";;;"(57) (7) 6813461";"Cll 107 42-20 Santa Fé Floridablanca Colombia, Bucaramanga"
CANYCAS;;;"(57) (2) 5561143";"Cl 8 34-45 Colombia, Cali"
"EL RANCHO VETERINARIO";;;"(57) (2) 5583045";"Cl 8 A 30-04 Colombia, Cali"
"K-NINA PET SHOP";;;"(57) (2) 8363085";"Cl 10 N 10 N-47 Sta Clara Colombia, Popayán"
"VETERINARIA EL RECREO";;;"(57) (5) 6514876";"El Recreo Sector Ciudad Sevilla Manz D Lt 18 Colombia, Cartagena"
"CAN MÉDICA";;;"(57) (1) 6276211";"Av (Cl) 147 7 F-09 Colombia, Bogotá"
"PLATA ALVAREZ JAIME";;;"(57) (1) 5337288";"Cr21 A 83-12 Colombia, Bogotá"
"CLÍNICA VETERINARIA DE ANTIOQUIA";;;"(57) (4) 2509214";"Cr80 36-43 Colombia, Medellín"
"VETERINARIA Y PELUQUERIA CANINA CARLOS SANABRIA";;;"(57) (5) 3528898";"Cr42 B1 84-14 Colombia, Barranquilla"
"ESTÉTICA CANINA CARLOS SANABRIA";;;"(57) (5) 3528898";"Cr42B1 84-14 Colombia, Barranquilla"
"SALUD ZOO";;;"(57) (5) 5894339";"Cr 13 17-66 Colombia, Valledupar"
"BOXER VETERINARIAS";;;"(57) (5) 3796416";"Cr18 57-32 Colombia, Barranquilla"
"AGROVELCA S.A.";;;"(57) (8) 8602323";"Av19 S 6 12/20 Colombia, Neiva"
"ALMACÉN AVICOLA Y GANADERO";;;"(57) (8) 8720282";"Cl 10 1 H-10 Los Mártires Colombia, Neiva"
"TERNURA DE AMOR";;;"(57) (5) 3721540";"Cl 56 44-53 Colombia, Barranquilla"
"LA TIENDA DEL AGRO";;;"(57) (5) 3609599";"Cl 72 41 C-08 Colombia, Barranquilla"
"AGROQUÍMICOS VETERINARIO 2000";;;"(57) (5) 3432889";"Cl 44 14-07 Soledad 2000 Colombia, Barranquilla"
"HOSPITAL VETERINARIO DE CHÍA";;;"(57) (1) 8637161";"Cr11 14-22 Colombia, Bogotá"
"DOG STYLE S.A.S.";;;"(57) (1) 6240537";"Vda Bojaca Lt San Antonio Colombia, Bogotá"
"MI VETE S.A.S.";;;"Telefax: (57) (1) 5200840";"Cr45 A 134 D - 20 Colombia, Bogotá"
"First Name";"Email Address";Url;Telephone;Address
"PET STOP ESTACIÓN DE LA MASCOTA";;;"(57) (2) 3155609";"C.C. La 14 Pasoancho L-1-17 Colombia, Cali"
"MI DULCE MASCOTA";;;"(57) (2) 4397171";"Cl 62 B 1A-9-75 L-2A-1E Et II Colombia, Cali"
"CENTRO VETERINARIO ANIMALITOS";;;"(57) (2) 5575783";"Cr26 Oe 3-51 Colombia, Cali"
"TIENDA VETERINARIA MUNDOMASCOTAS";;;"(57) (2) 3270340";"Cr44 A 45-89 Colombia, Cali"
"CLÍNICA VETERINARIA MALDONADO'S";;;"(57) (7) 5872556";"Av2 6-34 Colombia, Cúcuta"
"CENTRO VETERINARIO BIENESTAR ANIMAL";;;"(57) (2) 8937961";"Cr13 2-41 Colombia, Cali"
"AGRONUTRIENTES DEL CAMPO";;;"(57) (2) 2242580";"Cr23 29-75 Colombia, Tuluá"
"URGENCIAS VETERINARIAS RICARDO RUIZ";;;"(57) (2) 5572292";"Cr14 Oe 2-55 Colombia, Cali"
"ALMACÉN AGROECONÓMICO";;;"(57) (7) 6559178";"Cr6 10-35 Piedecuesta Colombia, Piedecuesta"
"ANIMAL'S HOME URGENCIAS";;;"Nal: (57) (1) 3424429";"Cl 53 73-03 Colombia, Bogotá"
"ANIMALITOS VETERINARIA";;;"(57) (7) 6449181";"Cl 62 2 W-22 Mutis Colombia, Bucaramanga"
"DISTRIBUIDORA AGROPECUARIA LA PRADERA";;;"(57) (8) 2727030";"Cl 12 11-18 El Salado Colombia, Ibagué"
"LA MAGIA DE LAS MASCOTAS";;;"(57) (8) 2613317";"Cr5 17-75 L-1 Colombia, Ibagué"
"HUELLA ANIMAL";;;"(57) (4) 2534992";"Cr92 37-08 Colombia, Medellín"
"CENTRO VETERINARIO CHINCHIGRANJA";;;"(57) (6) 8400404";"Cr9 8-66 Colombia, Chinchiná"
"CONCENTRADOS VILLA NUEVA";;;"(57) (7) 5705429";"Cr7 11-77 La Palmita Villa del Rosario Colombia, Cúcuta"
"ALMACÉN VETERINARIO EL EDÉN DE LAS MASCOTAS";;;"(57) 3134204891";"Cl 10 7-81 Centro Colombia, Cúcuta"
"ANIMAL TOWN";;;"(57) (1) 6052449";"Cr28 A 39 A-54 Colombia, Bogotá"
"MANCHOLA CADENA JORGE ISAAC";;;"(57) (8) 8332573";"Cr8 6-72 Colombia, Garzón"
"SILVA LÓPEZ NACIANCENO";;;"(57) (8) 6820168";"Cl 37 28-25 San Isidro Colombia, Villavicencio"
"MUNDO MASCOTAS";;;"(57) (2) 4401656";"Cl 73 1 -1-81 Colombia, Cali"
"CENTRO VETERINARIO EL SAMAN";;;"(57) (8) 8751561";"Cl 25 5 A-23 Los Samanes Colombia, Neiva"
"CENTRO VETERINARIO K'ANINOS Y FELINOS";;;"(57) (6) 8848008";"Cl 8 6-24 Chipre Colombia, Manizales"
"CLINICA VETERINARIA DON PERRO";;;"(57) (7) 6201899";"Cr13 51-44 Colombia Colombia, Barrancabermeja"
"DISTRIBUIDORA Y VETERINARIA LEBRIFINCA";;;"(57) (7) 6566580";"Cr8 8-17 Lebrija Colombia, Bucaramanga"
"GUARDERIA CAMPESTRE MI MASCOTA";;;"(57) 3152130072";"Finca La Maloca 300 Mts de Teyuna Colombia, Santa Marta"
"DIKA PETS";;;"Nal: (57) (4) 2303367";"Cl 34 B 65 D-68 Colombia, Medellín"
"CENTRO MEDICO K-NIVET";;;"(57) (2) 3332177";"Cl 16 83-01 Colombia, Cali"
"QUINTERO ALVARO IVÁN";;;"(57) (7) 5750903";"Av Libertadores 10-70 Colombia, Cúcuta"
"CENTRO VETERINARIO EL LABRADOR";;;"(57) (6) 8856485";"Cr23 54-29 Colombia, Manizales"
"CENTRO VETERINARIO COUNTRY CAN S.A.S.";;;"Telefax: (57) (1) 6200030";"Cl 122 15 A - 40 Colombia, Bogotá"
"VETERINARÍA GUAU GUAUS";;;"(57) (1) 4141459";"Av (Cr) 50 5 A 64 P-2 Colombia, Bogotá"
"VETERINARIA CENTROSUR";;;"(57) (1) 7606469";"Cr9 50 A-15 S Colombia, Bogotá"
"MASCOTAS PETIT";;;"(57) (1) 2040285";"Dg49 A S 53-51 Colombia, Bogotá"
"EL ANIMALARIO";;;"(57) (1) 2155224";"Cr7 120 A-40 Colombia, Bogotá"
"DOGYS'S SHOP";;;"(57) (2) 7330182";"Cl 22 15-41 Av Colombia Colombia, Pasto"
CANÓPOLIS;;;"(57) 3117196429";"Cl 21 11-25 Parque Bolívar Colombia, Pasto"
"SUPER MASCOTAS Y PECES";;;"(57) (7) 5773734";"Av3 E 0-62 Quinta Bosch Colombia, Cúcuta"
"QUINTERO TOVAR EUGENIO ENRIQUE";;;"(57) (8) 8712588";"Cr 5 4-59 Colombia, Neiva"
AGROCOSUR;;;"(57) (8) 8714716";"Cr1 H 7-39 Colombia, Neiva"
"First Name";"Email Address";Url;Telephone;Address
CLINIDOG;;;"(57) (1) 2715188";"Tr59 106-40 Colombia, Bogotá"
"LAVERDE HÉCTOR JULIAN";;;"(57) (1) 2260773";"Cl 118 60-30 L-1 Colombia, Bogotá"
"AGROPECUARIA HATO GANADERO";;;"(57) (7) 5781481";"Av7 A 0 B N-10 Colombia, Cúcuta"
"CENTRO VETERINARIO K'ANINOS Y FELINOS";;;"(57) (6) 8848008";"Cl 8 6-24 Chipre Colombia, Manizales"
"VETERINARIA DROOPY";;;"(57) (5) 3608122";"Cl 69 41-77 L-2 Colombia, Barranquilla"
"VETERINARIA AVIGAN";;;"(57) (1) 8350482";"Cl 12 9-20 San Miguel Colombia, Girardot"
"PROTECCION SALUD ANIMAL";;;"(57) (7) 6716694";"Cl 18 19-69 San Francisco Colombia, Bucaramanga"
"VETERINARIA ANIMAL HOUSE";;;"(57) (8) 2613729";"Av Guabinal 19-120 Colombia, Ibagué"
"TODO MASCOTA SERVICIOS VETERINARIOS";;;"(57) (6) 8741145";"Cl 99A 34-32 La Enea Colombia, Manizales"
"SERVICAN E.P.S. MASCOTAS";;;"(57) (2) 3253875";"Cl 27 40-34 Colombia, Cali"
"VETERINARIA CANICAS";;;"(57) (7) 6389720";"Cr27 A 18-27 Andalucía Floridablanca Colombia, Floridablanca"
"CENTRO VETERINARIO MOTITAS";;;"(57) (7) 5814105";"Manz 5 Lt 27 Et III Atalaya Colombia, Cúcuta"
"CENTRO CLINICO VETERINARIO VETCOL";;;"(57) (8) 8645055";"Cr9 14-63 Chapinero Colombia, Neiva"
"CENTRO MÉDICO VETERINARIO HUELLAS";;;"(57) (2) 7321768";"Manz 10 Casa 26 Villa Flor II Colombia, Pasto"
"ANIMAL HELP LTDA.";;;"(57) (4) 3792971";"Cl 83 A S 59-01 La Estrella Colombia, Medellín"
"POLICLÍNICA VETERINARIA DEL POBLADO - POLIVET";;;"(57) (4) 4483837";"Cl 11 B 31 A-140 Colombia, Medellín"
"CLÍNICA VETERINARIA EL MUNDO DE LAS MASCOTAS";;;"(57) (2) 3322188";"Cl 34 78-64 Colombia, Cali"
CANYCAS;;;"(57) (2) 5561143";"Cl 8 34-45 Colombia, Cali"
"AGROTIENDA VETERINARIA";;;"(57) (2) 4337183";"Cr4 N 76-12 Colombia, Cali"
"VETERINARIA VIDA DE PERROS";;;"(57) (7) 5897169";"Av6 C 6-06 Esq Prados del Este Colombia, Cúcuta"
"CENTRO VETERINARIO CLINI ANGEL";;;"(57) (2) 3342246";"Cr40 30 C-57 Colombia, Cali"
"4 PATAS CONSULTORIO VETERINARIO";;;"(57) (8) 6567054";"Cr27 11-66 Colombia, Acacías"
"VETERINARIA GANA CAMPO";;;"(57) (8) 6580803";"Cl 19 13-02 Colombia, Granada"
"OSORIO CIFUENTES GLORIA FERNANDA";;;"(57) (8) 4606893";"Cl 21 S 10 B-39 Gaviotas Colombia, Villavicencio"
"VETERINARIA & PELUQUERÍA CANINA RUFFO";;;"(57) (1) 4500437";"Cl 38 C S 87 F-19 Colombia, Bogotá"
"CONSULTORIO VETERINARIO DANNA";;;"(57) (8) 6500131";"Cl 19 12-64 Colombia, Granada"
"CAN CENTRADOS";;;"(57) (1) 2252802";"Cl 79 64-53 Colombia, Bogotá"
"VETERINARIA MUNDO ANIMAL RIONEGRO";;;"(57) (4) 5322223";"Cl 47 55-50 Rionegro Colombia, Medellín"
"VETERINARIA SALUD ANIMAL";;;"(57) (7) 6318937";"Cl 105 26-07 Provenza Colombia, Bucaramanga"
"HOSPITAL VETERINARIO ANIMAL'S HEALTH CENTER";;;"(57) (1) 2572650";"Cr30 86 A-39 Colombia, Bogotá"
"VETERINARÍA MIS ANIMALITOS";;;"(57) (5) 3004840";"Cr13 C 44-10 P-1 Colombia, Barranquilla"
"AVICOLA LA TERCERA";;;"(57) (8) 8362007";"Cr3 8-48 Colombia, Pitalito"
"ALMACÉN VETERINARIO AGROFINCA";;;"(57) (8) 8710521";"Cl 6 1 H-50 Colombia, Neiva"
"ATA VETERINARIA";;;"(57) 3112412130";"Cl 14 B 34 A-05 Colombia, Neiva"
"MASCOTAS DE LA RESERVA";;;"(57) (8) 1000000";"Caney Alto Restrepo Colombia, Villavicencio"
"BOSQUES DEL SILENCIO";;;"(57) (1) 6260801";"Cl 145 A 12-20 Of 305 Colombia, Bogotá"
"CENTRO VETERINARIO ANIMAL";;;"(57) (8) 8672553";"Cr33 A 14 B-11 Orquidea Colombia, Neiva"
"CLÍNICA VETERINARIA LA 80";;;"(57) (4) 4122026";"Cr80 44 B-221 Colombia, Medellín"
"CENTRO MÉDICO VETERINARIO ANIMALITOS";;;"(57) (1) 8263671";"Cr11 15-53 Colombia, Bogotá"
"AFRIKA CLINICA VETERINARIA";;;"(57) (1) 8888703";"Cl 19 11-62 Colombia, Girardot"
"First Name";"Email Address";Url;Telephone;Address
"CLINICA VETERINARIA DEL NORTE";;;"(57) (8) 8720496";"Cr1 33-08 Cándido Colombia, Neiva"
"CURAR Y PREVENIR";;;"(57) (4) 2734898";"Cl 106 72-70 Colombia, Medellín"
"AGRALBA S.A.";;;"Conm.: (57) (4) 3616622";"Cl 8 S 50 E-30 Colombia, Medellín"
"CENTRO MEDICO VETERINARIO LA 92";;;"(57) (4) 2365838";"Cl 92 50 B-25 Colombia, Medellín"
"ZOOMUNDO CLÍNICA VETERINARIA";;;"(57) 3006193146";"Cr33 30-13 Colombia, Tuluá"
"MUNDO CANINO";;;"(57) (8) 2716259";"Av Ambalá 2-30 La Gaviota Colombia, Ibagué"
"ALMACEN VETERINARIO LA GRANJA";;;"(57) (7) 6222276";"Cl 49 4 Esq Colombia, Barrancabermeja"
"ALMACÉN AGROECONÓMICO";;;"(57) (7) 6559178";"Cr6 10-35 Piedecuesta Colombia, Piedecuesta"
"MÁS MASCOTAS";;;"(57) (8) 2734739";"Cr10 Cl 10 Esq. Colombia, Ibagué"
"MIMAOS PELUQUERIA CANINA";;;"(57) (8) 2602953";"Cl 17 Sur 11 A-43 Colombia, Ibagué"
"MYDOGGISH VETERINARIA";;;"Domic.: (57) (1) 2443692";"Cr33 25 C-20 L-104 Colombia, Bogotá"
"CLÍNICA VETERINARIA ZOO CENTER";;;"(57) (1) 8350572";"Cl 18 9-11 Colombia, Girardot"
"CENTRO VETERINARIO CHINCHIGRANJA";;;"(57) (6) 8400404";"Cr9 8-66 Colombia, Chinchiná"
"AMERICAN CLINIC VETERINARIA";;;"(57) (1) 2456606";"Av Caracas 43-12 Colombia, Bogotá"
"ALMACÉN VETERINARIO LA DESPENSA DEL GANADERO DEL HUILA";;;"(57) (8) 8332873";"Cr10 1-10 Colombia, Garzón"
"EL ARCA DE NOÉ";;;"(57) 3153800365";"Av 10 Mz 27 Lote 404 Videlso Patios Colombia, Cúcuta"
"VETERINARIA SAVIDAN";;;"(57) (7) 6578630";"Cr30 65-62 La Salle Colombia, Bucaramanga"
"MI MEJOR AMIGO";;;"(57) 3122113103";"Cr35 A 19-63 Colombia, Pasto"
"VETERINARIA MI FIEL AMIGO";;;"(57) 3156552112";"Cl 6 N 7-09 San Martín Colombia, Cúcuta"
"RAMOS ROJAS LEIDY SMIT";;;"(57) (8) 8720845";"Cl 6 1 H-12 Colombia, Neiva"
"MASCOTAS CENTRO DE ESPECIALISTAS";;;"(57) (6) 8815833";"Cr22 A 66-44 Colombia, Manizales"
"VETERINARIA DROOPY";;;"(57) (5) 3608122";"Cl 69 41-77 L-2 Colombia, Barranquilla"
"ZOO CENTRO VETERINARIO - LA ENEA";;;"(57) (6) 8741075";"Cr35 100-40 Colombia, Manizales"
"CENTRO DE MANTENIMIENTO CANINO TASH GUAU";;;"(57) (8) 2731242";"Cr8 11-09 Centenario Colombia, Ibagué"
"VETERINARIA AVIGAN";;;"(57) (1) 8350482";"Cl 12 9-20 San Miguel Colombia, Girardot"
"CENTRO DE SALUD VETERINARIO";;;"(57) (7) 6560568";"Cr15 7 BN-27 Quinta Granada Colombia, Piedecuesta"
"SAFARI'S CENTRO MÉDICO VETERINARIO";;;"(57) (2) 6600956";"Cl 34 N 2 Bis N-21 Colombia, Cali"
"MUNDO ANIMAL";;;"(57) (4) 5322223";"Cl 47 54-48 Rionegro Colombia, Rionegro"
"PET & PET";;;"(57) (2) 6807050";"Cl 38 N 6 N-35 L-8-123 Colombia, Cali"
"CASA VETERINARIA CALI";;;"(57) (2) 3127930";"Cr85 45-16 Colombia, Cali"
"FUNDACIÓN PAZANIMAL";;;"(57) (2) 8933824";"Cr4 1-42 Colombia, Cali"
PREVETSALUD;;;"(57) (7) 6913736";"Cl 32 26-48 Cañaveral Colombia, Bucaramanga"
"MUNDO ANIMAL EXTREMO";;;"(57) (7) 5941823";"Av1 20 A N-26 Colombia, Cúcuta"
"TU MASCOTA PET SHOP";;;"(57) (7) 6472695";"Cr32 38-06 Colombia, Bucaramanga"
"TIENDA DE MASCOTAS CLÍNICA VETERINARIA OLAYA";;;"(57) (6) 8820347";"Cr24 17-33 Colombia, Manizales"
"SERVICIOS VETERINARIOS";;;"(57) (6) 8803229";"Cr20 12-07 Colombia, Manizales"
"CLÍNICA VETERINARIA UNIVET";;;"(57) (1) 2132382";"Dg127 A 7-39 Colombia, Bogotá"
"VETERINARIA MR DOG AND CAT'S";;;"(57) (1) 2803829";"Cl 17 9 03 S Colombia, Bogotá"
"COLEGIO CANINO CAMPESTRE TORCA";;;"(57) (1) 3513207";"Cr9 210-00 Colombia, Bogotá"
"DROGUERÍA VETERINARIA EL BECERRITO";;;"(57) (5) 4221916";"Cl 6 13-69 Gaira Colombia, Santa Marta"
"First Name";"Email Address";Url;Telephone;Address
AGROGÁN;;;"(57) (8) 2651039";"Cr5 26-36 Hipódromo Colombia, Ibagué"
"GUARDERIA CAMPESTRE MI MASCOTA";;;"(57) 3152130072";"Finca La Maloca 300 Mts de Teyuna Colombia, Santa Marta"
"TODO MASCOTA SERVICIOS VETERINARIOS";;;"(57) (6) 8741145";"Cl 99A 34-32 La Enea Colombia, Manizales"
"ALMACÉN Y CONSULTORIO VETERINARIO AGRO PIO PIO";;;"(57) (2) 4331302";"Cl 73 1C1-26 Colombia, Cali"
"HOSPITAL VETERINARIO DE ORIENTE";;;"(57) (4) 5420365";"Glorieta Don Diego 100mts Vía Llanogrande Colombia, Rionegro"
"CENTRO MEDICO K-NIVET";;;"(57) (2) 3332177";"Cl 16 83-01 Colombia, Cali"
"AGRO BOUTIQUE CUMBRE DE MASCOTAS";;;"(57) (7) 6582262";"Cr6 A E 29-23 La Cumbre Colombia, Bucaramanga"
"CLINICA VETERINARIA REINO ANIMAL";;;"(57) (7) 6364193";"Cl 105 26-27 Provenza Colombia, Bucaramanga"
"BELLÍSIMOS ADMIRABLES";;;"(57) (2) 6803030";"Cl 17 22 A-05 Colombia, Cali"
"ANIMALITOS 101";;;"Nal: (57) (1) 9013584";"Bogotá Colombia, Bogotá"
"VETERINARIA GUAUS Y MIAUS";;;"(57) (1) 5615899";"Cl 5 A 28 A-54 Colombia, Bogotá"
"CLÍNICA VETERINARIA POPULAR";;;"(57) (1) 5671577";"Cr10 28-32 S Colombia, Bogotá"
"ANIMAL DEPOT LTDA.";;;"(57) (1) 2531557";"Av Suba 119-87 L-601 Colombia, Bogotá"
"VETERINARIA MASCOTAS CLUB";;;"(57) (1) 4035354";"Cr73 BBis 6-27 S Colombia, Bogotá"
"SANIDAD Y PRODUCCIÓN VETERINARIA S.A.S.";;;"Telefax: (57) (1) 2639874";"Cr73 53-04 Colombia, Bogotá"
"CONSULTORIO VETERINARIO DR. LEONARDO VARGAS MENDEZ";;;"(57) (5) 4316563";"Cl 30 11-05 Esq Colombia, Santa Marta"
"SPAIN KENNEL";;;"(57) (1) 3153146";"Av (Cl)53 54-27 Colombia, Bogotá"
"DISTRIAGRO FLORENCIA LTDA.";;;"(57) (8) 4352716";"Cr11 16-60 Colombia, Florencia"
"CLÍNICA VETERINARIA PAMPLONA";;;"(57) (75) 5683377";"Cr 7 2-37 Colombia, Pamplona"
"CENTRO VETERINARIO CORAZÓN DE JESÚS";;;"(57) (2) 7330333";"Manz 18 Casa 13 Corazón de Jesús Colombia, Pasto"
"MI MASCOTA";;;"(57) (2) 3723845";"Cl 19 34-23 Colombia, Cali"
"CLÍNICA VETERINARIA SERVIMASCOTAS";;;"(57) (2) 6822123";"Av6 N 45-92 Colombia, Cali"
"CLÍNICA VETERINARIA EL MUNDO DE LAS MASCOTAS";;;"(57) (2) 3322188";"Cl 34 78-64 Colombia, Cali"
"CARLOS CACHORROS";;;"(57) (2) 4424830";"Dg23 Tr30-71 Colombia, Cali"
"PECES Y MASCOTAS";;;"(57) (4) 5515025";"Cl 51 51-21 Guarne Colombia, Medellín"
"ANIMALANDIA TIENDA VETERINARIA";;;"(57) (2) 3962630";"Cr70 3 A-32 Colombia, Cali"
"VETERINARIA EL CAMPO";;;"(57) (8) 8717060";"Cl 4 6-25 Colombia, Neiva"
"ANIMAL'S HOUSE";;;"(57) (5) 3000631";"Cl 75 65-52 Colombia, Barranquilla"
"VETERINARIA OCEAN";;;"(57) (4) 2268805";"Cr30 41-19 Colombia, Medellín"
"MUNDO ECO VETERINARIO";;;"(57) (2) 6800354";"Cr1 C 61 B-67 Colombia, Cali"
"PLANETA ANIMAL";;;"(57) (8) 6640897";"Cl 44 46-43 Brr. 12 de Octubre Colombia, Villavicencio"
"CLINICA VETERINARIA OSORIO Y LEURO";;;"Nal: (57) (1) 5282398";"Av (Cl) 134-68 Colombia, Bogotá"
"PET'S BOUTIQUE & SPA";;;"(57) (4) 2304852";"Cl 48 C 65 A-53 Colombia, Medellín"
CANSENTIDOS;;;"(57) (1) 2252802";"Cl 79 64-53 Colombia, Bogotá"
"MUNDO CANINO";;;"(57) 3183974887";"Cl 6 Cr63 B-Esq. Av.Simón Bolivar Colombia, Buenaventura"
"VETERINARÍA MIS ANIMALITOS";;;"(57) (5) 3004840";"Cr13 C 44-10 P-1 Colombia, Barranquilla"
"DALMA PET'S";;;"(57) (6) 3127098";"Manz 10 Casa 123 Naranjito Colombia, Pereira"
"AKITA SPA";;;"(57) (4) 3420057";"Cl 12 70-08 L 101 y 102 Colombia, Medellín"
"CAN & CAT";;;"(57) (7) 6315022";"Cr33 104-35 Caldas Colombia, Bucaramanga"
"VETERINARIA MASCOTAS Y MAS";;;"(57) (7) 6562233";"Cl 7 14-30 Piedecuesta Colombia, Piedecuesta"
"First Name";"Email Address";Url;Telephone;Address
"AVICOLA DEL CESAR DISTRIBUIDORA PURINA";;;"(57) (76) 5650268";"Cl 5 16-68 Colombia, Aguachica"
"RINCÓN MARQUEZ LEIDA";;;"(57) (8) 7725533";"Cr10 13-43 Colombia, Sogamoso"
"ALMACÉN VETERINARIO EL GANADERO";;;"(57) (5) 4292390";"Cl 9 2-55 Colombia, El Banco"
"VETERINARIA Y PELUQUERÍA CANINA EL PORTAL";;;"(57) (2) 5908586";"Cl 10 C 3 A S-26 P-2 Jamundí Colombia, Jamundí"
"VETERINARIA REINO ANIMAL";;;"(57) (8) 8718087";"Cr1 H 6-14 Colombia, Neiva"
"VIDA ANIMAL LA COLINA";;;"(57) (2) 7334245";"Cl 17 42 A-25 La Colina Colombia, Pasto"
"A TODA HORA DOMICILIOS VETERINARIA";;;"(57) (1) 2745243";"Cr21 147-50 Int-2 Ap-101 Colombia, Bogotá"
"ALMACEN LA CEBA";;;"(57) (7) 6304905";"Cr16 29 A-30 Colombia, Bucaramanga"
"CLÍNICA VETERINARIA SANIPETS";;;"(57) (4) 2883799";"Cl 68 S 43 A-15 Sabaneta Colombia, Sabaneta"
"SALUD ANIMAL VETERINARIA Y BOUTIQUE";;;"(57) (7) 6111071";"Cl 46 26-36 El Recreo Colombia, Barrancabermeja"
"CENTRO VETERINARIO LOS ALMENDOGS";;;"(57) (2) 4473972";"Cr1 G 59-190 Colombia, Cali"
"BRAVO MAURICIO";;;"(57) (7) 6312225";"Cl 86 25-128 Diamante II Colombia, Bucaramanga"
"HEANLTH ANIMAL";;;"(57) (1) 2587437";"Dg150 35-96 Colombia, Bogotá"
"MEDICAN CENTRO VETERINARIO";;;"(57) (2) 8245588";"Cl 70 BN 6-31 Brr. La Paz Fte. al Parque Colombia, Popayán"
"CASA GANADERA";;;"(57) (1) 3340232";"Cr13 12-75 Colombia, Bogotá"
"ATARA ORTIZ MARIO MAURICIO";;;"(57) (8) 8662176";"Cr1 50-30 Colombia, Neiva"
"VETERINARIA K-NINOS";;;"(57) (5) 6536652";"Simón Bolívar Urb 11 de Noviembre Manz 5 Lt 9 Colombia, Cartagena"
"TRAVESURAS CANINAS";;;"(57) (1) 2453325";"Cl 34 28-51 Colombia, Bogotá"
"CONSULTORIO VETERINARIO PORTAL DEL NORTE";;;"(57) (1) 7031552";"Cr49 B 171 A-64 Colombia, Bogotá"
"DACHI CLÍNICA VETERINARIA";;;"(57) (2) 8352893";"Cll 1N 12-23 Brr. El Cadilla Colombia, Popayán"
"PELUQUERÍA CANINA PULGOS GROOMER Y/O MILTON TURIZO TURIZO";;;"(57) (5) 1000000";"Cl 17 4-05 El Rodadero Colombia, Santa Marta"
"VETERPLAN MASCOTAS";;;"(57) (2) 4101422";"Cr7 R 73-04 Colombia, Cali"
"JIMÉNEZ CASTRO CARLOS ARTURO";;;"(57) (6) 8830348";"Cl 30 19-47 L-3 Colombia, Manizales"
GATIGOS;;;"(57) (5) 4220280";"Cr 3 7-83 Centro Internacional El Rodadero Colombia, Santa Marta"
"LABORATORIO CLÍNICO VETERINARIO LACLIVET";;;"(57) (2) 2857494";"Cl 35 24-31 Colombia, Palmira"
"VETERINARIA LASSIE";;;"(57) (8) 2635607";"Cl 23 6-87 Colombia, Ibagué"
"CENTRO VETERINARIO EL REFUGIO";;;"(57) (2) 3733137";"Cl 3 D 65-15 Colombia, Cali"
"CENTRO MÉDICO VETERINARIO PETLAND";;;"(57) (1) 4176262";"Cl 5 71 A-84 Colombia, Bogotá"
AGROCOSUR;;;"(57) (8) 8714716";"Cr1 H 7-39 Colombia, Neiva"
"CENTRO VETERINARIO SANTA MARÍA";;;"(57) (4) 3732387";"Cl 80 52-25 Itagüí Colombia, Itagüí"
"VETERINARIA LOS ALPES";;;"(57) (5) 6633377";"Los Alpes 73-49 Av Pedro de Heredia Colombia, Cartagena"
"ANIMAL HOUSE PET-SHOP";;;"(57) (6) 7423103";"Cr23 38-34 Colombia, Calarcá"
"CENTRO VETERINARIO ANIMAL";;;"(57) (8) 8672553";"Cr33 A 14 B-11 Orquidea Colombia, Neiva"
"UNIDAD DE CUIDADOS VETERINARIOS";;;"(57) (1) 4220832";"Cr92 22-20 Colombia, Bogotá"
"RINCÓN VETERINARIO";;;"(57) (2) 3369858";"Cr44 12 B-22 Colombia, Cali"
"CUATRO MASCOTAS CENTRO VETERINARIO";;;"(57) (2) 5543752";"Autopista Sur 10 B-147 Colombia, Cali"
"ALMACÉN VETERINARIO SANTA ELENA";;;"(57) (2) 3356100";"Cl 18 B 28-82 Colombia, Cali"
"AGRALBA S.A.";;;"Conm.: (57) (4) 3616622";"Cl 8 S 50 E-30 Colombia, Medellín"
"CACHORROS LABRADOR";;;"(57) 3002061892";"Cl 5 16-29 Zipaquira Colombia, Bogotá"
"CENTRO MÉDICO VETERINARIO DR. RODRIGO LUGO";;;"(57) 3136135702";"Cr18 9-64 Colombia, Florida"
"First Name";"Email Address";Url;Telephone;Address
"AGROCAN ALAMEDA";;;"(57) (2) 5247585";"Cl 9 23 A-22 Colombia, Cali"
"SILVA LÓPEZ NACIANCENO";;;"(57) (8) 6820168";"Cl 37 28-25 San Isidro Colombia, Villavicencio"
"PARAISO DE LAS MASCOTAS";;;"(57) (4) 4483315";"Medellín Colombia, Medellín"
"VETERINARIA PEQUEÑAS MASCOTAS";;;"(57) (7) 6384742";"Cl 200 23-28 Villas De San Diego Colombia, Bucaramanga"
"MOTORAGRO DEL LLANO";;;"(57) (8) 6610127";"Cl 36 29-13 San Isidro Colombia, Villavicencio"
"CACHORROS & CANINOS";;;"(57) (2) 3166245";"Cl 49 B 81-41 Colombia, Cali"
"AGROSURTIDOR GANADERO";;;"(57) (8) 2612853";"Cl 14 1-22 Colombia, Ibagué"
"VETERINARIA LASSIE";;;"(57) (8) 2635607";"Cl 23 6-87 Colombia, Ibagué"
"ZOO CENTRO VETERINARIO - LA ENEA";;;"(57) (6) 8741075";"Cr35 100-40 Colombia, Manizales"
"VETERINARIA ANIMAL HOUSE";;;"(57) (8) 2613729";"Av Guabinal 19-120 Colombia, Ibagué"
AGROGÁN;;;"(57) (8) 2651039";"Cr5 26-36 Hipódromo Colombia, Ibagué"
"SAFARI'S CENTRO MÉDICO VETERINARIO";;;"(57) (2) 6600956";"Cl 34 N 2 Bis N-21 Colombia, Cali"
"TODO MASCOTA SERVICIOS VETERINARIOS";;;"(57) (6) 8741145";"Cl 99A 34-32 La Enea Colombia, Manizales"
"A. CRIADERO LAS BRISAS DE PANCE";;;"(57) (2) 3307830";"Cr70 A 2 D-25 Colombia, Cali"
"CLÍNICA VETERINARIA CANFEL";;;"(57) 5676568";"Contiguo al Cementerio Guarne Colombia, Guarne"
"CLINICA VETERINARIA ANIMAL VET";;;"(57) 3207588204";"Cr 5 12-39 Colombia, Ipiales"
"CASAS PARA PERROS Y MASCOTAS HUMBERTO ERAZO";;;"(57) (2) 3290052";"Cr41 H 41-55 Colombia, Cali"
"CLINICA VETERINARIA REINO ANIMAL";;;"(57) (7) 6364193";"Cl 105 26-27 Provenza Colombia, Bucaramanga"
"VETERINARIA PET'S";;;"(57) (5) 3572206";"Cl 96 42 D-135 Colombia, Barranquilla"
"ANIMALITOS 101";;;"Nal: (57) (1) 9013584";"Bogotá Colombia, Bogotá"
"SERVICIOS VETERINARIOS";;;"(57) (6) 8803229";"Cr20 12-07 Colombia, Manizales"
"SANIDAD Y PRODUCCIÓN VETERINARIA S.A.S.";;;"Telefax: (57) (1) 2639874";"Cr73 53-04 Colombia, Bogotá"
"ASMEVET-HOSPITAL MÉDICO VETERINARIO";;;"(57) (8) 7400407";"Cl 12 8 A-32 Aquimin Colombia, Tunja"
"CENTRO MÉDICO VETERINARIO MORAZURCO";;;"(57) (2) 7310824";"Cl 21 41-44 Colombia, Pasto"
"TIENDA AGROPECUARIA LA GRANJA";;;"(57) (8) 8714955";"Cr1 H 6-28 Colombia, Neiva"
"CENTRO VETERINARIO CORAZÓN DE JESÚS";;;"(57) (2) 7330333";"Manz 18 Casa 13 Corazón de Jesús Colombia, Pasto"
"VETERINARIA CANITO";;;"(57) (7) 5787816";"Manz R-1 Lt 24 Et I Atalaya Colombia, Cúcuta"
AGROLUCHO;;;"(57) (4) 4065166";"Cr17 16-27 Barbosa Colombia, Medellín"
"CLINICA PROTECTORA DE ANIMALES";;;"(57) (1) 2456747";"Cr19 30-07 Colombia, Bogotá"
