"First Name";"Email Address";Url;Telephone;Address
"TAX-INDIVIDUAL S.A.";tax-individual@une.net.co;www.tax-individual.com.co;"(57) (4) 4444444";"Cl 11   S 50-294 Sector La Aguacatala Colombia, Medellín"
"AUTO BLITZ";autoblitz@mazco.com.co;www.autoblitz.com.co;"(57) (1) 7425742";"Cr70 95-15 Colombia, Bogotá"
"BLITZ COMERCIALES VW";autoblitz@mazco.com.co;www.blitzcomercialesvw.com.co;"(57) (1) 7465716";"Cr. 70 95-15 Colombia, Bogotá"
"BLITZ AUTOEMOCIÓN SEAT";autoblitz@mazco.com.co;www.autoblitz.com.co;"(57) (1) 7425712";"Av Cra 70 95 A-13 Colombia, Bogotá"
"BLITZ SKODA HAUS";autoblitz@mazco.com.co;www.blitzskodahaus.com.co;"(57) (1) 7425713";"Av. Cr70 95 A-13 Colombia, Bogotá"
"ENERGIA & POTENCIA S.A.";ventas@energiaypotencia.com;www.energiaypotencia.com;"(57) (4) 3786100";"Cr45 A 66 A-100 Itagüí Colombia, Medellín"
"IMCOR S.A.S. IMPORTADORA Y COMERCIALIZADORA DE RADIADORES";comradiador@hotmail.com;www.imcor.com.co;"(57) (6) 3219049";"Cr12 24-32 Colombia, Pereira"
"AGENCIAUTO S.A";enlinea@agenciauto.com.co;www.agenciauto.com.co;"(57) (4) 4444940";"Cr50 38-35 Colombia, Medellín"
MOTOVALLE;motovalle@motovalle.com;www.motovalle.com;"(57) (2) 4883000";"Cl 26 1-71 Colombia, Cali"
"ALQUILER DE AUTOMOTORES RENTADORA DE COLOMBIA";info@rentadoradecolombia.com;www.rentadoradecolombia.com;"(57) (4) 2681560";"Cr43 A 8-55 L-4 Colombia, Medellín"
"RADIADORES IMPORTADOS CÍA. AUTOPARTES";cia.autopartes@hotmail.com;www.ciaautopartes.com;"(57) (1) 3021753";"Cr27 65-78 Colombia, Bogotá"
"CENTRO DIESEL";centrodiesel@centrodiesel.com.co;www.centrodiesel.com.co;"(57) (1) 4136797";"Cl 13 68 B-11 Colombia, Bogotá"
"DISTRIAUTOS DE LA COSTA";ibethangulo13@hotmail.com;www.distriautosdelacosta.com;"(57) (5) 3600326";"Cr42 F 74-126 Colombia, Barranquilla"
"MECÁNICA & REPUESTOS";mecanicayrepuestos@hotmail.com;www.mecanicayrepuestos.com;"(57) 3209377655";"Cr28 B 64 A-13 L-101 Colombia, Bogotá"
"POLARIZADORA SURAMERICANA";nuevapolarizadora@hotmail.com;WWW.polarizadorasuramericana.com;"(57) (1) 5426435";"Av (Cr) 68 68-75 Colombia, Bogotá"
"EL ROBLE MOTOR S.A.";roble@roblemotor.com;www.roblemotor.com;"(57) (4) 3549500";"Cl 31 46-28 Colombia, Medellín"
"ANDAR S.A.";mercadeo@andar.com.co;www.andar.com.co;"(57) (4) 4440800";"Cl 29 44-136 Colombia, Medellín"
"CEA ELITE";ceaelite@gmail.com;www.ceaelitecolombia.com;"(57) (1) 7511135";"Tr18 Bis 14-36 S P-5 Sede Restrepo Colombia, Bogotá"
MUNDOKIA;jejaramillo@vehicenter.co;www.mundokia.com.co;"(57) (4) 4443939";"Cr43 A 30-50 San Diego Colombia, Medellín"
"MUNDO KIA S.A.";jejaramillo@vehicenter.co;www.mundokia.com.co;"(57) (4) 4443939";"Cr43 A 30-50 San Diego Colombia, Medellín"
"DISTRIKIA S.A.";jceballos@distrikia.com.co;www.distrikia.com.co;"(57) (4) 3617171";"Cl 10 50-264 Colombia, Medellín"
"YOKOMOTOR S.A.";jceballos@distrikia.com.co;www.yokomotor.com.co;"(57) (4) 2324555";"Palacé Cr50 32-182 Colombia, Medellín"
"NAVCAR S.A.S.";administrativo@cablesnavcar.com;www.cablesnavcar.com;"(57) (1) 7442131";"Km 22 Autop Norte Vía Tocancipá Zona Canavita Complejo Industrial Navcar Colombia, Bogotá"
"AUTOGERMANA S.A. BMW";encontacto@autogermana.com.co;www.bmw.com.co;"(57) (4) 2329086";"Cr43 A 19-109 Av El Poblado Colombia, Medellín"
"CALDAS MOTOR S.A.";mercadeo@caldasmotor.com;www.caldasmotorpereira.com.co;"(57) (6) 3260017";"Av30 de Agosto-42 -89 Colombia, Pereira"
"SUN-OFF POLARIZACIÓN DE VIDRIOS LTDA.";sun-off@hotmail.com;www.sun-off.com;"(57) (7) 6347110";"Cr35 36-28 Cabecera Colombia, Bucaramanga"
"REPELÁEZ LTDA.";repelaezltda@hotmail.com;www.repelaez.com;"(57) (5) 3608291";"Cr46 Cl 74 Esq Colombia, Barranquilla"
REPELÁEZ;repelaezltda@hotmail.com;www.repelaez.com;"(57) (5) 3608291";"Cr46 Cl 74 Esq Colombia, Barranquilla"
AUTOZEN;jejaramillo@vehicenter.com;www.autozen.com.co;"(57) (4) 4440667";"Cr48 19 Sur-20 Colombia, Medellín"
"AUTOMOTORES LLANO GRANDE S.A.";oswaldo.guerrero@llanogrande.com.co;www.llanogrande.com.co;"(57) (8) 6614333";"Cl 1 39-04 Anillo Vial Colombia, Villavicencio"
AUTOAMÉRICA;info@autoamerica.com.co;www.autoamerica.com.co;"(57) (4) 4441121";"Cr50 38-50 Colombia, Medellín"
"CASA BRITÁNICA S.A.";jejaramillo@vehicenter.co;www.casabritanica.com.co;"(57) (4) 3227000";"Mall Plaza Linares L-103 Colombia, Medellín"
"MACROLLANTAS S.A.";gerencia@macrollantas.com;www.macrollantas.com;"(57) (4) 4446430";"Cr48 7 Sur-111 Contiguo a Eafit Colombia, Medellín"
"ESKIMO TRADING S.A.S";eskimotrading@hotmail.com;www.eskimotrading.com;"(57) (1) 2499275";"Cr20 66-55 Colombia, Bogotá"
"EURO G.N.V.S.A.S.";gustavos.eurognv@une.net.co;www.eurognv.com;"(57) (4) 4447190";"Cr52 35-66 Colombia, Medellín"
"AUTOFRANCIA S.A.S.";siniestros@interautosltda.com;www.autofrancia.com;"(57) (4) 4483208";"Cl 29 45-31 Colombia, Medellín"
"GRICOAT DE COLOMBIA";beatrizgomez@gricoat.com.co;www.gricoat.com.co;"(57) (4) 6046129";"Cl 77 A 45 A-102 Itagüí Colombia, Medellín"
"COLOMBIANA RENT A CAR";reservas@colombianarentacar.com;www.colombianarentacar.com;"(57) (1) 4738694";"Av Boyacá 63-12 Colombia, Bogotá"
"TU PASE";gerencia@satt.com.co;www.tupase.co;"(57) (4) 3218680";"Cl 7 Sur 42-70 Int 807 Colombia, Medellín"
DISTRICARS;districars@hotmail.com;www.districarsltda.com;"(57) (1) 3612166";"Av Caracas 14-23 Sur Colombia, Bogotá"
"First Name";"Email Address";Url;Telephone;Address
DISTRICARS;districars@hotmail.com;www.districarsltda.com;"(57) (1) 3612166";"Av Caracas 14-23 Sur Colombia, Bogotá"
TOYOTA;comercial@juanautoselcerro.com;www.juanautos.com.co;"(57) (5) 6424686";"Pie del Cerro Cl 30-18 A-104 Colombia, Cartagena"
"JUANAUTOS EL CERRO S.A.";comercial@juanautoselcerro.com;www.juanautos.com.co;"(57) (5) 6424686";"Pie del Cerro Cl 30-18 A-104 Colombia, Cartagena"
"SERVICIO PREMIER S.A.";iherrera@servipremier.com.co;www.servipremier.com.co;"Telefax: (57) (1) 4185600";"Cr124 17-30 Colombia, Bogotá"
"CENTRO DE DIAGNÓSTICO AUTOMOTOR DE JAMUNDI";gerencia@cdajamundivalle.com;www.cdajamundivalle.com;"(57) (2) 5242998";"Vía Panamericana Km 15 Jamundí Colombia, Cali"
NAVITRANS;medellin@navitrans.com.co;www.navitrans.com.co;"(57) (4) 3606161";"Cl 11   S 50-50 Colombia, Medellín"
"AIRE SONIDO & ACCESORIOS";airesonidoyaccesorios@hotmail.com;airesonidoyaccesorios.com;"(57) (4) 2321286";"Cl 36 45-19 Sector Sandiego Colombia, Medellín"
"CHEVROLET CAMINOS";mercadeo@caminos.com.co;www.caminos.com.co;"(57) (6) 3135000";"Av. 30 de Agosto 94-165 Colombia, Pereira"
AUTOKASSEL;chevro1@hotmail.com;www.autokassel.com;"(57) (1) 2614689";"Cr56 14-01 Colombia, Bogotá"
"ALMACEN AUTOKASSEL S.A.S.";chevro1@hotmail.com;;"(57) (1) 2614689";"Cr56 14-01 Colombia, Bogotá"
"AUTOTROPICAL S.A.";kaltamiranda@autotropical.com;www.autotropical.com;"(57) (5) 3533700";"Cr59 B 77 B-94 Colombia, Barranquilla"
"TAX SOCIAL";cootrasocial@une.net.co;cootransocial.com;"(57) (4) 4484044";"Cl 58 43-11 Colombia, Medellín"
"RAYCAL S.A.S.";comercialraycal@gmail.com;www.raycalsas.com;"(57) (1) 5705102";"Cl 17 52-82 Colombia, Bogotá"
LIDERAUTOS;liderautos.liderautos@gmail.com;www.liderautos.com;"(57) (2) 8801237";"Cl 20 14-51 Colombia, Cali"
"CAUCHOS MC";cauchosmc@une.net.co;www.cauchosmc.com;"(57) (4) 2854655";"Cl 7   S 51-45 Colombia, Medellín"
"ALMACEN HYUNKIA";amacenhyunkia@hyunkia.com.co;www.hyunkia.com.co;"(57) (4) 4484005";"Cr43 A 19 A-87 L-11 Colombia, Medellín"
"B.T.V. AUTO AIRES";btvautoaires@hotmail.com;www.btvautoaires.com;"(57) (1) 3101024";"Cl 71 C 29 C-11 Colombia, Bogotá"
"ALMACÉN RAMO ELÉCTRICOS";joha0456@hotmail.com;www.ramoelectricos.com;"(57) (4) 4442436";"Cr59 44-48 Colombia, Medellín"
"AUTOMÓVILES CLUB RENT A CAR";info@automovilesrentacar.com;www.automovilesrentacar.com;"(57) (1) 6081749";"Av (Cr) 15 112-09 Int 1 L-1 Colombia, Bogotá"
"VEHÍCULOS DEL CAFÉ S.A.";vehicafe@gmail.com;www.distoyota.com;"(57) (6) 3155252";"Av30 de Agosto-100 -112 Colombia, Pereira"
"ALMACEN IMPOREPUESTOS D.S. MAZDA CHEVROLET";mazdachevrolet@live.com;www.mazdachevrolet.com.co;"(57) (1) 7029802";"Cr27 66-53 Colombia, Bogotá"
"GENERAL MOTORS - COLMOTORES S.A.";chevy.mail@gm.com;www.chevrolet.com.co;"(57) (1) 7400111";"Av Boyacá 33-53 S Colombia, Bogotá"
"TECNODIESEL S.A.S.";pereira@tecnodiesel.com.co;www.tecnodiesel.com;"(57) (6) 3306102";"Cr16 9-68 Av Simón Bolívar La Popa Dosq Colombia, Pereira"
"EQUIPOS TÉCNICOS S.A.S.";mercadeo.pereira@equipostecnicos.com.co;www.equipostecnicos.com.co;"(57) (6) 3303034";"Cr16 9-70 Av Simón Bolívar La Popa Dosq Colombia, Pereira"
"CÚCUTA MOTORS S.A.S.";;cucutamotors.com.co;"(57) (7) 5840910";"Autop Internacional Vía San Antonio Colombia, Cúcuta"
"C.D.A. DIESEL FULL Y CÍA LTDA.";cdadecalidad@gmail.com;www.cdadieselfullpereira.com;"(57) (6) 3346934";"Cl 21 10-60 Colombia, Pereira"
"AGENCIA EJECAFE RENT A CAR";contacto@ejecaferentacar.com;www.ejecaferentacar.com;"(57) (6) 3241085";"Cr10 17-55 P-1 L-10 Edif Torre Central Colombia, Pereira"
"CARTAXIS DEL LLANO";cartaxisdelllano@hotmail.com;www.cartaxisdelllano.com.co;"(57) (8) 6633332";"Cl 15 37 D-37 Estación de Servicio Millenium Colombia, Villavicencio"
"MACARENA MOTORS";mercadeo@automontana.com;www.automontana.com;"(57) (4) 4480099";"Cr65 Con Calle 13 Esq Colombia, Medellín"
HYUNDAI;mercadeo@automontana.com;www.automontana.com;"(57) (4) 4480099";"Cr65 Con Calle 13 Esq Colombia, Medellín"
"AUTOMONTAÑA S.A.";mercadeo@automontana.com;www.automontana.com;"(57) (4) 2620200";"Cl 29 43 A-05 Colombia, Medellín"
"IMPORTADORA MAPA S.A.S";importadoramapa@gmail.com;www.importadoramapa.com;"(57) (2) 5570919";"Cr15 8-104 Colombia, Cali"
CINASCAR;mercadeo@centralmotor.com.co;www.yoquierocinescar.com;"(57) (7) 6437275";"Cr27 52-55 Colombia, Bucaramanga"
FORD;mercadeo@centralmotor.com.co;www.yoquierounford.com;"(57) (7) 6571444";"Cr28 110-05 Autopista a Floridablanca Colombia, Bucaramanga"
HYUNDAI;mercadeo@centralmotor.com.co;www.yoquierounhyundai.com;"(57) (7) 6313001";"Autop a Floridablanca Paralela Oriental 112-111 Colombia, Bucaramanga"
KIA;mercadeo@centralmotor.com.co;www.yoquierounkia.com;"(57) (7) 6476711";"Cl 58 27-07 Colombia, Bucaramanga"
"RAUCO S.A.S";raucosas@gmail.com;www.rauco.co;"(57) (1) 6076353";"Cr27 66-73 Colombia, Bogotá"
"CAMPERCROSS REPUESTOS S.A.S";dina197056@hotmail.com;www.campercrossrepuestos.com;"(57) (4) 2328821";"Cl 41 50-60 Colombia, Medellín"
"SERICAR 10 S.A.S.";cotizaciones@sericar10.com;www.sericar10.com;"(57) (4) 2622108";"Cl 39 45-38 Colombia, Medellín"
"SERICAR 10";cotizaciones@sericar10.com;www.sericar10.com;"(57) (4) 2622108";"Cl 39 45-38 Colombia, Medellín"
"First Name";"Email Address";Url;Telephone;Address
"CAMPERCROSS REPUESTOS S.A.S";dina197056@hotmail.com;www.campercrossrepuestos.com;"(57) (4) 2328821";"Cl 41 50-60 Colombia, Medellín"
"PUERTA DE ORO MOTORS";puertadeoromotors@hotmail.com;www.puertadeoromotorsltda.com;"(57) (5) 3552335";"Cr43 82-117 Colombia, Barranquilla"
"DISPARTES S.A.";vianchy@dispartes.com;www.dispartes.com;"(57) (4) 4444439";"Cl 47 50-17 Itaguí Colombia, Medellín"
"RAYCO AUTOMOTRIZ";raycoautomotriz@hotmail.com;www.raycoautomotriz.com;"(57) (2) 8833350";"Cr16 20-13 Colombia, Cali"
"RAYLUJOS AUTOMOTRIZ";raycoautomotriz@hotmail.com;www.raycoautomotriz.com;"(57) (2) 8833350";"Cr16 20-13 Colombia, Cali"
"IMCOMPARTES S.A.S";imcompartessas@gmail.com;www.imcompartes-sas.com;"Telefax: (57) (1) 2505172";"Cl 72 27 A-30 Colombia, Bogotá"
"REENCALDAS LTDA.";reencaldas@gmail.com;www.reencaldas.com;"(57) (6) 8894440";"Km 4 Vía Panamericana Parquecentro Bdg 6 D Colombia, Manizales"
"ALMACÉN PUNTO COREA";puntocorea@une.net.co;www.puntocorea.com;"(57) (4) 4481047";"Cr75 31-60 Colombia, Medellín"
"C.D.A. CARTAGENA DE INDIAS";cdacartagena@gmail.com;www.cdacartagena.com;"(57) (5) 6664848";"Pie de la Popa Cl 33-21 -163 Calle Nueva del Toril Colombia, Cartagena"
"TECNOBENZ LTDA.";tecnobenz77@hotmail.com;www.tecnobenz.com;"(57) (1) 5404300";"Cl 77 23-14 Colombia, Bogotá"
"ALMACEN Y TALLER SERVITODO";servitodoautos@yahoo.es;www.servitodoautos.com.co;"(57) (1) 4735267";"Cr69 B 22-70 S Colombia, Bogotá"
"SURTIREPUESTOS Y SERVICIOS DIESEL S.A.S.";surtirepuestosdiesel@hotmail.com;www.surtirepuestos.com;"(57) (1) 3602281";"Cl 7 Bis 18 B-21 Brr. La Estanzuela Colombia, Bogotá"
"EURO CAR RENTAL S.A.S.";eurocarrentalsas@hotmail.com;www.eurocarrentalsas.com;"(57) (1) 8072333";"Av El Dorado 69 C-3 L-105 Colombia, Bogotá"
"TODO CAMPEROS LTDA.";todocamperosbucaramanga@hotmail.com;www.todocamperos.com;"(57) (7) 6714488";"Cr15 20-73 Colombia, Bucaramanga"
"SUBARU JAPAN PARTES S.A.S";ventas@repuestosbogota.com;www.repuestosbogota.com;"(57) (1) 6302669";"Cr24 68-87 89 Colombia, Bogotá"
"ALMACÉN FORD RANGER S.A.S.";fordranger@une.net.co;www.almacenfordrangerltda.com;"(57) (4) 2324142";"Cr50 39-04 Colombia, Medellín"
TAXDECOL;info@taxdecol.com;www.taxdecol.com;"(57) (4) 3600040";"Cr52 10-199 Colombia, Medellín"
"C.D.A. LA 80 MEDITERRÁNEO S.A.S.";info@cdala80mediterraneo.com;www.cdala80mediterraneo.com;"(57) (4) 4441367";"Cr80 54 A-47 Colombia, Medellín"
"ALMACÉN MAYA REPUESTOS";;;"(57) (4) 4448489";"Cr52 34-59 Colombia, Medellín"
"INTERNACIONAL DE VEHÍCULOS LTDA.";gerencia@internacionaldevehiculos.com.co;www.internacionaldevehiculos.com;"(57) (1) 3314718";"Cr7 34-07 Colombia, Bogotá"
"CALIMA MOTOR S.A.";angela.rengifo@calimamotor.com.co;www.calimamotor.com.co;"(57) (2) 4891111";"Cr1 32-35 Colombia, Cali"
"AUTOFAX S.A.";servicioalcliente@autofax.com.co;www.autofax.com.co;"(57) (4) 3510283";"Cr65 24-30 Colombia, Medellín"
"NAVITRANS S.A.S.";cali@navitrans.com.co;www.navitrans.com.co;"(57) (2) 6959000";"Cr37 14-181 Acopi Yumbo Colombia, Cali"
"VEHIVALLE FORD";omrvicioalcliente@vehivalle.c;www.vehivalle.com;"(57) (2) 3120777";"Av Pasoancho 68-13 Colombia, Cali"
"HONDA AUTOGUAYACAN";wagudelo@autoguayacan.com.co;www.honda.com.co;"(57) (4) 4484602";"Cl 24 Sur 43 A-60 Colombia, Medellín"
"CARROCERIAS LASER";comercia.aux@carroceriaslaser.com;www.carroceriaslaser.com;"(57) (1) 7243206";"Autop Sur 64-88 Colombia, Bogotá"
"LUCHO'S LUJOMANÍA";luchoslujomania@hotmail.com;www.luchoslujomania.com;"(57) (4) 2606462";"Cr64 42 B-31 Colombia, Medellín"
"AUTOMAX S.A.S";info@automax.com.co;www.automax.com.co;"(57) (4) 4441160";"Cl 12   S 51-90 Colombia, Medellín"
"TMP LTDA.";ventas@tmpltda.com;www.tmpltda.com;"(57) (1) 4150336";"Cr108 16 I-44 Colombia, Bogotá"
"ALQUILER DE CARROS EN LA CIUDAD DE MEDELLÍN RENTADORA RENT A CAR";info@rentadoradinamica.com;www.rentadoradinamica.com;"(57) (4) 4488102";"Cl 9 43 A-31 Of 201 Colombia, Medellín"
"SOMERAUTO S.A.";somerauto@somerauto.com.co;www.somerauto.com.co;"(57) (4) 4482102";"Cr48 10-168 Colombia, Medellín"
"SENTRA SERVICE S.A.S";hondasubaru@une.net.co;www.subaruhonda.com;"(57) (1) 2401564";"Cr24 No. 70 A-51 Colombia, Bogotá"
"CARIBE S.A.S.";mercadeo@caribecali.com;www.renault.com.co;"(57) (2) 4855000";"Cr4 22 A-29 Colombia, Cali"
"TOYOTA C.V.I. S.A.";paula.mejia@toyotacvi.com.co;www.toyotacvi.com.co;"(57) (1) 2368127";"Cr15 98-37 Colombia, Bogotá"
VEHIKIA;servicioalcliente@vehikia.com;www.vehikia.com;"(57) (2) 4851804";"Cl 9 Cr62 Bis Esq Colombia, Cali"
"ALMACEN IMPORTADORA DE PARTES Y COLLISSION LTDA";importadoradepartesycollission@gmail.com;www.importadoradepartesycollissionltda.com;"(57) (1) 2508352";"Cr27 A 64-24 Colombia, Bogotá"
MOTORYSA;servicioalcliente@motorysa.com;www.motorysa.com;"(57) (1) 7448844";"Av (Cr) 68 68 B-61 Colombia, Bogotá"
CINASCAR;;www.cinascar.com;"(57) (1) 6761818";"Autop Norte Cl 233 Costado Occidental Colombia, Bogotá"
"REPUESTOS AUTOFRENOS LTDA.";repuestosautofrenos@gmail.com;www.autofrenos.co/tienda;"Conm.: (57) (7) 6522277";"Cr18 28-34 Colombia, Bucaramanga"
"JAC PUERTA DE ORO MOTORS";gcartagena@puertadeoromotorsltda.com;www.puertadeoromotorsltda.com;"(57) (5) 6563428";"Pie del Cerro Cl 32-18 A-9 Av Pedro de Heredia Colombia, Cartagena"
"First Name";"Email Address";Url;Telephone;Address
"JAC PUERTA DE ORO MOTORS";gcartagena@puertadeoromotorsltda.com;www.puertadeoromotorsltda.com;"(57) (5) 6563428";"Pie del Cerro Cl 32-18 A-9 Av Pedro de Heredia Colombia, Cartagena"
"COMPAÑÍA AUTOMOTRIZ DIESEL S.A.";mercadeo@codiesel.com;www.codiesel.com;"(57) (7) 6468606";"Km 7 Autop A Girón Colombia, Bucaramanga"
CINASCAR;;www.cinascar.com;"(57) (1) 6761818";"Autop Norte Cl 233 Costado Occidental Colombia, Bogotá"
"ALQUILER DE CARROS EN LA CIUDAD DE MEDELLÍN RENTADORA RENT A CAR";info@rentadoradinamica.com;www.rentadoradinamica.com;"(57) (4) 4488102";"Cl 9 43 A-31 Of 201 Colombia, Medellín"
"DIESEL POWER S.A.S";gerencia@dieselpower.com.co;www.dieselpower.com.co;"(57) (1) 4857777";"Cl 6 19 A-87 Of 501 Colombia, Bogotá"
"AUTOMOTORES ROBIN LÓPEZ";robinlopezalarcon@yahoo.com;www.automotoresrobinlopez.com;"(57) (1) 3097961";"Av Suba 105-51 Of 602 Colombia, Bogotá"
"TAYRONA AUTOMOTRIZ S.A.S";info@tayronaautomotriz.com;www.tayronaautomotriz.com;"(57) (5) 4348100";"Av del Río 18-11 Esq Colombia, Santa Marta"
"VEHIKAUTOS S.A.S.";vehi.k.autos@hotmail.com;www.vehikautos.com;"(57) (5) 3008406";"Cl 63 43-142 Colombia, Barranquilla"
"CARROCERIAS JGB";gerencia@carroceriasjgb.com;www.carroceriasjgb.com;"(57) (1) 2388855";"Cl 40   S 68 A-54 Colombia, Bogotá"
"R.G AUTOPIEZAS";rgautopiezas@hotmail.com;;"(57) (1) 2317416";"Cr24 74-15 Colombia, Bogotá"
"REPUESTOS MARROQUIN";repuestosmarroquin@hotmail.com;www.repuestosautomotoresmarroquin.com;"Telefax: (57) (1) 2404398";"Cr26 64-44 Colombia, Bogotá"
"INTERNACIONAL RENT A CAR";info@internacionalrentar.com;www.internacionalrentacar.com;"(57) (4) 3113051794";"Cr43 A 23-08 Colombia, Medellín"
"CONSIGNATARIA J & C";jairoburgos_1@yahoo.com;www.consignatariajyc.com;"(57) (6) 7442000";"Cr17 25-36 Colombia, Armenia"
BATSKALA;batskala@hotmail.com;www.batskala.com;"(57) (7) 6308005";"Cr18 51-58 Concordia Colombia, Bucaramanga"
"BATERIAS PUNTO DE ENERGIA CAÑAVERAL";bateriaspuntodeenergia@hotmail.com;www.bateriaspuntodeenergia.com;"(57) (7) 6958567";"Cl 38 6-77 Lagos II Colombia, Bucaramanga"
"JUAN JOSE AUTOACCESORIOS";juanjoseaccesorios@gmail.com;www.juanjoseautoaccesorios.com;"(57) (1) 4820895";"Cr27 A# 64-34 Brr. 7 de Agosto Colombia, Bogotá"
"PREMIUM CAR";premiumcar19@hotmail.com;www.premiumcarmedellin.com;"(57) (4) 3663823";"Cl 23 43 A-66 L-124 Colombia, Medellín"
"FORD VEHÍCULOS DEL CAMINO S.A.S";dchacon@ic-vehicamino.com;www.forddelcamino.com;"(57) (4) 4446040";"Trr Ford Av. Regional Cr49 14-30 Colombia, Medellín"
"VENTAXIS S.A.S.";ventaxisamarillos@hotmail.com;www.ventaxis.com;"(57) (4) 4488802";"Cl 59 51 D-66 Colombia, Medellín"
"AUTOPARTES CHEVRO MAZDA";casaimpo@yahoo.com;www.autoparteschevromazda.com;"(57) (1) 4152768";"Cl 17 96 H-75 Colombia, Bogotá"
"IMPORTADORA EL PIÑON Y CÍA. LTDA.";georgels2@hotmail.com;www.importadoraelpinon.com;"(57) (1) 3415029";"Cr15 8-14 Colombia, Bogotá"
"RESORTES A Y G";resortesayg@hotmail.com;www.resortesayg.com;"(57) (1) 2604713";"Cl 13 53-50 Colombia, Bogotá"
"CLAVE 2000 S.A.";nnaranjo@clave2000.com.co;www.clave2000.com.co;"(57) (2) 4880505";"Cl 64   N 5 B-146 L-23 Colombia, Cali"
"GRÚAS CMM.";cmmgil@yahoo.com;cmmgruas.com;"(57) (4) 5701128";"Cl 50 A 86-450 Urb. Calazanz Azul Int 1605 Colombia, Medellín"
AUTOCENTRY;jejaramillo@vehicenter.co;;"(57) (4) 4449789";"Km 6 Vía Don Diego Colombia, Medellín"
"ALMACÉN Y TALLER EL GRAN RADIADOR";el.granradiador@hotmail.com;;"(57) (8) 6684433";"Cl 32 31-77 Porvenir Colombia, Villavicencio"
"PLANAUTOS S.A.";comercial@planautos.com;www.planautos.com;"(57) (4) 4440007";"Cr50 32-72 Colombia, Medellín"
"AUTOMOTORA DE OCCIDENTE S.A.";natalia@cccerritos.com;www.automotoradeoccidente.com.co;"(57) (6) 3379572";"Centro de Concesionario Cerritos Km 6 Vía Cerritos Colombia, Pereira"
"KIA GRECCOMOTORS";mercadeo@brachoautos.com;www.greccomotors.com;"(57) (7) 6808000";"Av. Gonzalez Valencia 51-40 Colombia, Bucaramanga"
"AUTO MÓVILI";automovili.sas@gmail.com;www.automovilisas.com;"(57) (6) 3372222";"Av30 de Agosto Cl 94 Esq L 4 Colombia, Pereira"
"AUTOLITORAL S.A.";publicidad@autolitoral.com;www.autolitoral.com;"(57) (5) 3301966";"Cr53 59-256 Colombia, Barranquilla"
"RENAULT MOTOCOSTA S.A.S.";motocom@metrotel.net.co;www.motocostarenault.com;"(57) (5) 3770045";"Cl 72 39-156 Colombia, Barranquilla"
AUTOMAQ;vehimotorescali@yahoo.com;;"(57) (2) 3174337830";"Cl 21 15-37 Colombia, Cali"
VEHIMOTORES;vehimotorescali@yahoo.com;;"(57) (2) 3174337830";"Cl 21 15-37 Colombia, Cali"
CAJAMATIC;cajamatic@hotmail.com;www.cajamatic.com;"(57) (2) 5241935";"Cr1 A 16-134 Colombia, Cali"
"AGRÍCOLA AUTOMOTRIZ LTDA.";marcela.hurtado@agrauto.com.co;www.toyotaagrauto.com;"(57) (2) 4422610";"Cr8 33-72 Esq Colombia, Cali"
"SOMOS RENAULT LTDA.";somosrenault@une.net.co;;"(57) (4) 2325210";"Cr50 41-14 Colombia, Medellín"
"CARLOS MEDINA VEHÍCULOS";medinautos65@gmail.com;;"(57) (4) 2623500";"Cr43 A 19 A-87 L 65 Colombia, Medellín"
"CARYMA LTDA.";caryma.margarita@telecom.com.co;;"(57) (7) 6020249";"Cr12 49 A-15 Colombia Colombia, Barrancabermeja"
"CONFINAUTOS LTDA.";confinautosltda@hotmail.com;www.henrytaxis.com;"(57) (7) 6524606";"Cr21 31-48 Colombia, Bucaramanga"
"First Name";"Email Address";Url;Telephone;Address
"AUTOMOTORES GORGONA";secretaria@automotoresgorgona.com;www.automotoresgorgona.com;"(57) (2) 8202525";"Cr9 Cl 9   N Esq Colombia, Popayán"
"CASA TORO AUTOMOTRIZ S.A.";alberto.molinares@casatoro.com;www.casatoro.com;"(57) (5) 3755523";"Cl 30 3 D-76 Colombia, Barranquilla"
"CONFINAUTOS LTDA.";confinautosltda@hotmail.com;www.henrytaxis.com;"(57) (7) 6524606";"Cr21 31-48 Colombia, Bucaramanga"
"CENTRO TAXIS S.A.";mercadeo@fersautos.com.co;www.fersautos.com.co;"(57) (7) 6573300";"Dg15 63-20 Puerta del Sol Colombia, Bucaramanga"
"MAZDA MONTERO'S LTDA.";davidisaza48@hotmail.com;;"(57) (4) 2320431";"Cr51 40-87 Colombia, Medellín"
FERSAUTOS;jefeventasmedellin@fersautos.com.co;www.fersautos.com.co;"(57) (4) 2300397";"Cl 44 69-86 Colombia, Medellín"
"CENTRO DE DIAGNOSTICO AUTOMOTOR EL DIAMANTE S.A.S.";cdaeldiamante@gmail.com;;"(57) (4) 2605959";"Cl 51 69-02 Colombia, Medellín"
"GRÚAS ANTIOQUIA";gerencia@gruasantioquia.com;;"(57) (4) 4449309";"Cl 31 44-167 Brr. Colombia Colombia, Medellín"
"LA EQUIDAD SEGUROS";;www.laequidadseguros.coop;"(57) (7) 6211169";"Cl 48 16-62 B. Buenos Aires Colombia, Barrancabermeja"
"CAMPESA S.A.";;www.campesa.com.co;"(57) (7) 6432721";"Cr27 Con Cl 54 Esq Colombia, Bucaramanga"
"CARYMA LTDA.";caryma.margarita@telecom.com.co;;"(57) (7) 6020249";"Cr12 49 A-15 Colombia Colombia, Barrancabermeja"
"CENTRAL MOTOR LTDA";mercadeo@centralmotor.com.co;centralmotor.com.co;"(57) (7) 6110447";"Cl 50 14-32 Br Colombia Colombia, Barrancabermeja"
"CENTRO DIAGNOSTICO AUTOMOTOR MOTOS BELLO S.A.S.";cdadelnortebello@hotmail.com;;"(57) (4) 4816710";"Dg50 A 42-69 Bell Colombia, Medellín"
"IMPORTADORA FORD COLOMBIA";ccamperos@telebucaramanga.net.co;;"(57) (7) 6715767";"Cl 17 15-23 Colombia, Bucaramanga"
"LUBRICANTES RISEL";gerencia@lubricentrorisel.com;;"(57) (7) 6712381";"Cr17 12-20 Colombia, Bucaramanga"
"CARROCERIAS Y FURGONES DON B";arlesdonb@hotmail.com;;"(57) (4) 3773271";"Cl 42 24-96 Itagüí Colombia, Medellín"
"ALMACEN EL ESPID DOS";julian10132@yahoo.com;;"(57) (6) 3292525";"Cr11 32-42 Colombia, Pereira"
"SOMOS RENAULT LTDA.";somosrenault@une.net.co;;"(57) (4) 2325210";"Cr50 41-14 Colombia, Medellín"
"CENTRO DE SERVICIOS BELLO S.A.S.";cdabello@une.net.co;cdabello.com;"(57) (4) 4816825";"Dg51 42-128 Bello Colombia, Medellín"
"ACADEMIA DE CONDUCCIÓN PRACTICAR";institutopracticar@yahoo.es;;"(57) (4) 2317782";"Cl 56 56-67 P-3 Colombia, Medellín"
"DIESEL ANDINO";mercadeo@dieselandino.com;www.dieselandino.com;"(57) (4) 4487363";"Cr42 33-50 Itagüí Colombia, Medellín"
"CARDEPOT AUTOSTORE";administrativo@anpra.com;www.anpra.com;"(57) (7) 6971111";"Cr26 31-40 Parque de los Niños Colombia, Bucaramanga"
"CARLOS MEDINA VEHÍCULOS";medinautos65@gmail.com;;"(57) (4) 2623500";"Cr43 A 19 A-87 L 65 Colombia, Medellín"
"ALMACEN SOMOS CHEVROLET";somoschevrolet@hotmail.com;www.somoschevrolet.com;"(57) (1) 3411279";"Cl 8 16-55 Colombia, Bogotá"
MAXIPARTES;maxipartes@gmail.com;www.maxipartescali.com;"(57) (2) 6800076";"Cl 20 14-64 Colombia, Cali"
"ATILA RENT A CAR";atilarentacar@hotmail.com;www.atilarentacar.com;"(57) (2) 5243818";"Cr42 A 28 A-29 Colombia, Cali"
"DISTRIBUIDORA DE LUBRICANTES GONZÁLEZ";dislubrigonzalez@hotmail.com;www.distribuidoralubricantesgonzalez.com;"(57) (1) 2239367";"Tr85 65 C-18 Colombia, Bogotá"
"TALLER INDUSTRIAL CARMONA S.A.S.";tallerinducarmona@une.net.co;www.tallerinducarmona.com;"(57) (4) 4816891";"Dg51 A 40-30 Int 101 Bello Colombia, Medellín"
"CDA DIAGNOSTI-CAR S.A.";cdadiagnosticar@gmail.com;www.cdadiagnosticar.com;"(57) (4) 7854757";"Cr4 47-17 Colombia, Montería"
CESCA;cesca@une.net.co;www.cesca.org.co;"(57) (6) 8844441";"Cl 18 20-17 Colombia, Manizales"
"AUTOS DE RISARALDA S.A.";citas@autosderisaralda.com;www.facebook.com/autosrisaralda;"(57) (6) 3351951";"Cr14 A 20 A-43 Colombia, Pereira"
"LAS MÁQUINAS DEL CAFÉ";pauansala@hotmail.com;www.lasmaquinas.com;"(57) (6) 8754100";"Av Kevin Angel 60-271 Colombia, Manizales"
GUARDAPLAST;guardaplast2006@hotmail.com;www.guardaplast.com;"(57) (5) 6566669";"Av Pedro de Heredia Cl 32-18 B 166 Espinal Colombia, Cartagena"
"AUTOVIDRIOS ORIENTE";vidriolujos@hotmail.com;www.autovidriosoriente.com;"(57) (8) 3125229388";"Cr29 32-04 Porvenir Colombia, Villavicencio"
"TODO REPUESTO";servicioalcliente@todorespuestopereira.com;www.todorepuestopereira.com;"(57) (6) 3334517";"Cr12 19-55 Colombia, Pereira"
"STOK MOTORS";oscar.marin@stokmotors.com;www.stokmotors.com;"(57) (7) 5715372";"Cl 15 3 Este-44 Caobos Colombia, Cúcuta"
COODESS;coodess@gmail.com;coodess.com.co;"(57) (6) 8834076";"Cl 22 22-26 Of 405 Edif Del Comercio Colombia, Manizales"
"MANUEL COBOS DUARTE LTDA.";manuelcobosltda@gmail.com;;"(57) (7) 6712075";"Cr15 18-77 Colombia, Bucaramanga"
"LUJOS Y LATAS";ventas@lujosylatas.com;www.lujosylatas.com;"(57) (8) 2643469";"Cr5 25-66 Colombia, Ibagué"
KIA;gerentekiacucuta@gmail.com;www.grecomotors.com;"(57) (7) 5779585";"Av Guaimaral 11 E No. 6-4 Colombia, Cúcuta"
"First Name";"Email Address";Url;Telephone;Address
"CENTRO DE ENSEÑANZA AUTOMOVILÍSTICA AUTO INDIANAPOLIS";autoindianapolis2009@gmail.com;www.autoindianapolis.com;"(57) (7) 5806315";"Av10 28-46 L-101 Patios Edif Transito Colombia, Cúcuta"
AUTOCHEVROLET;servicioalcliente@autochevrolet.com.co;www.autochevrolet.com.co;"(57) (5) 5712267";"Cr10 19 C-62 Colombia, Valledupar"
COODESS;coodess@gmail.com;coodess.com.co;"(57) (6) 8834076";"Cl 22 22-26 Of 405 Edif Del Comercio Colombia, Manizales"
"MAYORAUTOS S.A.S.";admonvalledupar@mayorautos.com.co;mayorautos.com;"(57) (5) 5805541";"Cr7 A 20 D-29 Colombia, Valledupar"
"COLTOLIMA LTDA. CONCESIONARIO CHEVROLET";sara.palomar@coltolimaltda.com;www.coltolima.com.co;"(57) (8) 2770199";"Km 4 Vía Mirolindo Colombia, Ibagué"
ZAYVA;antoniojordanm@yahoo.com;;"(57) (1) 2677154";"Cl 24 102-39 Colombia, Bogotá"
"SERVI RENAULT";servi.renault@gmail.com;;"(57) (2) 3799991";"Cl 2 C 73-40 Colombia, Cali"
"AUTO VILLAS";escuelautovilla@etb.net.co;www.autovillas.co;"(57) (1) 8002077";"Cl 78 112 A-05 P-2 Colombia, Bogotá"
"AUTO TAVRIA";autotavria@hotmail.com;;"(57) (4) 2603911";"Cr63 B 45 A-34 Colombia, Medellín"
AUTOSWEB;autosweb@une.net.co;www.autosweb.com.co;"(57) (4) 2322458";"Cr51 39-11 Colombia, Medellín"
"H. MENDEZ";hernandomendez2@hotmail.com;;"(57) (5) 6550042";"Bgde Av San Martín Cl 12-# 1-61 Colombia, Cartagena"
"JOTA CLUTCH";jotaclutch@hotmail.com;;"(57) (4) 2302313";"Cr65 46-08 Colombia, Medellín"
"TALLERES LÓPEZ";lufelopez@hotmail.com;;"(57) (7) 5731728";"Cl 23 A 1-40 San Rafael Colombia, Cúcuta"
"INTERAMERICANA DE AUTOMOVILES Y REPUESTOS S.A.S.";ventas1@interamericanadayr.com.co;interamericanadayr.com.co;"(57) (4) 4481281";"Cl 65 52-75 Colombia, Medellín"
"RENO MASTER S.A.S.";daniela.tabares@carvajal.com;;"(57) (4) 4446467";"Cl 35   S 43-10 Envigado Colombia, Medellín"
"TAXI CAR MOTOR'S";taxicarmotors@hotmail.com;taxicarmotors.wix.com/tcmcol;"(57) (7) 5798789";"Av. Libertadores C.C. Villa Centro 15 N 19-23-27 Colombia, Cúcuta"
"SERVIOCCIDENTE S.A.S.";ventas@bmwservi.com;www.servioccidente.com;"(57) (2) 8841515";"Cr6 22-121 Colombia, Cali"
"ELECTRO FULL 2000";sergior7924@hotmail.com;;"(57) (4) 5118459";"Cr61 45 A-24 Colombia, Medellín"
"ALQUILER DE AUTOS RENTAMOTOR LTDA.";rentamotorltda@hotmail.com;www.rentamotorltda.com;"(57) (2) 5243653";"Cl 44   N 4 BN-44 Colombia, Cali"
"AUTO KOLN";contabilidad@autokoln.com;www.autokoln.com;"(57) (7) 5728585";"Cl 15 2 E-07 Caobos Colombia, Cúcuta"
"CENTER CAR®S";nellyduarte01@hotmail.com;;"(57) (7) 5773691";"Av Libertadores Malecón 11-78 La Riviera Colombia, Cúcuta"
"CDA ENVISUR LTDA.";cdaenvisur@une.net.co;www.cdaenvisur.com;"(57) (4) 3022880";"Cr49 46 A   S-60 Envigado Colombia, Medellín"
"RECTIFICADORA GUSTAVO MUÑOZ";rectificadoragmeu@une.net.co;;"(57) (4) 4487086";"Cr60 45 A-12 Colombia, Medellín"
"GRUAS CHAPINERO";lucyandreaap@hotmail.com;;"(57) (7) 6712479";"Cr15 10-104 Colombia, Bucaramanga"
"ALMACÉN SU DESVAREN S.A.S.";almacensudesvaren2@hotmail.com;;"(57) (5) 6437789";"Carrt La Cordialidad Tr54 95-46 Sector Doña Manuela Colombia, Cartagena"
"CENTRO DE DIAGNÓSTICO AUTOMOTOR DE PALMIRA";asistentedegerenciacdap@gmail.com;www.cdapalmira.com;"(57) (2) 2748116";"Cl 47 35-91 Colombia, Palmira"
"CASA MACK CALI S.A.";ventas@casamackcalisa.com;www.casamackcalisa.com;"(57) (2) 8841690";"Cr1 23 B-25 Colombia, Cali"
"LATAS BEATRIZ";;;"(57) (4) 2626578";"Cr53 39-68 Colombia, Medellín"
"POLARIZADOS CALICHE S.A.S.";glores77@hotmail.com;www.polarizadosyaccesorioscaliche.com;"(57) (2) 3394674";"Cl 10 64 A-33 Colombia, Cali"
"ALMACÉN AMORTIGUADORES PANAMERICANA";"amortiguadoresgrisales@hotmail.com      dianigri@hotmail.com";xxxx;"(57) (2) 4432089";"Cl 32 B 15-13 Colombia, Cali"
"AUTOREPUESTO J.O.";jesusojeda74@hotmail.com;www.autorepuestosjo.com;"(57) (7) 5780203";"Cl 1 B 5-124 La Merced Colombia, Cúcuta"
"COLOMBIAN RENT A CAR";colrenta@colombianrentacar.com;www.colombianrentacar.com;"(57) (1) 2145292";"Autop Norte 120-85 Esq Colombia, Bogotá"
"VARIAUTOS BYG S.A.S.";variautostaller@une.net.co;;"(57) (4) 5322180";"Cl 38 55 A-151 Int 104 Colombia, Rionegro"
"COLOMBIA RENTACAR";colombiarentacar@hotmail.com;www.colombiarentacar.co;"(57) (6) 3360415";"Av. 30 de Agosto No. 50-184 Colombia, Pereira"
"DAZAUTOS S.A.S";dazautos@gmail.com;;"(57) (1) 2505306";"Cr27 63 F-31 Colombia, Bogotá"
"ALMACÉN IMPORTADORA DE AUTOPARTES ORIENTALES";impdeautopartesorientales@gmail.com;;"(57) (1) 2497754";"Cr27 A 63 D-40 Colombia, Bogotá"
"ALMACÉN MAXICAR";maxicar@une.net.co;www.maxicartaller.com;"(57) (4) 2327882";"Cr45 38-21 Colombia, Medellín"
"AUTOBOL MOTORS S.A.S";eahumado@autobol.com.co;www.autobolmotors.com;"(57) (5) 6694889";"Alcibia Cl 30 37-07 Av Pedro de Heredia Colombia, Cartagena"
"AUTOBOL S.A.";eahumedo@autobol.com.co;www.autobol.com.co;"(57) (5) 6627262";"Av. Pedro de Heredia, # 37-7 Alcibia Colombia, Cartagena"
"PROMACC LTDA.";gerenciapromacc@yahoo.com;www.promaccltda.com.co;"(57) (1) 2092483";"Cl 16   S 22-47 Of 302 Colombia, Bogotá"
"First Name";"Email Address";Url;Telephone;Address
"H. MENDEZ";hernandomendez2@hotmail.com;;"(57) (5) 6550042";"Bgde Av San Martín Cl 12-# 1-61 Colombia, Cartagena"
"ATIEMPO GRUAS";gruasatiempo@gmail.com;www.gruasatiempo.com;"(57) (2) 5242250";"Cl 12 73-101 Colombia, Cali"
"ALMACÉN IMPORTADORA DE AUTOPARTES ORIENTALES";impdeautopartesorientales@gmail.com;;"(57) (1) 2497754";"Cr27 A 63 D-40 Colombia, Bogotá"
"CARLOS ALVAREZ AUTOMÓVILES";carlosalvarezautomoviles@gmail.com;www.tucarro.com/categId-1743_custid_99767265;"(57) (4) 4137532";"Cl 42 80 B-95 Colombia, Medellín"
"J.G.B. MAZDA";jbrepuestos@une.net.co;;"(57) (4) 2317593";"Cr52 59-86 Colombia, Medellín"
"ESTARTER S.A.S";gerencia@estarter.co;www.estarter.co;"(57) (8) 86722671";"Cr19 19 B 35. Colombia, Villavicencio"
"RENTA CAR VACATION";rentacarvacation@hotmail.com;;"(57) (8) 5126230";"Av Newball Diagonal Hotel Sunrise Colombia, San Andrés"
"ALQUILER DE AUTOS RENTAMOTOR LTDA.";rentamotorltda@hotmail.com;www.rentamotorltda.com;"(57) (2) 5243653";"Cl 44   N 4 BN-44 Colombia, Cali"
"COLOMBIA RENTACAR";colombiarentacar@hotmail.com;www.colombiarentacar.co;"(57) (6) 3360415";"Av. 30 de Agosto No. 50-184 Colombia, Pereira"
"AUTO KOLN";contabilidad@autokoln.com;www.autokoln.com;"(57) (7) 5728585";"Cl 15 2 E-07 Caobos Colombia, Cúcuta"
"ARAUTOS LTDA.";gerencia@arautos.com.co;www.arautos.com.co;"(57) (2) 4432929";"Cr5   N 38 AN-75 Colombia, Cali"
"CUPOS Y TAXIS SOTO";cuposytaxis@gmail.com;;"(57) (4) 3779563";"Cr50 55-31 Itagüí Colombia, Medellín"
"COLOMBIAN RENT A CAR";colrenta@colombianrentacar.com;www.colombianrentacar.com;"(57) (1) 2145292";"Autop Norte 120-85 Esq Colombia, Bogotá"
"CENTRO COMERCIAL ALFAGUARA";administrador@ccalfagura.com;www.ccalfaguara.com;"(57) (2) 5164380";"Cl 2 22-175 Jamundí Colombia, Cali"
"AUTO GRUAS DE LA 80";aicorca@hotmail.com;;"(57) (1) 4316704";"Cl 70 D 105 F-73 Alamos Nte-7 Agosto Colombia, Bogotá"
"C.D.A DEL HUILA S.A LA PRADERA";cdahuila@gmail.com;www.cdadelhuila.com;"(57) (8) 8761336";"Cr7 55-10 Vía Tello Colombia, Neiva"
"SISTEMAS ELECTRICOS FG S.A.S";fgsistemotos@gmail.com;;"(57) (4) 2935855";"Cr52 57-46 Bdg 104 Colombia, Medellín"
"IMPORTADORA JAPÓN DIESEL CARIBE S.A.S.";ruizortega@hotmail.com;;"(57) (4) 2578787";"Cr65 74-20 Colombia, Medellín"
"AUTOMOTOR DEL VALLE";automotordelvalle@hotmail.com;;"(57) (2) 2146145";"Cl 9 8-55 Colombia, Cartago"
"ALQUILER AUTOMOTORES BOGOTÁ";txkiko@yahoo.com;;"(57) 3042001500";"Cl 57 14-31 Of 101 Colombia, Bogotá"
"SERVIOCCIDENTE S.A.S.";ventas@bmwservi.com;www.servioccidente.com;"(57) (2) 8841515";"Cr6 22-121 Colombia, Cali"
"TAXIAUTOS CARTAGENA S.A.S.";taxiautoscartagena@gmail.com;;"(57) (5) 6479723";"Armenia Cl 31 49-50 Av Pedro de Heredia Colombia, Cartagena"
"AUTOBOL MOTORS S.A.S";eahumado@autobol.com.co;www.autobolmotors.com;"(57) (5) 6694889";"Alcibia Cl 30 37-07 Av Pedro de Heredia Colombia, Cartagena"
"MULTICOCHES S.A.";multicoches@une.net.co;www.multicochessa.com;"(57) (4) 4440723";"Cr45 No. 14-157 Brr. Colombia Colombia, Medellín"
"AUTOFARO N";autofaro-n-@hotmail.co;;"(57) (2) 8960827";"Cl 25 11-10 Colombia, Cali"
"POLARIZADOS CALICHE S.A.S.";glores77@hotmail.com;www.polarizadosyaccesorioscaliche.com;"(57) (2) 3394674";"Cl 10 64 A-33 Colombia, Cali"
"JOTA CLUTCH";jotaclutch@hotmail.com;;"(57) (4) 2302313";"Cr65 46-08 Colombia, Medellín"
"ALMACÉN MAXICAR";maxicar@une.net.co;www.maxicartaller.com;"(57) (4) 2327882";"Cr45 38-21 Colombia, Medellín"
"OCAÑA MOTORS S.A.S.";;cucutamotors.com;"(57) 3173710945";"Cl 7 29 B-10 Av Fco Fernandez Colombia, Ocaña"
"AUTO VILLAS";escuelautovilla@etb.net.co;www.autovillas.co;"(57) (1) 8002077";"Cl 78 112 A-05 P-2 Colombia, Bogotá"
"AUTOS UNO A";;;"(57) (4) 2307941";"Cq 5 69-67 Colombia, Medellín"
"SERVI CAR EXPRESS";servicarexpres@gmail.com;;"(57) (6) 3263146";"Cr10 42-91 Colombia, Pereira"
"MISTER FUEL INJECTION S.A.S.";misterfuelinjection@hotmail.com;www.misterfuelinjection.com;"(57) (1) 6263101";"Cl 128 C 53-46 Colombia, Bogotá"
"AUTOREPUESTO J.O.";jesusojeda74@hotmail.com;www.autorepuestosjo.com;"(57) (7) 5780203";"Cl 1 B 5-124 La Merced Colombia, Cúcuta"
LLANTECA;calisur@llanteca.com;www.llanteca.com;"(57) (2) 5565559";"Cl 8 30-11 Colombia, Cali"
"TALLERES LÓPEZ";lufelopez@hotmail.com;;"(57) (7) 5731728";"Cl 23 A 1-40 San Rafael Colombia, Cúcuta"
MITSUMA;mavasque406@gmail.com;;"(57) (4) 2613738";"Cr44 A 39-36 Colombia, Medellín"
"CENTRO DE DIAGNÓSTICO AUTOMOTOR DE PALMIRA";asistentedegerenciacdap@gmail.com;www.cdapalmira.com;"(57) (2) 2748116";"Cl 47 35-91 Colombia, Palmira"
"CENTER CAR®S";nellyduarte01@hotmail.com;;"(57) (7) 5773691";"Av Libertadores Malecón 11-78 La Riviera Colombia, Cúcuta"
"CENTRO RENAULT AUTOMOTRIZ";gerencia@centroreanault.net;www.centrorenault.net;"(57) (4) 2612110";"Cr46 30-40 Colombia, Medellín"
"First Name";"Email Address";Url;Telephone;Address
"VARIAUTOS BYG S.A.S.";variautostaller@une.net.co;;"(57) (4) 5322180";"Cl 38 55 A-151 Int 104 Colombia, Rionegro"
"AUDI CENTER MANIZALEZ";gerencia@colbaviera.com;www.audi.com.co;"(57) (6) 8870111";"Cr23 A 74-51 Enseguida Edif ANDI Colombia, Manizales"
"POLARIZADOS CALICHE S.A.S.";glores77@hotmail.com;www.polarizadosyaccesorioscaliche.com;"(57) (2) 3394674";"Cl 10 64 A-33 Colombia, Cali"
"ALMACÉN AMORTIGUADORES PANAMERICANA";"amortiguadoresgrisales@hotmail.com      dianigri@hotmail.com";xxxx;"(57) (2) 4432089";"Cl 32 B 15-13 Colombia, Cali"
"TALLERES LÓPEZ";lufelopez@hotmail.com;;"(57) (7) 5731728";"Cl 23 A 1-40 San Rafael Colombia, Cúcuta"
"DAZAUTOS S.A.S";dazautos@gmail.com;;"(57) (1) 2505306";"Cr27 63 F-31 Colombia, Bogotá"
"IMPORTADORA JAPÓN DIESEL CARIBE S.A.S.";ruizortega@hotmail.com;;"(57) (4) 2578787";"Cr65 74-20 Colombia, Medellín"
MITSUMA;mavasque406@gmail.com;;"(57) (4) 2613738";"Cr44 A 39-36 Colombia, Medellín"
"MULTIAUTOS DEL CARIBE S.A.S.";multiautosdelcaribesas@gmail.com;;"(57) (5) 3854780";"Cl 79 43 B-04 L-1 Colombia, Barranquilla"
"CASCOS YC S.A.S.";cascosyc@hotmail.com;www.cascosyc.com;"(57) (4) 5126166";"Cr52 56-80 Colombia, Medellín"
"ALMACÉN SU DESVAREN S.A.S.";almacensudesvaren2@hotmail.com;;"(57) (5) 6437789";"Carrt La Cordialidad Tr54 95-46 Sector Doña Manuela Colombia, Cartagena"
"INTERAMERICANA DE AUTOMOVILES Y REPUESTOS S.A.S.";ventas1@interamericanadayr.com.co;interamericanadayr.com.co;"(57) (4) 4481281";"Cl 65 52-75 Colombia, Medellín"
"MISTER FUEL INJECTION S.A.S.";misterfuelinjection@hotmail.com;www.misterfuelinjection.com;"(57) (1) 6263101";"Cl 128 C 53-46 Colombia, Bogotá"
"MULTIMARCAS SAN JUAN S.A.S.";multimarcas@hotmail.com;;"(57) (4) 2508502";"Cr79 44-01 Colombia, Medellín"
"GALAUTOS LTDA.";le7al27@hotmail.com;;"(57) (7) 5791066";"Av5 B 0-58 La Merced Colombia, Cúcuta"
"ALMACÉN MAXICAR";maxicar@une.net.co;www.maxicartaller.com;"(57) (4) 2327882";"Cr45 38-21 Colombia, Medellín"
"RECTIFICADORA GUSTAVO MUÑOZ";rectificadoragmeu@une.net.co;;"(57) (4) 4487086";"Cr60 45 A-12 Colombia, Medellín"
"AUTOMOTORES FARALLONES S.A.S.";andresvillegas@msn.com;www.autofarallones.com;"(57) (2) 4860777";"Av1   N 4   N-55 Colombia, Cali"
"TAXISTRES ADMINISTRADORA";jairem@hotmail.com;;"(57) (1) 4131660";"Cr113 N 22 J-14 Colombia, Bogotá"
"VAS COLOMBIA S.A.";gcuellar@vascolombia.com.co;;"(57) (1) 4857000";"Cl 97 23-60 P-8 Colombia, Bogotá"
"FURING LTDA";gerencia@furingltda.com;;"(57) (1) 5763545";"Autop Sur 5-65 León XIII Vía Soacha Colombia, Bogotá"
"GRUPO EMPRESARIAL ORMOS S.A.S.";comercial@grupoormos.com;;"(57) (6) 3400141";"Cl 19 B 16-52 Colombia, Pereira"
SILENCOL;subgerencia@silencol.com.co;www.silencol.com.co;"(57) (1) 2161945";"Cl 132 52-14 Colombia, Bogotá"
"SSANGYONG MOTOR COLOMBIA S.A.";ssangyong@ssangyong.com.co;;"(57) (2) 6655988";"Cl 64   N 5 B-146 L-22 Colombia, Cali"
"REPARACIÓN DE CONVERTIDORES";repconvertidor@hotmail.com;;"(57) (7) 5834997";"Cl 3 6-50 Cj Colombia, Cúcuta"
"DERCO COLOMBIA S.A.";servicioalcliente@derco.com.co;;"(57) (1) 6761286";"Autop Norte Km 19 Colombia, Bogotá"
"VEHICOLDA LTDA.";vehicolda_sexta@etb.net.co;;"(57) (1) 2333088";"Av6 a 14-25 Colombia, Bogotá"
SOLARCAR;solarcarsas@hotmail.com;;"(57) (7) 6954710";"Cr28 19-31 San Alonso Colombia, Bucaramanga"
AUTODANA;;;"(57) (1) 8022339";"Cr72 74 A-46 Colombia, Bogotá"
"AUTOMOTORES LA CALLEJA";;;"Conm.: (57) (1) 6155818";"Autop Norte 128 A-06 Colombia, Bogotá"
"LATIN CAR E.U";;;"(57) (1) 2147965";"Av13 123-68 Colombia, Bogotá"
"CLASSAUTOS S.A";;;"(57) (6) 7456340";"Cr19 8-78 Colombia, Armenia"
"TALLER MARIO LONDOÑO";;;"(57) (4) 3816156";"Cr 45 31-274 Colombia, Medellín"
"MULTIMARCAS ADRIAUTOS ECHEVERRI";;;"(57) (4) 4440690";"Cr44 58-25 Colombia, Rionegro"
"FERAUTOS LTDA.";;;"(57) (8) 7602047";"Av Américas 26-45 La Perla Colombia, Duitama"
"PORSCHE AUTOMERCANTIL DEL CARIBE LTDA.";;;"(57) (5) 3851459";"Av Circunvalar con Cr51 B Colombia, Barranquilla"
"KENWORTH DE LA MONTAÑA S.A.";;;"(57) (1) 7427788";"Av Boyacá 23-12 Colombia, Bogotá"
AUTOMAS;;;"(57) (5) 3692893";"Cl 74 44-29 Colombia, Barranquilla"
"TALLER SERVIFRIO";;;"(57) (5) 3795005";"Cl 40 43-135 Colombia, Barranquilla"
"ALMACÉN CKEKODIAK";;;"(57) (1) 4002737";"Cr82 A 8 A-36 Colombia, Bogotá"
"First Name";"Email Address";Url;Telephone;Address
"COMERCIALIZADORA DE VEHÍCULOS Y CONSTRUCTORA DEL CARIBE LTDA.";;;"(57) (5) 2803242";"Cr13 G 30-48 Colombia, Sincelejo"
"CENTRAL S.A.S.";;;"(57) (1) 3690500";"Av Américas 36-11 Colombia, Bogotá"
"RESTREPO OSPINA JUAN MANUEL";;;"(57) (6) 3406077";"Cl 19 29-80 Colombia, Pereira"
"VEHITAXIS LTDA";;;"(57) (1) 3108888";"Av (Cr) 68 72 A-30 Colombia, Bogotá"
"COLINSERT LTDA.";;;"(57) (1) 5666876";"Cr15 31-50 Of 804 Colombia, Bogotá"
"AUTOS UNIVERSAL S.A.";;;"(57) (8) 8719482";"Cr5 15-55 Colombia, Neiva"
"CARS BOTES";;;"(57) (5) 6561079";"19-120 Av Pedro de Heredia Colombia, Cartagena"
"AUTOCOR LTDA.";;;"(57) (5) 2804033";"Carrt Troncal Vía Corozal Colombia, Sincelejo"
"KENWORTH DE LA MONTAÑA S.A.";;;"(57) (1) 7427788";"Av Boyacá 23-12 Colombia, Bogotá"
"TRAVEL SAFE RENT A CAR";;;"(57) (4) 2284989";"Cr43 A 30-25 C.C. Premium Plaza L-9213 Colombia, Medellín"
"INVERSIONES PYME LTDA.";;;"(57) (1) 7444120";"Cr19 A 84-82 Of 201 Colombia, Bogotá"
"CARPAS JAGUAR";;;"(57) (1) 2696932";"Cr30 47 A-18 Colombia, Bogotá"
DIMAUTOS;;;"(57) (2) 8235777";"Cr9 23 N-42 Colombia, Popayán"
"SSANGYONG CAPITAL - ANDRÓMEDA MOTORS S.A.";;;"(57) (1) 2537479";"Cl 127 71 B-33 Colombia, Bogotá"
"AUTOPARTES TURBO-HYUNDAI";;;"(57) (5) 3518976";"Cr38 43-37 L-10 Colombia, Barranquilla"
"PREMIUM MOTORS";;;"(57) (7) 6472695";"Cr27 52-20 Colombia, Bucaramanga"
"WILLIANAUTOS LTDA.";;;"(57) (1) 2630555";"Cr82 51-38 Colombia, Bogotá"
"DISAUTOS LTDA.";;;"(57) (8) 7600605";"Av de las Américas 27-59 Colombia, Duitama"
"COMERCIALIZADORA BBC S.A.S.";;;"Telefax: (57) (1) 6180781";"Cl 81 11 - 68 Of 609 Colombia, Bogotá"
"CARROCERIAS DOBLE Y";;;"(57) (7) 6706895";"Cr2 26-06 Girardot Colombia, Bucaramanga"
"FRENOS SEVILLA";;;"(57) (4) 2336954";"Cr51 C 82-35 Colombia, Medellín"
TECNI-AIRES;;;"(57) (2) 6602301";"Av2 A N 31-114 Colombia, Cali"
"TALLER GILESTRA";;;"(57) (4) 5115970";"Cl 45 60-47 Colombia, Medellín"
"COLOMBIANA FOTON";;;"(57) (2) 6674402";"Av3 N 34-46 Colombia, Cali"
"MECANICO JORGE MORALES";;;"(57) (2) 2732300";"Cr29 33-52 Colombia, Palmira"
"INTERNACIONAL DE PARTES";;;"(57) (7) 6331287";"Cr11 22-51 Colombia, Bucaramanga"
"DISTOYOTA LTDA.";;;"(57) (7) 6574857";"Cr27 53-21 Colombia, Bucaramanga"
"BERAUTOS S.A.S.";;;"(57) (7) 6456209";"Av Qubradaseca 29-10 Colombia, Bucaramanga"
AUTOMAR;;;"(57) (7) 6454199";"Cl 31 28-48 Ap 101 La Aurora Colombia, Bucaramanga"
SUKIA;;;"(57) (8) 8731273";"Cr5 10-10 S Colombia, Neiva"
"WINNER RENT A CAR";;;"(57) (2) 2131903";"Cl 12 A 10-40 Colombia, Cartago"
"AUTOCAR'S LTDA.";;;"(57) (1) 4157714";"Cl 22 111-17 Colombia, Bogotá"
"ORIENT TRUCKS S.A.";;;"(57) (7) 5831065";"Av3 8-19 Centro Colombia, Cúcuta"
CAMINOS;;;"(57) (2) 2098808";"Cl 10 6-13 Colombia, Cartago"
"REPUESTOS QUINTANILLA";;;"(57) (7) 6715160";"Cr11 22-36 Colombia, Bucaramanga"
"INMOBILCAR S.A.S.";;;"(57) (8) 6724682";"Cl 33 A 38-69 Of 106 Colombia, Villavicencio"
"AUTOS CARRERA";;;"(57) (2) 8825050";"Cl 52 1 B-160 Colombia, Cali"
"VEHÍCULOS ESPECIALES Y POR ENCARGO";;;"(57) 3187072682";"Av40 17-14 Urb Guatiquia Colombia, Villavicencio"
"SEAT EUROCAR";;;"(57) (2) 4853781";"Av3 N 34-46 Colombia, Cali"
"C.I. TURBOGAS LTDA.";;;"(57) (2) 5212626";"Cl 52 1 B-160 Colombia, Cali"
"First Name";"Email Address";Url;Telephone;Address
GUANENTAUTOS;;;"(57) (7) 7241909";"Cr17 35-46 C.C. San Gil Plaza Local 337 Colombia, San Gil"
ORBIAUTOS;;;"(57) (2) 7313283";"Cl 20 31 C-70 Colombia, Pasto"
"SOLUCIONES INTEGRALES DE TRÁNSITO Y TRANSPORTE S.A.";;;"Telefax: (57) (1) 5602300";"Cr25 1 D - 20 Colombia, Bogotá"
"COMPAÑÍA DE AUTOENSAMBLE NISSAN LTDA.";;;"Telefax: (57) (1) 5943200";"Cl 13 50 - 69 Colombia, Bogotá"
"DINATRANS S.A.";;;"(57) (1) 8618333";"Av. Pradilla 900 Este C.C. Centro Chía Colombia, Chía"
"UGLY AMERICAN BAR & GRILL";;;"(57) (1) 3108888";"Cl 81 9-12 Colombia, Bogotá"
"LA CASA DEL CARBURADOR";;;"(57) (7) 5791219";"Av6 0-116 La Merced Colombia, Cúcuta"
"CONSIGNATARIA KASA COCHES";;;"(57) (2) 7233349";"Cl 16 A 39-07 Av Panamericana Colombia, Pasto"
AUTOBRADIZ;;;"(57) (4) 5114273";"Cl 61 51-79 Colombia, Medellín"
"HONDA AUTOS LTDA.";;;"(57) (2) 3705039";"Cr15 8-40 Colombia, Cali"
"ANDRÓMEDA MOTORS S.A.";;;"Telefax: (57) (2) 6651505";"Av3 N 33-22 Colombia, Cali"
"C D A EXPRESS LTDA.";;;"Telefax: (57) (1) 2693781";"Cl 20 36-77 Colombia, Bogotá"
"INCOLDIESEL LTDA.";;;"Telefax: (57) (1) 4829960";"Cl 64 71-61 Colombia, Bogotá"
"PUNTO TAXI DE LA COSTA LTDA.";;;"(57) (5) 3603030";"Cr43 79-92 Colombia, Barranquilla"
"ESTACION LA PERLA DEL SINÚ";;;"(57) (4) 7825050";"Cl 44 4-54 Los Laureles Colombia, Montería"
"AUTO FIAT MOTOR";;;"(57) (2) 8961211";"Cl 21 14-06 Colombia, Cali"
"CHEVYCAR LTDA.";;;"(57) (1) 3428850";"Cr15 8-33 Colombia, Bogotá"
"COLLISION TRUCK S.A.S.";;;"(57) 3282601";"Cl 65 6-31 soledad Colombia, Soledad"
"AUTOS ZAFIRA";;;"(57) (1) 4361728";"Av Boyacá 74 A-86 Colombia, Bogotá"
"DANACAR TRUCK S.A.S.";;;"Telefax: (57) (1) 5709682";"Cl 14 54-48 Colombia, Bogotá"
"ULTRACAR S.A.";;;"(57) (1) 2712200";"Av (Cl) 116 55 A-11 Colombia, Bogotá"
"FULL TRACCIÓN TODO EN 4X4";;;"(57) (4) 3542534";"Cr48 16-08 Colombia, Medellín"
"AUTOCORDILLERA S.A.";;;"(57) (6) 7450020";"Cr 19 7 A-58 Colombia, Armenia"
"ASAN MOTORS LTDA.";;;"(57) (8) 7470012";"Av Norte 52-25 Colombia, Tunja"
"CAUCAGRO S.A.";;;"(57) (4) 4442111";"Cl 11 A S 44-143 Colombia, Medellín"
"DISTRIBUIDORA SERRANO";;;"(57) (5) 3417356";"Cl 63 B 25 B-112 Colombia, Barranquilla"
"CONSTRUCCIONES ASESORÍAS TÉCNICAS INDUSTRIALES DEL COMERCIO GIRASOL S.A.S.";;;"(57) (6) 3337616";"Cr6 16-22 L-104 Colombia, Pereira"
"ANDAR CONSIGNATARIA";;;"(57) (6) 3257288";"Cl 22 12-06 Colombia, Pereira"
IMPORTAMOS;;;"(57) (4) 7850287";"Cl 64 6-07 Los Alcázares Colombia, Montería"
"LYRA MOTORS LTDA.";;;"(57) (1) 6140033";"Autopista Norte 127D- 28 Colombia, Bogotá"
"INVERAUTOS LTDA.";;;"(57) (8) 8714430";"Cr5 Cl 11 Esq Colombia, Neiva"
"JAPAN CENTER LTDA.";;;"(57) (1) 3463786";"Cl 78 22-21 Colombia, Bogotá"
ALQUILOCAMIONETAS.COM;;;"(57) (1) 5379090";"Cl 127 A 88 C-04 Colombia, Bogotá"
"MAZAUTOS S.A.S.";;;"(57) (6) 3172221";"Av30 de Agosto-38 -36 Colombia, Pereira"
"TU CARRO.COM";;;"(57) (5) 3493240";"Cr53 64-40 Colombia, Barranquilla"
"GARCÚA GARCÚA S. EN C.S";;;"(57) (1) 7510295";"Cl 23 72 B-42 Trr 4 Ap 101 Colombia, Bogotá"
VEHICOSTA;;;"(57) (5) 3709101";"Vía 40 53 B 39-01 Colombia, Barranquilla"
"CICON TRADING COMPANY S.A.";;;"(57) (1) 7425060";"Cr103 25 D-80 Colombia, Bogotá"
"AUTOMOTORES JAC";;;"(57) (8) 6732223";"Cr33 24 B-12 Vía Puerto López Colombia, Villavicencio"
"IMPORTADORA DE REPUESTOS JAPONESES LTDA";;;"(57) (8) 6724242";"Cl 31 29-86 Porvenir Colombia, Villavicencio"
"First Name";"Email Address";Url;Telephone;Address
"INDUSTRIAL RENTAS Y RENTAS";;;"(57) (2) 3397906";"Cl 12 87-40 Ap 121 Colombia, Cali"
"CONCESIONARIO AUTOMOTRIZ TAXI AUTOS DE OCCIDENTE LTDA.";;;"(57) (2) 6673632";"Av Vásquez Cobo 28 N-46 Colombia, Cali"
"SUN CAR";;;"(57) (2) 3395720";"Cr64 13-12 Colombia, Cali"
"REPUESTOS A Y C";;;"(57) (7) 6441959";"Terminal de Transportes Mod 2 L-619 Colombia, Bucaramanga"
"COLMOTORS DEL VALLE";;;"(57) (2) 4879512";"Cl 13 77-105 Colombia, Cali"
"AUTOS DEL EJE";;;"(57) (6) 8731292";"Cr23 16-39 Centro Colombia, Manizales"
"MITSU MAZDA";;;"(57) (7) 6711543";"Cl 16 15-44 Colombia, Bucaramanga"
"AUTOMOTRIZ CALDAS MOTOR S.A.S";;;"(57) (6) 8842100";"Cr23 34-07 Colombia, Manizales"
"M&F MOTORS";;;"(57) (7) 6450790";"Cr27 18-50 San Francisco Colombia, Bucaramanga"
"CENTRO TOYOTA NISSAN";;;"(57) (1) 3419927";"Cl 8 15-24 Colombia, Bogotá"
"PASTO MOTORS LTDA. - RENAULT";;;"(57) (2) 7230096";"Cl 2 33-82 Av Panamericana Colombia, Pasto"
"CRUMP AMÉRICA";;;"(57) (1) 2609923";"Cl 19 68-75 Colombia, Bogotá"
"AUTOMAYOR S.A";;;"(57) (1) 6346550";"Cr14 81-19 Of 205 Colombia, Bogotá"
"COMERCIALIZADORA AUTOS LA AVENIDA";;;"(57) (6) 3330480";"Av 30 de Agosto 23-73 Colombia, Pereira"
"AUTO FULL FRENOS";;;"(57) (7) 6325758";"Cr27 Av La Rosita Esq Colombia, Bucaramanga"
"SOLO CARS";;;"(57) (4) 3667442";"Cr46 74 -S-24 Sabaneta Colombia, Medellín"
"FÁBRICA NACIONAL DE AUTOPARTES S.A.";;;"(57) (2) 6806111";"Cr1 45 A-40 Colombia, Cali"
"ALQUIRENTAL S.A.S.";;;"(57) (4) 4484759";"Cl 6   S 43 A-200 Of 1101 Colombia, Medellín"
"CAMPEROS Y AUTOS DEL SUR";;;"(57) (2) 5587828";"Cr31 9 C-02 Colombia, Cali"
"INMOBILCAR S.A.S.";;;"(57) (8) 6724682";"Cl 33 A 38-69 Of 106 Colombia, Villavicencio"
EUROCAR;;;"(57) (2) 4853780";"Av3 N 34-46 Colombia, Cali"
"LA FERIA DEL USADO";;;"(57) (6) 3257850";"Cl 23 11-01 Colombia, Pereira"
"SERVICIO AUTOFIAT";;;"(57) (1) 3473804";"Cr22 51-25 Colombia, Bogotá"
"VELKAR S.A.S.";;;"Telefax: (57) (1) 2059163";"Cl 51 S 11-36 Colombia, Bogotá"
"ORIGINAL MOTOR'S";;;"(57) (2) 8228822";"Cl 1 8-37 Colombia, Popayán"
"ROBERTO CAR S LTDA.";;;"Telefax: (57) (1) 4056244";"Cr53 5 B-69 Colombia, Bogotá"
"BYD MOTOR COLOMBIA S.A.S.";;;"Telefax: (57) (1) 2364306";"Cl 26 69 D - 91 Of 605 Colombia, Bogotá"
ORBIAUTOS;;;"(57) (2) 7313283";"Cl 20 31 C-70 Colombia, Pasto"
"COMPAÑÍA DE AUTOENSAMBLE NISSAN LTDA.";;;"Telefax: (57) (1) 5943200";"Cl 13 50 - 69 Colombia, Bogotá"
"DISTRIBUIDORA ANDINA DE LLANTAS Y SERVICIOS S.A.S.";;;"Telefax: (57) (1) 2519143";"Cr78 A 76-09 Colombia, Bogotá"
"MAKROTAXIX SAN JUAN S.A.";;;"(57) (4) 4165274";"Cl 44 70-43 Colombia, Medellín"
"EMBRAGUES Y DISCOS LA 45";;;"(57) (4) 2311918";"Cl 45 58-04 Colombia, Medellín"
"GRÚAS ABAD";;;"(57) (4) 4449309";"Cl 31 44-167 Colombia, Medellín"
"CONSIGNATARIA AUTO SPORT";;;"(57) (6) 7440606";"Cr18 23-54 Colombia, Armenia"
"HUAWEI TECHNOLOGIES COLOMBIA S.A.S.";;;"Telefax: (57) (1) 3768948";"Cr45 108-27 Trr 3 P 15 Colombia, Bogotá"
SINCROMOTORS;;;"(57) (1) 8620745";"1.5 Km via centrochía Cajicá Colombia, Bogotá"
"IMPORTADORA MAZ-LUV S.A.";;;"(57) (6) 7441606";"Cr22 17-42 Colombia, Armenia"
"TU CARRO.COM";;;"(57) (1) 5311099";"Cl 93 B 17-25 Of 211 Colombia, Bogotá"
"AUTOS EL TRÉBOL E.U.";;;"(57) (7) 5776498";"Av Libertadores 9 A N-08 Colombia, Cúcuta"
CITROEN;;;"(57) (1) 6262499";"Av (Cr) 7 129-29 Colombia, Bogotá"
"First Name";"Email Address";Url;Telephone;Address
REYMAUTOS;;;"(57) (2) 6822056";"Cl 10 14-62 L-29 Colombia, Cali"
IDENTEV;;;"(57) (2) 3369889";"Cl 17 A 25-37 Colombia, Cali"
"MICROTAXIMETROS Y TAXIS EDICAR";;;"(57) (2) 4469084";"Cr5 44 A-05 Colombia, Cali"
"COMERCIALIZADORA NACIONAL DE VEHÍCULOS DEL VALLE LTDA.";;;"(57) (2) 6653675";"Av4 N 49 N-29 Colombia, Cali"
"CREDI TAXIS CALI S.A.S.";;;"(57) (2) 6640000";"Av3 N 39-35 Colombia, Cali"
"MECANICO JORGE MORALES";;;"(57) (2) 2732300";"Cr29 33-52 Colombia, Palmira"
"CDA MEDELLÍN S.A.S";;;"(57) (4) 5120666";"Cl 60 53-32 Colombia, Medellín"
"CLASE EJECUTIVA F.S.A.";;;"(57) (2) 3314730";"Cl 13 B 85 B-05 Colombia, Cali"
"MAZDA CONCESIONARIOS";;;"(57) (1) 7470070";"Cl 170 72-70 Colombia, Bogotá"
"W.G CAR STORE";;;"(57) (2) 5580190";"Cl 8 30 A-52 Colombia, Cali"
RENOVAMOTOR;;;"(57) (6) 3171000";"Cl 105 13-48 Zona Ind Belmonte Colombia, Pereira"
"PROMOTORES S.A";;;"(57) (7) 5745810";"Av 0 1 N-35 Colombia, Cúcuta"
"NACIONAL DE FURGONES - FURGONES NFS E.U.";;;"(57) (7) 6718008";"Cr18 16-48 Mutualidad Colombia, Bucaramanga"
"COLMOTORS DEL VALLE";;;"(57) (2) 4879512";"Cl 13 77-105 Colombia, Cali"
"SANTAELLA MOTORS";;;"(57) (7) 6475943";"Cr27 51-73 Colombia, Bucaramanga"
"AUTOS MANIZALES";;;"(57) (6) 8848215";"Cr23 16-32 Colombia, Manizales"
"VEHÍCULOS PRODUCTIVOS DEL VALLE";;;"(57) (2) 4026164";"Cl 9 C 44-82 Colombia, Cali"
"ACM VEHÍCULOS LTDA.";;;"(57) (8) 6685792";"Cl 26 38-103 Colombia, Villavicencio"
"MOTORKIA PASTO S.A.S.";;;"(57) (2) 7311059";"Cr 40 A 17 A-35 Colombia, Pasto"
"ORIENT TRUCKS S.A.";;;"(57) (7) 5831065";"Av3 8-19 Centro Colombia, Cúcuta"
FONTICOCHES;;;"(57) (1) 2925603";"Av (Cr) 86 8-12 Colombia, Bogotá"
"ALCIAUTOS LTDA.";;;"(57) (8) 6321197";"Cr20 18-05 Colombia, Yopal"
"TAXI AUTOS DEL VALLE";;;"(57) (2) 2114989";"Cl 11 10-82 Colombia, Cartago"
"CENTROS AUTOS";;;"(57) (7) 6526911";"Cl 50 A 21-05 La Concordia Colombia, Bucaramanga"
"CONSIGNATARIA RANAUTOS";;;"(57) (7) 6342428";"Cr27 Cl 35 Esq Colombia, Bucaramanga"
"SERVICIO ELÉCTRICO PELUFO";;;"(57) (2) 4478402";"Cl 44 B 4 E-18 Colombia, Cali"
"CALI AUTOS";;;"(57) (2) 6823319";"Cl 7 30 A-55 P-3 Colombia, Cali"
"VEN & SER AUTOMOTRIZ";;;"(57) (2) 5133941";"Cr42 9-05 Colombia, Cali"
FOTÓN;;;"(57) (7) 5799686";"Av7 10 N-22 Sevilla Colombia, Cúcuta"
AUTOSTOK;;;"(57) (7) 5730800";"Cl 13 2 Este-121 Caobos Colombia, Cúcuta"
"TAXI AUTOS HIPERCENTRO";;;"(57) (7) 6430001";"Cr27 48-60 Colombia, Bucaramanga"
"SERVICENTRO LA UNION";;;"(57) (7) 6332929";"Cr17 42-42 Colombia, Bucaramanga"
CASAUTOS-HYUNDAI-MITSUBISHI-CINASCAR;;;"(57) (6) 8847300";"Cr23 35-15 Colombia, Manizales"
"APINO VEHÍCULOS";;;"(57) (6) 8816704";"Av Kevin Angel 64A-230 Colombia, Manizales"
"PRACO DIDACOL S.A.S";;;"(57) (6) 8751818";"Av Kevin Angel 60-290 Colombia, Manizales"
"ORIGINAL MOTOR'S";;;"(57) (2) 8228822";"Cl 1 8-37 Colombia, Popayán"
"CENTRAL RECONSTRUCTORA DE TURBOS S.A.S.";;;"Telefax: (57) (1) 5758119";"Cr80 58 K-59 S Colombia, Bogotá"
"ALFAY ASEM S.A.S.";;;"Telefax: (57) (1) 2677560";"Dg16 96 G-24 Colombia, Bogotá"
"FURGONES Y CARROCERÍAS DE COLOMBIA LTDA.";;;"Telefax: (57) (1) 2027259";"Cl 29 A S 29 B-16 Colombia, Bogotá"
"JUACO AUTOMOVILES";;;"(57) (1) 6202511";"Av19 108-45 Of 402A Colombia, Bogotá"
"First Name";"Email Address";Url;Telephone;Address
"DISTRIBUIDORA MARYMAR";;;"(57) (4) 2615642";"Cr53 36-38 Colombia, Medellín"
MULTIAUTOS;;;"(57) (1) 8610504";"Cl 2 4-28 Variante Cota Chía Colombia, Chía"
"CAJAS AUTOMATICAS CRUZ";;;"(57) (1) 2499756";"Cr 22 63c-80 Colombia, Bogotá"
"USADOS LA 43";;;"(57) (5) 3684218";"Cr43 69-76 Colombia, Barranquilla"
"GAMA ALTA RENTA CAR";;;"(57) (1) 2031394";"Cr46 A 8-38 S Colombia, Bogotá"
"AUTOBUSES Y VEHICULOS CONDOR";;;"(57) (1) 7242355";"Dg68 C S 70 A-58 Colombia, Bogotá"
"ELÉCTRICOS AGROMOTRIZ LTDA.";;;"(57) (2) 8842385";"Cr4 24-10 Colombia, Cali"
"FRENOS SEVILLA";;;"(57) (4) 2336954";"Cr51 C 82-35 Colombia, Medellín"
"ANDINA MOTORS S.A.";;;"(57) (2) 4422274";"Cr8 33-16 Colombia, Cali"
"CONSIGNATARIA DISTIN-AUTOS";;;"(57) (7) 6323915";"Av Quebrada Seca 29-45 San Alonso Colombia, Bucaramanga"
"SANARLLANTAS S.A.S";;;"(57) (4) 2881530";"Cl 49 S 43 A-189 Colombia, Medellín"
"SERVICIO ELÉCTRICO PELUFO";;;"(57) (2) 4478402";"Cl 44 B 4 E-18 Colombia, Cali"
"INVERSIONES FAMILIA MILLÁN & HENAO S.A.S.";;;"Telefax: (57) (1) 6141584";"Cl 150 A 5 A - 50 Casa 3 Colombia, Bogotá"
"W ELECTRONICA S.A.S.";;;"Telefax: (57) (1) 5403234";"Cr29 66-41 Colombia, Bogotá"
"MOTOINVERSIONES S.A.S.";;;"Telefax: (57) (1) 6034296";"Cr56 151-52 Int 1 Ap 501 Colombia, Bogotá"
"COMPAÑÍA DE AUTOENSAMBLE NISSAN LTDA.";;;"Telefax: (57) (1) 5943200";"Cl 13 50 - 69 Colombia, Bogotá"
"AUTOS & SERVICIO CALI";;;"(57) (2) 6670214";"A 4 N 32 N 8 Colombia, Cali"
"CENTRO REPUESTOS ""YA""";;;"(57) (2) 4432012";"Cr15 30-07 Colombia, Cali"
"JR SERVICAR AIRE ACONDICIONADO";;;"(57) (2) 8816239";"Cl 25 4-62 Colombia, Cali"
"HIMALAYA MOTOR";;;"(57) (2) 3960013";"Av3 N 39 N-08 Colombia, Cali"
CHANEME-VOLVO;;;"(57) (4) 2665311";"Cr48 16-45 Colombia, Medellín"
ALQUILOCAMIONETAS.COM;;;"(57) (1) 5379090";"Cl 127 A 88 C-04 Colombia, Bogotá"
"NON PLUS ULTRA S.A.";;;"(57) (1) 3647444";"Cl 31 6-36 Colombia, Bogotá"
"AUTOS CARRERA";;;"(57) (2) 8825050";"Cl 52 1 B-160 Colombia, Cali"
"AUTOZAR LTDA.";;;"(57) (1) 2575459";"Cr 57 93-01 Colombia, Bogotá"
"VEHICARS S.A.S";;;"(57) (1) 2555187";"Av (Cr) 24 73-38 Colombia, Bogotá"
"SUZUKI DE LA SIERRA";;;"(57) (4) 6050999";"Cr43 A 30-121 Colombia, Medellín"
"CARS BOTES";;;"(57) (5) 6561079";"19-120 Av Pedro de Heredia Colombia, Cartagena"
AUTOMAS;;;"(57) (5) 3692893";"Cl 74 44-29 Colombia, Barranquilla"
"AUTOLAUREL HONDA";;;"(57) (5) 3682120";"Cl 72 57-14 Colombia, Barranquilla"
"TAXI MÍO DE LA COSTA";;;"(57) (5) 3108888";"Cr43 80-205 Ciudad Jardín Colombia, Barranquilla"
"AUTOS RONDÓN";;;"(57) (1) 2550615";"Cr20 B 77-11 Colombia, Bogotá"
"CARPAS JAGUAR";;;"(57) (1) 2696932";"Cr30 47 A-18 Colombia, Bogotá"
"DYNAMIC'S TEAM";;;"(57) (1) 6718457";"Cl 161 20-76 Colombia, Bogotá"
JAC;;;"(57) (1) 4375599";"Av Boyacá 77 A-41 Colombia, Bogotá"
"CENTRO COMERCIAL AUTOMOTRIZ";;;"(57) (4) 2323798";"Cr43 A 19 A-87 Of 237 Colombia, Medellín"
"TAXIS Y AUTOS DEL SUR LTDA.";;;"(57) (2) 5573675";"Cl 9 17-36 Colombia, Cali"
MESAUTOS;;;"(57) (1) 7207388";"Cr50 2 B-47 Colombia, Bogotá"
"ARTHUR GRUAS S.A.S.";;;"(57) (4) 2323494";"Cr52 34-02 Colombia, Medellín"
"CONCESIONARIO CHEVROLET YANACONAS MOTOR";;;"(57) (2) 6804444";"Cr44 9 C-97 Colombia, Cali"
"First Name";"Email Address";Url;Telephone;Address
"TU CARRO.COM";;;"(57) (1) 5311099";"Cl 93 B 17-25 Of 211 Colombia, Bogotá"
"AUTOMOTORES LA PATRIA LTDA.";;;"(57) (1) 6962212";"Cl 87 49 D - 29 Colombia, Bogotá"
"OLARTE VERGARA JORGE ALEXANDER";;;"(57) (1) 4210490";"Cr 106 13 D 49 Colombia, Bogotá"
"FURGORIENTE S.A.";;;"(57) (7) 3153167830";"Cr17 4-67 Vía Chimitá Girón Colombia, Girón"
"PELAEZ GUSTAVO";;;"(57) (1) 3614986";"Cl 20 Sur #-15 -11 Colombia, Bogotá"
JARIAUTOS;;;"(57) (2) 4386500";"Cr10 47-28 Colombia, Cali"
"CARROCERÍAS TECNICAR S.A.S.";;;"Telefax: (57) (1) 6099927";"Cr72 G 40-39 S Colombia, Bogotá"
"GRUPO ABRIL S.A.S.";;;"Telefax: (57) (1) 2708926";"Cl 26 S 52-57 Colombia, Bogotá"
"VENDO EXPRESS";;;"(57) (8) 8351022";"Cr2 2 S-03 Esq Colombia, Pitalito"
"TALLER Y CERRAJERÍA LA SEGUNDA JOTA";;;"(57) (2) 6570206";"Cl 15 15-14 Yumbo Colombia, Yumbo"
"DISTRI ROBLE";;;"(57) (4) 7823800";"Cr2 40-53 Colombia, Montería"
"INVERMOTOR E.U";;;"(57) (1) 6373018";"Av19 118-95 Of 310 Colombia, Bogotá"
"SSANGYONG CAPITAL - ANDRÓMEDA MOTORS S.A.";;;"(57) (1) 2537479";"Cl 127 71 B-33 Colombia, Bogotá"
"CARROCERÍA PINK PANTHER";;;"(57) (2) 4441322";"Cl 32 6 A-70 Colombia, Cali"
"COLOMBIANA FOTON";;;"(57) (2) 6674402";"Av3 N 34-46 Colombia, Cali"
GARAUTOS;;;"(57) (2) 6837158";"Cl 9 42-43 Colombia, Cali"
"GIPAR INTERNACIONAL S.A.";;;"Telefax: (57) (1) 6252211";"Av (Cr) 19 127 A - 15 Colombia, Bogotá"
"ASAN MOTORS LTDA.";;;"(57) (8) 7470012";"Av Norte 52-25 Colombia, Tunja"
"CENTRAL S.A.S.";;;"(57) (1) 3690500";"Av Américas 36-11 Colombia, Bogotá"
".AUTOS 54";;;"(57) (1) 2176501";"Cr7 54-65 Colombia, Bogotá"
"INVERAUTOS LTDA.";;;"(57) (8) 8714430";"Cr5 Cl 11 Esq Colombia, Neiva"
AUTOMAS;;;"(57) (5) 3692893";"Cl 74 44-29 Colombia, Barranquilla"
"PLAZA AUTOMOTRIZ LTDA.";;;"(57) (1) 6179896";"Av (Cl) 116 54-79 Colombia, Bogotá"
"SAKURA MOTORS";;;"Telefax: (57) (1) 2468274";"Av Caracas 3-65 S Colombia, Bogotá"
"SERVI CARS AGUIRRE E.U.";;;"(57) (1) 6976946";"CL 151 115-28 Ap 302 Colombia, Bogotá"
"AUTO IDEAL";;;"(57) (2) 8837605";"Cl 15 23-141 Colombia, Cali"
ISI-AUTOS;;;"(57) (7) 6337585";"Dg15 52-39 La Concordia Colombia, Bucaramanga"
"SANTAELLA MOTORS";;;"(57) (7) 6475943";"Cr27 51-73 Colombia, Bucaramanga"
"CAMPEROS Y AUTOS DEL SUR";;;"(57) (2) 5587828";"Cr31 9 C-02 Colombia, Cali"
"VEN & SER AUTOMOTRIZ";;;"(57) (2) 5133941";"Cr42 9-05 Colombia, Cali"
"MIRAMOTOS DE SUBA S.A.S.";;;"Telefax: (57) (1) 6872490";"Cl 130 DBis 104-03 Int 1 L-1 Colombia, Bogotá"
"AUTO PRESTIGE";;;"(57) (1) 7527206";"Av Pepe Sierra 70 C-25 Colombia, Bogotá"
"SURTIREPUESTOS Y DIRECCIONES";;;"(57) (1) 3417301";"Cl 8 15- 47 Colombia, Bogotá"
DISTRICAMPER;;;"(57) (8) 8361654";"Cl 1 4-50 Colombia, Pitalito"
"INVERSIONES MALOOF HABIB S. EN C.";;;"(57) (5) 3532618";"Cl 77 B 57-141 Colombia, Barranquilla"
"PRACO DIDACOL S.A.S";;;"(57) (6) 8751818";"Av Kevin Angel 60-290 Colombia, Manizales"
"AUTOCITY REMA LTDA";;;"(57) (1) 6192086";"Av 19 104-94 Colombia, Bogotá"
"AUTOS Y CAMPEROS";;;"(57) (4) 4138952";"Cl 43 71-15 Colombia, Medellín"
"HYUNDAI SEUL MOTORS S.A.";;;"(57) (2) 6652890";"Av3 N 73-12 Autop Cali Yumbo Colombia, Yumbo"
"IVANAUTOS LTDA.";;;"(57) (6) 7455211";"Cl 3 19-16 L-1 Colombia, Armenia"
"First Name";"Email Address";Url;Telephone;Address
SERVIESPUMA;;;"(57) (8) 2655389";"Cr8 28-36 Av Guabinal Belalcázar Colombia, Ibagué"
"INDUSTRIAL RENTAS Y RENTAS";;;"(57) (2) 3397906";"Cl 12 87-40 Ap 121 Colombia, Cali"
"CDA MEDELLÍN S.A.S";;;"(57) (4) 5120666";"Cl 60 53-32 Colombia, Medellín"
"CONCESIONARIO AUTOMOTRIZ TAXI AUTOS DE OCCIDENTE LTDA.";;;"(57) (2) 6673632";"Av Vásquez Cobo 28 N-46 Colombia, Cali"
"INTERNACIONAL DE PARTES";;;"(57) (7) 6331287";"Cr11 22-51 Colombia, Bucaramanga"
"MITSU MAZDA";;;"(57) (7) 6711543";"Cl 16 15-44 Colombia, Bucaramanga"
"ALMACÉN DE REPUESTOS ZULUAGA";;;"(57) (4) 2310743";"Cr59 48-46 Colombia, Medellín"
"CENTRO TOYOTA NISSAN";;;"(57) (1) 3419927";"Cl 8 15-24 Colombia, Bogotá"
"CRUMP AMÉRICA";;;"(57) (1) 2609923";"Cl 19 68-75 Colombia, Bogotá"
"CDA DIESEL FULL";;;"(57) (6) 3346934";"Cl 21 10-60 Colombia, Pereira"
JARIAUTOS;;;"(57) (2) 4386500";"Cr10 47-28 Colombia, Cali"
PERMUTAXIS;;;"(57) (7) 6335041";"Cl 46 22-74 Colombia, Bucaramanga"
"AUTOS LA 24";;;"(57) (6) 7449888";"Cl 24 17-18 Colombia, Armenia"
"VEHICALDAS S.A. CONCESIONARIO TOYOTA";;;"(57) (6) 8846666";"Cr23 34-37 Colombia, Manizales"
"COMERCIALIZADORA AUTOMOTRIZ SVA";;;"(57) (2) 3740968";"Av3 N 40-104 Colombia, Cali"
"AGENCIA DE ALQUILER RENTA CAR.COM";;;"(57) (4) 3844460";"Cr43 31-76 Colombia, Medellín"
"CONSIGNATARIA AUTOFRAN";;;"(57) (6) 3356420";"Cl 22 15-06 Colombia, Pereira"
"MACOPLES LTDA.";;;"Telefax: (57) (1) 2628661";"Cl 14 54-33 Colombia, Bogotá"
"MIRAMOTOS DE SUBA S.A.S.";;;"Telefax: (57) (1) 6872490";"Cl 130 DBis 104-03 Int 1 L-1 Colombia, Bogotá"
"SOLUCIONES INTEGRALES PARA CARROCERÍAS S.A.S.";;;"Telefax: (57) (1) 2270475";"Cr118 83 A-59 Colombia, Bogotá"
"AUTO PRESTIGE";;;"(57) (1) 7527206";"Av Pepe Sierra 70 C-25 Colombia, Bogotá"
"ELECTRODIESEL LTDA.";;;"(57) (5) 3721144";"Cl 45 33-158 Barranquilla Colombia, Barranquilla"
"AUTOMOTORES LUNA PARK";;;"(57) (1) 3332724";"Cl 12 S 14 A-22 Colombia, Bogotá"
"DISTRIVEHÍCULOS MVL";;;"(57) (1) 3281539";"Cr14 1 C-46 Colombia, Bogotá"
"RECONSTRUCCION DE PIEZAS AUTOMOTORE JORGE URIBE";;;"(57) (4) 3388436";"Cl 128 s 46-07 Caldas Colombia, Medellín"
"ALQUILER DE AUTOS MEDELLÍN RENTACAR";;;"(57) (4) 4488950";"Cl 9 43 A-21 L-13 Colombia, Medellín"
"ARTHUR GRUAS S.A.S.";;;"(57) (4) 2323494";"Cr52 34-02 Colombia, Medellín"
"LIMOSINAS HUMMER DE COLOMBIA";;;"(57) 3102813275";"Cr55 128 A-84 Colombia, Bogotá"
"TALLER AUTOSERVICIO LA 38 NISSAN";;;"(57) (4) 3313157";"Cr31 39 S-06 Envigado Colombia, Envigado"
UBICARS.COM;;;"(57) (5) 3586444";"Cr41 C 73 B-31 Colombia, Barranquilla"
"AUTOMOTORES FUJIYAMA";;;"(57) (5) 6663081";"Cl 32 20 A-26 Av Pedro de Heredia con Calle Mompox Esq Colombia, Cartagena"
"AUTOSUPERIOR S.A.S.";;;"(57) (2) 8331010";"Cl 18 N 6-36 Colombia, Popayán"
"GABRIMOTOR LTDA.";;;"(57) (1) 6606646";"Av (Cl) 80 69 H - 31 Colombia, Bogotá"
"GESTIONAMOS CREDICAR";;;"(57) (4) 7904537";"Cl 39 11-25 Colombia, Montería"
"AUTO ROBLE LTDA.";;;"(57) (5) 2820282";"Cr25 25-189 Av Okala Colombia, Sincelejo"
SIRIAUTOS;;;"(57) (5) 2826109";"Cl 28 21-39 Colombia, Sincelejo"
"ELECTROSISTEMAS DISEL LTDA.";;;"Telefax: (57) (1) 7289241";"Cr86 A 50 B-S-05 Colombia, Bogotá"
"TAXMOTOR DE COLOMBIA S.A.";;;"(57) (5) 3021010";"Cl 84 44-10 Granadillo Colombia, Barranquilla"
"MEGA AUTOS";;;"(57) (8) 6717330";"Cr26 Dg 47 A Esq. Brr. La Grama Colombia, Villavicencio"
CAMINOS;;;"(57) (6) 7384000";"Av Bolívar 23 N-46 Colombia, Armenia"
"First Name";"Email Address";Url;Telephone;Address
"ALMACÉN DE REPUESTOS 4 X 4";;;"(57) (4) 5123090";"Cr58 45-60 Colombia, Medellín"
"COM AUTOMOTRÍZ LTDA.";;;"(57) (1) 6375333";"Av19 123-44 Colombia, Bogotá"
"CITROVALLE LTDA.";;;"(57) (2) 3154236";"Av Pasoancho 73-56 Colombia, Cali"
"AUTOMOTORA BOULEVAR E.U.";;;"(57) (7) 6451761";"Boulevar Bolívar 25-32 Colombia, Bucaramanga"
"DISTOYOTA LTDA.";;;"(57) (7) 6574857";"Cr27 53-21 Colombia, Bucaramanga"
"ASIA PARTES";;;"(57) (1) 2315787";"Cr24 75 A-13 Colombia, Bogotá"
"CAR CIEN LTDA";;;"(57) (1) 4363260";"Av Boyacá 76-81/87 Es Colombia, Bogotá"
"CENTROS AUTOS";;;"(57) (7) 6526911";"Cl 50 A 21-05 La Concordia Colombia, Bucaramanga"
PERMUTAXIS;;;"(57) (7) 6335041";"Cl 46 22-74 Colombia, Bucaramanga"
"CAR XTREME";;;"(57) (2) 5531408";"Cr50 10-45 Colombia, Cali"
"ROBLE MOTOR PEREIRA";;;"(57) (6) 3351951";"Cr14 A 20 A-43 Colombia, Pereira"
"CENTRO DE SERVICIO FORD E.U.";;;"(57) (1) 3701339";"Cr21 7-59 Colombia, Bogotá"
"KIA MOTORS";;;"(57) (5) 4231946";"Cr4 24-35 Colombia, Santa Marta"
"JAPAN CENTER LTDA.";;;"(57) (1) 3463786";"Cl 78 22-21 Colombia, Bogotá"
"CALIMA DIESEL S.A.";;;"(57) (2) 7213200";"Cl 12 4-210 Chapal Colombia, Pasto"
"LOGÍSTICA 3222222";;;"(57) (5) 3782222";"Cr43 79 B-71 Colombia, Barranquilla"
"AUTOS ALEAN";;;"(57) (5) 3721307";"Cr46 58-21 Colombia, Barranquilla"
"MODELAUTOS 2009";;;"(57) (2) 5511010";"Cl 9 51-129 Of 101 Colombia, Cali"
SERVIVIDRIOS.;;;"(57) (5) 3790222";"Cl 45 24-54 Colombia, Barranquilla"
"GAMA ALTA RENTA CAR";;;"(57) (1) 2031394";"Cr46 A 8-38 S Colombia, Bogotá"
"LLAVES LA COLMENA ESTADIO - MAYORGA";;;"(57) (4) 4488222";"Cr74 49 B-19 Colombia, Medellín"
"CENTRO COMERCIAL AUTOMOTRIZ";;;"(57) (4) 2323798";"Cr43 A 19 A-87 Of 237 Colombia, Medellín"
"INDUSTRIAL RENTAS Y RENTAS";;;"(57) (2) 3397906";"Cl 12 87-40 Ap 121 Colombia, Cali"
"CONSIGNATARIA RIGOAUTOS";;;"(57) (2) 7233644";"Cr30 16 B-06 Colombia, Pasto"
FONTICOCHES;;;"(57) (1) 2925603";"Av (Cr) 86 8-12 Colombia, Bogotá"
"FOTON CAMIONES Y TRACTORES";;;"Nal: (57) (7) 6905781";"Av QSeca 29-10 Colombia, Bucaramanga"
MESURAUTOS;;;"(57) (7) 6473055";"Cl 56 27-94 Colombia, Bucaramanga"
"AUTOAMBIENTAL CENTRO DE DIAGNOSTICO AUTOMOTOR";;;"(57) (2) 2242553";"Cl 13 38 B-47 B/Morales Colombia, Tuluá"
GARAUTOS;;;"(57) (2) 6837158";"Cl 9 42-43 Colombia, Cali"
"IMPORTADORA SUPER JAPÓN";;;"(57) (4) 4446950";"Cr43 A 30-74 Colombia, Medellín"
"ANDRÓMEDA MOTORS S.A.";;;"Telefax: (57) (2) 6651505";"Av3 N 33-22 Colombia, Cali"
"LIMOSINAS HUMMER DE COLOMBIA";;;"(57) 3102813275";"Cr55 128 A-84 Colombia, Bogotá"
"AUTOS Y CAMPEROS";;;"(57) (4) 4138952";"Cl 43 71-15 Colombia, Medellín"
"ANDINA MOTORS S.A.";;;"(57) (2) 4422274";"Cr8 33-16 Colombia, Cali"
"BARÚ MOTOR'S";;;"(57) (5) 6663894";"Cl 30 19-64 Colombia, Cartagena"
"AUTO FIAT MOTOR";;;"(57) (2) 8961211";"Cl 21 14-06 Colombia, Cali"
MULTIAUTOS;;;"(57) (1) 8610504";"Cl 2 4-28 Variante Cota Chía Colombia, Chía"
"REPARACIÓN AUTOMOTORES TARCISIO ARANGO";;;"(57) (4) 3012380";"Cr48 75 S-104 Sabaneta Colombia, Sabaneta"
NAVITRANS;;;"(57) (4) 3606161";"Cl 11 S 50-50 Colombia, Medellín"
"AUTOMOTORA NORTE Y SUR";;;"(57) (2) 2818694";"Cl C LLanogrande Plaza L-212 Colombia, Palmira"
"First Name";"Email Address";Url;Telephone;Address
"ALEMANA AUTOMOTRIZ S.A.";;;"(57) (5) 3537777";"Cr60 75-175 Colombia, Barranquilla"
"TALLER SERVIFRIO";;;"(57) (5) 3795005";"Cl 40 43-135 Colombia, Barranquilla"
"RENTA DE CARROS EN MEDELLÍN - ABC RENT A CAR - ALQUILER DE AUTOS EN COLOMBIA";;;"(57) 3112272723";"Atiende Desde Su Sede Principal Colombia, Medellín"
"SSANGYONG CAPITAL - ANDRÓMEDA MOTORS S.A.";;;"(57) (1) 2537479";"Cl 127 71 B-33 Colombia, Bogotá"
"PACÍFICO AUTOMOTRIZ ANDRÓMEDA MOTORS S.A.";;;"(57) (1) 2376273";"Cr35 13-13 Colombia, Bogotá"
EXITCOCHES;;;"(57) (1) 4511231";"Dg40 C S 72 J-80 B-9 Ap 502 Colombia, Bogotá"
"CHINA AUTOMOTRIZ";;;"(57) (1) 2376273";"Cr35 13-13 Colombia, Bogotá"
"AUTOS 79";;;"(57) (5) 3739314";"Cl 82 51-44 Colombia, Barranquilla"
"C I CENTERINCORP S.A.S.";;;"Telefax: (57) (1) 2187295";"Cr14 83 - 54 P-1 Colombia, Bogotá"
"RUBIEL REPUESTOS";;;"(57) (1) 2840714";"Cr15 7-89 Colombia, Bogotá"
"COMERCIALIZADORA BBC S.A.S.";;;"Telefax: (57) (1) 6180781";"Cl 81 11 - 68 Of 609 Colombia, Bogotá"
"HYUNDAI SEUL MOTORS S.A.";;;"(57) (2) 6652890";"Av3 N 73-12 Autop Cali Yumbo Colombia, Yumbo"
"CITROVALLE LTDA.";;;"(57) (2) 3154236";"Av Pasoancho 73-56 Colombia, Cali"
"SOLO CHAPAS Y CREMALLERAS";;;"(57) (2) 6844120";"Cr5 29-25 Colombia, Cali"
"GUTIERREZ E HIJOS & CIA. S. EN C.";;;"(57) (2) 4470090";"Cr2 N 45 A-09 Colombia, Cali"
"COLSAISA S.A.S.";;;"(57) (1) 4183834";"Cl 25 99-29 P-3 Colombia, Bogotá"
"MAZDA CONCESIONARIOS";;;"(57) (1) 7470070";"Cl 170 72-70 Colombia, Bogotá"
"W.G CAR STORE";;;"(57) (2) 5580190";"Cl 8 30 A-52 Colombia, Cali"
RENOVAMOTOR;;;"(57) (6) 3171000";"Cl 105 13-48 Zona Ind Belmonte Colombia, Pereira"
"MUNDO AUTOS PEREIRA";;;"(57) (6) 3294749";"Av30 de Agosto 32 B-21 Colombia, Pereira"
"M&F MOTORS";;;"(57) (7) 6450790";"Cr27 18-50 San Francisco Colombia, Bucaramanga"
"AUTOS MARCA";;;"(57) (1) 7470070";"Cl 170 72-70 Colombia, Bogotá"
"CONSIGNATARIA RIGOAUTOS";;;"(57) (2) 7233644";"Cr30 16 B-06 Colombia, Pasto"
"SUBARU DE COLOMBIA S.A.";;;"(57) (7) 6360160";"Autop Floridablanca 91-55 Colombia, Bucaramanga"
"ORIENT TRUCKS S.A.";;;"(57) (7) 5831065";"Av3 8-19 Centro Colombia, Cúcuta"
ALBERAUTOS;;;"(57) (2) 6826258";"Av3 N 40-104 Colombia, Cali"
"ALCIAUTOS LTDA.";;;"(57) (8) 6321197";"Cr20 18-05 Colombia, Yopal"
"AUTOS Y MAS";;;"(57) (7) 6351870";"Cr27 A 40-43 Colombia, Bucaramanga"
"JH VEHÍCULOS Y CÍA LTDA.";;;"(57) (8) 2668879";"Cr5 49-94 Colombia, Ibagué"
"LUBRISERVICIOS SENA";;;"(57) (2) 6828347";"Cr2 54-05 Colombia, Cali"
"GONZÁLEZ GARCÍA ASOCIADOS LTDA.";;;"Telefax: (57) (1) 4086733";"Cl 2 B-26-43 Colombia, Bogotá"
"CABLLANTAS S.A.S.";;;"Telefax: (57) (1) 8126073";"Cr99 64 G-65 Colombia, Bogotá"
"CARROCERÍAS LA FORTALEZA LTDA.";;;"Telefax: (57) (1) 4030579";"Cr72 L-37 S-34 Colombia, Bogotá"
VEHICOSTA;;;"(57) (5) 6569999";"Cl 30 18 A-04 Colombia, Cartagena"
"CAR TUNING";;;"(57) (4) 4446950";"Cr43 A 30-74 Colombia, Medellín"
"SUPER CAR 7 DE AGOSTO JB S.A.S.";;;"Telefax: (57) (1) 6305710";"Cr27 66-02 Colombia, Bogotá"
"LOGÍSTICA 3222222";;;"(57) (5) 3782222";"Cr43 79 B-71 Colombia, Barranquilla"
"LOS CAMIONES DE OCCIDENTE";;;"(57) (1) 2926880";"Cl 13 70-46 P-2 Colombia, Bogotá"
"AUTOMOTOIRA PALMERA VALLEDUPAR";;;"(57) (5) 5829384";"Cr7 23-11 Colombia, Valledupar"
"DEPÓSITO SAN LUIS";;;"(57) (1) 3331539";"Dg 4A 14-65 Colombia, Bogotá"
"First Name";"Email Address";Url;Telephone;Address
"IMPORTADORA MAZ-LUV S.A.";;;"(57) (6) 7441606";"Cr22 17-42 Colombia, Armenia"
"ALMACÉN DE REPUESTOS SOCODIS S.A.";;;"(57) (5) 3282678";"Cl 63 3-75 L-3 Av Murillo frente A Granabastos Soledad Colombia, Barranquilla"
"EJEAUTOS CONSIGNATARÍA S.A.S.";;;"(57) 3117882024";"Cr13 Bis Cl 32 Esq Colombia, Pereira"
"ALMACÉN AUTO REPUESTOS LA 60";;;"(57) (5) 3602228";"Cr46 59-58 L-3 Colombia, Barranquilla"
AUTOKOSTA;;;"(57) (5) 4229729";"Cl 29 K 34 D-45 Diagonal A Home Center Colombia, Santa Marta"
"DANIEL'S HITCH DESIGN";;;"(57) (4) 2329512";"Cr45 40-90 Colombia, Medellín"
"NACIONAL DE HIDRÁULICOS Y DIRECCIONES";;;"(57) (1) 2312735";"Cl 66 28 A-12 Colombia, Bogotá"
"WILLIANAUTOS LTDA.";;;"(57) (1) 2630555";"Cr82 51-38 Colombia, Bogotá"
CARPLAZA;;;"(57) (2) 6651030";"Av6 N 44-05 Colombia, Cali"
"LOS AUTOS PLAZA AUTOMOTRIZ";;;"(57) (2) 5520453";"Cl 10 48-07 Colombia, Cali"
"CARROCERÍAS Y FURGONES LA ESTRELLA";;;"(57) (2) 4453689";"Cr2 40-139 Colombia, Cali"
"AUTOMOTORES BEJARANO";;;"(57) (2) 2280530";"Cr15 8-62 Colombia, Buga"
"CARIBE AUTOMOTRIZ S.A.S.";;;"(57) (2) 4898000";"Cr39 10-25 Colombia, Cali"
"AUTOMOTORA NORTE Y SUR";;;"(57) (2) 2818694";"Cl C LLanogrande Plaza L-212 Colombia, Palmira"
"MAZDA CONCESIONARIOS";;;"(57) (1) 7470070";"Cl 170 72-70 Colombia, Bogotá"
RENOVAMOTOR;;;"(57) (6) 3171000";"Cl 105 13-48 Zona Ind Belmonte Colombia, Pereira"
"P & P AUTOMÓVILES LTDA.";;;"(57) (8) 2636455";"Cr6 20-19 Colombia, Ibagué"
"AUTOMOTRIZ CALDAS MOTOR S.A.S";;;"(57) (6) 8842100";"Cr23 34-07 Colombia, Manizales"
"AUTOS DACAR";;;"(57) (2) 5535330";"Cl 9 39-42 Colombia, Cali"
"FIAT-MOTORKIAPASTO S.A.S.";;;"(57) (2) 7311059";"Cl 20 35-22 Av. Los Estudiantes Colombia, Pasto"
"JAC-MOTORKIA S.A.S";;;"(57) (2) 7311059";"Cl 20 35-22 Av. Los Estudiantes Colombia, Pasto"
"AUTOS EL TRÉBOL E.U.";;;"(57) (7) 5776498";"Av Libertadores 9 A N-08 Colombia, Cúcuta"
"HSD GRUPO EMPRESARIAL";;;"(57) (1) 2319287";"Cl 63 G 28-76 Colombia, Bogotá"
"DAJUNI LTDA.";;;"(57) (1) 3347997";"Cl 8 14-25/27 Colombia, Bogotá"
JARIAUTOS;;;"(57) (2) 4386500";"Cr10 47-28 Colombia, Cali"
"AGIL LLAVES";;;"(57) (7) 6340311";"Cl 41 36-20 El Prado Colombia, Bucaramanga"
"CONSIGNATARIA DISTIN-AUTOS";;;"(57) (7) 6323915";"Av Quebrada Seca 29-45 San Alonso Colombia, Bucaramanga"
"CONSIGNATARIA AUTOMOVILISTICA MIL AUTOS";;;"(57) (7) 6314402";"Cr27 104-11 l-2 La Calleja Colombia, Bucaramanga"
"B Y G MANTILLA LTDA.";;;"(57) (7) 6760106";"Cr3 2-100 Zona Industrial Chimitá Colombia, Bucaramanga"
"FÁBRICA NACIONAL DE AUTOPARTES S.A.";;;"(57) (2) 6806111";"Cr1 45 A-40 Colombia, Cali"
"ISAZA LUIS ALFONSO";;;"(57) (2) 5143469";"Av Roosevelt 36 A-09 Colombia, Cali"
"TRANS-MOTOR R.L.S. IMPORTACIONES Y CÍA. S. EN C.";;;"(57) (2) 8822343";"Cr15 22-01 Colombia, Cali"
"LUBRISERVICIOS SENA";;;"(57) (2) 6828347";"Cr2 54-05 Colombia, Cali"
"MARCHAUTOS CONSIGNATARIA";;;"(57) (7) 6575252";"Cr27 52-51 Colombia, Bucaramanga"
"SOLUCIONES INTEGRALES PARA CARROCERÍAS S.A.S.";;;"Telefax: (57) (1) 2270475";"Cr118 83 A-59 Colombia, Bogotá"
"JUACO AUTOMOVILES";;;"(57) (1) 6202511";"Av19 108-45 Of 402A Colombia, Bogotá"
"SURTIREPUESTOS Y DIRECCIONES";;;"(57) (1) 3417301";"Cl 8 15- 47 Colombia, Bogotá"
"UGLY AMERICAN BAR & GRILL";;;"(57) (1) 3108888";"Cl 81 9-12 Colombia, Bogotá"
"TALLER Y CERRAJERÍA LA SEGUNDA JOTA";;;"(57) (2) 6570206";"Cl 15 15-14 Yumbo Colombia, Yumbo"
"AUTOCAMBIO LTDA.";;;"(57) (2) 7295513";"Cr36 12-52 Av Panamericana Colombia, Pasto"
"First Name";"Email Address";Url;Telephone;Address
"SUBARU DE COLOMBIA S.A.";;;"(57) (1) 6152031";"Av19 128 B-65 Colombia, Bogotá"
"MOTORKIA PASTO S.A.S.";;;"(57) (2) 7311059";"Cr 40 A 17 A-35 Colombia, Pasto"
"MAHINDRA-MOTORKIA S.A.S.";;;"(57) (2) 7311176";"Cr36 9-125 Colombia, Pasto"
"WINNER RENT A CAR";;;"(57) (2) 2131903";"Cl 12 A 10-40 Colombia, Cartago"
SIKAUTO;;;"(57) (8) 2659191";"Cr5 40-01 Colombia, Ibagué"
"AUTOCAR'S LTDA.";;;"(57) (1) 4157714";"Cl 22 111-17 Colombia, Bogotá"
"COMERCIALIZADORA LUBRIMOTORES S.A.S";;;"(57) (2) 4460992";"Cr1 D Bis 64-38 Colombia, Cali"
"AUTOS LA 24";;;"(57) (6) 7449888";"Cl 24 17-18 Colombia, Armenia"
"B Y G MANTILLA LTDA.";;;"(57) (7) 6760106";"Cr3 2-100 Zona Industrial Chimitá Colombia, Bucaramanga"
"ARBELÁEZ DANIELA";;;"(57) (8) 2705629";"B-2 Ap 403 Balcones de Navarra Colombia, Ibagué"
"CENTRO DE DIAGNÓSTICO AUTOMOTOR";;;"(57) (1) 8355999";"Cr10 38-05 Colombia, Girardot"
"ALMACEN TECNIAUTOMOTORES";;;"(57) (7) 6719569";"Cr15 14-45 Colombia, Bucaramanga"
"FÁBRICA NACIONAL DE AUTOPARTES S.A.";;;"(57) (2) 6806111";"Cr1 45 A-40 Colombia, Cali"
"MUNDO TAXIS LTDA.";;;"(57) (2) 6611293";"Cl 25 N 2 D N-39 L-1 Colombia, Cali"
"SURTIPAG S.A.S. AGUIRRE SURTI PAG S.A.S";;;"(57) (5) 6626292";"Camino del Medio Cl 31 A 39/47 Colombia, Cartagena"
"INVERSIONES FAMILIA MILLÁN & HENAO S.A.S.";;;"Telefax: (57) (1) 6141584";"Cl 150 A 5 A - 50 Casa 3 Colombia, Bogotá"
"FURGONES Y CARROCERÍAS DE COLOMBIA LTDA.";;;"Telefax: (57) (1) 2027259";"Cl 29 A S 29 B-16 Colombia, Bogotá"
AUTOBRADIZ;;;"(57) (4) 5114273";"Cl 61 51-79 Colombia, Medellín"
"RADIO TAXIS TAXIS Y AUTOS CALI";;;"(57) (2) 6640000";"Av3 N 39 N-35 Colombia, Cali"
"CHANEME COMERCIAL S.A.";;;"(57) (1) 4242258";"Av. Cl. 17 78 G-59 Colombia, Bogotá"
"BARÚ MOTOR'S";;;"(57) (5) 6663894";"Cl 30 19-64 Colombia, Cartagena"
"AUTO FIAT MOTOR";;;"(57) (2) 8961211";"Cl 21 14-06 Colombia, Cali"
"TAXMOTOR DE COLOMBIA S.A.";;;"(57) (5) 3021010";"Cl 84 44-10 Granadillo Colombia, Barranquilla"
"BERING DAEWOO DE COLOMBIA";;;"(57) (4) 3127670";"Cl 10 30-30 L-205 Colombia, Medellín"
"ULTRACAR S.A.";;;"(57) (1) 2712200";"Av (Cl) 116 55 A-11 Colombia, Bogotá"
"AUTOMOTRIZ INTERAMERICANA S.A";;;"(57) (1) 2150040";"Cl 109 21-36 Colombia, Bogotá"
AUTOUNIÓN;;;"(57) (8) 6621724";"Cr23 36-11 Colombia, Villavicencio"
VEHILLANOS;;;"(57) (8) 6712820";"Cr23 37 D-48 Colombia, Villavicencio"
"IVANAUTOS LTDA.";;;"(57) (6) 7455211";"Cl 3 19-16 L-1 Colombia, Armenia"
"ANDINA AUTOMOTRIZ DECOR CENTER";;;"(57) (6) 8744014";"Av Alberto Mendoza 26-35 Colombia, Manizales"
UBICARS.COM;;;"(57) (5) 3586444";"Cr41 C 73 B-31 Colombia, Barranquilla"
"TODO AUTO 53";;;"(57) (5) 3444789";"Cr53 64-79 Colombia, Barranquilla"
"AUTO SIERRA S.A.";;;"(57) (5) 3493068";"Cr53 64-105 Colombia, Barranquilla"
REPARAR;;;"(57) (4) 7823573";"Cr14 31 A-08 Colombia, Montería"
"RED COMERCIAL";;;"(57) (4) 7851920";"Cr6 61-66 La Castellana Colombia, Montería"
"AUTOMOTORES LA PATRIA LTDA.";;;"(57) (1) 6962212";"Cl 87 49 D - 29 Colombia, Bogotá"
"COMERCIALIZADORA BC S.A.S.";;;"(57) (1) 4794996";"Cr52 128-16 Colombia, Bogotá"
"INTERNATIONAL PARTS DIESEL";;;"(57) (1) 4099841";"Cl 7 16-52 Colombia, Bogotá"
"DORVEL ASESORES Y CIA LTDA.";;;"Telefax: (57) (1) 6853571";"Cr97 147 B - 10 Colombia, Bogotá"
NAVITRANS;;;"(57) (4) 3606161";"Cl 11 S 50-50 Colombia, Medellín"
"First Name";"Email Address";Url;Telephone;Address
"SAKURA MOTORS";;;"Telefax: (57) (1) 2468274";"Av Caracas 3-65 S Colombia, Bogotá"
"DISAUTOS LTDA.";;;"(57) (8) 7600605";"Av de las Américas 27-59 Colombia, Duitama"
"CICON TRADING COMPANY S.A.";;;"(57) (1) 7425060";"Cr103 25 D-80 Colombia, Bogotá"
TECNI-AIRES;;;"(57) (2) 6602301";"Av2 A N 31-114 Colombia, Cali"
"LUVAR IMPORTACIONES LTDA.";;;"(57) (1) 5641686";"CL 41 S 50 A-66 Colombia, Bogotá"
"TALLER Y CARRCERÍAS OCCIDENTE";;;"(57) (2) 4444104";"Cr2 32-39 Colombia, Cali"
"SÓLO AUTOS";;;"(57) (4) 2323944";"Cr44 29-75 Colombia, Medellín"
"RECONSTRUCTORA SUROESTE S.A.S";;;"(57) (4) 4446708";"Cr54 29 C-91 Colombia, Medellín"
"AUTOMOTORES BEJARANO";;;"(57) (2) 2280530";"Cr15 8-62 Colombia, Buga"
"INVERSIONES DE VEHICULOS E INMUEBLES ASOCIADOS";;;"(57) (4) 2325888";"C.C. Automotriz L-71 Colombia, Medellín"
"W.G CAR STORE";;;"(57) (2) 5580190";"Cl 8 30 A-52 Colombia, Cali"
"COLMOTORS DEL VALLE";;;"(57) (2) 4879512";"Cl 13 77-105 Colombia, Cali"
"MUNDIAL DE COLISIONES LTDA";;;"(57) 6349499";"Cr27 21-33 Colombia, Bucaramanga"
"M&F MOTORS";;;"(57) (7) 6450790";"Cr27 18-50 San Francisco Colombia, Bucaramanga"
"ALMACÉN CHEVRO-JAPÓN";;;"(57) (1) 3112929";"Cr26 66-27 Colombia, Bogotá"
"PASTO MOTORS LTDA. - RENAULT";;;"(57) (2) 7230096";"Cl 2 33-82 Av Panamericana Colombia, Pasto"
"DAJUNI LTDA.";;;"(57) (1) 3347997";"Cl 8 14-25/27 Colombia, Bogotá"
"AUTOAMBIENTAL CENTRO DE DIAGNOSTICO AUTOMOTOR";;;"(57) (2) 2242553";"Cl 13 38 B-47 B/Morales Colombia, Tuluá"
CALERAUTOS;;;"(57) (2) 2372223";"Cr11 1-45 Colombia, Buga"
"AUTO PRESTIGE";;;"(57) (1) 7527206";"Av Pepe Sierra 70 C-25 Colombia, Bogotá"
"CARROCERIAS CONTINENTAL LTDA.";;;"Telefax: (57) (1) 7111774";"Cr68 A 36 A S-77 Colombia, Bogotá"
GUANENTAUTOS;;;"(57) (7) 7241909";"Cr17 35-46 C.C. San Gil Plaza Local 337 Colombia, San Gil"
"INVERSIONES LUTRANS S.A.S.";;;"Telefax: (57) (1) 7556454";"Cr82 8 A-32 Colombia, Bogotá"
"INVERSIONES TURRIAGO PABÓN S.A.S.";;;"Telefax: (57) (1) 7519671";"Cr72 49-48 Colombia, Bogotá"
"INVERSIONES RODRÍGUEZ VELÁSQUEZ S.A.S.";;;"Telefax: (57) (1) 2849603";"Cl 17 14-20 L-112 Colombia, Bogotá"
"AUTOCHECK LTDA.";;;"(57) (2) 3703905";"Cr15 51-25 Colombia, Cali"
"AUTOSERVICIO MENDEZ";;;"(57) (7) 6472695";"Cl 54 17 B-36 Colombia, Bucaramanga"
"EMBRAGUES Y DISCOS LA 45";;;"(57) (4) 2311918";"Cl 45 58-04 Colombia, Medellín"
"PUYO AUTOMOTORES & CÍA. LTDA.";;;"(57) (2) 6675353";"Av2 B N 28 N-37 Colombia, Cali"
"MULTIDIESEL MEDELLIN S.A.S";;;"(57) (4) 2626200";"Cr50 34-15 Colombia, Medellín"
ALMOTORES;;;"(57) (2) 4858080";"Cl 70   N No. 2 A-280 Colombia, Cali"
"FIAT EUROCAR";;;"(57) (2) 4853900";"Av3 N 23 N-44 Colombia, Cali"
"REMITES GUIA HOTELERA";;;"(57) (2) 6648051";"Av68 75 A-50 Bogotá Colombia, Cali"
"AUTO FIAT MOTOR";;;"(57) (2) 8961211";"Cl 21 14-06 Colombia, Cali"
"COLLISION TRUCK S.A.S.";;;"(57) 3282601";"Cl 65 6-31 soledad Colombia, Soledad"
"CONSIGNATARIA DE VEHICULOS EXIAUTOS VILLAVICENCIO";;;"(57) (8) 1000000";"Cl 31 24-24 Av. del Llano Colombia, Villavicencio"
"AUTOSERVICIO RACING S.A.S.";;;"Telefax: (57) (1) 2533387";"Cr59 B-129-50 Colombia, Bogotá"
"AUTOMOTOIRA PALMERA VALLEDUPAR";;;"(57) (5) 5829384";"Cr7 23-11 Colombia, Valledupar"
"ALMACEN O.O.S OCTAVIO OSPINA";;;"(57) (4) 3853081";"Cl 41 51-15 L-106 Colombia, Medellín"
"ASAN MOTORS LTDA.";;;"(57) (8) 7470012";"Av Norte 52-25 Colombia, Tunja"
"First Name";"Email Address";Url;Telephone;Address
"ALMACÉN DE REPUESTOS ZULUAGA";;;"(57) (4) 2310743";"Cr59 48-46 Colombia, Medellín"
"CONSIGNATARIA RIGOAUTOS";;;"(57) (2) 7233644";"Cr30 16 B-06 Colombia, Pasto"
"METROKIA S.A.";;;"(57) (1) 6152110";"Cl 146 7-08 Colombia, Bogotá"
"SUBARU DE COLOMBIA S.A.";;;"(57) (7) 6360160";"Autop Floridablanca 91-55 Colombia, Bucaramanga"
"ORIENT TRUCKS S.A.";;;"(57) (7) 5831065";"Av3 8-19 Centro Colombia, Cúcuta"
"B Y G MANTILLA LTDA.";;;"(57) (7) 6760106";"Cr3 2-100 Zona Industrial Chimitá Colombia, Bucaramanga"
"ARBELÁEZ DANIELA";;;"(57) (8) 2705629";"B-2 Ap 403 Balcones de Navarra Colombia, Ibagué"
"MERCADO AUTOMOTRIZ INMOBILIARIO LTDA";;;"(57) (2) 6671345";"Av Vasquez Cobo 28 N-09 Colombia, Cali"
"VEHÍCULOS ESPECIALES Y POR ENCARGO";;;"(57) 3187072682";"Av40 17-14 Urb Guatiquia Colombia, Villavicencio"
"CALI AUTOS";;;"(57) (2) 6823319";"Cl 7 30 A-55 P-3 Colombia, Cali"
"CONSIGNATARIA AUTOLASER";;;"(57) (6) 3294600";"Av30 de Agosto-38 -36 Colombia, Pereira"
"PRACO DIDACOL S.A.S";;;"(57) (6) 8751818";"Av Kevin Angel 60-290 Colombia, Manizales"
"MIRAMOTOS DE SUBA S.A.S.";;;"Telefax: (57) (1) 6872490";"Cl 130 DBis 104-03 Int 1 L-1 Colombia, Bogotá"
"W ELECTRONICA S.A.S.";;;"Telefax: (57) (1) 5403234";"Cr29 66-41 Colombia, Bogotá"
"MOTOINVERSIONES S.A.S.";;;"Telefax: (57) (1) 6034296";"Cr56 151-52 Int 1 Ap 501 Colombia, Bogotá"
"GONZÁLEZ GARCÍA ASOCIADOS LTDA.";;;"Telefax: (57) (1) 4086733";"Cl 2 B-26-43 Colombia, Bogotá"
"MUNDIAUTOS LTDA.";;;"(57) (2) 8230745";"Cr9 16 A N-21 Colombia, Popayán"
"INVERSIONES LUTRANS S.A.S.";;;"Telefax: (57) (1) 7556454";"Cr82 8 A-32 Colombia, Bogotá"
"PASTO MOTORS LTDA.";;;"(57) (1) 6782834";"Cr67 167-61 Colombia, Bogotá"
"UGLY AMERICAN BAR & GRILL";;;"(57) (1) 3108888";"Cl 81 9-12 Colombia, Bogotá"
"REPUESTOS CHAUSTRE";;;"(57) (7) 5792350";"Cl 1 A 5-63 La Merced Colombia, Cúcuta"
"CARRERA ARANGO S.A.S.";;;"(57) (4) 3513883";"Cr65 16 A-83 Colombia, Medellín"
"GRÚAS ABAD";;;"(57) (4) 4449309";"Cl 31 44-167 Colombia, Medellín"
"AUTENTI CAR";;;"(57) (2) 8850511";"Av del Río 21-12 Colombia, Cali"
"ANDRÓMEDA MOTORS S.A.";;;"Telefax: (57) (2) 6651505";"Av3 N 33-22 Colombia, Cali"
"HUAWEI TECHNOLOGIES COLOMBIA S.A.S.";;;"Telefax: (57) (1) 3768948";"Cr45 108-27 Trr 3 P 15 Colombia, Bogotá"
"AUTOMOTORES HERNANDEZ";;;"(57) (7) 6383192";"Cr5 27-04 Lagos III Floridablanca Colombia, Floridablanca"
"CASA LÓPEZ S.A.";;;"(57) (6) 7451610";"Cr19 11-43 Colombia, Armenia"
"LATIN CAR E.U";;;"(57) (1) 2147965";"Av13 123-68 Colombia, Bogotá"
"AUTOMUNICH LTDA.";;;"(57) (7) 6474737";"Cl 58 27-17 Colombia, Bucaramanga"
"AUTO FIAT MOTOR";;;"(57) (2) 8961211";"Cl 21 14-06 Colombia, Cali"
CELUTAXI;;;"(57) (8) 6666666";"Cl 15 A 15 A-91 Colombia, Villavicencio"
VEHILLANOS;;;"(57) (8) 6712820";"Cr23 37 D-48 Colombia, Villavicencio"
"AUTO ALAMO";;;"(57) (2) 2256938";"Cr40 43-88 Colombia, Tuluá"
"CAR'S MOTOR";;;"(57) (5) 3492924";"Cr53 64-158 Colombia, Barranquilla"
"MULTIMARCAS ADRIAUTOS ECHEVERRI";;;"(57) (4) 4440690";"Cr44 58-25 Colombia, Rionegro"
"PORSCHE AUTOMERCANTIL DEL CARIBE LTDA.";;;"(57) (5) 3851459";"Av Circunvalar con Cr51 B Colombia, Barranquilla"
"AUTOFINANCIERA COLOMBIA S.A.";;;"(57) (1) 4441700";"Cr7 24-89 P-17 Colombia, Bogotá"
"INVERAUTOS LTDA.";;;"(57) (8) 8714430";"Cr5 Cl 11 Esq Colombia, Neiva"
"JAPAN CENTER LTDA.";;;"(57) (1) 3463786";"Cl 78 22-21 Colombia, Bogotá"
"First Name";"Email Address";Url;Telephone;Address
"JUAN CAMILO MESA VEHÍCULOS";;;"Nal: (57) (4) 2681877";"Cr43 A 19-17 Colombia, Medellín"
"LUEHR S.A.S.";;;"Telefax: (57) (1) 4301566";"Cr74 A 68-17 Colombia, Bogotá"
"ORIENTAL DE VEHÍCULOS S.A.S.";;;"Telefax: (57) (1) 3702131";"Cr30 15-30 Colombia, Bogotá"
"VICMEX CÍA. LTDA.";;;"Telefax: (57) (1) 2030625";"Cr50 19 S-24 Colombia, Bogotá"
"CARROCERÍAS TECNICAR S.A.S.";;;"Telefax: (57) (1) 6099927";"Cr72 G 40-39 S Colombia, Bogotá"
"DISTRIVEHÍCULOS MVL";;;"(57) (1) 3281539";"Cr14 1 C-46 Colombia, Bogotá"
"COMERCIALIZADORA RENAULT MIYA LTDA.";;;"Telefax: (57) (1) 6062480";"Cr29 B-66-28 Colombia, Bogotá"
"INVERSIONES SALMOTORS S.A.S.";;;"Telefax: (57) (1) 6790955";"Cl 164 15 - 37 Colombia, Bogotá"
"AUTOMOTRIZ DEL SUR S.A.S.";;;"(57) (2) 7314106";"Cl 19 30-65 Colombia, Pasto"
"AUTO STOCK S.A.";;;"(57) (5) 3861818";"Cl 30 19-21 Colombia, Barranquilla"
"AUTOCAMBIO LTDA.";;;"(57) (2) 7295513";"Cr36 12-52 Av Panamericana Colombia, Pasto"
"GRÚAS ABAD";;;"(57) (4) 4449309";"Cl 31 44-167 Colombia, Medellín"
"VÉLEZ NIETO ADOLFO";;;"(57) (2) 8800391";"Cl 6 10-71 Colombia, Cali"
"AUTOYOTA S.A.";;;"(57) (1) 3402047";"Cr7 33-91 Colombia, Bogotá"
"HIMALAYA MOTOR";;;"(57) (2) 3960013";"Av3 N 39 N-08 Colombia, Cali"
"CONSIGNATARIA DE VEHICULOS EXIAUTOS VILLAVICENCIO";;;"(57) (8) 1000000";"Cl 31 24-24 Av. del Llano Colombia, Villavicencio"
"MARAUTOS LTDA.";;;"(57) (5) 5821958";"Cr7 A 22-107 Colombia, Valledupar"
"MEGA AUTOS";;;"(57) (8) 6717330";"Cr26 Dg 47 A Esq. Brr. La Grama Colombia, Villavicencio"
"C.I. CARROCERIAS LTDA.";;;"Domic.: (57) (5) 3791720";"Cl 40 27-61 Colombia, Barranquilla"
AUTOSABANA;;;"(57) (4) 7851451";"Cr6 51-130 Colombia, Montería"
"CONSIGNATARIA DE VEHICULOS EL FERROCARRIL";;;"(57) (5) 4324842";"29 K-45 Los Laureles Colombia, Santa Marta"
"INVERAUTOS LTDA.";;;"(57) (8) 8714430";"Cr5 Cl 11 Esq Colombia, Neiva"
"COMERCIALIZADORA DE VEHÍCULOS GUIDO AUTOS";;;"(57) (5) 3739412";"Cr43 80-123 Colombia, Barranquilla"
"AUTOMOTORES JAC";;;"(57) (8) 6732223";"Cr33 24 B-12 Vía Puerto López Colombia, Villavicencio"
"CARROCERÍAS Y FURGONES LA ESTRELLA";;;"(57) (2) 4453689";"Cr2 40-139 Colombia, Cali"
"TAXIS Y AUTOS DEL SUR LTDA.";;;"(57) (2) 5573675";"Cl 9 17-36 Colombia, Cali"
"RICOAUTOS ALQUILES Y VENTA DE VEHÍCULOS";;;"(57) (7) 6346329";"Av Quebrada Seca 30-67 Esq Colombia, Bucaramanga"
"DISTOYOTA LTDA.";;;"(57) (7) 6574857";"Cr27 53-21 Colombia, Bucaramanga"
"SUR ANDINA DE SERVICIOS LTDA.";;;"(57) (8) 8722273";"Cl 13 A 1 GBis-07 Colombia, Neiva"
"ALMACÉN AUTO FRANCE";;;"(57) (7) 6214210";"Av36 31-112 Colombia, Barrancabermeja"
"ALMACEN TECNIAUTOMOTORES";;;"(57) (7) 6719569";"Cr15 14-45 Colombia, Bucaramanga"
"ORIENTE MOTOR'S S.A.";;;"Conm.: (57) (2) 3326999";"Cl 13 73-56 Colombia, Cali"
"VEN & SER AUTOMOTRIZ";;;"(57) (2) 5133941";"Cr42 9-05 Colombia, Cali"
"CASAMOTOR S.A.";;;"(57) (8) 8730962";"Cr7 2-25 Sur Colombia, Neiva"
"AUTOSERVICIO MENDEZ";;;"(57) (7) 6472695";"Cl 54 17 B-36 Colombia, Bucaramanga"
"AUTOS Y ASESORIAS";;;"(57) (4) 4141743";"Cll 23 43A-89 L 141 Colombia, Medellín"
AUTODANA;;;"(57) (1) 8022339";"Cr72 74 A-46 Colombia, Bogotá"
"LAVA AUTOS SUPER V I P";;;"(57) (2) 6676539";"Av6 Bis N 25 N-49 L-02 Colombia, Cali"
"GESTIONAMOS CREDICAR";;;"(57) (4) 7904537";"Cl 39 11-25 Colombia, Montería"
"CHEVYCAR LTDA.";;;"(57) (1) 3428850";"Cr15 8-33 Colombia, Bogotá"
"First Name";"Email Address";Url;Telephone;Address
"CENTRO KIA PITALITO";;;"(57) (8) 8361654";"Cl 1 4-37 Centro Colombia, Pitalito"
"ESTACION LA PERLA DEL SINÚ";;;"(57) (4) 7825050";"Cl 44 4-54 Los Laureles Colombia, Montería"
"VEHICARS S.A.S";;;"(57) (1) 2555187";"Av (Cr) 24 73-38 Colombia, Bogotá"
"ULTRACAR S.A.";;;"(57) (1) 2712200";"Av (Cl) 116 55 A-11 Colombia, Bogotá"
"ANGEL BOTERO LTDA.";;;"(57) (6) 7463305";"Cr19 13-07 Colombia, Armenia"
"ECONOMICA RENT A CAR S.A.S.";;;"(57) (4) 5808200";"Cr65 48 C-18 Colombia, Medellín"
"DISTRIBUIDORA MARYMAR";;;"(57) (4) 2615642";"Cr53 36-38 Colombia, Medellín"
"VEHICULOS AMPARO VELEZ";;;"(57) (4) 2388689";"Cr81 28-46 Colombia, Medellín"
"AUTO ALAMO";;;"(57) (2) 2256938";"Cr40 43-88 Colombia, Tuluá"
"AUTOS GAMA S.A.";;;"(57) (6) 3339985";"Cl 21 12-41 Colombia, Pereira"
"CARS WASH DEL LILI S.A.S.";;;"(57) (2) 3827524";"Cr94 25-60 Colombia, Cali"
"AUTOMOVILIARIA AUTO 80 LTDA.";;;"(57) (1) 2253812";"Av (Cl) 80 56-39 Colombia, Bogotá"
"TALLER TAJÁN";;;"(57) (5) 6662672";"Torices Cr17 51-10 Sector Paseo Bolívar Colombia, Cartagena"
"GRUPO EMPRESARIAL RIZZO";;;"(57) (5) 3782222";"Cr43 79 B-71 Colombia, Barranquilla"
"AUTO TAXI EJECUTIVO S.A.";;;"(57) (5) 3782222";"Cr43 79 B-71 Colombia, Barranquilla"
"IMPORTADORA MAZ-LUV S.A.";;;"(57) (6) 7441606";"Cr22 17-42 Colombia, Armenia"
"GRUPO EMPRESARIAL EXITCAR S SAS";;;"(57) (1) 3420420";"Cl 6 16 - 50 Colombia, Bogotá"
"GRUPO AUTOMOTRIZ GANAUTOS S.A.S";;;"(57) (8) 8722511";"Av26 No 1-06 Diagonal A La Universidad Surc Colombia, Neiva"
"CM MOTORS LTDA.";;;"(57) (5) 4317003";"Cr4 24-44 Colombia, Santa Marta"
"AUTOPARTES DEL MAGDALENA";;;"(57) (5) 4235401";"Cr11 A 11-35 Colombia, Santa Marta"
"OVNIPARTES CALI LTDA.";;;"(57) (2) 8821610";"Cr2 23-96 Colombia, Cali"
"FURGORIENTE S.A.";;;"(57) (7) 3153167830";"Cr17 4-67 Vía Chimitá Girón Colombia, Girón"
"AUTOBUSES DEL SUR IBAGUÉ CARROCERÍAS";;;"(57) (8) 2605819";"Cl 20 S 20 A-15 Miramar Colombia, Ibagué"
"SUR ANDINA DE SERVICIOS LTDA.";;;"(57) (8) 8722273";"Cl 13 A 1 GBis-07 Colombia, Neiva"
"AJUSTEV S.A.S";;;"(57) (4) 3817777";"Cl 31 43 A-72 Colombia, Medellín"
"AUTOMOTORES EL RANCHO";;;"(57) (2) 2749450";"Cr28 47-88 Colombia, Palmira"
AUTOMANIA.CO;;;"(57) (2) 3364343";"Cl 25 T 25 A-41 Colombia, Cali"
MONAUTOS;;;"(57) (2) 2136341";"Dg6 Cr3 Contiguo bomba Ortez Colombia, Cartago"
"CARROCERÍA EXPRESS";;;"(57) (7) 5752169";"Av11 E 1-40 Quinta Oriental Colombia, Cúcuta"
"ORIGINAL MOTOR'S";;;"(57) (2) 8228822";"Cl 1 8-37 Colombia, Popayán"
"TECNO TALLERES RM & CÍA. LTDA.";;;"Telefax: (57) (1) 3791240";"Cl 15 A 123-79 Colombia, Bogotá"
"AUTOMOTORES LAS PALMERAS";;;"(57) (5) 4213146";"Cl 24 9-18 Colombia, Santa Marta"
"TRANSPORTES C.I S.A.S";;;"(57) (4) 2668608";"Cr43 B 12-133 Colombia, Medellín"
"EMBRAGUES Y DISCOS LA 45";;;"(57) (4) 2311918";"Cl 45 58-04 Colombia, Medellín"
"SOFASA S.A.";;;"(57) (4) 2324900";"Cr50 38-35 Colombia, Medellín"
"REPUESTOS MOTORES DIESEL LUIS RAMÍREZ";;;"(57) (4) 5114452";"Cl 45 A 60-10 Colombia, Medellín"
"AUTOS Y ASESORIAS";;;"(57) (4) 4141743";"Cll 23 43A-89 L 141 Colombia, Medellín"
"MOVAR INVERSIONES Y CÍA. S. EN C.";;;"Telefax: (57) (1) 2501000";"Cl 90 13 A-31 Of 506 Colombia, Bogotá"
"SUPER CAR 7 DE AGOSTO JB S.A.S.";;;"Telefax: (57) (1) 6305710";"Cr27 66-02 Colombia, Bogotá"
"CAR TUNING";;;"(57) (4) 4446950";"Cr43 A 30-74 Colombia, Medellín"
"First Name";"Email Address";Url;Telephone;Address
"LAVACEBRA S.A.S.";;;"Telefax: (57) (1) 6272251";"Cr9 140-47 Colombia, Bogotá"
"DISTRIVEHÍCULOS MVL";;;"(57) (1) 3281539";"Cr14 1 C-46 Colombia, Bogotá"
"VENDO EXPRESS";;;"(57) (8) 8351022";"Cr2 2 S-03 Esq Colombia, Pitalito"
"PLUSCAR LTDA";;;"(57) (1) 2611136";"av cl 6 43B 13 Colombia, Bogotá"
"MUNDIAUTOS LTDA.";;;"(57) (2) 8230745";"Cr9 16 A N-21 Colombia, Popayán"
"AUTOS ZAFIRA";;;"(57) (1) 4361728";"Av Boyacá 74 A-86 Colombia, Bogotá"
"ACEITES Y SERVICIOS LTDA.";;;"Telefax: (57) (1) 2726611";"Cr10 27 S-05 Colombia, Bogotá"
"ELECTROSISTEMAS DISEL LTDA.";;;"Telefax: (57) (1) 7289241";"Cr86 A 50 B-S-05 Colombia, Bogotá"
"METROKIA S.A.";;;"(57) (4) 1000000";"Medellín Colombia, Medellín"
AUTOUNIÓN;;;"(57) (8) 6621724";"Cr23 36-11 Colombia, Villavicencio"
"CENTRAL S.A.S.";;;"(57) (1) 3690500";"Av Américas 36-11 Colombia, Bogotá"
"JAC CONCESIONARIO";;;"(57) (5) 6563427";"Cl 32 18 A-09 Av Pedro de Heredia Colombia, Cartagena"
"ALMACÉN DE REPUESTOS AUTOMOTORES SÓLO LADA LTDA";;;"(57) (5) 3793024";"Cl 55 43-88 Colombia, Barranquilla"
"GRUPO EMPRESARIAL RIZZO";;;"(57) (5) 3782222";"Cr43 79 B-71 Colombia, Barranquilla"
"AUTO TAXI EJECUTIVO S.A.";;;"(57) (5) 3782222";"Cr43 79 B-71 Colombia, Barranquilla"
"MULTISERVICIOS CONSULJAIME S.A.S";;;"(57) (1) 3819615";"Tr26 57-26 Of 3 Colombia, Bogotá"
"VEHÍCULOS DEL LLANO LTDA.";;;"(57) (8) 6708877";"Av del Llano Cr 23 37 D-48 Colombia, Villavicencio"
"AUTO BONN";;;"(57) (2) 6904407";"Cl 15 32-92 Colombia, Cali"
"AUTOSORIO-SERVICIO RENAULT";;;"(57) (2) 6824509";"Cr8 38-38 Colombia, Cali"
SERVIESPUMA;;;"(57) (8) 2655389";"Cr8 28-36 Av Guabinal Belalcázar Colombia, Ibagué"
"CARIBE AUTOMOTRIZ S.A.S.";;;"(57) (2) 4898000";"Cr39 10-25 Colombia, Cali"
"RICOAUTOS ALQUILES Y VENTA DE VEHÍCULOS";;;"(57) (7) 6346329";"Av Quebrada Seca 30-67 Esq Colombia, Bucaramanga"
"AUTOS DACAR";;;"(57) (2) 5535330";"Cl 9 39-42 Colombia, Cali"
"ORIENT TRUCKS S.A.";;;"(57) (7) 5831065";"Av3 8-19 Centro Colombia, Cúcuta"
"AUTOMÒVILES Y CAMIONES CONSIGNATARIA";;;"(57) (6) 3361970";"Av30 de Agosto 39-35 Colombia, Pereira"
"TAXI AUTOS DEL VALLE";;;"(57) (2) 2114989";"Cl 11 10-82 Colombia, Cartago"
PERMUTAXIS;;;"(57) (7) 6335041";"Cl 46 22-74 Colombia, Bucaramanga"
"CONSIGNATARIA AUTOMOVILISTICA MIL AUTOS";;;"(57) (7) 6314402";"Cr27 104-11 l-2 La Calleja Colombia, Bucaramanga"
"INMOBILCAR S.A.S.";;;"(57) (8) 6724682";"Cl 33 A 38-69 Of 106 Colombia, Villavicencio"
"VEN & SER AUTOMOTRIZ";;;"(57) (2) 5133941";"Cr42 9-05 Colombia, Cali"
"TRANS-MOTOR R.L.S. IMPORTACIONES Y CÍA. S. EN C.";;;"(57) (2) 8822343";"Cr15 22-01 Colombia, Cali"
"MULTIDIESEL DE COLOMBIA";;;"(57) (7) 6711706";"CL 6 22-29 Colombia, Bucaramanga"
"EQUIPOS DIDACOL S.A.S.";;;"Telefax: (57) (1) 4238300";"Av (Cl) 26 78 - 20 Colombia, Bogotá"
"PICK-UPS TRUCKING FACTORY";;;"(57) (1) 6601725";"Tr56 A 78-55 Colombia, Bogotá"
"TECNO TALLERES RM & CÍA. LTDA.";;;"Telefax: (57) (1) 3791240";"Cl 15 A 123-79 Colombia, Bogotá"
"CENTRO DE SERVICIO FORD E.U.";;;"(57) (1) 3701339";"Cr21 7-59 Colombia, Bogotá"
"INVERSIONES SALMOTORS S.A.S.";;;"Telefax: (57) (1) 6790955";"Cl 164 15 - 37 Colombia, Bogotá"
"AUTOMOTRIZ DEL SUR S.A.S.";;;"(57) (2) 7314106";"Cl 19 30-65 Colombia, Pasto"
"AUTOSERVICIO MENDEZ";;;"(57) (7) 6472695";"Cl 54 17 B-36 Colombia, Bucaramanga"
"EMBRAGUES Y DISCOS LA 45";;;"(57) (4) 2311918";"Cl 45 58-04 Colombia, Medellín"
"First Name";"Email Address";Url;Telephone;Address
"GAMA ALTA RENTA CAR";;;"(57) (1) 2031394";"Cr46 A 8-38 S Colombia, Bogotá"
JAC;;;"(57) (1) 4375599";"Av Boyacá 77 A-41 Colombia, Bogotá"
"TU CARRO.COM";;;"(57) (5) 3493240";"Cr53 64-40 Colombia, Barranquilla"
"LATIN AMERICA TEAM RYDER";;;"(57) (5) 3009117";"Cl 82 49 C 39 Colombia, Barranquilla"
"AUTOBUSES Y VEHICULOS CONDOR";;;"(57) (1) 7242355";"Dg68 C S 70 A-58 Colombia, Bogotá"
"YANACONAS MOTORS S.A.";;;"(57) (2) 6804444";"Autop Suroriental Cr43 Esq Colombia, Cali"
"AUTOSORIO-SERVICIO RENAULT";;;"(57) (2) 6824509";"Cr8 38-38 Colombia, Cali"
"JARAUTOS LTDA.";;;"(57) (2) 6648091";"Av3 N 47 B N-25 Colombia, Cali"
"COCHES DEL CARIBE";;;"(57) (7) 6331139";"Cl 28 18-18 Colombia, Bucaramanga"
"MISCELÁNEA AUTOMOTRÍZ";;;"(57) (1) 5405349";"Cr121 66-98 Colombia, Bogotá"
"RUIZ VARGAS MIGUEL ANGEL";;;"(57) (1) 4835476";"Av Suba 116-06 Colombia, Bogotá"
"CASA RESTREPO";;;"(57) (6) 8841229";"Cl 84 26-71 Frente A Expoferias Colombia, Manizales"
"HONDA AUTOS-AGENCIA AUTOCEIBA";;;"(57) (2) 6827373";"Cr1 45 A-40 Colombia, Cali"
"LAS MÁQUINAS DEL CAFÉ";;;"(57) (6) 3170050";"Av30 de Agosto Cl 94 Colombia, Pereira"
"AUTOS DACAR";;;"(57) (2) 5535330";"Cl 9 39-42 Colombia, Cali"
"ASIA PARTES";;;"(57) (1) 2315787";"Cr24 75 A-13 Colombia, Bogotá"
"CACHI VEHÍCULOS";;;"(57) (6) 8816704";"Av Kevin Angel 64 A-230 Los Laureles Colombia, Manizales"
"MAZDA - COMPAÑIA COLOMBIANA AUTOMOTRIZ";;;"(57) (1) 5960900";"Cl 13 38-54 Colombia, Bogotá"
"AUTO FULL FRENOS";;;"(57) (7) 6325758";"Cr27 Av La Rosita Esq Colombia, Bucaramanga"
"B Y G MANTILLA LTDA.";;;"(57) (7) 6760106";"Cr3 2-100 Zona Industrial Chimitá Colombia, Bucaramanga"
"AUTOMOTORES EL RANCHO";;;"(57) (2) 2749450";"Cr28 47-88 Colombia, Palmira"
"VEHÍCULOS ESPECIALES Y POR ENCARGO";;;"(57) 3187072682";"Av40 17-14 Urb Guatiquia Colombia, Villavicencio"
"LUBRISERVICIOS SENA";;;"(57) (2) 6828347";"Cr2 54-05 Colombia, Cali"
"FERAUTOS VEHÍCULOS";;;"(57) (7) 5783269";"Cl 6 N 5-03 L-2 Colpet Colombia, Cúcuta"
"BATERIAS TITO S.A.S";;;"(57) (8) 8601167";"Cr5 2-53 Colombia, Neiva"
"CONSIGNATARIA AUTOFRAN";;;"(57) (6) 3356420";"Cl 22 15-06 Colombia, Pereira"
"AUTOMOTORES LAS PALMERAS";;;"(57) (5) 4213146";"Cl 24 9-18 Colombia, Santa Marta"
"AUTOMOTORES LUNA PARK";;;"(57) (1) 3332724";"Cl 12 S 14 A-22 Colombia, Bogotá"
"MASMOVIL S.A.S.";;;"Telefax: (57) (1) 5105054";"Cr54 D 179-10 Colombia, Bogotá"
MESAUTOS;;;"(57) (1) 7207388";"Cr50 2 B-47 Colombia, Bogotá"
"TORRES PAZOS ADRIANA";;;"(57) 3006725665";"Cr43 16 B-71 Colombia, Pasto"
"ARTHUR GRUAS S.A.S.";;;"(57) (4) 2323494";"Cr52 34-02 Colombia, Medellín"
"SOFASA S.A.";;;"(57) (4) 2324900";"Cr50 38-35 Colombia, Medellín"
"HUAWEI TECHNOLOGIES COLOMBIA S.A.S.";;;"Telefax: (57) (1) 3768948";"Cr45 108-27 Trr 3 P 15 Colombia, Bogotá"
"INCOLDIESEL LTDA.";;;"Telefax: (57) (1) 4829960";"Cl 64 71-61 Colombia, Bogotá"
"JUAN H BAUTISTA ARQUITECTO TÉCNICO EN INSTALACIONES S.A.S.";;;"Telefax: (57) (1) 7530701";"Cr26 45 C-37 Colombia, Bogotá"
SINCROMOTORS;;;"(57) (1) 8620745";"1.5 Km via centrochía Cajicá Colombia, Bogotá"
"RETENES Y RODAMIENTOS ABBA S.A.S.";;;"Telefax: (57) (1) 3340266";"Cl 8 15-68 Colombia, Bogotá"
"ALMOTORES - JAC";;;"(57) (2) 6881212";"Cl 35 N 2 Bis N-155 Colombia, Cali"
"LOGÍSTICA 3222222";;;"(57) (5) 3782222";"Cr43 79 B-71 Colombia, Barranquilla"
"First Name";"Email Address";Url;Telephone;Address
ISI-AUTOS;;;"(57) (7) 6337585";"Dg15 52-39 La Concordia Colombia, Bucaramanga"
"COLAUTOS DEL CAFÉ";;;"(57) (6) 8841212";"Cr23 36-65 Colombia, Manizales"
"ALMACÉN CHEVRO-JAPÓN";;;"(57) (1) 3112929";"Cr26 66-27 Colombia, Bogotá"
"DAJUNI LTDA.";;;"(57) (1) 3347997";"Cl 8 14-25/27 Colombia, Bogotá"
"AUTOS FERCAR";;;"(57) (6) 3349313";"Cl 22 12-15 L-5 Colombia, Pereira"
"ARBELÁEZ DANIELA";;;"(57) (8) 2705629";"B-2 Ap 403 Balcones de Navarra Colombia, Ibagué"
"JUAN CAMILO MESA VEHÍCULOS";;;"Nal: (57) (4) 2681877";"Cr43 A 19-17 Colombia, Medellín"
"COMERCIALIZADORA HM LTDA.";;;"Telefax: (57) (1) 6136687";"Cl 100 60-04 Of 606 Colombia, Bogotá"
"AUTOPARTES CHEVROMAZDA Y FORD";;;"(57) (1) 6609984";"Cl 64 25-37 Colombia, Bogotá"
"TAXMOTOR DE COLOMBIA S.A.";;;"(57) (5) 3021010";"Cl 84 44-10 Granadillo Colombia, Barranquilla"
"FULL TRACCIÓN TODO EN 4X4";;;"(57) (4) 3542534";"Cr48 16-08 Colombia, Medellín"
"INTERMOVILES CHEVROLET LTDA";;;"(57) (4) 2322760";"Cl 29 45-19 Colombia, Medellín"
"INVERSIONES MALOOF HABIB S. EN C.";;;"(57) (5) 3532618";"Cl 77 B 57-141 Colombia, Barranquilla"
"JHON AUTOMOTORES";;;"(57) (7) 6348385";"Cr24 19-35 San Francisco Colombia, Bucaramanga"
"TALLER MARCOLINI";;;"(57) (2) 5571233";"Cr17 10-25 Colombia, Cali"
"COMERCIALIZADORA NACIONAL DE VEHÍCULOS DEL VALLE LTDA.";;;"(57) (2) 6653675";"Av4 N 49 N-29 Colombia, Cali"
"COMERCIALIZADORA LUBRIMOTORES S.A.S";;;"(57) (2) 4460992";"Cr1 D Bis 64-38 Colombia, Cali"
"TALLER BELTRAN DIRECCIONES HIDRÁULICAS S.A.S.";;;"(57) (2) 4466603";"cr 2 N 46 BN -09 Colombia, Cali"
"LUEHR S.A.S.";;;"Telefax: (57) (1) 4301566";"Cr74 A 68-17 Colombia, Bogotá"
"INVERSIONES ESTRELLA DEL MAR S.A.S.";;;"Telefax: (57) (1) 5219230";"Av Country 106-32 Of M05 Colombia, Bogotá"
"MARAUTOS LTDA.";;;"(57) (5) 5821958";"Cr7 A 22-107 Colombia, Valledupar"
AUTOALEMANIA;;;"(57) (5) 3491486";"Vía 40 67-180 Colombia, Barranquilla"
"JARAUTOS LTDA.";;;"(57) (2) 6648091";"Av3 N 47 B N-25 Colombia, Cali"
"REPARACION DE MOTORES";;;"(57) (2) 6843302";"Cl 19 16-22 Colombia, Cali"
"AUTOMOTORA BOULEVAR E.U.";;;"(57) (7) 6451761";"Boulevar Bolívar 25-32 Colombia, Bucaramanga"
"AUTOMOTORES RÍO GRANDE S.A.";;;"(57) (1) 8393333";"Cr10 19-45 Colombia, Girardot"
JARIAUTOS;;;"(57) (2) 4386500";"Cr10 47-28 Colombia, Cali"
CALERAUTOS;;;"(57) (2) 2372223";"Cr11 1-45 Colombia, Buga"
"INVERSIONES FAMILIA MILLÁN & HENAO S.A.S.";;;"Telefax: (57) (1) 6141584";"Cl 150 A 5 A - 50 Casa 3 Colombia, Bogotá"
"ORIENTAL DE VEHÍCULOS S.A.S.";;;"Telefax: (57) (1) 3702131";"Cr30 15-30 Colombia, Bogotá"
"UTOS Y SERVICIOS CIUDAD JARDÍN";;;"(57) (1) 4099184";"Dg13 A S 12 D-56 Colombia, Bogotá"
VEHICOSTA;;;"(57) (5) 6569999";"Cl 30 18 A-04 Colombia, Cartagena"
"SOFASA S.A.";;;"(57) (4) 2324900";"Cr50 38-35 Colombia, Medellín"
"GRÚAS ABAD";;;"(57) (4) 4449309";"Cl 31 44-167 Colombia, Medellín"
"AUTENTI CAR";;;"(57) (2) 8850511";"Av del Río 21-12 Colombia, Cali"
"TALLER ONOFRE MOSQUERA";;;"(57) (2) 8843860";"Cr2 N 24-44 Colombia, Cali"
"AUTOCAR'S LTDA.";;;"(57) (1) 4157714";"Cl 22 111-17 Colombia, Bogotá"
"CASAUTOS S.A.";;;"(57) (2) 5580241";"Cl 9 B 14 A-02 Colombia, Cali"
"MEGA AUTOS";;;"(57) (8) 6717330";"Cr26 Dg 47 A Esq. Brr. La Grama Colombia, Villavicencio"
"KENWORTH DE LA MONTAÑA S.A.S.";;;"(57) (5) 6629812";"Dg21 45 A-10 Colombia, Cartagena"
"First Name";"Email Address";Url;Telephone;Address
"JH VEHÍCULOS Y CÍA LTDA.";;;"(57) (8) 2668879";"Cr5 49-94 Colombia, Ibagué"
"SEAT EUROCAR";;;"(57) (2) 4853781";"Av3 N 34-46 Colombia, Cali"
"AUTOESTE S.A.S KIA MOTORS";;;"(57) (5) 5702739";"Cr7 A 20 D-15 Br San Jorge Colombia, Valledupar"
"GRUPO HAIKAL S.A.";;;"(57) (1) 2146883";"Cr13 113-13 Colombia, Bogotá"
RASAUTOS;;;"(57) (6) 8872480";"Cr23 A 74-01 Milán Colombia, Manizales"
CITROEN;;;"(57) (1) 6262499";"Av (Cr) 7 129-29 Colombia, Bogotá"
"AUTOS MEJÍA";;;"(57) (6) 8845465";"Cr23 17-25 Colombia, Manizales"
"COMERCIALIZADORA HM LTDA.";;;"Telefax: (57) (1) 6136687";"Cl 100 60-04 Of 606 Colombia, Bogotá"
"CARROCERIAS CONTINENTAL LTDA.";;;"Telefax: (57) (1) 7111774";"Cr68 A 36 A S-77 Colombia, Bogotá"
"TECNO TALLERES RM & CÍA. LTDA.";;;"Telefax: (57) (1) 3791240";"Cl 15 A 123-79 Colombia, Bogotá"
GUANENTAUTOS;;;"(57) (7) 7241909";"Cr17 35-46 C.C. San Gil Plaza Local 337 Colombia, San Gil"
"AUTOMOTORES LUNA PARK";;;"(57) (1) 3332724";"Cl 12 S 14 A-22 Colombia, Bogotá"
"DISTRIVEHÍCULOS MVL";;;"(57) (1) 3281539";"Cr14 1 C-46 Colombia, Bogotá"
"AUTOS CHACÓN";;;"(57) (7) 5756737";"Av9 E 10-84 Riviera Colombia, Cúcuta"
SEVENAUTOS;;;"(57) (7) 6804351";"Cl 37 20-85 Colombia, Bucaramanga"
"CASAUTOS S.A.";;;"(57) (2) 5580241";"Cl 9 B 14 A-02 Colombia, Cali"
"AUTO MARCAS";;;"(57) (1) 4009497";"Cl 63D 28-37 Colombia, Bogotá"
"AUTENTI CAR";;;"(57) (2) 8850511";"Av del Río 21-12 Colombia, Cali"
"LIMOSINAS HUMMER DE COLOMBIA";;;"(57) 3102813275";"Cr55 128 A-84 Colombia, Bogotá"
"TALLER AUTOSERVICIO LA 38 NISSAN";;;"(57) (4) 3313157";"Cr31 39 S-06 Envigado Colombia, Envigado"
"HIMALAYA MOTOR";;;"(57) (2) 3960013";"Av3 N 39 N-08 Colombia, Cali"
"INVERSIONES CELY Y SILVA LTDA.";;;"Telefax: (57) (1) 4336844";"Cl 69 A 112 B-28 Colombia, Bogotá"
"NEK LTDA.";;;"Telefax: (57) (1) 2902891";"Cr64 5-63 Colombia, Bogotá"
"CHANEME COMERCIAL S.A.";;;"(57) (1) 4242258";"Av. Cl. 17 78 G-59 Colombia, Bogotá"
"GABRIMOTOR LTDA.";;;"(57) (1) 6606646";"Av (Cl) 80 69 H - 31 Colombia, Bogotá"
"LOGÍSTICA 3222222";;;"(57) (5) 3782222";"Cr43 79 B-71 Colombia, Barranquilla"
"ESTACION LA PERLA DEL SINÚ";;;"(57) (4) 7825050";"Cl 44 4-54 Los Laureles Colombia, Montería"
".ALFA MOTORS LTDA.";;;"(57) (1) 3479477";"Cr24 6-08 Colombia, Bogotá"
"MARAUTOS LTDA.";;;"(57) (5) 5821958";"Cr7 A 22-107 Colombia, Valledupar"
"BERING DAEWOO DE COLOMBIA";;;"(57) (4) 3127670";"Cl 10 30-30 L-205 Colombia, Medellín"
"ULTRACAR S.A.";;;"(57) (1) 2712200";"Av (Cl) 116 55 A-11 Colombia, Bogotá"
HERIAUTOS;;;"(57) (6) 7453341";"Cr19 Cl 10 Esq Colombia, Armenia"
"JAC CONCESIONARIO";;;"(57) (5) 6563427";"Cl 32 18 A-09 Av Pedro de Heredia Colombia, Cartagena"
"AUTOS LA 80";;;"(57) (1) 6310127";"Cr46 80-72 Colombia, Bogotá"
"REMAYOR S.A.";;;"Telefax: (57) (1) 7431425";"Cr24 86 A-45 Of 205 Colombia, Bogotá"
"RED COMERCIAL";;;"(57) (4) 7851920";"Cr6 61-66 La Castellana Colombia, Montería"
AUTOMAS;;;"(57) (5) 3692893";"Cl 74 44-29 Colombia, Barranquilla"
"AUTOMOTORES LA PATRIA LTDA.";;;"(57) (1) 6962212";"Cl 87 49 D - 29 Colombia, Bogotá"
"ALMACÉN AUTO REPUESTOS LA 60";;;"(57) (5) 3602228";"Cr46 59-58 L-3 Colombia, Barranquilla"
"ALQUILER DE CARROS EN SANTA MARTA - ABC RENT A CAR - RENTA DE AUTOS COLOMBIA";;;"(57) (5) 3112272723";"Atiende Desde Su Sede Principal Colombia, Santa Marta"
"First Name";"Email Address";Url;Telephone;Address
"VEHISINU S.A.S.";;;"(57) (4) 7851493";"Cl 62 B 6-31 L-218 Colombia, Montería"
"KIA LIDER S.A";;;"(57) (1) 6168044";"Av15 102-59 Colombia, Bogotá"
"GRUPO AUTO OCAMPO S.A.S.";;;"(57) (2) 5244858";"Cl 5 10-30 Colombia, Cali"
"LOS AUTOS PLAZA AUTOMOTRIZ";;;"(57) (2) 5520453";"Cl 10 48-07 Colombia, Cali"
"TALLER GILESTRA";;;"(57) (4) 5115970";"Cl 45 60-47 Colombia, Medellín"
"CENTRO COMERCIAL AUTOMOTRIZ";;;"(57) (4) 2323798";"Cr43 A 19 A-87 Of 237 Colombia, Medellín"
"AUTO IDEAL";;;"(57) (2) 8837605";"Cl 15 23-141 Colombia, Cali"
"PANORAMA MOTORS";;;"(57) (2) 5200061";"Cl 15 35-20 Acopi Yumbo Colombia, Yumbo"
"INDUSTRIAL RENTAS Y RENTAS";;;"(57) (2) 3397906";"Cl 12 87-40 Ap 121 Colombia, Cali"
"AUTOS CALI";;;"(57) (2) 6606095";"Av2 B N 30-45 Colombia, Cali"
YAKEY;;;"(57) (7) 6786598";"Vda Palmeras Fca El Balcón Ruitoque Floridablanca Colombia, Floridablanca"
"GµMEZ GODOY BETTY";;;"(57) (7) 6705473";"Cr12 22-09 Colombia, Bucaramanga"
AUTOCAMCAM.COM;;;"(57) (7) 6025294";"Cr19 54-54 Torcoroma Colombia, Barrancabermeja"
ALBORAUTOS;;;"(57) (8) 7438528";"Cr6 51-174 Salida A Paipa Colombia, Tunja"
"EDUCAMOS CONDUCIENDO S.A.S";;;"(57) (4) 4441413";"Dg74 B 32-39 Colombia, Medellín"
"CAR CIEN LTDA";;;"(57) (1) 4363260";"Av Boyacá 76-81/87 Es Colombia, Bogotá"
"AUTOS EL TRÉBOL E.U.";;;"(57) (7) 5776498";"Av Libertadores 9 A N-08 Colombia, Cúcuta"
"AUTOCAR'S LTDA.";;;"(57) (1) 4157714";"Cl 22 111-17 Colombia, Bogotá"
REINDUSTRIAS;;;"(57) (8) 8758844";"Cr16 20 A-35 Colombia, Neiva"
"DAJUNI LTDA.";;;"(57) (1) 3347997";"Cl 8 14-25/27 Colombia, Bogotá"
"CAMPEROS DE OCCIDENTE LTDA.";;;"(57) (6) 8841015";"Av Centro 17-17 Colombia, Manizales"
"COMERCIALIZADORA AUTOS LA AVENIDA";;;"(57) (6) 3330480";"Av 30 de Agosto 23-73 Colombia, Pereira"
"AGIL LLAVES";;;"(57) (7) 6340311";"Cl 41 36-20 El Prado Colombia, Bucaramanga"
"JH VEHÍCULOS Y CÍA LTDA.";;;"(57) (8) 2668879";"Cr5 49-94 Colombia, Ibagué"
"AUTO ESTRELLA COMERCIALIZADORA DE VEHÍCULOS";;;"(57) (2) 5582434";"Av Roosevelt 34-65 Colombia, Cali"
"SERVICIO ELÉCTRICO PELUFO";;;"(57) (2) 4478402";"Cl 44 B 4 E-18 Colombia, Cali"
EUROCAR;;;"(57) (2) 4853780";"Av3 N 34-46 Colombia, Cali"
"SEAT EUROCAR";;;"(57) (2) 4853781";"Av3 N 34-46 Colombia, Cali"
AT-AUTOS;;;"(57) (2) 5576001";"Cl 7 31-06 Esq Colombia, Cali"
"CALI AUTOS";;;"(57) (2) 6823319";"Cl 7 30 A-55 P-3 Colombia, Cali"
"SURTIPAG S.A.S. AGUIRRE SURTI PAG S.A.S";;;"(57) (5) 6626292";"Camino del Medio Cl 31 A 39/47 Colombia, Cartagena"
"SPORT TUNING";;;"(57) (5) 6622770";"Cl 31 44-44 Av Pedro de Heredia Colombia, Cartagena"
"PICK-UPS TRUCKING FACTORY";;;"(57) (1) 6601725";"Tr56 A 78-55 Colombia, Bogotá"
"CARROCERIAS CONTINENTAL LTDA.";;;"Telefax: (57) (1) 7111774";"Cr68 A 36 A S-77 Colombia, Bogotá"
GUANENTAUTOS;;;"(57) (7) 7241909";"Cr17 35-46 C.C. San Gil Plaza Local 337 Colombia, San Gil"
"CARROCERÍAS TECNICAR S.A.S.";;;"Telefax: (57) (1) 6099927";"Cr72 G 40-39 S Colombia, Bogotá"
"SOLUCIONES INTEGRALES DE TRÁNSITO Y TRANSPORTE S.A.";;;"Telefax: (57) (1) 5602300";"Cr25 1 D - 20 Colombia, Bogotá"
"GESTIONAMOS AUTOMOTORES";;;"(57) (1) 6302448";"Cl 79 69 B-45 Colombia, Bogotá"
"GRUPO ABRIL S.A.S.";;;"Telefax: (57) (1) 2708926";"Cl 26 S 52-57 Colombia, Bogotá"
"PIJAOS MOTORS";;;"(57) (1) 2121956";"Av (Cr) 30 63 C-54 Colombia, Bogotá"
"First Name";"Email Address";Url;Telephone;Address
"CONSIGNATARIA JOHN AUTOS";;;"(57) (2) 3362413";"Dg23 Tr9-12 Colombia, Cali"
"TALLER BELTRAN DIRECCIONES HIDRÁULICAS S.A.S.";;;"(57) (2) 4466603";"cr 2 N 46 BN -09 Colombia, Cali"
"ORIGINAL MOTOR'S";;;"(57) (2) 8228822";"Cl 1 8-37 Colombia, Popayán"
"DERCO COLOMBIA S.A.S.";;;"(57) (5) 3519727";"Vía 40 68 B-47 Colombia, Barranquilla"
"RINES F M LTDA.";;;"Telefax: (57) (1) 2175156";"Cr20 B-76-79 Colombia, Bogotá"
