"First Name";"Email Address";Url;Telephone;Address
"ENERGIA & POTENCIA S.A.";ventas@energiaypotencia.com;www.energiaypotencia.com;"(57) (4) 3786100";"Cr45 A 66 A-100 Itagüí Colombia, Medellín"
"SUZUKI MOTOR DE COLOMBIA S.A.";almacenes@suzuki.com.co;www.suzuki.com.co;"(57) (5) 6613148";"Av Pedro de Heredia Calle 31 # 60 A-78 Los Angeles Colombia, Cartagena"
"DISMERCA MOTOCICLETAS";gerencia@dismotobogota.co;www.dismerca.com;"Telefax: (57) (1) 2459534";"Av Caracas 43-32 Colombia, Bogotá"
"YAMAHA JOYA PABÓN LTDA.";joyapabon@gmail.com;www.yamahajoyapabon.com;"(57) (7) 6436997";"Cl 56 27-91 Colombia, Bucaramanga"
"MOTOCAR O.B.";gerenciamob@motocar.com.co;www.motocarob.com;"(57) (5) 6560713";"Popa Cl 32 21-203 Av Pedro de Heredia Colombia, Cartagena"
"AUTOGERMANA S.A. BMW";encontacto@autogermana.com.co;www.bmw.com.co;"(57) (4) 2329086";"Cr43 A 19-109 Av El Poblado Colombia, Medellín"
"HONDA SUPERMOTOS DEL CAUCA S.A.S.";eagomez@supermotosdelcauca.com.co;www.honda.com.co;"(57) (2) 8233770";"Cr9 8   N-32 Colombia, Popayán"
"CARIBBEAN TRADE S.A.S.";gerencia@caribbean-trade.com;www.caribbean-trade.com;"(57) (5) 6431510";"Av Pedro de Heredia 19-142 L-2 Sector Lo Amador Colombia, Cartagena"
SUKIPARTES;sukipartes@hotmail.com;www.sukipartes.com;"(57) (2) 5581841";"Cr15 11-62 Colombia, Cali"
"INDUSTRIAS J B S.A.S.";sistema@industriasjb.com;www.industriasjb.com;"(57) (4) 4484563";"Dg52 12-311 Bello Colombia, Medellín"
"CLASSIC MOTOS";comercial@classicmotos.com.co;classicmotos.com.co;"(57) (2) 5245070";"Cr15 13-68 Colombia, Cali"
"SAMURAI MOTOR S.A.";samuraimotor@yahoo.es;www.samuraimotor.com.co;"(57) (8) 6623293";"Cl 35 27-76 Brr. San Isidro Colombia, Villavicencio"
"HOGAR COOMULTRASAN";mercadeo@coomultrasan.com.co;www.coomultrasan.com.co;"(57) (7) 6300167";"Cl 36 18-50 Colombia, Bucaramanga"
"LUJOS Y ACCESORIOS MOTO GP";yamajhon-85@hotmail.com;www.motoaccesoriosgp.com;"(57) (1) 2510872";"Av Boyacá 68 B-96 L-103 Colombia, Bogotá"
"AUTOSANTANDER ENSEÑANZA";ens.autosantander@hotmail.com;www.autosantander.com;"(57) (7) 6352546";"Cl 36 28-13 Int 1 Colombia, Bucaramanga"
"MUNDO YAMAHA S.A.";mundoyamaha@une.net.co;www.yamaha-mundoyamaha.com;"(57) (4) 2552055";"Cl. 44 72-46 Colombia, Medellín"
"LLANTAMOTOR S.A.S.";ventas@llantamotor.com;www.llantamotor.com;"(57) (2) 8326673";"Popayán Colombia, Popayán"
"MOTOS DEL CAFÉ ARMENIA S.A.";motosdelcafe@hotmail.com;gruposumoto.com/wordpress/;"(57) (6) 7459090";"Cr19 11-12 Colombia, Armenia"
"SU MOTO DEL CAFÉ S.A";motosdelcafe@hotmail.com;;"(57) (6) 7459090";"Cr19 11-12 Colombia, Armenia"
"DISTRIBUIDORA HERCA";distribuidoraherca@hotmail.com;www.distriherca.com;"(57) (1) 4537753";"Tr73 ABis A 35 C-29 S Colombia, Bogotá"
"INVERSIONES P&G SAS";liliana@motosyaccesorios.com;www.theadventure.com.co;"(57) (1) 6140540";"Cl 134 45 B-57 L-1 Colombia, Bogotá"
"ALMACEN ICM REPUESTOS";icminversiones@une.net.co;;"(57) (4) 4488187";"Cl 37 52-54 Colombia, Medellín"
"HONDA SUPERMOTOS DE CALI";jtamayo@supermotosdecali.com.co;www.honda.com.co;"(57) (2) 8895215";"Cr1 22-21 Colombia, Cali"
"MOTOCICLETAS HONDA";jtamayo@supermotosdecali.com.co;www.honda.com.co;"(57) (2) 8895215";"Cr1 22-21 Colombia, Cali"
PRO-MOTORS;pro.motorssas@gmail.com;www.pro-motor.com;"(57) (8) 6828120";"Cr26 31-35 Porvenir Colombia, Villavicencio"
"MOTOS Y MOTOS";mbucaramanga@gmail.com;www.motosymotos.net;"(57) (7) 6710162";"Boulevar Santander 19-83 Colombia, Bucaramanga"
"ACADEMIA AUTO CONDUCAR";autoconducar80@hotmail.com;www.autoconducar.com;"(57) (1) 4360176";"AvCl 80 70 F-49 Colombia, Bogotá"
ORBIMOTOS;orbimotos@une.net.co;www.orbimotos.com;"(57) (4) 4445112";"Cr52 57-47 Colombia, Medellín"
"AKT MOTO ZONA";moto.zona@hotmail.com;www.motozona.com.co;"(57) (7) 6597182";"Principal Cra 26 No. 13-120 Girón Colombia, Bucaramanga"
"TAPIVAN S.A.S.";tapivan@une.net.co;www.tapivan.com;"(57) (4) 4448701";"Cl 38 52-39 Colombia, Medellín"
"MOTOS Y ACCESORIOS";liliana@motosyaccesorios.com;www.motosyaccesorios.com;"(57) (1) 6011952";"Cl 134 45 B-51 Colombia, Bogotá"
"PROLUB COMBUSTIBLES Y LUBRICANTES S.A.";recepcionbogota@gulfcolombia.com;www.gulfcolombia.com;"(57) (1) 0";"Cr14 94-44 Trr B P-8 Colombia, Bogotá"
"ALMACENES FLAMINGO S.A.";linag@flamingo.com.co;www.flamingo.com.co;"(57) (4) 5768888";"Oficinas Centrales: Cl 51 48-09 P-3 Colombia, Medellín"
"C.D.A. LA 80 MEDITERRÁNEO S.A.S.";info@cdala80mediterraneo.com;www.cdala80mediterraneo.com;"(57) (4) 4441367";"Cr80 54 A-47 Colombia, Medellín"
"AUTECO ENVIGADO CHAVA'S GROUP";chavasgroup@gmail.com;www.autecoenvigado.com;"(57) (4) 4489848";"Cr43 32   S-34 Envigado Colombia, Medellín"
"YAMAHA MUSICAL";cimmedellin@incolmotos-yamaha.com.co;www.yamahamusical.com.co;"(57) (4) 3213033";"Parque Comercial El Tesoro Trr N Parqueadero Sótano 2 P- Colombia, Medellín"
ATMOPEL;clondono@atmopel.com.co;www.atmopel.com.co;"(57) (4) 2324932";"Cl 38 52-97 Colombia, Medellín"
"ZAGAMOTOS DEL PACÍFICO S.A.S";monica.cruz@zagamotos.com;www.umcolombia.co;"(57) (2) 3711717";"Av Roosevelt 26-69 Colombia, Cali"
MACROMOTOS;macromotos@une.net.co;;"(57) (4) 4483031";"Cl 44 68-75 Colombia, Medellín"
"AFRICA MOTOS S.A.S.";andrespelaez@africamotos.com;www.africamotos.com;"(57) (4) 4445996";"Cl 37 52-92 Colombia, Medellín"
"First Name";"Email Address";Url;Telephone;Address
ATMOPEL;clondono@atmopel.com.co;www.atmopel.com.co;"(57) (4) 2324932";"Cl 38 52-97 Colombia, Medellín"
"MEJOR Y BARATO";calicentro@yahoo.com;www.mejorybarato.com;"(57) (2) 3851856";"Cl 6 41-51 Colombia, Cali"
"SUPERMOTOS DEL ORIENTE S.A.S.";cariasp@hondamotos.supermotosdeloriente.com.co;www.honda.com.co;"(57) (7) 5722528";"Cl 7 0-17 Latino Colombia, Cúcuta"
GAMAS;mfforero@arce.com.c;;"(57) (7) 6521506";"Cl 45 17-71 Colombia, Bucaramanga"
"TONI MOTOS";tonimotos@une.net.co;;"(57) (4) 2625100";"Cl 38 52-79 Colombia, Medellín"
"CASATRONIC S.A.S";casatronic@hotmail.com;;"(57) (7) 6465551";"Cl 36 23-02 Colombia, Bucaramanga"
"AUTECO ENVIGADO CHAVA'S GROUP";chavasgroup@gmail.com;www.autecoenvigado.com;"(57) (4) 4489848";"Cr43 32   S-34 Envigado Colombia, Medellín"
"MOTORES JAPONESES S.A.";gerente@motores-japoneses.com;www.motores-japoneses.com;"(57) (2) 6871422";"Cr15 Calle 21 Esq Colombia, Cali"
"MOTORIENTE S.A.S.";caja@motoriente.com.co;www.motoriente.com.co;"(57) (5) 3702852";"Cr46 43-50 Colombia, Barranquilla"
"ZAGAMOTOS DEL PACÍFICO S.A.S";monica.cruz@zagamotos.com;www.umcolombia.co;"(57) (2) 3711717";"Av Roosevelt 26-69 Colombia, Cali"
"YAMAHA MUSICAL";cimmedellin@incolmotos-yamaha.com.co;www.yamahamusical.com.co;"(57) (4) 3213033";"Parque Comercial El Tesoro Trr N Parqueadero Sótano 2 P- Colombia, Medellín"
"C.D.A. LA 80 MEDITERRÁNEO S.A.S.";info@cdala80mediterraneo.com;www.cdala80mediterraneo.com;"(57) (4) 4441367";"Cr80 54 A-47 Colombia, Medellín"
"DINORTE S. A.";lizarazogustavo@yahoo.com.mx;www.credinorte.co;"(57) (7) 5731866";"Av5 8-15 Centro Colombia, Cúcuta"
"LA TIENDA DEL HOGAR";contactenos@latiendadelhogar.com.co;;"(57) (6) 7440995";"Cr14 18-39 Colombia, Armenia"
INCOLMOTOS-YAMAHA;pdvbucaramanga@incolmotos-yamaha.com.co;www.incolmotos-yamaha.com.co;"(57) (7) 6973950";"Cr27 32-48 Colombia, Bucaramanga"
"MOTOSERVICIOS EL REY LTDA.";info@motoservicioselrey.com;www.motoservicioselrey.com;"(57) (7) 5834205";"Av1 6-14 Latino Colombia, Cúcuta"
"BATTERY CENTER";bateriascali@hotmail.com;www.batterycentercali.com;"(57) (2) 3859852";"Cr39 12-30 B. Departamental Colombia, Cali"
QUINDIMOTOS;info@quindimotos.com;www.quindimotos.com;"(57) (6) 7369347";"Cl 15 20-55 Colombia, Armenia"
DISTRIMOTOS;gerenteventas@distrimotos.com;www.distrimotos.com;"(57) (6) 3354522";"Cl 22 6-39 Colombia, Pereira"
"AUTO MÓVILI";automovili.sas@gmail.com;www.automovilisas.com;"(57) (6) 3372222";"Av30 de Agosto Cl 94 Esq L 4 Colombia, Pereira"
"COOMULTRASAN MULTIACTIVA";mercadeo@coomultrasan.com.co;www.coomultrasan.com.co;"(57) (7) 6434204";"Cr35 A 48 57/59 Colombia, Bucaramanga"
"SUZUKI NEO CROSS";suzukineocross@jacobs.com.co;www.suzuki.com.co;"(57) (7) 6531010";"Cr29 43-56 El Llanito Girón Colombia, Bucaramanga"
SUZUKI;suzuki@suzuki.com.co;www.suzuki.com.co;"(57) (1) 2329168";"Av Caracas 31 B-51 Colombia, Bogotá"
"CENTRO COMERCIAL LA HERRADURA";mercadeo@laherradura.com.co;www.laherradura.com.co;"(57) (2) 2253512";"Cr19 28-76 Of Colombia, Tuluá"
"PIAGGIO SPORT F.B.";piaggiosportfb@hotmail.com;www.piaggiosport.com;"(57) (2) 4453347";"Cl 33 A 11 H-46 Colombia, Cali"
"CASCOS LAR";cascoslar@cascoslar.com;www.cascoslar.com;"(57) (1) 7270800";"Av1 de Mayo-28 -85-S Colombia, Bogotá"
"AKT DEL CAFÉ";aktarmenia@hotmail.com;;"(57) (6) 7462946";"Cr19 13-18 Colombia, Armenia"
"HONDA SUPERMOTOS DE SANTANDER";Motossantander@yahoo.com;www.honda.com.co;"(57) (7) 6345713";"Cr27 35-71 Colombia, Bucaramanga"
"SUPERMOTOS DE NARIÑO S.A.S.";luisedo88@yahoo.com.mx;www.honda.com.co;"(57) (2) 7216300";"Cl 16 12-16 Las Lunas Colombia, Pasto"
"INVERSIONES MUNDO MOTOS";inversionesmundomotos@hotmail.com;;"(57) (4) 5139028";"Cr52 57-12 Colombia, Medellín"
DACAMOTOS;dacamotos@hotmail.com;;"(57) (4) 3772859";"Cr49 51-49 Itagüí Colombia, Medellín"
"MONDI MOTOS";robertdeiby69@hotmail.com;www.mondimotos.blogspot.com;"(57) (4) 4923903";"Cl 44 88-14 Colombia, Medellín"
"ACADEMIA DE CONDUCCIÓN PRACTICAR";institutopracticar@yahoo.es;;"(57) (4) 2317782";"Cl 56 56-67 P-3 Colombia, Medellín"
"ACADEMIA AUTOMOVILÍSTICA LUZ MARINA BOHÓRQUEZ";;www.cealuzmarinabohorquez.amawebs.com;"(57) (7) 6452465";"Cr30 19-56 Colombia, Bucaramanga"
"SUPERMOTOS DE SANTANDER";Motossantander@yahoo.com;www.honda.com.co;"(57) (7) 6227070";"Cr14 49-34 Colombia, Barrancabermeja"
"COLMOTOS LTDA.";colmotosmedellin@une.net.co;;"(57) (4) 4444690";"Cr52 37-42 Colombia, Medellín"
"180° PINTURA ELECTROSTÁTICA LTDA";pinturaelectrostatica180@yahoo.com.co;;"(57) (4) 2620231";"Cl 39 53-24 Colombia, Medellín"
"ALMACENES SUPERMOTOS DE ANTIOQUIA";ventas@supermotosdeantioquia.com.co;supermotosdeantioquia.com.co;"(57) (4) 2702930";"Cl 38 Sur 38-20 Colombia, Medellín"
"YAMAHA MOTOS";info@yamahamotos.com.co;yamahamotos.com.co;"(57) (7) 6201260";"Cl 49 19-82 Br Colombia Colombia, Barrancabermeja"
"MOTOCORDILLERA YAMAHA JAE";motocordillera-pereira@hotmail.com;;"(57) (6) 3262733";"Av30 de Agosto-27 -8 Colombia, Pereira"
"First Name";"Email Address";Url;Telephone;Address
"MONDI MOTOS";robertdeiby69@hotmail.com;www.mondimotos.blogspot.com;"(57) (4) 4923903";"Cl 44 88-14 Colombia, Medellín"
"COLMOTOS LTDA.";colmotosmedellin@une.net.co;;"(57) (4) 4444690";"Cr52 37-42 Colombia, Medellín"
"ACADEMIA DE CONDUCCIÓN PRACTICAR";institutopracticar@yahoo.es;;"(57) (4) 2317782";"Cl 56 56-67 P-3 Colombia, Medellín"
KAWACALDAS;kawacaldas@hotmail.com;;"(57) (6) 8803909";"Cr22 16-40 Centro Colombia, Manizales"
ALMOTOS;almotos@une.net.co;;"(57) (4) 4487451";"Cl 38 52-73 Colombia, Medellín"
"SUPERMOTOS DE SANTANDER";Motossantander@yahoo.com;www.honda.com.co;"(57) (7) 6227070";"Cr14 49-34 Colombia, Barrancabermeja"
"NEO CROSS SUZUKI";suzukineocross@jacobs.com.co;www.jacobs.com.co;"(57) (7) 6545205";"Cr15 3-12 Puerto Madero Colombia, Piedecuesta"
"ACADEMIA AUTOMOVILÍSTICA LUZ MARINA BOHÓRQUEZ";;www.cealuzmarinabohorquez.amawebs.com;"(57) (7) 6452465";"Cr30 19-56 Colombia, Bucaramanga"
CERTIPRUEBA;daniel.palacino@hotmail.com;www.certiprueba.com;"Conm.: (57) (4) 4117232";"Tr39 A 70-40 Colombia, Medellín"
"CDA DIAGNOSTI-CAR S.A.";cdadiagnosticar@gmail.com;www.cdadiagnosticar.com;"(57) (4) 7854757";"Cr4 47-17 Colombia, Montería"
"SU MOTO DEL OTÚN S.A.";pereira@gruposumoto.com;www.sumotodelotun.com;"(57) (6) 3361433";"Av30 de Agosto-28 -12 Colombia, Pereira"
"AUTECO - DISMOTOR LTDA";dismotorbucaramanga@hotmail.com;www.dismotorbucaramanga.com;"(57) (7) 6331173";"Dg15 50-113 P-2 Colombia, Bucaramanga"
"GAIRA MOTOS S.A.S.";;www.facebook.com/pages/GAIRA-MOTOS-SAS/520797867940079?fref=ts;"(57) (5) 4354665";"Cr16 6-49 Colombia, Santa Marta"
"CABARCAS SARMIENTO S.A.S.";1;www.cabarcassarmientosas.com;"(57) (4) 7822755";"Cr3 37-71 Centro Colombia, Montería"
"CONVERRY CENTRO DE DIAGNÓSTICO AUTOMOTOR";gerencia@converry.com;www.converry.com;"Telefax: (57) (6) 8811250";"Cl 64 A 20 A-50 Colombia, Manizales"
"SUPERCROSS LTDA.";nelly.diaz@supercross.com.co;www.supercross.com.co;"(57) (7) 6432492";"Dg15 54-09 Colombia, Bucaramanga"
"MOTOS AKT LA VARIANTE";aktlavariante@hotmail.com;;"(57) (2) 2140206";"Cl 1 3-37 L 1 Salida A Pereira Colombia, Cartago"
"MOTO COLOR";pintujimmy@hotmail.com;www.pintujimmy.com;"(57) (4) 3817519";"Cr38 53-24 Colombia, Medellín"
"ALMACÉN CARIBE MOTOS";"sandrat2070@hotmai.com                  caribemotossai@hotmail.com";;"(57) (8) 5123400";"Av20 de Julio-4 -47 Esq Diagonal Ferretería Apolo Colombia, San Andrés"
"VELMOTOS MOTOS ABC";velmotosowo@gmail.com;;"(57) (4) 2328339";"Cr46 36-67 Colombia, Medellín"
"SUR & MOTOR S.A.S.";surymotorauteco@gmail.com;;"(57) (4) 4486393";"Cr52 85-60 Itagüí Colombia, Medellín"
VALLEMOTOS;diegolave8@hotmail.com;;"(57) (2) 5585543";"Av Roosevelt 27-4 Colombia, Cali"
"COMPRAVENTA DE MOTOS LA 75";motosjonnygiraldo@gmail.com;;"(57) (4) 2384154";"Cr75 21-18 Colombia, Medellín"
"YAMAHA DEL CAFÉ LTDA.";yamahadelcafe@gmail.com;;"(57) (6) 7458101";"Cr19 11-07 Colombia, Armenia"
"RENTA CAR VACATION";rentacarvacation@hotmail.com;;"(57) (8) 5126230";"Av Newball Diagonal Hotel Sunrise Colombia, San Andrés"
"SUZUKI MOTOS";motocentrosuzuki@hotmail.com;www.suzuki.com.co;"(57) (7) 6220478";"Cl 49 A 12-25 Parque Uribe Colombia, Barrancabermeja"
"VEHIMOTORA SUR";vehimotorasur1@yahoo.es;;"(57) (8) 8736824";"Cr5 1 G-45 Colombia, Neiva"
"MAR MOTOS Y REPUESTOS";mafete.1@hotmail.com;;"(57) (7) 5728514";"Cl 7 2-27 Latino Colombia, Cúcuta"
"RUBEN BIELAS";rubenbielas@hotmail.com;;"(57) (4) 2624161";"Cr53 37-35 Colombia, Medellín"
"COLOR'S MOTOS";pintujimmy@hotmail.com;www.pintujimmy.com;"(57) (4) 4444924";"Cr52 60-12 Colombia, Medellín"
"MOTOMONTAÑA BOLIVARIANA";motomontanasanjuan@hotmail.com;;"(57) (4) 2357824";"Cr65 41-56 Colombia, Medellín"
"PIJAOS MOTOS S.A.";gerencia@pijaosmotos.com;;"(57) (8) 2779335";"Cr6 25-06 Colombia, Ibagué"
"MOTO PRISMA";jahosa14573@hotmail.com;;"(57) (4) 3330198";"Cr43 33   S-56 Envigado Colombia, Medellín"
"GP BIKES - YAMAHA";admon@gpbikes.co;;"(57) (4) 4444756";"Cr43 31   S-33 Envigado Colombia, Medellín"
"MOTOS PREMIER HERO";gerencia@pijaosmotos.com;;"(57) (8) 5150216";"Cl 25 5 A-26 Colombia, Ibagué"
"SUPERMOTOS DE CORDOBA S.A.";helejalde@supermotosdecordoba.com.co;;"(57) (4) 7917773";"Cl 38 5-05 Centro Colombia, Montería"
"PROTAPER & INDUSTRIAS OVI S.A.S.";info@industriasovia.com;www.industriasovi.com;"(57) (4) 2352977";"Cl 25 A 65 D-28 Colombia, Medellín"
"AUTECO OFFERMOTOS";offermotos@hotmail.com;;"(57) (4) 3025761";"Cl 37   S 45 A-10 Envigado Colombia, Medellín"
"SUPER MOTOS DEL CAFÉ";msoto@supermotosdelcafe.com.co;www.honda.com.co;"(57) (6) 3330000";"Cr12 20-75 Colombia, Pereira"
"MARCO MOTOS";almacenytallermarcomotos@hotmail.com;;"(57) (4) 5865340";"Cr49 70-40 Colombia, Medellín"
"First Name";"Email Address";Url;Telephone;Address
"CASCOS & LUJOS";cascosylujos595@hotmail.com;;"(57) (4) 5615995";"Cr47 49-02 Rionegro Colombia, Rionegro"
"RENTA CAR VACATION";rentacarvacation@hotmail.com;;"(57) (8) 5126230";"Av Newball Diagonal Hotel Sunrise Colombia, San Andrés"
AVENTURA;aventuramanizales@gmail.com;;"(57) (6) 8815706";"Cr23 67 A-57 L-8 Edif. Atalaya Colombia, Manizales"
"ESPAMOTOS LA 73";espamotosla73@live.com;;"(57) (4) 4130700";"Cl 44 73-11 Colombia, Medellín"
"ALMACÉN CARIBE MOTOS";"sandrat2070@hotmai.com                  caribemotossai@hotmail.com";;"(57) (8) 5123400";"Av20 de Julio-4 -47 Esq Diagonal Ferretería Apolo Colombia, San Andrés"
"MOTOCICLETAS KBK S.A.S.";motoskbk@gmail.com;;"(57) (4) 4569701";"Cr50 33-90 Bello Colombia, Medellín"
KTM-KAWASAKI;motogroupktm@gmail.com;;"(57) (5) 6655213";"Laguito Cl 1 1-70 Colombia, Cartagena"
"HONDA - SUR MOTOS Y REPUESTOS S.A.S.";"E-mail: hondasur@une.net.co";;"(57) (4) 2780560";"Cr50 125 S-104 Caldas Colombia, Caldas"
"SU MOTO DE URABÁ";sumotourabaapartado@hotmail.com;;"(57) (4) 8280026";"Cl 99 99-06 Colombia, Apartadó"
NAUTIAGRO;nautiagro@une.net.co;www.nautiagro.com;"(57) (5) 6606056";"Manga Cl 26 15-112 Colombia, Cartagena"
"SINCRO BIKE";sincrobikesas@hotmail.com;www.sincrobike.co;"(57) (4) 4449493";"Cl 31 A 75-64 Av Bolivariana Colombia, Medellín"
"YAMAHA DEL CAFÉ LTDA.";yamahadelcafe@gmail.com;;"(57) (6) 7458101";"Cr19 11-07 Colombia, Armenia"
"CENTRO ORIENTAL S.A.S.";centrooriental@une.net.co;www.centrooriental.com;"(57) (4) 5533333";"Cl 20 23-11 La Ceja Colombia, Medellín"
"CASA JAPONESA";casajaponesa@hotmail.com;;"(57) (8) 6624324";"Cr29 35 A-18 Av Alfonso López Colombia, Villavicencio"
"SISTEMAS ELECTRICOS FG S.A.S";fgsistemotos@gmail.com;;"(57) (4) 2935855";"Cr52 57-46 Bdg 104 Colombia, Medellín"
"YOKO MOTOS S.A.S.";apartado@ykmotos.com.co;;"(57) (4) 8290414";"Cr101 94-32 Colombia, Apartadó"
"DISDEMOTOS S.A.S.";vbarreto@dismotocali.com.co;;"(57) (2) 8801672";"Cr1 22-106 Colombia, Cali"
"PROTAPER & INDUSTRIAS OVI S.A.S.";info@industriasovia.com;www.industriasovi.com;"(57) (4) 2352977";"Cl 25 A 65 D-28 Colombia, Medellín"
"PINTU PLACAS";pintuplacas@gmail.com;;"(57) (4) 2628627";"Cr45 38-05 Colombia, Medellín"
"MOTO TEST DIAGNOSTICENTRO";mototest@hotmail.com;www.mototestcolombia.com;"(57) (4) 3110629";"Cl 10 A 41 A-09 Colombia, Medellín"
"COLOR'S MOTOS";pintujimmy@hotmail.com;www.pintujimmy.com;"(57) (4) 4444924";"Cr52 60-12 Colombia, Medellín"
"SUPERMOTOS DE CORDOBA S.A.";helejalde@supermotosdecordoba.com.co;;"(57) (4) 7917773";"Cl 38 5-05 Centro Colombia, Montería"
"MOTOMONTAÑA BOLIVARIANA";motomontanasanjuan@hotmail.com;;"(57) (4) 2357824";"Cr65 41-56 Colombia, Medellín"
"HONDA BELÉN MOTOROOM";;;"(57) (4) 3437735";"Cl 29 75-39 Colombia, Medellín"
"SUR & MOTOR S.A.S.";surymotorauteco@gmail.com;;"(57) (4) 4486393";"Cr52 85-60 Itagüí Colombia, Medellín"
"MOTO CARS REPUESTOS";diana08hidalgo@gmail.com;;"(57) (4) 5801280";"Cl 35 42-30 Itagüí Colombia, Medellín"
"AUTECO OFFERMOTOS";offermotos@hotmail.com;;"(57) (4) 3025761";"Cl 37   S 45 A-10 Envigado Colombia, Medellín"
"P&M YAMAHA";pymmotorsangil@gmail.com;www.pymyamaha.com;"(57) (7) 7247457";"Av Santander 19-55 Colombia, San Gil"
"HONDA MOTOR.CO";honda.motor@hotmail.com;;"(57) (7) 6914795";"Cl 56 21-25 La Concordia Colombia, Bucaramanga"
"MOTO SERVICIOS EL PAISA";la-paisa01@hotmail.com;;"(57) (7) 6112044";"Cl 52 D 48-16 Palmira Vía Puente Elevado Colombia, Barrancabermeja"
"REPRESENTACIONES Y TRASTEOS FERGORO";fergoro.monteria@hotmail.com;;"(57) (4) 7816145";"Cr7 42-05 Los Laureles Colombia, Montería"
"MERCADEO INDUSTRIAL";info@mercadeoindustrial.com;www.mercadeoindustrial.com;"(57) (4) 4449788";"Cl 1 45-120 Int 902 Colombia, Medellín"
"MOTO PRISMA";jahosa14573@hotmail.com;;"(57) (4) 3330198";"Cr43 33   S-56 Envigado Colombia, Medellín"
"ALVITRAILER REMOLQUES Y ACCESORIOS";alvitrailer@gmail.com;;"(57) (1) 6060527";"Cl 66 28 A-15 Colombia, Bogotá"
"CDA ENVISUR LTDA.";cdaenvisur@une.net.co;www.cdaenvisur.com;"(57) (4) 3022880";"Cr49 46 A   S-60 Envigado Colombia, Medellín"
"NITRO TRANSPORTE S.A.S.";nitrotransportesas@hotmail.com;www.nitromotos.com;"(57) (4) 4443023";"Cr49 A 90-02 Aranjuez Colombia, Medellín"
"MARCO MOTOS";almacenytallermarcomotos@hotmail.com;;"(57) (4) 5865340";"Cr49 70-40 Colombia, Medellín"
"MOTO SHOW";motoshow40@outlook.com;;"(57) (4) 2658747";"Cl 33 65-12 Colombia, Medellín"
"MULTISERVICIOS Y ACCESORIOS S.A.S.";taller@multiserviciossas.com.co;;"(57) (4) 5817766";"Cl 50 68-93 Colombia, Medellín"
PINTUJIMMY;pintujimmy@hotmail.com;www.pintujimmy.co;"(57) (4) 2324072";"Cl 38 52-121 Colombia, Medellín"
"First Name";"Email Address";Url;Telephone;Address
"VELMOTOS MOTOS ABC";velmotosowo@gmail.com;;"(57) (4) 2328339";"Cr46 36-67 Colombia, Medellín"
"COMPRAVENTA MOTORCYCLE";motorcycle2009@hotmail.com;www.compraventamotorcycle.com;"(57) (7) 6427160";"Cr14 29 A-16 Colombia, Bucaramanga"
"RUBEN BIELAS";rubenbielas@hotmail.com;;"(57) (4) 2624161";"Cr53 37-35 Colombia, Medellín"
"SUPER MOTOS DEL CAFÉ";msoto@supermotosdelcafe.com.co;www.honda.com.co;"(57) (6) 3330000";"Cr12 20-75 Colombia, Pereira"
"JAPOLANDIA MOTOS";gerencia@japolandiamotos.com;;"Telefax: (57) (7) 5837626";"Cl 7 0-39 Latino Colombia, Cúcuta"
"SCOOTER STREET COLOMBIA";scooterstreet@hotmail.com;;"(57) 3134359093";"Cr28 B 65-27 Colombia, Bogotá"
BIKEXPERTS;mercadeo@propartes.com;;"(57) (28) 8966363";"Complejo Logistico Industrial Siberia B-B Bdg 11 150 Mts Adelante de la Glorieta Siberia Vía Cota Colombia, SIBERIA"
"EMPAQUETADURAS AMÉRICA LTDA.";;;"(57) (4) 4833987";"Dg51 42-120 Bello Colombia, Bello"
"MOTOBIKE COLOMBIA S.A.S.";;;"(57) (4) 4577456";"Cl 52 48-58 Colombia, Medellín"
"SANTANA MOTO S.A.";;;"(57) (6) 8536639";"Cr5 18 A-95 Colombia, Anserma"
"LA VARIEDAD DEL CASCO NO. 2";;;"(57) (4) 7919398";"Cr14 16 A-24 Urbina Colombia, Montería"
AGROMOTOS;;;"(57) (5) 2813902";"Cr19 27-73 Colombia, Sincelejo"
"GARCÍA MARITZA";;;"(57) (1) 7138745";"Av1 de Mayo 28-08 Colombia, Bogotá"
"SUZUKI SERVIJAPÓN";;;"(57) (8) 6870563";"Cl 12 18-60 Colombia, Cumaral"
"MOTOS Y LUJOS -2";;;"(57) (28) 8292557";"Cr13 9-08 Colombia, Santander de Quilichao"
"CONTRERAS BAUTISTA GERMAN";;;"(57) (1) 3115865";"Cl 72 37-43 P-2 Colombia, Bogotá"
"BARBOSA PINZÓN DANIEL";;;"(57) (8) 8332622";"Cl 8 9-29 Colombia, Garzón"
"MOTODIQUE S.A.";;;"(57) (5) 6816462";"Dg31 78-28 Colombia, Cartagena"
"MOTORINOQUIA S.A.S.";;;"(57) (8) 6870362";"Dg12 15-79 Colombia, Villavicencio"
"AVA MOTORS COLOMBIA S.A.S";;;"(57) (1) 3478580";"Cr 24 76-72 Colombia, Bogotá"
"MOTOCENTER HONDA";;;"(57) (7) 7245538";"Cr11 8-14 Colombia, San Gil"
"MOTOCICLETAS AUTECO";;;"(57) (7) 7247911";"Cr11 9-20 Colombia, San Gil"
"ALMACEN Y TALLER CICLO BOLIVAR";;;"(57) 8411984";"Cl 49 48-03 Colombia, Ciudad Bolívar"
"SUROMOTOS S.A.";;;"(57) 8412984";"Cr50 48-17 Colombia, Ciudad Bolívar"
"AKT MOTOS COMERCIALIZADORA PORTEÑA";;;"(57) (4) 8332864";"Cl 7 (Cr) 1 Y-02 Esq Colombia, Puerto Berrío"
"ALMACÉN EXTRA";;;"(57) (4) 8332748";"Cr2 51-07 Colombia, Puerto Berrío"
"SUBA MOTOS";;;"(57) (1) 6821853";"Cl 139 98 B-16 Colombia, Bogotá"
"TALLER SERVIMOTOS";;;"(57) (4) 6709922";"Cl 30 2-58 Colombia, Quibdó"
"SUZUKI MOTOS & REPUESTOS";;;"(57) (5) 4242251";"Cl 17 13-02 Colombia, Ciénaga"
"MOTO PLANET LTDA";;;"(57) (1) 2384934";"Dg 44 48-03 S Colombia, Bogotá"
FONTIMOTOS;;;"(57) (1) 4156758";"Cl 22 104-56 P-2 Colombia, Bogotá"
"ALMACÉN BC S.A.";;;"Domic.: (57) (5) 6692414";"Cl 32 23-65 Colombia, Cartagena"
"CRÉDITOS PARRA";;;"(57) (8) 5927237";"Cl 7 10-33 Colombia, Leticia"
INGEMOTOS;;;"(57) (1) 2552611";"Cr24 71-02 Colombia, Bogotá"
"ALMACÉN Y TALLER MOTOCROS";;;"(57) (8) 6685336";"Cl 31 25-61 Porvenir Colombia, Villavicencio"
"MOTO AVENTURA";;;"(57) (1) 2592121";"Cl 127 B 45-60 Colombia, Bogotá"
"ASTROMOTOS JIALING";;;"(57) (2) 6801619";"Cr1 22-03 Colombia, Cali"
"MOTO RACER INYECTION";;;"(57) (6) 3240518";"Av Ferrocarril 14-21 Colombia, Pereira"
"CASA HONDA";;;"(57) (2) 3116698";"Cr15 13-74 Colombia, Cali"
"DISMERCA MEDELLIN S.A.S.";;;"(57) (4) 2323122";"Cr50 37-15 Colombia, Medellín"
"First Name";"Email Address";Url;Telephone;Address
"ALMACÉN EL RHIN";;;"(57) (8) 2463681";"Cl 10 6-27 Colombia, Chaparral"
"MILU'S MOTOS";;;"(57) (7) 7237867";"Cr12 18-90/94 Colombia, San Gil"
"ALMACEN BARLUIMOTOS - REPUESTOS";;;"(57) (7) 6450348";"Bul Santander 21-50 Colombia, Bucaramanga"
MOTOCENTRO;;;"(57) (8) 2487351";"Cr4 13-08 Centro Colombia, Espinal"
"METAL MOTOS";;;"(57) (8) 2666994";"Cr6 39-90 Colombia, Ibagué"
"MOTO SHOP D.C. LTDA.";;;"(57) (1) 3514025";"Cr 30 4-67 Colombia, Bogotá"
GUSTAMOTOS;;;"(57) (8) 4352977";"Cr11 Cl 17 Contiguo A Distrillantas Colombia, Florencia"
CENTROMOTOS;;;"(57) 3103899137";"Cr24 20-33 Colombia, Manizales"
"SEXTA A FONDO LTDA.";;;"(57) (2) 6683524";"Av6 N 25 N-69 Colombia, Cali"
"KW MOTOS Y BICICLETAS ELECTRICAS";;;"(57) (5) 3560115";"Cl 72 41 B-103 Colombia, Barranquilla"
"SUPERMOTOS DEL TOLIMA SAS";;;"(57) (8) 2646666";"Cr5 39-55 Colombia, Ibagué"
"SU MOTO DEL MAGDALENA";;;"(57) (7) 6022334";"Cl 49 14-65 Colombia, Barrancabermeja"
"MOTOS LA 66";;;"(57) (2) 2748947";"Cl 66 28-261 Colombia, Palmira"
"CLINI RING";;;"(57) (2) 8852493";"Cl 21 11 D-13 Colombia, Cali"
"CICLOMOTOS MICHEL";;;"(57) (2) 6695534";"Cr2 9 A-41 Yumbo Colombia, Yumbo"
"MOTOCICLETAS JIALING";;;"(57) (2) 2722330";"Cl 28 27-81 Colombia, Palmira"
"TALLER MOTOS CAJAL";;;"(57) (2) 4474234";"Cr1C2 61 B-67 Colombia, Cali"
"SIGMA MOTORS";;;"(57) (7) 5715614";"Cl 7 0-85 Latino Colombia, Cúcuta"
MOTOS;;;"(57) (1) 3649777";"Cl 11 31 A-42 Colombia, Bogotá"
"TARGET MOTOS";;;"(57) (7) 5743977";"Av18 E 21 A N-20 Niza Colombia, Cúcuta"
"MOTOTK DEL NORTE LTDA.";;;"(57) (7) 5832078";"Av1 7-30 Latino Colombia, Cúcuta"
"ALMACEN JERRY MOTOS";;;"(57) (7) 6702556";"Cr17 B 48-35 Colombia, Bucaramanga"
"TAXI AUTOS HIPERCENTRO";;;"(57) (7) 6430001";"Cr27 48-60 Colombia, Bucaramanga"
"SERVICENTRO LA UNION";;;"(57) (7) 6332929";"Cr17 42-42 Colombia, Bucaramanga"
"IMPORMOTOS G & G S.A.S.";;;"Telefax: (57) (1) 6835739";"Cl 130 A 104 - 06 Colombia, Bogotá"
"CORPORACION INDUSTRIAL DE REPUESTOS S.A.";;;"(57) (1) 4470673";"Av Las AmÕricas 51-39 L-240 C.c. Automotriz Carrera Colombia, Bogotá"
"MOTOCENTER POPAYÁN";;;"(57) (2) 8234803";"Cr9 9 A N-33 L-1 Colombia, Popayán"
"TALLER MCZ MOTOS";;;"(57) (2) 8210796";"Cl 5 21-55 Colombia, Popayán"
"GÓMEZ CASTAÑO JOSÉ MARIO";;;"(57) (1) 4071557";"Av 1 de Mayo 28-74 Colombia, Bogotá"
"MUNDO MOTOS";;;"(57) (7) 5721747";"Cl 2 8-72 Callejón Colombia, Cúcuta"
"ABC DE LAS CAJAS AUTOMATICAS";;;"(57) (1) 6060432";"Cr29 No. 65-38 Colombia, Bogotá"
"COMERCIALIZADORA MOTO X";;;"(57) (7) 6950303";"Cr30 32-55 Colombia, Bucaramanga"
"MOTO CLUB JD";;;"(57) (1) 2493039";"Av (Cl) 78 20-67 Colombia, Bogotá"
"ELECTROPLAN LTDA.";;;"(57) (4) 2314050";"Cl 53 45-80 Colombia, Medellín"
"ALMACÉN MOTOPITS";;;"(57) (4) 4648697";"Cr67 109-21 Colombia, Medellín"
"DISTRIMOTOS ANTIOQUIA LTDA.";;;"(57) (4) 2782320";"Cr50 125 S-116 Caldas Colombia, Medellín"
"STOP MOTOS";;;"(57) (4) 2629116";"Cl 38 51-39 Colombia, Medellín"
CUATREROS;;;"(57) (2) 5565490";"Cl 9 30 A-21 Colombia, Cali"
"ALMACÉN REPUESTOS TAZMOTOS";;;"(57) (4) 5126174";"Cr52 57-42 Colombia, Medellín"
"MOTOCLÍNICA LTDA.";;;"(57) (4) 2328804";"Cl 38 52-47 Colombia, Medellín"
"First Name";"Email Address";Url;Telephone;Address
"DUGO MOTOS DE LA 70";;;"(57) (4) 3418254";"Cr 70 19-39 Colombia, Medellín"
"CUSTOM EVOLUTION";;;"(57) (4) 2504848";"Cl 44 79-89 Colombia, Medellín"
"ALMACÉN JL MULTIMOTOS";;;"(57) (4) 3023325";"Cr43 A 33 B Sur -29 Colombia, Envigado"
"SERGIO SIERRA MOTOS Y CUATRIMOTOS";;;"(57) (4) 3121059";"Cl 10 A 40-28 Colombia, Medellín"
"REGNIER & CÍA S EN C.";;;"(57) (2) 6681082";"Av3 N 33 N-21 Colombia, Cali"
"MUNDIAL DE MOTOS";;;"(57) (8) 8717122";"Cr4 2 A-19 Colombia, Neiva"
"MOTO POWER";;;"(57) (2) 8315917";"Cr20 3-14 Colombia, Popayán"
"MOTO FULL";;;"(57) (1) 2810462";"Cl 16 14-65 Colombia, Bogotá"
"UNY MOTOS LTDA.";;;"(57) (1) 2656983";"Tr 73D 8Av 1 de Mayo) No 38C-68 S Kenedyedy Colombia, Bogotá"
"COLOMBIA MOTOS QUILICHAO";;;"(57) 3182666408";"Cl 6 12-51 Colombia, Santander de Quilichao"
"MOTO ESPECIAL";;;"(57) (5) 6567581";"Cl 32 21-174 Av Pedro de Heredia Colombia, Cartagena"
"MULTIMOTOS DEL CARIBE";;;"(57) (5) 6698407";"Cl 31 55-131 Sector 11 de Noviembre Colombia, Cartagena"
"GENERAL MOTOS LTDA.";;;"(57) (1) 2732918";"Dg30 S 73 B-24 Colombia, Bogotá"
"NOHELIA MOTOS";;;"(57) (7) 5716211";"Av1 6-46 Latino Colombia, Cúcuta"
"LOS PITS AUTOSONIDO";;;"(57) (6) 7456904";"Cr19 9-22 Colombia, Armenia"
"COMPRAVENTA EL MONO MOTOS";;;"(57) (2) 4453567";"Cr27 39-97 Colombia, Cali"
"VEMPER MOTOS";;;"(57) (1) 4365822";"Av Boyacá 66-13 Colombia, Bogotá"
"MOTOS JIALING S.A";;;"(57) (1) 2254007";"Av (Cr) 68 75 A-50 P-2 Colombia, Bogotá"
"EURO MOTOS";;;"(57) (5) 6816209";"Carrt Troncal Dg31 71-73 A-15 Sector El Biffi Colombia, Cartagena"
"ALMACÉN MOTO RUTA 30";;;"(57) (4) 3661933";"Cl 30 80-120 Colombia, Medellín"
"MOTOS JAURY";;;"(57) (8) 6816285";"Cl 24 13 A-56 Colombia, Villavicencio"
"FIXER MOTOS";;;"(57) (8) 6713610";"Cr43 50-04 S Colombia, Villavicencio"
"MOTOPARTES TU DESVARE";;;"(57) (5) 3641427";"Cl 36 B 8 A-03 Colombia, Barranquilla"
"EDWAR MOTOS REPRESENTACIONES";;;"(57) (8) 6703580";"Cr34 25-46B Colombia, Villavicencio"
MOTOMANIA;;;"(57) (8) 6628199";"Cl 34 26-38 Colombia, Villavicencio"
"MOTO XPERIENCE SAS";;;"(57) (1) 7451940";"Cr19 134 - 76 Colombia, Bogotá"
PÍDAMELO;;;"(57) (7) 6913265";"Cr16 35-18 Of 902-B Edif Turbay Colombia, Bucaramanga"
"RPM MOTORCYCLES";;;"(57) (1) 3106180";"AV ciudad de Quito 63A24 Colombia, Bogotá"
"ALMACÉN - TALLER KMOTOS";;;"(57) (4) 8670906";"Cr12 9-10 Colombia, Entrerríos"
"PLANETA MOTOS LTDA.";;;"(57) (1) 2991426";"Av 1 de Mayo 71 F-43 Colombia, Bogotá"
"HONDA CONCESIONARIO YOKO MOTOS";;;"(57) (4) 6708656";"Cl 24 5-42 Colombia, Quibdó"
"ALMACEN SUPER MOTO";;;"(57) (5) 3589098";"Cl 76 54-11 Of 710 World Trade Center Colombia, Barranquilla"
"ALMACÉN MOTO S.A.I.";;;"(57) (8) 5121907";"Av 20 de Julio 4-93 Colombia, San Andrés"
"DINÃMICO MOTOS S.A.S.";;;"(57) (1) 4595654";"Cr72 73 A-18 Colombia, Bogotá"
"FORROS SCREEN S.A.S.";;;"(57) (1) 5608480";"Cl 22 S 30-50 Ap 200 Colombia, Bogotá"
"MOTOMARKET GROUP S.A.S.";;;"(57) (1) 5610949";"Av Caracas 18 S -06 Colombia, Bogotá"
"FAZULES COMERCIALIZADORA INTERNACIONAL";;;"(57) (7) 8851515";"Cl 15 12-77 Meridiano 70 Colombia, Arauca"
"AMITAI S.A.";;;"(57) (1) 7454045";"Cr24 73-09 Colombia, Bogotá"
"MANUELUCHO REPUESTOS";;;"(57) (6) 3355474";"Cr12 13-15 Colombia, Pereira"
"TITANIA MOTOS";;;"(57) (1) 2361361";"Cr15 86-31 Colombia, Bogotá"
"First Name";"Email Address";Url;Telephone;Address
"MOTOS LA RETOMA";;;"(57) (1) 8889128";"Cr8 23-52 Colombia, Girardot"
"MOTOR UNO S.A.";;;"(57) (1) 2510122";"Av Boyacá 69 A-06 Colombia, Bogotá"
"DISTRIBUIDORA KINETIC DE COLOMBIA LTDA.";;;"(57) (2) 5573772";"Cl 13 23 C-17 Colombia, Cali"
"MOTOREPUESTOS AB";;;"(57) (2) 8894797";"Cl 21 3-04 Colombia, Cali"
"SUPERMOTOS DEL ATLÁNTICO S.A.S.";;;"(57) (5) 3792817";"Cr46 44-27 Colombia, Barranquilla"
"JINCHENG MOTOS CÚCUTA";;;"(57) (7) 5712754";"Av1 6-24 Latino Colombia, Cúcuta"
"MOTO WORLD";;;"(57) (6) 7459111";"Cl 13 21-41 Colombia, Armenia"
TOYOMOTORS;;;"(57) (1) 5406969";"Cl 67 26-28 Colombia, Bogotá"
"SUPERMOTOS DEL CESAR S.A";;;"(57) (5) 5743213";"Cl 17 14-07 Colombia, Valledupar"
"LIFAN DE COLOMBIA LTDA.";;;"(57) (1) 2826090";"Cl 16 13-76 Colombia, Bogotá"
"CENTRO DE SERVICIOS PATIA";;;"(57) (2) 7271836";"Cl Nueva Creación Colombia, Tumaco"
ROMIMOTOS;;;"(57) (8) 6687778";"Av40 Cl 20 Frente A La Estrella Colombia, Villavicencio"
"ARCA MOTOS";;;"(57) (2) 7214414";"Cl 17 17-69 Colombia, Pasto"
"HONDA CHOCÓ";;;"(57) (4) 6719588";"CL 29 5-30 Colombia, Quibdó"
"MOTO RALY";;;"(57) (4) 2352479";"Cl 33 65-80 Colombia, Medellín"
"MOTOS MERCURY";;;"(57) (4) 3439085";"Cl 32 86-48 Colombia, Medellín"
"REGNIER & CÍA S EN C.";;;"(57) (2) 6681082";"Av3 N 33 N-21 Colombia, Cali"
"SURTIMOTOS DEL SUR";;;"(57) (8) 8710778";"Cr4 2 A-20 Colombia, Neiva"
"SKY EAGLE MOTORCYCLE S.A.S";;;"Telefax: (57) (7) 5804929";"Cl 7 11-53 Colombia, Cúcuta"
"ALMACÉN SUZUKI";;;"(57) (8) 8333715";"Cr11 7-74 Colombia, Garzón"
"YAMAHA MOTOS ITAGUI";;;"Nal: (57) (4) 3769494";"Cl 52 49-12 Itagüí Colombia, Medellín"
"KING ALUMINUM";;;"(57) (4) 2629177";"Cl 38 51-13 Colombia, Medellín"
"MOTO SERVICIOS LA 72";;;"(57) (4) 2818162";"Cr52 D 74-37 Itagüí Colombia, Itagüí"
"UM MOTOS";;;"(57) (1) 5200613";"Autop Norte Colombia, Bogotá"
"REDMOTOS DE COLOMBIA";;;"(57) (8) 6727248";"C 35 A 21-33 Colombia, Villavicencio"
"KAWASTORE VALLEJO Y CÚA. S. EN C.";;;"(57) (1) 7020582";"Cl 127 45 - 61 Colombia, Bogotá"
"MOTORCYCKES AMC";;;"(57) (1) 3118002";"Cr26 66-34 Colombia, Bogotá"
DISTRILUJOS;;;"(57) (8) 5122426";"Av 20 de Julio 4-32 Colombia, San Andrés"
"ALMACEN Y TALLER NANDO HENAO";;;"(57) (4) 8390118";"Cl 23 8-108 Colombia, Caucasia"
"TALLER MOTO FOX";;;"(57) (4) 8393977";"Cr20 20-97 Colombia, Caucasia"
"ALMACÉN Y TALLER MOTO LASSER";;;"(57) (2) 8301483";"Cl 4 18-34 Colombia, Popayán"
"TDX TRADING LTDA.";;;"(57) (1) 2310955";"Cl 72 24-26 Colombia, Bogotá"
COOMERCAR;;;"(57) (5) 5709165";"Cra 11 13 C-48 Br Obrero Colombia, Valledupar"
"MULTI MOTOS DE LA COSTA";;;"(57) (5) 3345422";"Cr8 # 45-33 Colombia, Barranquilla"
"SIGMA MOTORS";;;"(57) (5) 3850808";"Cr43 69 E-05 Colombia, Barranquilla"
"KYOTO MOTOR CYCLES";;;"(57) (1) 3119870";"Cr37 74-35 Colombia, Bogotá"
"MOTOCILETAS JIALING";;;"(57) (8) 6732200";"Av40 Esq. Aguapanelas Colombia, Villavicencio"
"SACHS BIKES";;;"(57) (2) 8808560";"Cr1 22 N-13 Colombia, Cali"
"SUZUKI ENVIGADO- ENVIMOTORS";;;"(57) (4) 3341318";"Cr43 A 34 S-43 Envigado Colombia, Medellín"
"RUTA 22 MOTOCICLETAS";;;"(57) (2) 6843211";"Autopista Sur 15-81 Colombia, Cali"
"First Name";"Email Address";Url;Telephone;Address
"MOTOS JIALING S.A";;;"(57) (1) 2254007";"Av (Cr) 68 75 A-50 P-2 Colombia, Bogotá"
"ACCESORIOS VEGA LTDA";;;"(57) (1) 2772906";"Cr20 15-37 Colombia, Bogotá"
"ESPAMOTOS LA 80";;;"(57) (4) 4445056";"Cr 80 64 A- 22 Colombia, Medellín"
"ALAMO MOTORCYCLE PARTS";;;"(57) (1) 2188031";"Cr16 79-68 Colombia, Bogotá"
"ALMACÉN GANADERO YARUMOTOS";;;"(57) (4) 8870664";"Cr 22 17-19 Colombia, Yarumal"
"MOTO XPERIENCE SAS";;;"(57) (1) 7451940";"Cr19 134 - 76 Colombia, Bogotá"
"DISMOTOS LTDA.";;;"(57) (4) 8280667";"Cr101 95-23 Esquina Colombia, Apartadó"
"MOTO ANDI";;;"(57) (5) 6630263";"Urb San Antonio Cl 31 59-47 Av Pedro de Heredia Colombia, Cartagena"
"OCAÑA MOTOS";;;"(57) (75) 5625230";"Cl 11 16 A-64 San Agustín Colombia, Ocaña"
"MOTOS DEL CAMINO E.U.";;;"(57) (1) 7273362";"Av (Cr) 80 42 G-20 S Colombia, Bogotá"
INGEMOTOS;;;"(57) (1) 2552611";"Cr24 71-02 Colombia, Bogotá"
"SU MOTO VALLE";;;"(57) (2) 5165725";"Cl 12 10-57 Jamundí Colombia, Jamundí"
"RACING SPORT";;;"(57) (2) 5569320";"Cr15 13-102 Colombia, Cali"
"CASA HONDA";;;"(57) (2) 3116698";"Cr15 13-74 Colombia, Cali"
"JUNIOR®S MOTOR";;;"(57) (2) 6543464";"Av3 N 40-62 Colombia, Cali"
"HONDA COLOMBIA";;;"Nal: (57) (4) 2345393";"Cl 50 77 B-119 Colombia, Medellín"
"MOTOS DEL DARIEN S. A";;;"(57) (4) 8282166";"Cl 92 101-32 Colombia, Apartadó"
"AKT MOTOS Y MOTONETAS E.U.";;;"(57) (8) 2622371";"Cr6 23-83 Colombia, Ibagué"
"LUCKY LION MOTOS ELÉCTRICAS";;;"(57) (2) 6607217";"Av Vasquez Cobo 26 N-23 Colombia, Cali"
"MOTO SHOP D.C. LTDA.";;;"(57) (1) 3514025";"Cr 30 4-67 Colombia, Bogotá"
"COMPRAVENTA DE MOTOS NUEVAS Y USADAS CALICHE";;;"(57) (2) 4382631";"Cr27 36-57 Colombia, Cali"
"MAS MOTOS MAS";;;"Nal: (57) (4) 2312932";"Cr 52 57 - 10 Colombia, Medellín"
"SUZUKI GIRARMOTOS LTDA.";;;"(57) (1) 2937402";"Av. Boyacá No. 34-23sur Colombia, Bogotá"
"SUPERMOTOS DEL CESAR S.A";;;"(57) (5) 5743213";"Cl 17 14-07 Colombia, Valledupar"
"PATO MOTOR'S";;;"(57) (2) 7212282";"Cr16 19-58 Colombia, Pasto"
"TALLER RUBEN MOTOS ANDES";;;"(57) (4) 8415494";"Av. Medellín 50-56 Colombia, Andes"
"ALMACÉN Y TALLER MOTOINTERNET";;;"(57) (4) 3414324";"Cr84 32-88 Colombia, Medellín"
"DISTRIMOTOS ANTIOQUIA LTDA.";;;"(57) (4) 2782320";"Cr50 125 S-116 Caldas Colombia, Medellín"
"SU MOTO DEL ORIENTE";;;"(57) (4) 5315018";"Cr46 47-32 Rionegro Colombia, Medellín"
"STOP MOTOS";;;"(57) (4) 2629116";"Cl 38 51-39 Colombia, Medellín"
"JIALING SANMOTOS";;;"(57) (1) 2358535";"Av Caracas 71-11/15 Colombia, Bogotá"
BUNKER;;;"(57) (4) 2857276";"Cr 52 D 81-25 L-113 Itagüí Colombia, Itagüí"
"MAO MOTOS";;;"(57) (4) 2384560";"Cl 30 74-80 Colombia, Medellín"
"DUBER MOTOS";;;"(57) (2) 4421263";"Cr15 32-40 Colombia, Cali"
"MACROINVERSIONES J.D. LTDA.";;;"(57) (1) 2316263";"Cr29 B 71 C-61 Colombia, Bogotá"
"MOTOCORAL S.A.S.";;;"(57) (5) 6661761";"L Amador Cl 32 18 B-231 Colombia, Cartagena"
SUZUKI;;;"(57) (6) 7423760";"Cr26 39-49 Colombia, Calarcá"
"CARGA Y PAQUETES S.A.";;;"(57) (4) 3733498";"Cr42 45-77 Itagüí Colombia, Itagüí"
"SUPER MOTOS DEL FONCE";;;"(57) (7) 7244028";"Av19 53 Santander Colombia, San Gil"
AUROMOTOS;;;"(57) (1) 3461519";"Cl 63 B 24-39 Colombia, Bogotá"
"First Name";"Email Address";Url;Telephone;Address
"REPUESTOS MUNDO MOTOS";;;"(57) (4) 7920346";"Cr5 19-04 Colombia, Montería"
".YCO MOTOCICLETAS LTDA.";;;"(57) (1) 2236367";"Cl 72 20B-56 Colombia, Bogotá"
"AKT MOTOS";;;"(57) (1) 2376721";"Cr30 8-74 Colombia, Bogotá"
"ALMACÉN Y TALLER CICLO PARTES";;;"(57) (4) 8253853";"Cr100 95-02 Colombia, Chigorodó"
"SERVIMOTOS RUPERTO";;;"(57) (4) 8688125";"Cr50 41-123 Colombia, San Pedro de los Milagros"
"AKT MOTOS COMERCIALIZADORA PORTEÑA";;;"(57) (4) 8332864";"Cl 7 (Cr) 1 Y-02 Esq Colombia, Puerto Berrío"
"MOTOAGRO YAMAHA";;;"(57) (4) 8331005";"Cl 7 2-21 Colombia, Puerto Berrío"
"SUBA MOTOS";;;"(57) (1) 6821853";"Cl 139 98 B-16 Colombia, Bogotá"
"PLANETA MOTOS LTDA.";;;"(57) (1) 2991426";"Av 1 de Mayo 71 F-43 Colombia, Bogotá"
"LAGMARK COMERCIALIZADORA S.A.S.";;;"(57) (1) 2084461";"Cr31 A 2 A-59 Colombia, Bogotá"
"HONDA CONCESIONARIO YOKO MOTOS";;;"(57) (4) 6708656";"Cl 24 5-42 Colombia, Quibdó"
"SUZUKI MOTOS & REPUESTOS";;;"(57) (5) 3584774";"Cr43 68-38 Colombia, Barranquilla"
"DISTRIBUCIONES CITARÁ";;;"(57) (4) 6716489";"Cr4 23-34 Colombia, Quibdó"
"LEONARDO GOMEZ MOTO TALLER";;;"(57) (5) 5749058";"Cl 16 B 9-59 Colombia, Valledupar"
"MOTO RALLY";;;"(57) (7) 6343833";"Cr21 18-22 Colombia, Bucaramanga"
"MOTOCILETAS JIALING";;;"(57) (8) 6732200";"Av40 Esq. Aguapanelas Colombia, Villavicencio"
"MOTOS & REPUESTOS";;;"(57) (5) 4141541";"Cl 7 9-03 L-1 Colombia, Fundación"
MOTOBLANCO'S;;;"(57) (4) 3313736";"Cr43 A 25 S-19 Envigado Colombia, Envigado"
"MOTO RACER INYECTION";;;"(57) (6) 3240518";"Av Ferrocarril 14-21 Colombia, Pereira"
"SUZUKI ENVIGADO- ENVIMOTORS";;;"(57) (4) 3341318";"Cr43 A 34 S-43 Envigado Colombia, Medellín"
"DISTRITO MOTOS SUZUKI";;;"(57) (2) 4496579";"Cr27 72 Y-32 Colombia, Cali"
"ACCESORIOS Y REPUESTOS ABC MOTOS";;;"(57) (4) 2327122";"Cr52 37-15 Colombia, Medellín"
"ASTROMOTOS S.A.";;;"(57) (2) 6801619";"Cr1 22-03 Colombia, Cali"
"ELECTRIMOTOS TOKIKA";;;"(57) (2) 3253259";"Cr39 25-20 Colombia, Cali"
"MOTOS DEL DARIEN S. A";;;"(57) (4) 8282166";"Cl 92 101-32 Colombia, Apartadó"
"CHINA MOTOS CALI";;;"(57) (2) 5569342";"Cr15 12-36 Colombia, Cali"
"CDA MEDELLÍN S.A.S";;;"(57) (4) 5120666";"Cl 60 53-32 Colombia, Medellín"
"SANTI MOTOS";;;"(57) (4) 2325588";"Cl 42 48-34 Colombia, Medellín"
"SUZUKI FULL-RACING";;;"(57) (7) 1000000";"Cl 16 3-35 La Playa Colombia, Cúcuta"
MULTIMOTOS;;;"(57) (1) 6603838";"Cl 72 25-16 Colombia, Bogotá"
"FORROS FACTORY";;;"(57) (2) 5582308";"Cr15 13 A-68 Colombia, Cali"
"AYCO MOTOCICLETAS";;;"(57) (4) 2612107";"Cl 31 43-22 Colombia, Medellín"
"MOTOCICLETAS JIALING";;;"(57) (2) 2722330";"Cl 28 27-81 Colombia, Palmira"
"FORROS Y FORROS";;;"(57) (2) 8806414";"Cl 23 17 C-08 Colombia, Cali"
"JOHANN MOTOS CENTRO AUTORIZADO KT";;;"(57) (1) 4911296";"Cl 75 A 85-64 Colombia, Bogotá"
"BEST BIKE S.A.S.";;;"Telefax: (57) (1) 6685173";"Cl 244 1 - 00 Colombia, Bogotá"
"IMPORMOTOS G & G S.A.S.";;;"Telefax: (57) (1) 6835739";"Cl 130 A 104 - 06 Colombia, Bogotá"
"HONDA MOTOS";;;"(57) (2) 8380336";"Cl 5 21-97 Brr José María Obando Colombia, Popayán"
"D.Y.M. MOTOS";;;"(57) (1) 2034878";"Av 1 de Mayo 29-94 Colombia, Bogotá"
VALLEMOTOS;;;"(57) (2) 8213100";"Cr9 8 N-79 Colombia, Popayán"
"First Name";"Email Address";Url;Telephone;Address
"IMPORTACIONES CARBAL ALBERTO VEGA";;;"(57) (7) 6713422";"Cr15 18-13 Colombia, Bucaramanga"
"DISTRI-MOTOS JAV";;;"(57) (1) 2849376";"Cr13 16-63 Colombia, Bogotá"
"T.N.T. MOTOS";;;"(57) (4) 4114469";"Cl 44 73-53 Colombia, Medellín"
"COMERCIALIZADORA ANDINA J&C";;;"(57) (2) 7205190";"Cl 18 15-132 Navarrete Colombia, Pasto"
"SÁNCHEZ LUZ MARINA";;;"(57) (1) 2867878";"Cl 16 15-25 Colombia, Bogotá"
"ACADEMIA SUZUKI";;;"(57) (7) 6455882";"Cr27 20-06 Colombia, Bucaramanga"
"DUBER MOTOS";;;"(57) (2) 4421263";"Cr15 32-40 Colombia, Cali"
MOTOHUELLAS;;;"(57) (2) 2112297";"Cl 16 C 9-26 Colombia, Cartago"
"QINGQI MOTOS";;;"(57) (7) 5710638";"Dg Santander 4-15 Antigua Sede Cruz Roja Colombia, Cúcuta"
"ROYAL STAR MOTOS";;;"(57) (7) 5715622";"Cl 7 0-65 Latinos Colombia, Cúcuta"
"SERVI UTHECH LTDA.";;;"(57) (1) 4804000";"Cr30 17-36 Colombia, Bogotá"
"CENTRO DE SERVICIOS PATIA";;;"(57) (2) 7271836";"Cl Nueva Creación Colombia, Tumaco"
"BERLIMOTOS LTDA.";;;"(57) (27) 7265129";"Cr2 18-04 Eduardo Santos Colombia, La Unión"
EUROCROSS;;;"(57) (4) 3110808";"Bogotá Colombia, Medellín"
"MOTORCYCLE SUPERSTORE MEDELLÍN";;;"(57) (4) 3126731";"Cr41 A 10-57 Colombia, Medellín"
"EMPAQUETADURAS AMÉRICA LTDA.";;;"(57) (4) 4833987";"Dg51 42-120 Bello Colombia, Bello"
PRESERVIMOTOS;;;"(57) (8) 6713420";"Centro Comercial Sinfonia L-11 Colombia, Villavicencio"
"YAMAHA MOTOS ITAGUI";;;"Nal: (57) (4) 3769494";"Cl 52 49-12 Itagüí Colombia, Medellín"
"CARUMOTOS LTDA";;;"(57) (4) 3415074";"Cr70 24-210 Ap 501 Colombia, Medellín"
"ALMACEN Y TALLER TECNIMOTOS DEL HUILA";;;"(57) (8) 8720595";"Cr2 14-30 Los Mártires Colombia, Neiva"
"LA BODEGA DEL REPUESTO";;;"(57) (8) 6847969";"Manz L Casa 21 Villa Hermosa Colombia, Villavicencio"
"INGENIERÚA EN EVOLUCIµN E.U. INGEVOL E.U.";;;"(57) (1) 2228617";"Cl 44 CBis 51 - 30 Of 218 Colombia, Bogotá"
"COMERCIALIZADORA DE MOTOS FÕNIX S.A.S.";;;"(57) (1) 7206212";"Cl 26 S 27 - 34 S Colombia, Bogotá"
"KAWASTORE VALLEJO Y CÚA. S. EN C.";;;"(57) (1) 7020582";"Cl 127 45 - 61 Colombia, Bogotá"
MOTOMANIA;;;"(57) (8) 6628199";"Cl 34 26-38 Colombia, Villavicencio"
"ALMACÉN Y TALLER MORE";;;"(57) (4) 8391915";"Cl 20 20-07 Colombia, Caucasia"
"REPUESTOS EL CAMPEÓN";;;"(57) (8) 5129207";"Av 20 de Julio diagonal Esq de Pinky Colombia, San Andrés"
"YAMAHA BY YAMAHA";;;"(57) (8) 5125300";"Av Providencia Cl 2-4 A-81 Sector Point Colombia, San Andrés"
"SUROMOTOS S.A.";;;"(57) 8412984";"Cr50 48-17 Colombia, Ciudad Bolívar"
"MULTIMOTOS LTDA.";;;"Nal: (57) (4) 3730119";"Cr50 A 38-30 Itaguí Colombia, Medellín"
MOTOGREY;;;"(57) (1) 2025417";"Av30 27 A-11 S Colombia, Bogotá"
"MOTO CAS NO. 2";;;"(57) (5) 5803857";"Dg16 18-26 Colombia, Valledupar"
"HONDA CONCESIONARIO YOKO MOTOS";;;"(57) (4) 6708656";"Cl 24 5-42 Colombia, Quibdó"
"LAS MOTOS DEL CESAR";;;"Telefax: (57) (5) 5606381";"Cl 17 14-04 Colombia, Valledupar"
"ALMACÉN BC S.A.";;;"Domic.: (57) (5) 6692414";"Cl 32 23-65 Colombia, Cartagena"
"RUTA SURAMÁRICA";;;"(57) (4) 3781636";"Cr45 75 B S-108 Sabaneta Colombia, Sabaneta"
YAMALLANO;;;"(57) (8) 6625452";"Cr29 35 A-34 San Isidro Colombia, Villavicencio"
"DISMERCA DEL SUR";;;"(57) (4) 4489848";"Cr 43 A 35 Sur-17 Envigado Colombia, Envigado"
"COMERCIAL ALFA MOTORS LTDA.";;;"(57) (1) 4076401";"Av1 de Mayo 32-69 S Colombia, Bogotá"
"ASTROMOTOS JIALING";;;"(57) (2) 6801619";"Cr1 22-03 Colombia, Cali"
"First Name";"Email Address";Url;Telephone;Address
"SUZUKI WISMOTOS S.A.";;;"(57) (8) 6580102";"Cl 14 13-29 Granada Colombia, Granada"
"S.O.S. MOTOS SU OPORTUNO SERVICIO";;;"(57) 3116174021";"Barranquilla Colombia, Barranquilla"
"ALMACEN PROTEKTOR SHOP";;;"(57) (4) 3115126";"Cr36 10 A-71 Colombia, Medellín"
"BARBOSA PINZÓN DANIEL";;;"(57) (8) 8332622";"Cl 8 9-29 Colombia, Garzón"
"MOTOMAX DE BOYACÁ S.A.";;;"(57) (1) 8621464";"Cr9 16-72 Chía Colombia, Chía"
"AVA MOTORS COLOMBIA S.A.S";;;"(57) (1) 3478580";"Cr 24 76-72 Colombia, Bogotá"
"ZONA DE PITS";;;"Nal: (57) (4) 5831694";"Cl 33 64-220 Colombia, Medellín"
"IMPORMOTOS S.A. VENTO MOTORCICLES";;;"(57) (1) 3773558";"Av30 63 A-16 Colombia, Bogotá"
"ASTROMOTOS JIALING";;;"(57) (2) 6801619";"Cr1 22-03 Colombia, Cali"
"HONDA NORTE";;;"(57) (2) 6613917";"Av6 A N 24 A N-35 Colombia, Cali"
"SERVIMOTOS CDA PALMIRA";;;"(57) (2) 2818419";"Cl 42 34 B-63 Colombia, Palmira"
AUTECO-MOTOMAX;;;"(57) (2) 4426911";"Cl 70 4-51 Colombia, Cali"
"PREVIMOTO S.A.";;;"(57) (2) 4855099";"Cl 25 5-32 Colombia, Cali"
"RISARALDA MOTOS S.A.S.";;;"(57) (6) 3348993";"Cr12 21-17 Colombia, Pereira"
"CAMPOS MOTOR'S";;;"(57) 3112191705";"Cl 10 2-36 Versalles Colombia, Chaparral"
"MOTO RACINS";;;"(57) (2) 7225463";"Cl 16 13-31 Colombia, Pasto"
CENTROMOTOS;;;"(57) 3103899137";"Cr24 20-33 Colombia, Manizales"
"ALMACEN BC S.A.";;;"(57) (1) 2519814";"Av (Cl) 68 70 G-79 Colombia, Bogotá"
RIOMOTOR;;;"Nal: (57) (4) 5552199";"Cr20 22-31 Colombia, Medellín"
"ALMACEN JERRY MOTOS";;;"(57) (7) 6702556";"Cr17 B 48-35 Colombia, Bucaramanga"
"ALMACEN ALMOTOS";;;"(57) (6) 3337600";"Cr12 18-08 Colombia, Pereira"
"MOTO MANIA";;;"(57) (4) 2612120";"Cr44 38-53 Colombia, Medellín"
"MOTOCARROS YITAKI";;;"(57) (1) 4046935";"Cr106 15-25 Colombia, Bogotá"
"DANNY CUSTOM";;;"(57) (7) 6472695";"Cr11 27-13 Girardot Colombia, Bucaramanga"
"MOTOS ALFONSO BLANCO LTDA.";;;"(57) (4) 2622732";"Cl 23 43 A-193 L-154 Colombia, Medellín"
"SUPERTALLER RAPIMOTOS";;;"(57) (4) 4722569";"Cr65 96-35 Colombia, Medellín"
"GRUPO UNIVERSAL MAGNOS S.A.S.";;;"(57) (4) 2685094";"Cr43 A 6 S-26 Colombia, Medellín"
"P&M YAMAHA";;;"(57) (7) 7272115";"Cr 13 13-07 Colombia, Socorro"
"MOTOS Y MOTOS S.A.";;;"(57) (7) 6710162";"Bul Santander 19-83 Colombia, Bucaramanga"
"MOTOBIKE COLOMBIA S.A.S.";;;"(57) (4) 4577456";"Cl 52 48-58 Colombia, Medellín"
"ALMACÉN MOTOTECA";;;"(57) (5) 2826910";"Cl 20 22-62 Colombia, Sincelejo"
"CARGO LTDA.";;;"(57) (1) 6354082";"Cr13 A 89-38 Of 722 Colombia, Bogotá"
"AGROMOTOS AUTEKO";;;"(57) (1) 7415500";"Autop Sur 51 D-49 Colombia, Bogotá"
"TALLER TMT";;;"(57) (4) 3457395";"Cr72 A 22-59 Colombia, Medellín"
"SERVIMOTOS JAKCEL";;;"Telefax: (57) (7) 5802457";"Av10 13-76 L-1 Los Patios Colombia, Cúcuta"
"PROMOTECNICOS S.A.";;;"(57) (4) 2815599";"Av 37 B 42-249 Itagüi Colombia, Itagüí"
"GAD SERVICIOS E.U.";;;"(57) (4) 4250590";"Cr80 50-140 Colombia, Medellín"
"UNY MOTOS LTDA.";;;"(57) (1) 2656983";"Tr 73D 8Av 1 de Mayo) No 38C-68 S Kenedyedy Colombia, Bogotá"
"UM MOTOS";;;"(57) (1) 5200613";"Autop Norte Colombia, Bogotá"
RENAMOTOS;;;"(57) (5) 3408589";"Cr41 43-74 Colombia, Barranquilla"
"First Name";"Email Address";Url;Telephone;Address
"MOTOS Y MOTOS DEL VALLE";;;"(57) (2) 5577080";"Cl 13 23-37 Colombia, Cali"
"TECNOSERVICIOS JN S.A.S.";;;"Telefax: (57) (1) 3376701";"Cr15 14 - 50 Colombia, Bogotá"
MOTOMAGDALENA;;;"(57) (5) 4217655";"Av del Ferrocarril 5-51 Colombia, Santa Marta"
"CI INVERSIONES NEMIX S.A.S.";;;"Telefax: (57) (1) 2773983";"Cr38 10 - 90 P-2 Of 2092 Colombia, Bogotá"
"ORIENTAL DE MOTOS DEL LLANO";;;"(57) (8) 6569897";"Cr23 13-15 L-102 Colombia, Acacías"
"SUZUKI SUMOTO S.A.";;;"(57) (2) 7214297";"Cr19 12-68 Av Las Américas Colombia, Pasto"
"PATO MOTOR'S";;;"(57) (2) 7212282";"Cr16 19-58 Colombia, Pasto"
"SUZUKI SÚPER SERVICIO";;;"(57) (4) 2626221";"Cl 36 46-36 Colombia, Medellín"
"HERRERA MOTOS AUTECO";;;"(57) (4) 4484611";"Cl 33 65 C-81 Colombia, Medellín"
"KAWASAKI 10";;;"(57) (4) 2688688";"Cl 10 A 40-13 Colombia, Medellín"
"LUBRICANTES LA 57";;;"(57) (4) 2933144";"Cl 57 52-68 Int 101 Colombia, Medellín"
"TALLER MEGAMOTOS";;;"(57) (4) 4523387";"cr50 44-29 Bello Colombia, Bello"
"MUNDIAL DE MOTOS";;;"(57) (8) 8717122";"Cr4 2 A-19 Colombia, Neiva"
"EUROPAMOTOS LTDA.";;;"(57) (1) 2353145";"Cl 72 21-02 Colombia, Bogotá"
"HONDA ITAGÜÍ";;;"(57) (4) 3725646";"Cr51 54-23 Itagüí Colombia, Itagüí"
AGROMOTOS;;;"(57) (5) 2813902";"Cr19 27-73 Colombia, Sincelejo"
"MOTOSUCRE O.B S.A.S.";;;"(57) (5) 2741068";"Cr25 20 A-19 L-2 Av Las Peñitas Colombia, Sincelejo"
"NOHELIA MOTOS";;;"(57) (7) 5716211";"Av1 6-46 Latino Colombia, Cúcuta"
"ALMACÉN DISTRIMOTOS";;;"(57) (5) 6560610";"Av Pedro de Heredia Sector Pie de la Popa 21-54 Colombia, Cartagena"
"MOTO SUPERIOR CALI";;;"(57) (2) 5574004";"Cl 13 22-73 Colombia, Cali"
"VELOZ MOTOS";;;"(57) (8) 6450089";"Cl 6 8-34 Centro Colombia, Puerto López"
"AUTECO SU MOTO DEL CAFÉ S.A";;;"(57) (2) 2198810";"Cr47 49-10 Colombia, Sevilla"
"COMERCIALIZADORA DE REPUESTOS YOKOMOTOS";;;"Domic.: (57) (1) 2473103";"Cr34 4-19 Colombia, Bogotá"
"PROMOTECNICOS S.A.";;;"(57) (4) 2815599";"Av 37 B 42-249 Itagüi Colombia, Itagüí"
"CARUMOTOS LTDA";;;"(57) (4) 3415074";"Cr70 24-210 Ap 501 Colombia, Medellín"
"C.I. MOTOCICLETAS ANIVER LTDA.";;;"(57) (4) 2604141";"Cr74 48-37 L-4828 Colombia, Medellín"
"SUZUKI LA 80";;;"Conm.: (57) (4) 4131378";"Cr81 36-67 Colombia, Medellín"
"ENERGY MOTION";;;"(57) (4) 2307877";"Cl 44 69-05 Colombia, Medellín"
"MOTODIQUE S.A.";;;"(57) (5) 6816462";"Dg31 78-28 Colombia, Cartagena"
AUROMOTOS;;;"(57) (1) 3461519";"Cl 63 B 24-39 Colombia, Bogotá"
"HONDA DEL CAFÉ CALARCÁ";;;"(57) (6) 7434304";"Cr24 35-14 Colombia, Calarcá"
"MOTOCICLETAS LANDER";;;"(57) (8) 5120796";"Loma Bolivariano Colombia, San Andrés"
"ALMACÉN GANADERO YARUMOTOS";;;"(57) (4) 8870664";"Cr 22 17-19 Colombia, Yarumal"
"CM TAPIZADOS";;;"(57) (4) 2317235";"Cl 57 B 52-13 Colombia, Medellín"
"SILVA HERNÁNDEZ OCTAVIO";;;"(57) (1) 5404933";"Av (Cr) 30 77-08 P-2 Colombia, Bogotá"
"MAGNOMOTORS S.A.S.";;;"Telefax: (57) (5) 3748993";"Cl 18 27-149 Soledad Colombia, Barranquilla"
"C. MOTOS";;;"(57) (4) 8687701";"Sector La Bomba Colombia, San Pedro de los Milagros"
"MOTO MILENIO";;;"(57) (4) 8391980";"Cl 21 8-92 Colombia, Caucasia"
"TALLER MOTO FOX";;;"(57) (4) 8393977";"Cr20 20-97 Colombia, Caucasia"
"SEGOVIA MOTOR YAMAHA";;;"(57) (4) 8314341";"Cl 53 49-127 Colombia, Segovia"
"First Name";"Email Address";Url;Telephone;Address
"TAXI AUTOS HIPERCENTRO";;;"(57) (7) 6430001";"Cr27 48-60 Colombia, Bucaramanga"
"SERVICENTRO LA UNION";;;"(57) (7) 6332929";"Cr17 42-42 Colombia, Bucaramanga"
"2 T RIDER";;;"(57) (4) 3326480";"Cl 37 S 34-20 Envigado Colombia, Envigado"
"ALMACÉN Y TALLER MOTOINTERNET";;;"(57) (4) 3414324";"Cr84 32-88 Colombia, Medellín"
"GLOBAL BIKES";;;"(57) (4) 3329680";"Cr43 A 29 S-73 Envigado Colombia, Envigado"
"COLOMBIA MOTOS QUILICHAO";;;"(57) 3182666408";"Cl 6 12-51 Colombia, Santander de Quilichao"
"MOTO SUPERIOR CALI";;;"(57) (2) 5574004";"Cl 13 22-73 Colombia, Cali"
YAMAMOTOS;;;"(57) (8) 6580258";"Cr13 19-02 Centro Colombia, Granada"
"TAPI MOTOS";;;"(57) (1) 3360595";"Cr 15 15-85 Colombia, Bogotá"
"AUTECO S.A.";;;"(57) (1) 4902200";"Av Boyacá 73-03 Colombia, Bogotá"
"MOTORCYCKES AMC";;;"(57) (1) 3118002";"Cr26 66-34 Colombia, Bogotá"
"A.R. LOS RESTREPOS S.A.";;;"(57) (4) 4443528";"Cr65 29-15 Colombia, Medellín"
"MOTOS DEL DARIÉN S.A.";;;"(57) (4) 8274384";"Cr14 105-07 Colombia, Turbo"
"LAS MOTOS DEL CESAR";;;"Telefax: (57) (5) 5606381";"Cl 17 14-04 Colombia, Valledupar"
"ALMACÉN MOTO S.A.I.";;;"(57) (8) 5121907";"Av 20 de Julio 4-93 Colombia, San Andrés"
"FORROS SCREEN S.A.S.";;;"(57) (1) 5608480";"Cl 22 S 30-50 Ap 200 Colombia, Bogotá"
INGEMOTOS;;;"(57) (1) 2552611";"Cr24 71-02 Colombia, Bogotá"
"MAXIMOTOS O.B.";;;"(57) 3135323230";"Tr9 18 B-63 Av del Ferrocarril Colombia, Santa Marta"
"TODO MOTOS";;;"(57) (4) 3231590";"Cr53 57-07 Itagüí Colombia, Itagüí"
"S.T.D MOTO®S JINCHENG";;;"(57) (8) 2662111";"Cl 25 6-83 Colombia, Ibagué"
"CABARCAS SARMIENTO S.A.S";;;"(57) (5) 2813319";"Cl 38 23-114 Colombia, Sincelejo"
"TRAX COLOMBIA";;;"(57) (2) 5581839";"Cl 13 N 19-59 Colombia, Cali"
VALLEMOTOS;;;"(57) (2) 8213100";"Cr9 8 N-79 Colombia, Popayán"
"MOTO ACCES";;;"(57) (4) 2776752";"Cl 55 50-58 Itagüí Colombia, Itagüí"
YAKIMA;;;"(57) (1) 2241051";"Av Boyacá 69 A-14 Colombia, Bogotá"
"MOTO MÁSTER LTDA";;;"(57) (4) 5125675";"Cr 52 57-59 Colombia, Medellín"
"DISTRIMÁS DEL ORIENTE LTDA.";;;"(57) (4) 5317611";"Cl 51 50-77 Rionegro Colombia, Medellín"
"AGRO YAMAHA S.A.";;;"(57) (5) 3702525";"Cl 43 45-77 Colombia, Barranquilla"
"MUNDO MOTOS";;;"(57) (8) 5120163";"Av 20 de Julio 4-101 Colombia, San Andrés"
"MOTO ANDES";;;"(57) (4) 8414472";"Av Medellín 50-76 Colombia, Andes"
"EMEL'S MOTOS";;;"(57) (5) 4306009";"Av del Ferrocarril 29 C-23 Portal de la 19 Colombia, Santa Marta"
"JINFENG MOTOR";;;"(57) (2) 8895231";"Cr1 17-01 Colombia, Cali"
"TVS ANDINA";;;"(57) (2) 8961110";"Cr 1 21-36 Colombia, Cali"
"CAMPOS MOTOR'S";;;"(57) 3112191705";"Cl 10 2-36 Versalles Colombia, Chaparral"
"VELOCIDAD SUR";;;"(57) (7) 6561541";"Cl 7 13-20 Piedecuesta Colombia, Piedecuesta"
"SUZUKI-INVERMOTOS ARAUCA";;;"(57) (7) 8853524";"Cr16 20-58 Colombia, Arauca"
"PIPE BIKER CICLOMOTOS";;;"(57) (2) 3323933";"Cr94 2 A-02 Colombia, Cali"
"BERLIMOTOS LTDA.";;;"(57) (27) 7265129";"Cr2 18-04 Eduardo Santos Colombia, La Unión"
"ALMACÉN DISTRIMOTOS";;;"(57) (5) 6560610";"Av Pedro de Heredia Sector Pie de la Popa 21-54 Colombia, Cartagena"
"BOLIVAR MOTORCYCLES S.A.S.";;;"Conm.: (57) (4) 3110702";"Cr39 7-105 Colombia, Medellín"
"First Name";"Email Address";Url;Telephone;Address
"MOTOS JAURY";;;"(57) (8) 6816285";"Cl 24 13 A-56 Colombia, Villavicencio"
"FIXER MOTOS";;;"(57) (8) 6713610";"Cr43 50-04 S Colombia, Villavicencio"
"MOTO CRANK PARTES Y REPUESTOS";;;"(57) (8) 6621313";"Cl 34 26-19 Colombia, Villavicencio"
"ALAMO MOTORCYCLE PARTS";;;"(57) (1) 2188031";"Cr16 79-68 Colombia, Bogotá"
"AMC COLOMBIA S.A.";;;"(57) (5) 3519410";"Cr44 57-35 Colombia, Barranquilla"
"ALMACÉN MOTO CHOPPER SAI";;;"(57) (8) 5120394";"Av Colón Hotel Mediterraneo L-3 Colombia, San Andrés"
"CM TAPIZADOS";;;"(57) (4) 2317235";"Cl 57 B 52-13 Colombia, Medellín"
"ALMACÉN UM";;;"(57) (4) 2620100";"Cr50 37-19 Colombia, Medellín"
"MUNDIJIALING MEDELLÍN";;;"Conm.: (57) (4) 4441113";"Cl 44 71-75 Colombia, Medellín"
"IMPORTADORA RUIZ";;;"(57) (8) 5124327";"Cr9 5-45 Swamp Ground Colombia, San Andrés"
"SERVIATECO J & J";;;"(57) (1) 5712402";"Av Cali (Cr 86) 00-04 S Colombia, Bogotá"
"MAGNOMOTORS S.A.S.";;;"Telefax: (57) (5) 3748993";"Cl 18 27-149 Soledad Colombia, Barranquilla"
"MOTOCICLETAS DEL GOLFO";;;"(57) (4) 8220171";"Cl 104 14-116 Colombia, Turbo"
"MOTO ANTIOQUIA LTDA.";;;"(57) (4) 8327140";"Cr4 Cl 8 Esq Colombia, Puerto Berrío"
"ALMACÉN - TALLER KMOTOS";;;"(57) (4) 8670906";"Cr12 9-10 Colombia, Entrerríos"
FERREMOTOS;;;"(57) (5) 3621035";"Cr4 35 A-26 Las Palmas Colombia, Barranquilla"
KAWASEGOVIA;;;"(57) (4) 8317404";"Cl 53 La Banca 49-121 Colombia, Segovia"
"SUBA MOTOS";;;"(57) (1) 6821853";"Cl 139 98 B-16 Colombia, Bogotá"
"MOTO CAS NO. 2";;;"(57) (5) 5803857";"Dg16 18-26 Colombia, Valledupar"
"MULTI MOTOS DE LA COSTA";;;"(57) (5) 3345422";"Cr8 # 45-33 Colombia, Barranquilla"
"MOTO FÁCIL S.A.";;;"(57) (4) 8279111";"Cl 104 15-20 Colombia, Turbo"
"DINÃMICO MOTOS S.A.S.";;;"(57) (1) 4595654";"Cr72 73 A-18 Colombia, Bogotá"
"MOTO STIKER";;;"(57) (2) 5569355";"Cl 13 15-39 Colombia, Cali"
"REPUESTOS SERVI HONDA";;;"(57) (2) 5584838";"Cl 13 18-51 Colombia, Cali"
"RUTA 22 MOTOCICLETAS";;;"(57) (2) 6843211";"Autopista Sur 15-81 Colombia, Cali"
"MOTOS Y REPUESTOS";;;"(57) (2) 3378093";"Cr39 34-58 Colombia, Cali"
"SHINERAY MOTORS";;;"(57) (2) 6800480";"Cr1 22-51 Colombia, Cali"
"ALMACÉN MOTOS HONDA";;;"(57) (2) 5582644";"Cr15 13-24 Colombia, Cali"
"DOS RUEDA DEL CESAR";;;"(57) (5) 5802424";"Dg21 18 D-75 Colombia, Valledupar"
"MULTIMOTOS BIKE S.A.S.";;;"(57) (4) 8282587";"Cr101 94-33 Colombia, Apartadó"
"MOTOCARROS DEL CARIBE S.A.S.";;;"(57) (5) 3562449";"Cr46 74-16 P-2 Of 11 Colombia, Barranquilla"
MAXIPUERTO;;;"(57) (8) 5926999";"Cr9 6-106 Colombia, Leticia"
"LMACENES SERGO";;;"(57) (1) 7271428";"Av 1 De Mayo Colombia, Bogotá"
"MAO MOTOS";;;"(57) (4) 2384560";"Cl 30 74-80 Colombia, Medellín"
"CLUB MOTORALLY";;;"(57) (7) 6429926";"Cr14 30-62 Centro Colombia, Bucaramanga"
"METAL MOTOS";;;"(57) (8) 2666994";"Cr6 39-90 Colombia, Ibagué"
"MULTIPARTES S.A.";;;"(57) (4) 2601029";"Cl 48 65-10 Of 202 Colombia, Medellín"
"SUPERMOTTOS DE BOGOTÁ S.A.";;;"(57) (1) 2491666";"Cr24 70 A-90 Colombia, Bogotá"
"MOTO SHOP D.C. LTDA.";;;"(57) (1) 3514025";"Cr 30 4-67 Colombia, Bogotá"
"SP@ZZIO MOTOS";;;"(57) (7) 5726503";"Cl 8 0-18 Colombia, Cúcuta"
"First Name";"Email Address";Url;Telephone;Address
"SUZUMOTOR LTDA.";;;"(57) (1) 8613583";"Cl 14 9 A-18 Chía Colombia, Chía"
"CICLOTRANSMOVIL S.A.S.";;;"Telefax: (57) (1) 2275460";"Tr106 79 - 16 Colombia, Bogotá"
"SERVIMAX MOTOS LTDA.";;;"(57) (5) 4203935";"Av del Libertador 27-195 L-14 C.C Bastidas Colombia, Santa Marta"
RAPIFORROS;;;"(57) (2) 5573767";"Cr23 12 A-21 Colombia, Cali"
"JUNIOR®S MOTOR";;;"(57) (2) 6543464";"Av3 N 40-62 Colombia, Cali"
"HONDA NORTE";;;"(57) (2) 6613917";"Av6 A N 24 A N-35 Colombia, Cali"
"MOTOREPUESTOS TRES COYOTES";;;"(57) (2) 6626314";"Cl 70 7 MBis-73 Colombia, Cali"
"MOTO JUANCHO";;;"(57) (7) 6524569";"Cr17 B 50-31 La Concordia Colombia, Bucaramanga"
"ALMACÉN DISANMOTOS";;;"(57) (7) 6303003";"Cl 24 15-36 Colombia, Bucaramanga"
"MAXIMOTOS O.B.";;;"(57) 3135323230";"Tr9 18 B-63 Av del Ferrocarril Colombia, Santa Marta"
"CDA MEDELLÍN S.A.S";;;"(57) (4) 5120666";"Cl 60 53-32 Colombia, Medellín"
"COMERCIALIZADORA SOLIMÓES";;;"(57) (8) 5925195";"Cl7 9-48 Colombia, Leticia"
"COMPRA VENTA DE MOTOS";;;"(57) (4) 2303876";"Tr51 A 67-67 Colombia, Medellín"
"MIGUEL ANGEL SALA DE BELLEZA";;;"(57) (2) 3340839";"Cl 12 41 C-21 Colombia, Cali"
"REMOTOS CALI E.U.";;;"(57) (2) 8962092";"Cl 19 20-82 Colombia, Cali"
"SÁNCHEZ LUZ MARINA";;;"(57) (1) 2867878";"Cl 16 15-25 Colombia, Bogotá"
RIOMOTOR;;;"Nal: (57) (4) 5552199";"Cr20 22-31 Colombia, Medellín"
"YAMACENTRO BUGA";;;"(57) (2) 2280474";"Cl 7 16-79 Colombia, Buga"
MOTORIZATE;;;"(57) (4) 4129797";"Cl 44 74-94 Colombia, Medellín"
"SU MOTO DEL MAGDALENA";;;"(57) (7) 6022334";"Cl 49 14-65 Colombia, Barrancabermeja"
"TRAX COLOMBIA";;;"(57) (2) 5581839";"Cl 13 N 19-59 Colombia, Cali"
"MOTO-REPUESTOS KEYMAN";;;"(57) (2) 8842716";"Cr15 12-07 Colombia, Cali"
"CENTRO MOTORS LTDA.";;;"Conm.: (57) (2) 2244544";"Cr40 26-50 Colombia, Tuluá"
"TALLER MOTOS CAJAL";;;"(57) (2) 4474234";"Cr1C2 61 B-67 Colombia, Cali"
"LUCKY LION";;;"(57) (1) 2364588";"Av (cr) 15 95 39 Colombia, Bogotá"
"EMPAQUETADURA DE MOTOS GASCO";;;"(57) (7) 5746410";"Dg Santander 0-86 P-2 Lleras Restrepo Colombia, Cúcuta"
HONDA;;;"(57) (8) 7720922";"Cl 11 18-91 Colombia, Sogamoso"
"HONDA SUFI MOTOS";;;"(57) (4) 2893312";"Cr15 5 A-15 Girardota Colombia, Medellín"
"ALMACÉN Y TALLER MOTO COLOMBIA";;;"(57) (5) 4312020";"Av del Ferrocarril 28-14 Colombia, Santa Marta"
"MOTOS YAIR";;;"(57) (1) 2802934";"Av Caracas 1 C-16 Colombia, Bogotá"
"LONDOÑO CARVAJAL PABLO EMILIO";;;"(57) (1) 2795091";"Cl 50 A S 5 T-77 Colombia, Bogotá"
SUZUKI;;;"(57) (8) 4356164";"Cr12 13-39 Colombia, Florencia"
"YAMAHA MOTOS DOCELLO";;;"(57) (8) 4310597";"Cl 5 4-32 Colombia, El Doncello"
AGROSUZUKI;;;"(57) (2) 7738517";"Cr7 12 A-85 Colombia, Ipiales"
"CASA BURALGO LTDA.";;;"(57) (2) 7757706";"Av Panamericana 6-36 Colombia, Ipiales"
"MOTOS ALFONSO BLANCO LTDA.";;;"(57) (4) 2622732";"Cl 23 43 A-193 L-154 Colombia, Medellín"
"DISTRIMOTOS ANTIOQUIA LTDA.";;;"(57) (4) 2782320";"Cr50 125 S-116 Caldas Colombia, Medellín"
"GLOBAL BIKES";;;"(57) (4) 3329680";"Cr43 A 29 S-73 Envigado Colombia, Envigado"
"SUPERTALLER RAPIMOTOS";;;"(57) (4) 4722569";"Cr65 96-35 Colombia, Medellín"
"ALMACÉN REPUESTOS TAZMOTOS";;;"(57) (4) 5126174";"Cr52 57-42 Colombia, Medellín"
"First Name";"Email Address";Url;Telephone;Address
"HONDA NORTE";;;"(57) (2) 6613917";"Av6 A N 24 A N-35 Colombia, Cali"
"MOTO INDUSTRIAS RACING";;;"(57) (7) 5772985";"Av11 AE 10 B N-11 Guaimaral Colombia, Cúcuta"
"MIGUEL ANGEL SALA DE BELLEZA";;;"(57) (2) 3340839";"Cl 12 41 C-21 Colombia, Cali"
"SUPER MOTOS LENIT";;;"(57) (4) 3426855";"Cl 29 74-60 Local 100 Colombia, Medellín"
"JP MOTOS";;;"(57) (7) 6425366";"Cr21 33-87 Antonia Santos Colombia, Bucaramanga"
"FORROS Y FORROS";;;"(57) (2) 8806414";"Cl 23 17 C-08 Colombia, Cali"
"SOLO MOTOS";;;"(57) (4) 5162039";"Cl 77 47-41 Colombia, Medellín"
"MOTOS AYCO";;;"(57) (5) 3411198";"Cl 64 44-05 Colombia, Barranquilla"
"CENTRO DE SERVICIOS PATIA";;;"(57) (2) 7271836";"Cl Nueva Creación Colombia, Tumaco"
"CI DISTRIBUIDORA BIG SCOOTER";;;"(57) (1) 2237461";"Av81 78-41 Colombia, Bogotá"
"ELECTROPLAN LTDA.";;;"(57) (4) 2314050";"Cl 53 45-80 Colombia, Medellín"
"JACOB'S PRODUCTS S.A.";;;"(57) (7) 6532727";"Cr29 43-56 El LLanito Girón Colombia, Bucaramanga"
UNIMOTOS;;;"(57) (4) 2324180";"Cl 38 52-113 Colombia, Medellín"
"MAXI MOTO";;;"(57) (2) 8315797";"Cl 4 Cr 20 Esq. Colombia, Popayán"
"SUZUKI LTDA.";;;"(57) (2) 2672282";"Cl 8 Cr11 Esq Colombia, Pradera"
"DUCATI BIKES S.A.S.";;;"(57) (1) 7433934";"Av (Cr) 9 127-74 Colombia, Bogotá"
"MOTOS Y MOTOS";;;"(57) (4) 2678433";"Cr83 100 F-08 Colombia, Medellín"
"D' MOTOS";;;"(57) (1) 6358361";"Cl 98 A 60-15 Colombia, Bogotá"
"COMERCIALIZADORA MPV S.A.S";;;"Conm.: (57) (4) 2620100";"Cr50 37-19 Colombia, Medellín"
"EURO MOTOS";;;"(57) (5) 6816209";"Carrt Troncal Dg31 71-73 A-15 Sector El Biffi Colombia, Cartagena"
"SURTIMOTOS WILLINTON";;;"(57) (8) 6667594";"Cl 35 17-24 Colombia, Villavicencio"
"MOTOS H & H CÍA LTDA.";;;"(57) (4) 2934688";"Cr52 56-68 Colombia, Medellín"
"AGUIRRE CORTES JUAN GUILLERMO";;;"(57) (4) 5807550";"Av 33 65-49 Colombia, Medellín"
"MOTOREPUESTOS LTDA.";;;"(57) (4) 2511852";"Cl 45 A 59-27 Colombia, Medellín"
"LEONARDO GOMEZ MOTO TALLER";;;"(57) (5) 5749058";"Cl 16 B 9-59 Colombia, Valledupar"
"MOTO RALLY";;;"(57) (7) 6343833";"Cr21 18-22 Colombia, Bucaramanga"
"ALMACÉN BC S.A.";;;"Domic.: (57) (5) 6692414";"Cl 32 23-65 Colombia, Cartagena"
"MAX MOTOS";;;"(57) (8) 6660210";"Cl 35 20-148 San Luís Colombia, Villavicencio"
"OCAÑA MOTOS";;;"(57) (75) 5625230";"Cl 11 16 A-64 San Agustín Colombia, Ocaña"
"ALLGROVE OVERSEAS INC. SUCURSAL COLOMBIA";;;"Telefax: (57) (1) 7443842";"Cr9 74 - 08 Of 503 Colombia, Bogotá"
"MOTOR UNO S.A.";;;"(57) (8) 6653015";"Cr38 26 B-20 Brr. Siete de Agosto Colombia, Villavicencio"
BEMOTOS;;;"(57) (2) 5578261";"Cl 13 17-51 Colombia, Cali"
"CASA HONDA";;;"(57) (2) 3116698";"Cr15 13-74 Colombia, Cali"
"ANROER S.A.S.";;;"(57) (8) 4295155";"Cll 8 5-15 Centro Colombia, Mocoa"
"MOTOCICLETAS ABC";;;"(57) (2) 6560657";"Cl 70 7U2-16 Colombia, Cali"
"FUTUMOTOS S.A.S";;;"(57) (4) 5533187";"Cr22 6-44 La Ceja Colombia, La Ceja"
"MOTO SPRING";;;"(57) (7) 6703428";"Dg15 N° 51-83 Colombia, Bucaramanga"
"ALMACÉN EL IMPERIO DE LAS MOTOS";;;"(57) (6) 8828066";"Cr22 14-71 Colombia, Manizales"
"MOTOS RANGEL";;;"(57) (7) 6343941";"Cr32 18-32 Colombia, Bucaramanga"
"JUCADI MOTORS S.A.S.";;;"(57) (2) 6670175";"Av6 N 28 N-92 Colombia, Cali"
"First Name";"Email Address";Url;Telephone;Address
"TODO EN MOTOCICLETAS";;;"(57) (2) 8844204";"Cl 13 14-51 Colombia, Cali"
"TALLER MOTO LARL";;;"(57) (4) 3716296";"Cr41 54-134 Itagüí Colombia, Itagüí"
"HONDA MOTOS DE OCCIDENTE";;;"(57) (6) 7538383";"Cr5 21-11 Colombia, Montenegro"
SUZUKI-MOTOMAX;;;"(57) (2) 6697298";"Cr4 13-19 Yumbo Colombia, Yumbo"
"SUPER MOTO LA 13";;;"(57) (2) 5580437";"Cl 13 22-05 Colombia, Cali"
MOTORRALLY;;;"(57) (8) 5923885";"Cr7 7-37 Colombia, Leticia"
"MILU'S MOTOS";;;"(57) (7) 7237867";"Cr12 18-90/94 Colombia, San Gil"
"MOTO SPRING";;;"(57) (7) 6703428";"Dg15 N° 51-83 Colombia, Bucaramanga"
"ALMACÉN Y TALLER LAS MOTOS";;;"(57) (8) 2515570";"Cr12 21-08 Colombia, Honda"
"TOYS FOR YOU";;;"(57) (7) 6571414";"Cl 56 30-116 Colombia, Bucaramanga"
"IMPORTACIONES CARBAL ALBERTO VEGA";;;"(57) (7) 6713422";"Cr15 18-13 Colombia, Bucaramanga"
"MOTO RACING GAS GAS COLOMBIA";;;"(57) (1) 6201037";"Cl 127 9 B-53 Colombia, Bogotá"
"AUTECO KAWASAKI CONCESIONARIO";;;"(57) (8) 8362829";"Cr4 10-33 Colombia, Pitalito"
"MOTO REPUESTOS LÍDER";;;"(57) (2) 4401961";"Cl 70 1 D-39 Colombia, Cali"
"MOTOBOMBAS LA 15";;;"(57) (2) 8850893";"Cl 15 9-73 Colombia, Cali"
"YAMACENTRO BUGA";;;"(57) (2) 2280474";"Cl 7 16-79 Colombia, Buga"
"COMPRA VENTA DE MOTOS EL PAISA";;;"(57) (2) 4412786";"Cr27 36-07 Colombia, Cali"
"MOTO SPORT LA 15";;;"(57) (2) 5571469";"Cr15 13-90 Colombia, Cali"
"EXTREME MOTOR CALI";;;"(57) (2) 8801184";"Cr1 A 17-32 Colombia, Cali"
"AUTOAMBIENTAL CENTRO DE DIAGNOSTICO AUTOMOTOR";;;"(57) (2) 2242553";"Cl 13 38 B-47 B/Morales Colombia, Tuluá"
"MOTOSTELAR S.A.S";;;"(57) (2) 6673413";"Av 3 N 22 N-35 Colombia, Cali"
"YO SI LAVO MOTO";;;"(57) (1) 3512151";"Av (Cr) 30 10-22 S P-1 Colombia, Bogotá"
"QINGQI MOTOS";;;"(57) (7) 5710638";"Dg Santander 4-15 Antigua Sede Cruz Roja Colombia, Cúcuta"
"ROYAL STAR MOTOS";;;"(57) (7) 5715622";"Cl 7 0-65 Latinos Colombia, Cúcuta"
"TAPICERÍA DE MOTOS EL MONO DE LA 16";;;"(57) (1) 2838764";"Cr15 17-21 Colombia, Bogotá"
"TAXI AUTOS HIPERCENTRO";;;"(57) (7) 6430001";"Cr27 48-60 Colombia, Bucaramanga"
"SERVICENTRO LA UNION";;;"(57) (7) 6332929";"Cr17 42-42 Colombia, Bucaramanga"
"BEST BIKE S.A.S.";;;"Telefax: (57) (1) 6685173";"Cl 244 1 - 00 Colombia, Bogotá"
"MEGAMOTOS CARTAGENA";;;"(57) (5) 6426166";"Dg22 38-67 Av Crisanto Luque Colombia, Cartagena"
"CASTAÑO MOTOS S.A.S.";;;"Telefax: (57) (1) 4028506";"Cr79 B 2 - 04 P-1 Colombia, Bogotá"
"MOTOCARROS YITAKI";;;"(57) (1) 4046935";"Cr106 15-25 Colombia, Bogotá"
"BERMOTOS S.A.";;;"(57) (1) 6155013";"Av (Cr)19 134-15 Esq Colombia, Bogotá"
"ELECTROMOTOS SERVICIO ELÉCTRICO Y BOBINADOS";;;"(57) (1) 2382216";"Tr27 46-23 Colombia, Bogotá"
DORCIMOTOS;;;"(57) (4) 2127918";"Cr44 80-48 Colombia, Medellín"
"P&M YAMAHA";;;"(57) (7) 7272115";"Cr 13 13-07 Colombia, Socorro"
"ALMACÉN MOTO FLASH";;;"(57) (4) 5114614";"Cr52 57-14 Colombia, Medellín"
"MOTOCARIBE S.A.";;;"(57) (5) 3705444";"Cr43 59-21 Colombia, Barranquilla"
"MOTO SPEED LTDA.";;;"(57) (5) 3721205";"Cr40 42-41 Colombia, Barranquilla"
"MAO MOTOS";;;"(57) (4) 2384560";"Cl 30 74-80 Colombia, Medellín"
"M.G. MOTOS";;;"(57) (4) 4447319";"Cl 44 73-19 Colombia, Medellín"
"First Name";"Email Address";Url;Telephone;Address
"DUCATI COLOMBIA S.A.";;;"(57) (1) 6168700";"Av 19 100-71 Colombia, Bogotá"
"MOTOREPUESTOS LA 19";;;"(57) (5) 2808022";"Cr19 28 A-12 Colombia, Sincelejo"
RECTIMOTOS;;;"(57) (4) 5622020";"Cl 49 46-41 Rionegro Colombia, Medellín"
"LA VARIEDAD DEL CASCO NO. 2";;;"(57) (4) 7919398";"Cr14 16 A-24 Urbina Colombia, Montería"
"DONDE MEJÍA";;;"(57) (1) 7209473";"Cl 22 S 30-35 Colombia, Bogotá"
"LUCHO MOTOS CALI";;;"(57) (2) 8812516";"Cr11 B 20-54 Colombia, Cali"
"MOTO SUPERIOR CALI";;;"(57) (2) 5574004";"Cl 13 22-73 Colombia, Cali"
YAMAMOTOS;;;"(57) (8) 6580258";"Cr13 19-02 Centro Colombia, Granada"
"COMERCIALIZADORA DE REPUESTOS YOKOMOTOS";;;"Domic.: (57) (1) 2473103";"Cr34 4-19 Colombia, Bogotá"
RIDERS;;;"(57) (4) 3112556";"Cl 10 A 40-59 Colombia, Medellín"
"UNITED MOTORS DE COLOMBIA E.U.";;;"(57) (4) 2506612";"Cl 44 72-74 Colombia, Medellín"
"BOLIVAR MOTORCYCLES S.A.S.";;;"Conm.: (57) (4) 3110702";"Cr39 7-105 Colombia, Medellín"
"CALI BOBBER S.A.S.";;;"(57) (2) 4850010";"Cr7 A 24-62 Colombia, Cali"
"EURO MOTOS";;;"(57) (5) 6816209";"Carrt Troncal Dg31 71-73 A-15 Sector El Biffi Colombia, Cartagena"
"BARBOSA PINZÓN DANIEL";;;"(57) (8) 8332622";"Cl 8 9-29 Colombia, Garzón"
"SU MOTO DEL CAUCA";;;"(57) (4) 8393195";"Cr20 20-33 Colombia, Caucasia"
"TALLER DE SERVICIO SAM";;;"(57) (2) 4487413";"Cr23 43-11 Colombia, Cali"
"ALMACÉN MOTO RUTA 30";;;"(57) (4) 3661933";"Cl 30 80-120 Colombia, Medellín"
"SHIRVANS MOTOS";;;"(57) (2) 4054351";"Cr48 43 A-59 Colombia, Cali"
"AMC COLOMBIA S.A.";;;"(57) (5) 3519410";"Cr44 57-35 Colombia, Barranquilla"
"AVA MOTORS COLOMBIA S.A.S";;;"(57) (1) 3478580";"Cr 24 76-72 Colombia, Bogotá"
"MOTOS H & H CÍA LTDA.";;;"(57) (4) 2934688";"Cr52 56-68 Colombia, Medellín"
"ALBA MOTOS";;;"(57) (4) 2620337";"Cl 38 51-36 Colombia, Medellín"
"MULTIMOTOS LTDA.";;;"Nal: (57) (4) 3730119";"Cr50 A 38-30 Itaguí Colombia, Medellín"
"LAS MOTOS DEL CESAR";;;"Telefax: (57) (5) 5606381";"Cl 17 14-04 Colombia, Valledupar"
"MOTOCICLETAS DAYANG MOTOS Y REPUESTOS";;;"(57) (5) 3286680";"Cl 99 6-05 100 Mts antes del Puente Circunvalar Colombia, Barranquilla"
"MOTO FÁCIL SANTA MARTA";;;"(57) (5) 4214647";"Cr4 24-64 El Prado Colombia, Santa Marta"
AUTOBOG;;;"(57) (1) 3340048";"Av Caracas 15-32 Colombia, Bogotá"
"MOTO FACTORY";;;"(57) (7) 8859072";"Cl 27 17-28 San Luis Colombia, Arauca"
"RUTA 22 MOTOCICLETAS";;;"(57) (2) 6843211";"Autopista Sur 15-81 Colombia, Cali"
"JJ MOTOS Y PARTES";;;"(57) (2) 6843211";"Cl 23 18-50 Colombia, Cali"
"AGUILERA MOTOS ALMACÉN Y TALLER";;;"(57) (2) 4404759";"Cl 84 3 B N-09 Colombia, Cali"
"FLASH MOTOS";;;"(57) (2) 4491625";"Cl 44 4 E-05 Colombia, Cali"
"VALLEMOTOS KAWASAKI AUTECO";;;"(57) (2) 2701757";"Cr28 33-38 Colombia, Palmira"
"DISTRIMOTOS DEL VALLE YAMAHA";;;"(57) (2) 2750303";"Cl 31 34-28 Colombia, Palmira"
"DISMOTOS GUANENTA";;;"(57) (7) 7243944";"Cr11 8-14 María Auxiliadora Colombia, San Gil"
"MOTOS TITANIA TUTTO BENNE";;;"(57) (2) 8858355";"Cr1 22-28 Colombia, Cali"
"PREVIMOTO S.A.";;;"(57) (2) 4855099";"Cl 25 5-32 Colombia, Cali"
"SANTI MOTOS";;;"(57) (4) 2325588";"Cl 42 48-34 Colombia, Medellín"
"JINCHENG MOTOS";;;"(57) (7) 6307090";"Cr 15 24-32 Colombia, Bucaramanga"
"First Name";"Email Address";Url;Telephone;Address
"LAGMARK COMERCIALIZADORA S.A.S.";;;"(57) (1) 2084461";"Cr31 A 2 A-59 Colombia, Bogotá"
"ALMACÉN MOTO S.A.I.";;;"(57) (8) 5121907";"Av 20 de Julio 4-93 Colombia, San Andrés"
"MOTO RALLY";;;"(57) (7) 6343833";"Cr21 18-22 Colombia, Bucaramanga"
"CASA DE LOS MINEROS";;;"(57) (4) 6703060";"Cr8 25-06 Brr. Cubis Colombia, Istmina"
"SACHS BIKES";;;"(57) (2) 8808560";"Cr1 22 N-13 Colombia, Cali"
ALKOMPRAR;;;"Conm.: (57) (2) 6655121";"Cr1 N 24-65 Colombia, Cali"
"MOTORREPUESTOS LA SETENTA FONAVI";;;"(57) (2) 4406764";"Cl 70 1 C-05 Colombia, Cali"
"DISMERCA MEDELLIN S.A.S.";;;"(57) (4) 2323122";"Cr50 37-15 Colombia, Medellín"
"CAMPOS MOTOR'S";;;"(57) 3112191705";"Cl 10 2-36 Versalles Colombia, Chaparral"
MOTOCENTRO;;;"(57) (8) 2487351";"Cr4 13-08 Centro Colombia, Espinal"
NORMOTOS;;;"(57) (7) 6851350";"Cr17 B 49-03 Colombia, Bucaramanga"
"MEYER MOTOS";;;"(57) (7) 5714325";"Cl 7 1-53 Latino Colombia, Cúcuta"
"COMPRA VENTA MOTO WORLD";;;"(57) (7) 6459660";"Cr27 33-28 Colombia, Bucaramanga"
"JOHANN MOTOS CENTRO AUTORIZADO KT";;;"(57) (1) 4911296";"Cl 75 A 85-64 Colombia, Bogotá"
"MOTOS YAIR";;;"(57) (1) 2802934";"Av Caracas 1 C-16 Colombia, Bogotá"
"BERMOTOS S.A.";;;"(57) (1) 6155013";"Av (Cr)19 134-15 Esq Colombia, Bogotá"
"YAMAHA SAN GIL";;;"(57) (7) 7242905";"Cl 10 10-59 Colombia, San Gil"
MOTONETOS;;;"(57) (4) 4665652";"Cr50 44-43 Bello Colombia, Bello"
"MOTO BUCARO";;;"(57) (7) 6945831";"Cl 50 17-58 Colombia, Bucaramanga"
"TEAM RYDER";;;"(57) (4) 5827875";"Cl 10 A 40-42 Colombia, Medellín"
"TEAM FACTORY MOTOS";;;"(57) (4) 3417360";"Cl 30 81-51 Colombia, Medellín"
"C.I. MOTOCICLETAS ANIVER LTDA.";;;"(57) (4) 2604141";"Cr74 48-37 L-4828 Colombia, Medellín"
"ALMACÉN MOTO RUTA 30";;;"(57) (4) 3661933";"Cl 30 80-120 Colombia, Medellín"
"AMC COLOMBIA S.A.";;;"(57) (5) 3519410";"Cr44 57-35 Colombia, Barranquilla"
"MOTOS H & H CÍA LTDA.";;;"(57) (4) 2934688";"Cr52 56-68 Colombia, Medellín"
"CICLOTALLER CAUCASIA";;;"(57) (4) 8393225";"Cr20 20 C-133 Colombia, Caucasia"
"TALLER SERVIMOTOS";;;"(57) (4) 6709922";"Cl 30 2-58 Colombia, Quibdó"
"ALMACÉN BC S.A.";;;"Domic.: (57) (5) 6692414";"Cl 32 23-65 Colombia, Cartagena"
"MOTOREPUESTOS TRES COYOTES";;;"(57) (2) 6626314";"Cl 70 7 MBis-73 Colombia, Cali"
"HONDA MOTOS DE OCCIDENTE";;;"(57) (6) 7538383";"Cr5 21-11 Colombia, Montenegro"
"DOS RUEDA DEL CESAR";;;"(57) (5) 5802424";"Dg21 18 D-75 Colombia, Valledupar"
"MOTO JUANCHO";;;"(57) (7) 6524569";"Cr17 B 50-31 La Concordia Colombia, Bucaramanga"
"SUZUKI AGRO MOTORS";;;"(57) (8) 4364481";"Cl 16 8-35 Colombia, Florencia"
"MOTOS TITANIA TUTTO BENNE";;;"(57) (2) 8858355";"Cr1 22-28 Colombia, Cali"
"RIOMOTOS LTDA.";;;"(57) (1) 8353856";"Cl 21 B 6-44 Colombia, Girardot"
"CREDITÍTULOS S.A.";;;"(57) (6) 3240566";"Cl 21 12-02 L-3 Colombia, Pereira"
"TECNI BWS SCOOTER";;;"(57) (6) 8827795";"Cr22 14-61 Centro Colombia, Manizales"
"HELBER MOTOS LA 15";;;"(57) (1) 4829880";"Cr15 15-26 Colombia, Bogotá"
"TALLER DE MOTOS";;;"(57) (8) 8712246";"Cr2 1-32 Colombia, Neiva"
FARMOTOS;;;"(57) (1) 2642702";"Av1 de Mayo 73 B-21 P-1 Colombia, Bogotá"
"First Name";"Email Address";Url;Telephone;Address
"TALLER MEGAMOTOS";;;"(57) (4) 4523387";"cr50 44-29 Bello Colombia, Bello"
"MOTO FULL";;;"(57) (1) 2810462";"Cl 16 14-65 Colombia, Bogotá"
"MAXI MOTO";;;"(57) (2) 8315797";"Cl 4 Cr 20 Esq. Colombia, Popayán"
"MOTOS JIALING S.A.";;;"(57) (4) 2616721";"Cl 37 50-42 Colombia, Medellín"
"ALMACÉN ESPAMOTOS LA 80";;;"(57) (4) 4745924";"Cl 64 A 79 A-43 Colombia, Medellín"
BUNKER;;;"(57) (4) 2857276";"Cr 52 D 81-25 L-113 Itagüí Colombia, Itagüí"
"MUNDO MOTOS";;;"(57) (8) 5120163";"Av 20 de Julio 4-101 Colombia, San Andrés"
"COMERCIALIZADORA ANDINA J&C";;;"(57) (2) 7205190";"Cl 18 15-132 Navarrete Colombia, Pasto"
"TODO MOTOS";;;"(57) (4) 3231590";"Cr53 57-07 Itagüí Colombia, Itagüí"
"TALLER DE MOTOS";;;"(57) (8) 8712246";"Cr2 1-32 Colombia, Neiva"
"SU MOTO DEL ORIENTE";;;"(57) (4) 5315018";"Cr46 47-32 Rionegro Colombia, Medellín"
"AUTOTECNICA COLOMBIANA S.A.S";;;"Conm.: (57) (4) 3068181";"Cr42 45-77 Itagüí Colombia, Medellín"
"DUCATI COLOMBIA S.A.";;;"(57) (1) 6168700";"Av 19 100-71 Colombia, Bogotá"
"MOTOCICLETAS CAMPHER";;;"(57) (7) 6946446";"Cr17 53-110 Colombia, Bucaramanga"
"AMERICAN CARS GOLF";;;"(57) (1) 4008690";"Av19 122-72 Colombia, Bogotá"
AKT;;;"(57) (5) 2813580";"Cr25 23-05 Av Las Peñitas Colombia, Sincelejo"
"NOHELIA MOTOS";;;"(57) (7) 5716211";"Av1 6-46 Latino Colombia, Cúcuta"
"ALMACÉN DISTRIMOTOS";;;"(57) (5) 6560610";"Av Pedro de Heredia Sector Pie de la Popa 21-54 Colombia, Cartagena"
"MOTO SUPERIOR CALI";;;"(57) (2) 5574004";"Cl 13 22-73 Colombia, Cali"
"WIS MOTOS S.A. CONCESIONARIO SUZUKI";;;"(57) (8) 4643691";"Cr6 7-17 Colombia, San Martín"
"YAMARINOS LTDA.";;;"(57) (1) 4902200";"Av Boyacá 73-25 Colombia, Bogotá"
"MOTO MÁSTER LTDA";;;"(57) (4) 5125675";"Cr 52 57-59 Colombia, Medellín"
"ACEITAR LTDA";;;"(57) (1) 6373488";"Av127 20-79 Colombia, Bogotá"
"BH INTERNACIONAL S.A.S.";;;"(57) (1) 7041975";"Cl 76 20-18 Colombia, Bogotá"
"MOTO VARGAS";;;"(57) (1) 2380420";"Av 1 de Mayo 68 F-19 Colombia, Bogotá"
"ENERGY MOTION";;;"(57) (4) 2307877";"Cl 44 69-05 Colombia, Medellín"
"CENTRO NACIONAL DE SERVICIOS";;;"(57) (5) 3008181";"Cl 63 43-141 Colombia, Barranquilla"
"MOTOS JAURY";;;"(57) (8) 6816285";"Cl 24 13 A-56 Colombia, Villavicencio"
"FIXER MOTOS";;;"(57) (8) 6713610";"Cr43 50-04 S Colombia, Villavicencio"
"INGENIERÚA EN EVOLUCIµN E.U. INGEVOL E.U.";;;"(57) (1) 2228617";"Cl 44 CBis 51 - 30 Of 218 Colombia, Bogotá"
"DISTRIMOTOS DE COLOMBIA S.A.S.";;;"(57) (1) 7498595";"Cl 168 45-25 Colombia, Bogotá"
"MUNDIJIALING MEDELLÍN";;;"Conm.: (57) (4) 4441113";"Cl 44 71-75 Colombia, Medellín"
"DIRCOMOTOS LTDA.";;;"(57) (8) 5128243";"Av Las Américas 5-43 Colombia, San Andrés"
"CASA AGRONÁUTICA S.A.S.";;;"(57) (2) 2423332";"Cl 2 8-43 La Virgen Colombia, Buenaventura"
"SERVIMOTOS RUPERTO";;;"(57) (4) 8688125";"Cr50 41-123 Colombia, San Pedro de los Milagros"
"ALMACÉN EXTRA";;;"(57) (4) 8332748";"Cr2 51-07 Colombia, Puerto Berrío"
"SANTA FÉ MOTOR";;;"(57) (4) 8534146";"Cr10 10-43 Colombia, Santa Fe de Antioquia"
"SCOOTERS DE COLOMBIA";;;"(57) (1) 7034364";"Cr8 B 106-19 Colombia, Bogotá"
"TRIAL MOTOS";;;"(57) 3218496760";"Cl 65 25-61 Colombia, Pereira"
"MOTO CAS NO. 2";;;"(57) (5) 5803857";"Dg16 18-26 Colombia, Valledupar"
"First Name";"Email Address";Url;Telephone;Address
"R&M MOTOS S.A.S.";;;"(57) (1) 2023578";"Cl 22 S 30-39 Colombia, Bogotá"
"GF MOTORS";;;"(57) (1) 4933390";"Av (Cl) 127 48-53 Colombia, Bogotá"
"ALMACÉN MOTO ROCK HOLE";;;"(57) (8) 5129211";"Cl 4 A 3-62 Colombia, San Andrés"
"MOTO STAR SUZUKI";;;"(57) (6) 3302716";"Cl 20 16-47 La Pradera Colombia, Pereira"
"RJ'S MOTOS";;;"(57) (1) 7209558";"Av1 de Mayo-30 -15 Colombia, Bogotá"
"NAVAS ARRIETA MARTÍN";;;"(57) (5) 4295846";"Cl 8 2-99 Colombia, El Banco"
HONDA;;;"(57) (5) 4235156";"Cr5 24-08 Colombia, Santa Marta"
"COMERCIAL ELECTRO MUEBLES LTDA.";;;"(57) (7) 8853277";"Av Rondón 19-29 Colombia, Arauca"
MOTOBLANCO'S;;;"(57) (4) 3313736";"Cr43 A 25 S-19 Envigado Colombia, Envigado"
"MOTOCICLETAS YAMAHA ZIPAQUIRÁ";;;"(57) (2) 8810736";"Cl 8 10-60 Colombia, Cali"
"SU MOTO VALLE";;;"(57) (2) 5165725";"Cl 12 10-57 Jamundí Colombia, Jamundí"
"RACING SPORT";;;"(57) (2) 5569320";"Cr15 13-102 Colombia, Cali"
"SUKY MOTO LTDA.";;;"Conm.: (57) (2) 2244720";"Cr30 19-66 Colombia, Tuluá"
"JJ MOTOS Y PARTES";;;"(57) (2) 6843211";"Cl 23 18-50 Colombia, Cali"
"AGUILERA MOTOS ALMACÉN Y TALLER";;;"(57) (2) 4404759";"Cl 84 3 B N-09 Colombia, Cali"
"FLASH MOTOS";;;"(57) (2) 4491625";"Cl 44 4 E-05 Colombia, Cali"
"SERVIMOTOS CDA PALMIRA";;;"(57) (2) 2818419";"Cl 42 34 B-63 Colombia, Palmira"
"UM MOTO SHOP";;;"(57) (2) 5146595";"Cl 6 26-64 P-1 Colombia, Cali"
"SUPER MOTO LA 13";;;"(57) (2) 5580437";"Cl 13 22-05 Colombia, Cali"
"ABC MOTOS";;;"(57) (2) 2711023";"Cr28 33-27 Colombia, Palmira"
"MAXIMOTOS O.B.";;;"(57) 3135323230";"Tr9 18 B-63 Av del Ferrocarril Colombia, Santa Marta"
"TRIÁNGULO RACING";;;"(57) (7) 6548083";"Cr7 1 A - 16 Argentina Antigûa Piedecuesta Colombia, Piedecuesta"
"MOTO INDUSTRIAS RACING";;;"(57) (7) 5772985";"Av11 AE 10 B N-11 Guaimaral Colombia, Cúcuta"
"MOTO EXPRESS WASH";;;"(57) (7) 6944226";"Cr21 54-63 Colombia, Bucaramanga"
"ALMACÉN MOTOWORK";;;"(57) (6) 3330428";"Cr12 12-03 San José Colombia, Pereira"
"JINCHENG MOTOS";;;"(57) (7) 6307090";"Cr 15 24-32 Colombia, Bucaramanga"
"TECNI BWS SCOOTER";;;"(57) (6) 8827795";"Cr22 14-61 Centro Colombia, Manizales"
"SP@ZZIO MOTOS";;;"(57) (7) 5726503";"Cl 8 0-18 Colombia, Cúcuta"
"MOTOR UNO S.A.";;;"(57) (1) 2510122";"Av Boyacá 69 A-06 Colombia, Bogotá"
PINTUCROSS;;;"(57) (7) 6522044";"Cr15 24-24 Colombia, Bucaramanga"
"MOTOS PIEDECUESTA";;;"(57) (7) 6555187";"Cl 4 B 4-90 Albania Piedecuesta Colombia, Piedecuesta"
"SUPER MOTOS DEL SUR";;;"(57) (8) 2462123";"Cl 10 1-60 Colombia, Chaparral"
"ALMACÉN Y TALLER J.N MOTOR'S";;;"(57) (7) 6850681";"Dg15 50-79 La Concordia Colombia, Bucaramanga"
"YAMASAKI MOTOS";;;"(57) (7) 6450075";"Av Quebrada Seca 24-30 Colombia, Bucaramanga"
"SOLO MOTOS LA 21 S.A.S.";;;"(57) (7) 6424747";"Cr21 41-17 Colombia, Bucaramanga"
"SUMOTO S.A.";;;"(57) (2) 2750202";"Cl 31 34-48 Colombia, Palmira"
"CENTRO MOTORS LTDA.";;;"Conm.: (57) (2) 2244544";"Cr40 26-50 Colombia, Tuluá"
"UKM DEL VALLE LTDA.";;;"(57) (2) 2750160";"Cl 29 Cr 29 Esquina Colombia, Palmira"
"ENDURO PEREIRA";;;"(57) (6) 3211030";"Cl 14 23-112 Los Angeles Colombia, Pereira"
"ALMACEN JERRY MOTOS";;;"(57) (7) 6702556";"Cr17 B 48-35 Colombia, Bucaramanga"
"First Name";"Email Address";Url;Telephone;Address
"SUZUKI MOTOSPORT RIONEGRO";;;"(57) (4) 5322710";"Cr46 47-48 Rionegro Colombia, Medellín"
DORCIMOTOS;;;"(57) (4) 2127918";"Cr44 80-48 Colombia, Medellín"
"GRUPO UNIVERSAL MAGNOS S.A.S.";;;"(57) (4) 2685094";"Cr43 A 6 S-26 Colombia, Medellín"
DAGAMOTOS;;;"(57) (4) 5110471";"Cr52 56-02 Colombia, Medellín"
"LUBRICANTES LA 57";;;"(57) (4) 2933144";"Cl 57 52-68 Int 101 Colombia, Medellín"
"P&M YAMAHA";;;"(57) (7) 7272115";"Cr 13 13-07 Colombia, Socorro"
"TALLER MEGAMOTOS";;;"(57) (4) 4523387";"cr50 44-29 Bello Colombia, Bello"
"PRIMOTOS LTDA.";;;"(57) (2) 8315760";"Cl 4 20-85 Colombia, Popayán"
"COLOMBIA MOTOS QUILICHAO";;;"(57) 3182666408";"Cl 6 12-51 Colombia, Santander de Quilichao"
"HONDA ITAGÜÍ";;;"(57) (4) 3725646";"Cr51 54-23 Itagüí Colombia, Itagüí"
"MOTO BUCARO";;;"(57) (7) 6945831";"Cl 50 17-58 Colombia, Bucaramanga"
"DONDE MEJÍA";;;"(57) (1) 7209473";"Cl 22 S 30-35 Colombia, Bogotá"
"SUPERMOTOS DE SUCRE";;;"(57) (5) 2744047";"Cr25 24-440 Av Okala Colombia, Sincelejo"
AUTECO;;;"Conm.: (57) (4) 3068181";"Cr42 45-77 Itagüí Colombia, Medellín"
"AGROMOTOS YAMAHA";;;"(57) (4) 7847138";"Cr6 52 A-08 Av Circunvalar Colombia, Montería"
TECNISHOP;;;"(57) (4) 2354153";"Cl 33 65-30 Colombia, Medellín"
"MOTO GRUA TENKA LTDA.";;;"(57) (4) 4442323";"Cl 44 B 89-91 Colombia, Medellín"
"BH INTERNACIONAL S.A.S.";;;"(57) (1) 7041975";"Cl 76 20-18 Colombia, Bogotá"
ALMAGRICOLA;;;"(57) (8) 8363418";"CR 6 4-46 Colombia, Pitalito"
"REDMOTOS DE COLOMBIA";;;"(57) (8) 6727248";"C 35 A 21-33 Colombia, Villavicencio"
"AYJ MOTORSPORT S.A.S.";;;"(57) (1) 6254376";"Cl 142 18-23 Colombia, Bogotá"
"MOTO MUNDO COLOMBIA LTDA.";;;"(57) (5) 3693988";"Cr47 76-192 Colombia, Barranquilla"
"ALAMO MOTORCYCLE PARTS";;;"(57) (1) 2188031";"Cr16 79-68 Colombia, Bogotá"
BUNKER;;;"(57) (4) 2857276";"Cr 52 D 81-25 L-113 Itagüí Colombia, Itagüí"
"MOTOCENTER HONDA";;;"(57) (7) 7245538";"Cr11 8-14 Colombia, San Gil"
"MOTOCICLETAS AUTECO";;;"(57) (7) 7247911";"Cr11 9-20 Colombia, San Gil"
"INVERSIONES BLACK RIVER";;;"(57) (4) 5611879";"Cr46 53-03 Colombia, Medellín"
DISTRILUJOS;;;"(57) (8) 5122426";"Av 20 de Julio 4-32 Colombia, San Andrés"
ISLAMOTOS;;;"(57) (8) 5131456";"Cr5 A 3-57 Sector Francis Colombia, San Andrés"
"MOTOCICLETAS JIALING S.A.";;;"(57) (5) 3798333";"Cr46 43-29 Colombia, Barranquilla"
"ALMACÉN MOTOURABÁ";;;"(57) (4) 8272778";"Cr13 102-35 Colombia, Turbo"
"SCOOTERS DE COLOMBIA";;;"(57) (1) 7034364";"Cr8 B 106-19 Colombia, Bogotá"
"R&M MOTOS S.A.S.";;;"(57) (1) 2023578";"Cl 22 S 30-39 Colombia, Bogotá"
COOMULTRASAN;;;"(57) (76) 5650949";"Cl 5 25-22 Colombia, Aguachica"
"MULTI MOTOS DE LA COSTA";;;"(57) (5) 3345422";"Cr8 # 45-33 Colombia, Barranquilla"
"LEONARDO GOMEZ MOTO TALLER";;;"(57) (5) 5749058";"Cl 16 B 9-59 Colombia, Valledupar"
"SCOLL MOTOS";;;"(57) 3167410845";"Cr22 23-26 Colombia, Arauca"
"RJ'S MOTOS";;;"(57) (1) 7209558";"Av1 de Mayo-30 -15 Colombia, Bogotá"
"MOTOS DE LOS NDES";;;"(57) (1) 2500229";"Cl 66 26-11 Colombia, Bogotá"
"MAX MOTOS";;;"(57) (8) 6660210";"Cl 35 20-148 San Luís Colombia, Villavicencio"
"First Name";"Email Address";Url;Telephone;Address
"METAL MOTOS";;;"(57) (8) 2666994";"Cr6 39-90 Colombia, Ibagué"
"BUCAMOTOS AKT";;;"(57) (7) 6303526";"Cr21 34-49 Centro Colombia, Bucaramanga"
"JINCHENG MOTOS";;;"(57) (7) 6307090";"Cr 15 24-32 Colombia, Bucaramanga"
"ALDOMOTOS DEL VALLE S.A . S .";;;"(57) (2) 5545451";"Cr16 11-21 Colombia, Cali"
"GÓMEZ T. E HIJOS S EN CS GT MOTOS";;;"Conm.: (57) (2) 8810200";"Cl 22 6 A N-39 Colombia, Cali"
"KAYAK MOTORS";;;"(57) (2) 8890242";"Cl 1 1-33 Colombia, Cali"
"MOTO LAVADO RUTA 30";;;"(57) (1) 2376162";"Av (cr) 30 1 53 Colombia, Bogotá"
PINTUCROSS;;;"(57) (7) 6522044";"Cr15 24-24 Colombia, Bucaramanga"
"AKT MOTO K O.B S.A.S.";;;"(57) (5) 2825099";"Cr25 20 A-03 Av Las Peñitas Colombia, Sincelejo"
"CONSIGNATARIA CAMBALACHE";;;"(57) (2) 2759219";"Cl 30 21-06 Colombia, Palmira"
MOTOSVALLE;;;"(57) (2) 2642140";"Cl 9 16-39 Colombia, Florida"
"AUTECO SU MOTO DEL VALLE";;;"(57) (2) 4420530";"Av3 N 40-62 Colombia, Cali"
"RUBENCHO MOTOS";;;"(57) (2) 8805459";"Cr3 20-41 Colombia, Cali"
"YAMA SPORT S.A.";;;"(57) (2) 2270099";"Cr9 14-37 Colombia, Buga"
"MOTOS Y MOTOS DEL VALLE";;;"(57) (2) 5577080";"Cl 13 23-37 Colombia, Cali"
"QINGQI MOTOS";;;"(57) (7) 5710638";"Dg Santander 4-15 Antigua Sede Cruz Roja Colombia, Cúcuta"
"ROYAL STAR MOTOS";;;"(57) (7) 5715622";"Cl 7 0-65 Latinos Colombia, Cúcuta"
"TAXI AUTOS HIPERCENTRO";;;"(57) (7) 6430001";"Cr27 48-60 Colombia, Bucaramanga"
"SERVICENTRO LA UNION";;;"(57) (7) 6332929";"Cr17 42-42 Colombia, Bucaramanga"
"COMPRAVENTA DE MOTOS LA CLARITA";;;"(57) (4) 2576648";"Cl 73 67-27 Colombia, Medellín"
"MOTOCARROS YITAKI";;;"(57) (1) 4046935";"Cr106 15-25 Colombia, Bogotá"
"INVERSIONES PARDO PARDO E.U.";;;"(57) (5) 4205055";"Av del Libertador 26-136 Colombia, Santa Marta"
"MOTO XPRESS COLOMBIA";;;"(57) (8) 6734780";"Cr34 26-06 Nuevo Maizaro Colombia, Villavicencio"
"ELECTROMOTOS SERVICIO ELÉCTRICO Y BOBINADOS";;;"(57) (1) 2382216";"Tr27 46-23 Colombia, Bogotá"
"MOTOS MAFE";;;"(57) (4) 3714953";"Cl 68 52-26 Itagüí Colombia, Itagüí"
"SUZUKI MOTOSPORT RIONEGRO";;;"(57) (4) 5322710";"Cr46 47-48 Rionegro Colombia, Medellín"
"SUPERTALLER RAPIMOTOS";;;"(57) (4) 4722569";"Cr65 96-35 Colombia, Medellín"
YAMAHA;;;"(57) (2) 8895110";"Cr1 22-82 Colombia, Cali"
CUATREROS;;;"(57) (2) 5565490";"Cl 9 30 A-21 Colombia, Cali"
"KI MOTO";;;"(57) (4) 5128843";"Cl 57 52-49 Colombia, Medellín"
"COMPRA Y VENTA DE MOTOS RIVA";;;"(57) (2) 6611066";"Cl 25 N 2 E N-51 Colombia, Cali"
"MOTOPITS RACING";;;"(57) (2) 8218690";"Cl 4 18-02 Esq Av El Cementerio Colombia, Popayán"
"JOTAMOTOS LTDA.";;;"(57) (1) 4343716";"Av81 78 A-27 Colombia, Bogotá"
CICLOMOTOR;;;"(57) (1) 7569190";"Cl 93 A 50-19 Colombia, Bogotá"
"EUROPAMOTOS LTDA.";;;"(57) (1) 2353145";"Cl 72 21-02 Colombia, Bogotá"
"KAWA MOTOS";;;"(57) (2) 2127390";"Cl 10 11-70 Esq Colombia, Cartago"
"UNY MOTOS LTDA.";;;"(57) (1) 2656983";"Tr 73D 8Av 1 de Mayo) No 38C-68 S Kenedyedy Colombia, Bogotá"
"MOTO SPEED LTDA.";;;"(57) (5) 3721205";"Cr40 42-41 Colombia, Barranquilla"
"ALAMO MOTORCYCLE PARTS";;;"(57) (1) 2188031";"Cr16 79-68 Colombia, Bogotá"
SUZUKI-MOTOMAX;;;"(57) (2) 6697298";"Cr4 13-19 Yumbo Colombia, Yumbo"
"First Name";"Email Address";Url;Telephone;Address
"CONTRERAS BAUTISTA GERMAN";;;"(57) (1) 3115865";"Cl 72 37-43 P-2 Colombia, Bogotá"
"EURO MOTOS";;;"(57) (5) 6816209";"Carrt Troncal Dg31 71-73 A-15 Sector El Biffi Colombia, Cartagena"
"MULTIMOTOS DEL SUR";;;"(57) (8) 8718594";"Cr5 14-77 Colombia, Neiva"
"RÉCORD MOTOS";;;"Conm.: (57) (8) 8716818";"Cr4 3-09 Colombia, Neiva"
"MOTO CRANK PARTES Y REPUESTOS";;;"(57) (8) 6621313";"Cl 34 26-19 Colombia, Villavicencio"
"ALMACÉN UM";;;"(57) (4) 2620100";"Cr50 37-19 Colombia, Medellín"
"ALMACÉN Y TALLER MORE";;;"(57) (4) 8391915";"Cl 20 20-07 Colombia, Caucasia"
"DIRCOMOTOS LTDA.";;;"(57) (8) 5128243";"Av Las Américas 5-43 Colombia, San Andrés"
"TALLER MOTO FOX";;;"(57) (4) 8393977";"Cr20 20-97 Colombia, Caucasia"
"ISLAMARÍN LTDA.";;;"(57) (1) 2627759";"Av1 de Mayo 69-20 Colombia, Bogotá"
"MULTIMOTOS LTDA.";;;"Nal: (57) (4) 3730119";"Cr50 A 38-30 Itaguí Colombia, Medellín"
"CICLOTALLER CAUCASIA";;;"(57) (4) 8393225";"Cr20 20 C-133 Colombia, Caucasia"
"SERVI-IMPORTADOS DE URABÁ";;;"(57) (4) 8286370";"Cr100 105-20 Colombia, Apartadó"
"ALMACEN SUPER MOTO";;;"(57) (5) 3589098";"Cl 76 54-11 Of 710 World Trade Center Colombia, Barranquilla"
"SIGMA MOTORS";;;"(57) (5) 3850808";"Cr43 69 E-05 Colombia, Barranquilla"
"ALMACÉN MOTO ROCK HOLE";;;"(57) (8) 5129211";"Cl 4 A 3-62 Colombia, San Andrés"
"DINÃMICO MOTOS S.A.S.";;;"(57) (1) 4595654";"Cr72 73 A-18 Colombia, Bogotá"
"FORROS SCREEN S.A.S.";;;"(57) (1) 5608480";"Cl 22 S 30-50 Ap 200 Colombia, Bogotá"
"SCOLL MOTOS";;;"(57) 3167410845";"Cr22 23-26 Colombia, Arauca"
"IMPORTADORA LA GAITANA LTDA.";;;"(57) (1) 5274057";"Cr18 A 162-35 Colombia, Bogotá"
"UNITED MOTORS";;;"(57) (5) 4232251";"Cl 24 11-44 Bolívar Colombia, Santa Marta"
"MOTOCICLETAS YAMAHA ZIPAQUIRÁ";;;"(57) (2) 8810736";"Cl 8 10-60 Colombia, Cali"
"DISTRIBUIDORA BENELLI S.A.S.";;;"(57) (1) 6179874";"Cl 126 60-05 Colombia, Bogotá"
"SU MOTO VALLE";;;"(57) (2) 5165725";"Cl 12 10-57 Jamundí Colombia, Jamundí"
"RACING SPORT";;;"(57) (2) 5569320";"Cr15 13-102 Colombia, Cali"
"CASA HONDA";;;"(57) (2) 3116698";"Cr15 13-74 Colombia, Cali"
AUTECO-MOTOMAX;;;"(57) (2) 4426911";"Cl 70 4-51 Colombia, Cali"
"KAWACENTRO LTDA.";;;"(57) (2) 2253131";"Cr23 25-44 Colombia, Tuluá"
"RISARALDA MOTOS S.A.S.";;;"(57) (6) 3348993";"Cr12 21-17 Colombia, Pereira"
"MOTOS QINGQI";;;"(57) (7) 6343567";"Cl 37 21-07 Colombia, Bucaramanga"
"VELOCIDAD SUR";;;"(57) (7) 6561541";"Cl 7 13-20 Piedecuesta Colombia, Piedecuesta"
MOTOCLINIC;;;"(57) (7) 6716712";"Cr16 18-64 Colombia, Bucaramanga"
"LUCKY LION MOTOS ELÉCTRICAS";;;"(57) (2) 6607217";"Av Vasquez Cobo 26 N-23 Colombia, Cali"
"RIOMOTOS LTDA.";;;"(57) (1) 8353856";"Cl 21 B 6-44 Colombia, Girardot"
TOLIMOTOS;;;"(57) (68) 8390160";"Cr6 11-39 Colombia, La Dorada"
"BUCAMOTOS AKT";;;"(57) (7) 6303526";"Cr21 34-49 Centro Colombia, Bucaramanga"
"JINCHENG MOTOS";;;"(57) (7) 6307090";"Cr 15 24-32 Colombia, Bucaramanga"
"TODO MOTOS";;;"(57) (4) 3231590";"Cr53 57-07 Itagüí Colombia, Itagüí"
"SUPER MOTOS LENIT";;;"(57) (4) 3426855";"Cl 29 74-60 Local 100 Colombia, Medellín"
"COMERCIALIZADORA ZONA FRANCA";;;"(57) (8) 8718940";"Cl 4 12-22 Colombia, Neiva"
"First Name";"Email Address";Url;Telephone;Address
"SERVI MOTOS EMPRESARIAL";;;"(57) (7) 6472695";"Dg15 54-09 Colombia, Bucaramanga"
"YAMAHA MOTOS GARZON";;;"(57) (8) 8331130";"Cr11 7-62 Colombia, Garzón"
"COMERCIALIZADORA ZONA FRANCA";;;"(57) (8) 8718940";"Cl 4 12-22 Colombia, Neiva"
"MOTO REPUESTOS LÍDER";;;"(57) (2) 4401961";"Cl 70 1 D-39 Colombia, Cali"
"FOX TUNING";;;"(57) (7) 6425945";"Cr14 A 45-99 Chorreras de Don Juan Colombia, Bucaramanga"
"FOTON CAMIONES Y TRACTORES";;;"Nal: (57) (7) 6905781";"Av QSeca 29-10 Colombia, Bucaramanga"
"PROMOTOS ALMACEN Y TALLER";;;"(57) (2) 3272297";"Cr46 37-85 Colombia, Cali"
"TRAX COLOMBIA";;;"(57) (2) 5581839";"Cl 13 N 19-59 Colombia, Cali"
"CENTRO MOTORS LTDA.";;;"Conm.: (57) (2) 2244544";"Cr40 26-50 Colombia, Tuluá"
"UKM DEL VALLE LTDA.";;;"(57) (2) 2750160";"Cl 29 Cr 29 Esquina Colombia, Palmira"
"HONDA LA MÁQUINA";;;"(57) (2) 2115511";"Cr12 10-48 Colombia, Cartago"
"SUZUKI MUNDO CROSS ORIENTE LTDA.";;;"(57) (7) 5747800";"Av11 E 5-09 Colsag Colombia, Cúcuta"
"TAPICERÍA DE MOTOS EL MONO DE LA 16";;;"(57) (1) 2838764";"Cr15 17-21 Colombia, Bogotá"
"COMPRAVENTA DE MOTOS LA CLARITA";;;"(57) (4) 2576648";"Cl 73 67-27 Colombia, Medellín"
"SERVI UTHECH LTDA.";;;"(57) (1) 4804000";"Cr30 17-36 Colombia, Bogotá"
"MOTOS YAIR";;;"(57) (1) 2802934";"Av Caracas 1 C-16 Colombia, Bogotá"
"IMPORTADORA Y DISTRIBUIDORA MAIN FORCE S.A.S.";;;"Telefax: (57) (1) 7531195";"Dg17 B 89 - 50 Trr 8 Ap 702 Colombia, Bogotá"
"DISMOTOS S&M S.A.S.";;;"Telefax: (57) (1) 2815325";"Cr15 16 - 17 Colombia, Bogotá"
"SUPERMOTOS DEL CESAR S.A";;;"(57) (5) 5743213";"Cl 17 14-07 Colombia, Valledupar"
"CENTRO DE SERVICIOS PATIA";;;"(57) (2) 7271836";"Cl Nueva Creación Colombia, Tumaco"
"CRÉDITOS J. GUIDHO";;;"(57) (2) 7210366";"Cr20 A 16-71 Colombia, Pasto"
"BERMOTOS S.A.";;;"(57) (1) 6155013";"Av (Cr)19 134-15 Esq Colombia, Bogotá"
"PLANET MOTOS";;;"(57) (2) 7215778";"Cr9 13 41 Las Lunas Colombia, Pasto"
AGROSUZUKI;;;"(57) (2) 7738517";"Cr7 12 A-85 Colombia, Ipiales"
AUTECO;;;"(57) (2) 7251447";"Cr 7 16-45 Colombia, Ipiales"
"TALLER DE MOTOS YOMOTOS PALMIRA";;;"(57) (2) 2715050";"Cr19 37-65 Colombia, Palmira"
HOTWHEELS;;;"(57) (4) 4133640";"Cr80 44-60 Colombia, Medellín"
"2 T RIDER";;;"(57) (4) 3326480";"Cl 37 S 34-20 Envigado Colombia, Envigado"
HALIFAX;;;"(57) (4) 4480912";"Cr42 35 S-35 L-130 Envigado Colombia, Medellín"
"CHINA MOTOS";;;"(57) (4) 2322121";"Cr55 40 A-14 Colombia, Medellín"
"COMPRAVENTA MOTOS LA 33";;;"(57) (4) 2651855";"Cl 33 65-74 Colombia, Medellín"
ESTOPAMOTOS;;;"(57) (4) 2320099";"Cl38 51-20 Colombia, Medellín"
"ELECTRICEL INDUSTRIAS";;;"(57) (4) 2316807";"Cl 57 52-08 L-203 Colombia, Medellín"
"CHATE MOTOCICLETAS";;;"(57) (2) 8893421";"Cr3 N 24 A-02 Colombia, Cali"
"SURTIMOTOS DEL SUR";;;"(57) (8) 8710778";"Cr4 2 A-20 Colombia, Neiva"
"JOTAMOTOS LTDA.";;;"(57) (1) 4343716";"Av81 78 A-27 Colombia, Bogotá"
"EMPAQUETADURAS AMÉRICA LTDA.";;;"(57) (4) 4833987";"Dg51 42-120 Bello Colombia, Bello"
"THERMOFORMADOS Y TROQUELADOS";;;"(57) (1) 4131268";"Cl 22H 110-57 P-2 Colombia, Bogotá"
"GARCÍA MARITZA";;;"(57) (1) 7138745";"Av1 de Mayo 28-08 Colombia, Bogotá"
"ALMACÉN Y TALLER MOTO VEGA";;;"(57) (76) 5652092";"Cr16 5-67 Colombia, Aguachica"
"First Name";"Email Address";Url;Telephone;Address
"TEAM FACTORY MOTOS";;;"(57) (4) 3417360";"Cl 30 81-51 Colombia, Medellín"
"TECNIMOTOS MEDELLÍN";;;"(57) (4) 2328843";"Cl 38 52 A-24 Colombia, Medellín"
"MOTO SERVICIOS VSPANEW";;;"(57) (1) 6055058";"Cr15 14-58 Colombia, Bogotá"
"EURO MOTOS";;;"(57) (5) 6816209";"Carrt Troncal Dg31 71-73 A-15 Sector El Biffi Colombia, Cartagena"
"ENERGY MOTION";;;"(57) (4) 2307877";"Cl 44 69-05 Colombia, Medellín"
"AKT SANTANDER";;;"(57) (7) 7274273";"Cr13 13-07 Centro Colombia, Socorro"
"ALL FOR MOTOS";;;"(57) (8) 5148980";"Pueblo Viejo Colombia, Providencia"
"ALMACÉN Y TALLER MOTOS LEO";;;"(57) 3172410617";"Cl Nueva Creación Parada 14 Colombia, Tumaco"
"HONDA DEL CAFÉ CALARCÁ";;;"(57) (6) 7434304";"Cr24 35-14 Colombia, Calarcá"
"MOTOPARTES TU DESVARE";;;"(57) (5) 3641427";"Cl 36 B 8 A-03 Colombia, Barranquilla"
"LA BODEGA DEL REPUESTO";;;"(57) (8) 6847969";"Manz L Casa 21 Villa Hermosa Colombia, Villavicencio"
"SURTIMOTOS WILLINTON";;;"(57) (8) 6667594";"Cl 35 17-24 Colombia, Villavicencio"
"MOTOCENTER HONDA";;;"(57) (7) 7245538";"Cr11 8-14 Colombia, San Gil"
"MOTOCICLETAS AUTECO";;;"(57) (7) 7247911";"Cr11 9-20 Colombia, San Gil"
"ALMACÉN Y TALLER CICLO PARTES";;;"(57) (4) 8253853";"Cr100 95-02 Colombia, Chigorodó"
"MOTOREPUESTOS NATA";;;"(57) (2) 8399743";"Cl 4 18-87 Colombia, Popayán"
FERREMOTOS;;;"(57) (5) 3621035";"Cr4 35 A-26 Las Palmas Colombia, Barranquilla"
"SUBA MOTOS";;;"(57) (1) 6821853";"Cl 139 98 B-16 Colombia, Bogotá"
"SCOOTERS DE COLOMBIA";;;"(57) (1) 7034364";"Cr8 B 106-19 Colombia, Bogotá"
"PLANETA MOTOS LTDA.";;;"(57) (1) 2991426";"Av 1 de Mayo 71 F-43 Colombia, Bogotá"
"GUAJIRA MOTOS";;;"(57) (5) 7282006";"Cl 15 1-116 L-2 Camilo Torres Colombia, Riohacha"
"ALMACÉN MOTO S.A.I.";;;"(57) (8) 5121907";"Av 20 de Julio 4-93 Colombia, San Andrés"
"SUZUMOTOR LTDA.";;;"(57) (1) 8613583";"Cl 14 9 A-18 Chía Colombia, Chía"
"CONCESIONARIO YAMAMOTOS YAMAHA";;;"(57) (7) 8852540";"Cr16 18-63 Colombia, Arauca"
"MOTOS DEL CAMINO E.U.";;;"(57) (1) 7273362";"Av (Cr) 80 42 G-20 S Colombia, Bogotá"
"SACHS BIKES";;;"(57) (2) 8808560";"Cr1 22 N-13 Colombia, Cali"
"DISTRIBUIDORA BENELLI S.A.S.";;;"(57) (1) 6179874";"Cl 126 60-05 Colombia, Bogotá"
"AKT DEL CHOCÓ";;;"(57) (4) 6717052";"Cr5 21-27 Colombia, Quibdó"
"MOTOS KEYMAN";;;"(57) (2) 5146890";"Cr15 12-84 Colombia, Cali"
"DISTRIMOTOS DEL PACÍFICO";;;"(57) (2) 2422469";"Cl 4 5 A-91 Naranjito Colombia, Buenaventura"
"DOS RUEDA DEL CESAR";;;"(57) (5) 5802424";"Dg21 18 D-75 Colombia, Valledupar"
TECNOLIGHT;;;"Nal: (57) (4) 2623073";"Cr48 36-37 - Medellín Colombia, Medellín"
"ALMACEN MERCANTIL MOTOS SUZUKI";;;"(57) (72) 7486196";"Cr9 10-07 Colombia, Barbosa"
"CDA MEDELLÍN S.A.S";;;"(57) (4) 5120666";"Cl 60 53-32 Colombia, Medellín"
"FX MOTORS PALMIRA";;;"(57) (2) 2713714";"Cr33 A 30-35 Colombia, Palmira"
YAMAFER;;;"(57) (7) 6526695";"Cl 45 21-26 Colombia, Bucaramanga"
"COMPRAVENTA DE MOTOS APRILIA";;;"(57) (7) 6343238";"Av La Rosita 24-7 Colombia, Bucaramanga"
ARISTIMOTOS;;;"(57) (4) 2811134";"Cr52 68-03 Itagüí Colombia, Itagüí"
"MOTO MELA 33";;;"(57) (4) 2352431";"Cl 33 65-32 Colombia, Medellín"
"COMERCIALIZADORA ANDINA J&C";;;"(57) (2) 7205190";"Cl 18 15-132 Navarrete Colombia, Pasto"
"First Name";"Email Address";Url;Telephone;Address
"ACEITAR LTDA";;;"(57) (1) 6373488";"Av127 20-79 Colombia, Bogotá"
"CLUB DEL MOTOCICLISTA LTDA.";;;"(57) (1) 2018651";"Cl 51 S 11 B-58 Colombia, Bogotá"
"KAWASTORE VALLEJO Y CÚA. S. EN C.";;;"(57) (1) 7020582";"Cl 127 45 - 61 Colombia, Bogotá"
"MOTO CASTRO";;;"(57) (4) 5121124";"Cl 56 52-75 Colombia, Medellín"
"MOTOS DEL DARIÉN S.A.";;;"(57) (4) 8274384";"Cr14 105-07 Colombia, Turbo"
"SANTA FÉ MOTOR";;;"(57) (4) 8534146";"Cr10 10-43 Colombia, Santa Fe de Antioquia"
"GF MOTORS";;;"(57) (1) 4933390";"Av (Cl) 127 48-53 Colombia, Bogotá"
"MOTOCICLETAS DAYANG MOTOS Y REPUESTOS";;;"(57) (5) 3286680";"Cl 99 6-05 100 Mts antes del Puente Circunvalar Colombia, Barranquilla"
"MOREMOTOS INTERNATIONAL S.A.S.";;;"(57) (1) 3347159";"Cr15 15-56 Colombia, Bogotá"
"O.V. MOTOS";;;"(57) (2) 5578261";"Cl 13 17-51 Colombia, Cali"
"AKT DEL CHOCÓ";;;"(57) (4) 6717052";"Cr5 21-27 Colombia, Quibdó"
"DISTRITO MOTOS SUZUKI";;;"(57) (2) 4496579";"Cr27 72 Y-32 Colombia, Cali"
"CASA HONDA";;;"(57) (2) 3116698";"Cr15 13-74 Colombia, Cali"
"MOTOCARROS DEL CARIBE S.A.S.";;;"(57) (5) 3562449";"Cr46 74-16 P-2 Of 11 Colombia, Barranquilla"
"MOTO INDUSTRIAS RACING";;;"(57) (7) 5772985";"Av11 AE 10 B N-11 Guaimaral Colombia, Cúcuta"
"CONCESIONARIO SUZUKI MUNDO CROSS LTDA.";;;"(57) (7) 6521460";"Cr15 24-07 Colombia, Bucaramanga"
"LUCKY LION MOTOS ELÉCTRICAS";;;"(57) (2) 6607217";"Av Vasquez Cobo 26 N-23 Colombia, Cali"
"BOLÍVAR LUZ DARY";;;"(57) (8) 2520983";"Cl 7 6-98 Mariquita Colombia, Mariquita"
"MOTO AMIGO";;;"(57) (2) 7202146";"Cr14 18 A-52 Fátima Colombia, Pasto"
"NEIVA MOTOS HONDAS";;;"(57) (8) 8719907";"Cr5 13-11 C.C. El Cedral Colombia, Neiva"
RIOMOTOR;;;"Nal: (57) (4) 5552199";"Cr20 22-31 Colombia, Medellín"
"GRUPO JINCHENG DE COLOMBIA";;;"Telefax: (57) (2) 8839065";"Cr1 21-40 Colombia, Cali"
"MOTO MANIA";;;"(57) (4) 2612120";"Cr44 38-53 Colombia, Medellín"
LUBRIMONTOYA;;;"(57) (4) 4746594";"Cl 50 81-48 Colombia, Medellín"
"REMATES DIXON";;;"(57) (1) 2037359";"Av 1° Mayo 29-66 Colombia, Bogotá"
"AUTECO SUMOTO S.A.";;;"(57) (2) 7214297";"Cr19 16-55 Las Américas Colombia, Pasto"
"CRÉDITOS J. GUIDHO";;;"(57) (2) 7210366";"Cr20 A 16-71 Colombia, Pasto"
INDUSEL;;;"(57) (4) 5483575";"Cl 26 36-23 Marinilla Colombia, Medellín"
"MACROINVERSIONES J.D. LTDA.";;;"(57) (1) 2316263";"Cr29 B 71 C-61 Colombia, Bogotá"
"ALMACÉN MOTOTECA";;;"(57) (5) 2826910";"Cl 20 22-62 Colombia, Sincelejo"
"AUTECO KAWASAKI CONCESIONARIO";;;"(57) (8) 8376215";"Cr3 E 8 B-67 Los Libertadores Colombia, La Plata"
"LLANURA MOTOS CONCESIONARIO CIALING";;;"(57) (8) 6500500";"Cr13 13-39 Centro Colombia, Granada"
"MOTO SERVICIOS LA 72";;;"(57) (4) 2818162";"Cr52 D 74-37 Itagüí Colombia, Itagüí"
"CALI BOBBER S.A.S.";;;"(57) (2) 4850010";"Cr7 A 24-62 Colombia, Cali"
"MOTO VARGAS";;;"(57) (1) 2380420";"Av 1 de Mayo 68 F-19 Colombia, Bogotá"
"ALMACÉN EXTRA";;;"(57) (4) 8332748";"Cr2 51-07 Colombia, Puerto Berrío"
"LEONARDO GOMEZ MOTO TALLER";;;"(57) (5) 5749058";"Cl 16 B 9-59 Colombia, Valledupar"
"MOTOS DE LOS NDES";;;"(57) (1) 2500229";"Cl 66 26-11 Colombia, Bogotá"
"ROYAL ENFIELD";;;"(57) (1) 6346616";"Av (Cr) 15 86 25 L-2 Colombia, Bogotá"
"ALGOMOTOS S.A.S.";;;"(57) (2) 2744328";"Cl 42 34 B-39 Colombia, Palmira"
"First Name";"Email Address";Url;Telephone;Address
"BOLIVAR MOTORCYCLES S.A.S.";;;"Conm.: (57) (4) 3110702";"Cr39 7-105 Colombia, Medellín"
"SU MOTO DEL CAUCA";;;"(57) (4) 8393195";"Cr20 20-33 Colombia, Caucasia"
"MOTODIQUE S.A.";;;"(57) (5) 6816462";"Dg31 78-28 Colombia, Cartagena"
"SUPERMOTOS DEL VALLE S.A";;;"(57) (2) 2726679";"Cl 29 27-43 Colombia, Palmira"
"ALMACÉN MOTOWORK";;;"(57) (6) 3330428";"Cr12 12-03 San José Colombia, Pereira"
"MOTO NIQUÍA";;;"(57) (4) 4678271";"Av45 55-06 Bello Colombia, Bello"
"GRUPO JINCHENG DE COLOMBIA";;;"Telefax: (57) (2) 8839065";"Cr1 21-40 Colombia, Cali"
VALLEMOTOS;;;"(57) (2) 8213100";"Cr9 8 N-79 Colombia, Popayán"
"MOTOVISION PASTO";;;"(57) (2) 7214302";"Cl 17 17-71 Colombia, Pasto"
"JEREMY MOTOS";;;"(57) (7) 6472695";"Cr9 43-75 Colombia, Bucaramanga"
"ALMACÉN SUZUKI MOTOS MAURO";;;"(57) (4) 4480740";"Cr81 42 C-35 Colombia, Medellín"
"EUROPAMOTOS LTDA.";;;"(57) (1) 2353145";"Cl 72 21-02 Colombia, Bogotá"
"KAZUKI MOTORS S.A.";;;"(57) (8) 6706760";"Cr29 35-77 Av Alfonso López Centro Colombia, Villavicencio"
"TU MOTO SHOP";;;"(57) (8) 8710227";"Cl 4 7-47 Colombia, Neiva"
"AKT MOTOS";;;"(57) (4) 7956787";"Cl 29 10-07 Centro Colombia, Montería"
"ALMACÉN SUZUKI";;;"(57) (8) 8333715";"Cr11 7-74 Colombia, Garzón"
"KING ALUMINUM";;;"(57) (4) 2629177";"Cl 38 51-13 Colombia, Medellín"
"MOTOMAX DE BOYACÁ S.A.";;;"(57) (1) 8621464";"Cr9 16-72 Chía Colombia, Chía"
"MOTO RACING VILLAVICENCIO";;;"(57) (8) 6725774";"Cl 34 27-08 Colombia, Villavicencio"
"MOTOS DEL DARIÉN S.A.";;;"(57) (4) 8274384";"Cr14 105-07 Colombia, Turbo"
"SUZUKI MOTOS & REPUESTOS";;;"(57) (5) 4242251";"Cl 17 13-02 Colombia, Ciénaga"
"KEENWAY POPAYÁN";;;"(57) (2) 8319298";"Cr9 18 N-359 Colombia, Popayán"
"FAZULES COMERCIALIZADORA INTERNACIONAL";;;"(57) (7) 8851515";"Cl 15 12-77 Meridiano 70 Colombia, Arauca"
"MOTOCOR SAHAGÚN";;;"(57) (4) 7588384";"Cl 18 4-07 Av al Hospital Colombia, Sahagún"
MOTOCOR;;;"(57) (4) 7826991";"Cl 32 3-48 Colombia, Montería"
BEMOTOS;;;"(57) (2) 5578261";"Cl 13 17-51 Colombia, Cali"
"MOTO FACTORY";;;"(57) (7) 8859072";"Cl 27 17-28 San Luis Colombia, Arauca"
"MUNDIAL MOTOS S.A.S.";;;"Nal: (57) (4) 3661763";"Cl 51 53-10 Colombia, Medellín"
"CLUB MOTORALLY";;;"(57) (7) 6429926";"Cr14 30-62 Centro Colombia, Bucaramanga"
"COMPRA VENTA DE MOTOS";;;"(57) (4) 2303876";"Tr51 A 67-67 Colombia, Medellín"
"MOTOCICLETAS GERARDO URREGO KAWASAKI";;;"(57) (7) 6224956";"Cr15 49-39 Colombia Colombia, Barrancabermeja"
"MOTO CUSTOM CORNER";;;"(57) (1) 5445899";"Cr 23 69-35 Colombia, Bogotá"
"MOTOSTELAR S.A.S";;;"(57) (2) 6673413";"Av 3 N 22 N-35 Colombia, Cali"
"ALMACEN JERRY MOTOS";;;"(57) (7) 6702556";"Cr17 B 48-35 Colombia, Bucaramanga"
"CASTAÑO MOTOS S.A.S.";;;"Telefax: (57) (1) 4028506";"Cr79 B 2 - 04 P-1 Colombia, Bogotá"
"LONDOÑO CARVAJAL PABLO EMILIO";;;"(57) (1) 2795091";"Cl 50 A S 5 T-77 Colombia, Bogotá"
"SU MOTO DE LA SABANA S.A.";;;"(57) (1) 4264815";"Cl 17 10-64 Colombia, Bogotá"
"MOTO KART";;;"(57) (7) 6308910";"Cr21 36-51 Colombia, Bucaramanga"
"ROYAL ENFIELD";;;"(57) (1) 6346616";"Av (Cr) 15 86 25 L-2 Colombia, Bogotá"
"DUCATI COLOMBIA S.A.";;;"(57) (1) 6168700";"Av 19 100-71 Colombia, Bogotá"
"First Name";"Email Address";Url;Telephone;Address
"CASA AGRONÁUTICA S.A.S.";;;"(57) (2) 2423332";"Cl 2 8-43 La Virgen Colombia, Buenaventura"
"ALMACÉN Y TALLER CICLO PARTES";;;"(57) (4) 8253853";"Cr100 95-02 Colombia, Chigorodó"
"HONDA CONCESIONARIO YOKO MOTOS";;;"(57) (4) 6708656";"Cl 24 5-42 Colombia, Quibdó"
"CRÉDITOS PARRA";;;"(57) (8) 5927237";"Cl 7 10-33 Colombia, Leticia"
"SERVIMAX MOTOS LTDA.";;;"(57) (5) 4203935";"Av del Libertador 27-195 L-14 C.C Bastidas Colombia, Santa Marta"
"DISMERCA DEL SUR";;;"(57) (4) 4489848";"Cr 43 A 35 Sur-17 Envigado Colombia, Envigado"
"SUZUKI MOTOS & REPUESTOS";;;"(57) (5) 6561615";"Av Pedro de Heredia 18 A-9 frente al Castillo Colombia, Cartagena"
"MOTOS Y REPUESTOS";;;"(57) (2) 3378093";"Cr39 34-58 Colombia, Cali"
"DISTRIMOTOS DEL VALLE YAMAHA";;;"(57) (2) 2750303";"Cl 31 34-28 Colombia, Palmira"
"HONDA COLOMBIA";;;"Nal: (57) (4) 2345393";"Cl 50 77 B-119 Colombia, Medellín"
"KAWACENTRO LTDA.";;;"(57) (2) 2253131";"Cr23 25-44 Colombia, Tuluá"
"CDA MEDELLÍN S.A.S";;;"(57) (4) 5120666";"Cl 60 53-32 Colombia, Medellín"
"MOTO FACTORY";;;"(57) (2) 5543207";"Cr20 9 E-45 Colombia, Cali"
"MOTO INDUSTRIAS RACING";;;"(57) (7) 5772985";"Av11 AE 10 B N-11 Guaimaral Colombia, Cúcuta"
"ALMACEN MOTOR MOTOS";;;"(57) (7) 6356383";"Cl 21 19-21 Colombia, Bucaramanga"
"CONCESIONARIO SUZUKI MUNDO CROSS LTDA.";;;"(57) (7) 6521460";"Cr15 24-07 Colombia, Bucaramanga"
"MOTOS QINGQI";;;"(57) (7) 6343567";"Cl 37 21-07 Colombia, Bucaramanga"
"COMPRAVENTA TATAN";;;"(57) (7) 6520629";"Cr21 53-09 Colombia, Bucaramanga"
"ALMACÉN Y TALLER LAS MOTOS";;;"(57) (8) 2515570";"Cr12 21-08 Colombia, Honda"
"YAMAHA DISYAMOTOS";;;"(57) 3132520512";"Cr14 11 N-62 Colombia, Armenia"
"SERVICIO TECNICO MEDINA MOTOS";;;"(57) (7) 6421656";"Cr22 47-21 Colombia, Bucaramanga"
"T.N.T. MOTOS";;;"(57) (4) 4114469";"Cl 44 73-53 Colombia, Medellín"
"MIGUEL ANGEL SALA DE BELLEZA";;;"(57) (2) 3340839";"Cl 12 41 C-21 Colombia, Cali"
"TALLER DE MOTOS";;;"(57) (8) 8712246";"Cr2 1-32 Colombia, Neiva"
"MOTO MONTAÑA DEL SUR";;;"(57) (28) 8278757";"Cl 17 20-31 Timbío Colombia, Timbío"
"MOTOS LA AVENIDA";;;"(57) (1) 8902986";"Cr2 9-59 P 1 Facatativá Colombia, Bogotá"
"GÓMEZ T. E HIJOS S EN CS GT MOTOS";;;"Conm.: (57) (2) 8810200";"Cl 22 6 A N-39 Colombia, Cali"
"ALMACÉN Y TALLER J.N MOTOR'S";;;"(57) (7) 6850681";"Dg15 50-79 La Concordia Colombia, Bucaramanga"
"MOTOS LA 66";;;"(57) (2) 2748947";"Cl 66 28-261 Colombia, Palmira"
"CLINI RING";;;"(57) (2) 8852493";"Cl 21 11 D-13 Colombia, Cali"
"MOTOTK DEL NORTE LTDA.";;;"(57) (7) 5832078";"Av1 7-30 Latino Colombia, Cúcuta"
"EMPAQUETADURA DE MOTOS GASCO";;;"(57) (7) 5746410";"Dg Santander 0-86 P-2 Lleras Restrepo Colombia, Cúcuta"
MOTOSELVA;;;"(57) (1) 4301041";"Av Boyacá 68 B-71 Colombia, Bogotá"
TOYOMOTORS;;;"(57) (1) 5406969";"Cl 67 26-28 Colombia, Bogotá"
"IMPORMOTOS G & G S.A.S.";;;"Telefax: (57) (1) 6835739";"Cl 130 A 104 - 06 Colombia, Bogotá"
VALLEMOTOS;;;"(57) (2) 8213100";"Cr9 8 N-79 Colombia, Popayán"
"TEKNIMOTOS LTDA.";;;"(57) (2) 8387079";"Cl 3 17-16 Brr. Pandiguando Colombia, Popayán"
"SUZUKI SÚPER SERVICIO";;;"(57) (4) 2626221";"Cl 36 46-36 Colombia, Medellín"
HALIFAX;;;"(57) (4) 4480912";"Cr42 35 S-35 L-130 Envigado Colombia, Medellín"
"M S R MOTOS";;;"(57) (4) 2707321";"Cr42 33 B S-04 Envigado Colombia, Envigado"
"First Name";"Email Address";Url;Telephone;Address
"KAWASAKI 10";;;"(57) (4) 2688688";"Cl 10 A 40-13 Colombia, Medellín"
DAGAMOTOS;;;"(57) (4) 5110471";"Cr52 56-02 Colombia, Medellín"
"CHATE MOTOCICLETAS";;;"(57) (2) 8893421";"Cr3 N 24 A-02 Colombia, Cali"
"CDA DEL CAQUETÁ LTDA.";;;"(57) (8) 4355452";"Cr17 14-63 La Vega Colombia, Florencia"
